{"type":"FeatureCollection","features":[{"type":"Feature","properties":{"id":"abia/aba-north","name":"Aba North","state":"Abia"},"geometry":{"type":"Polygon","coordinates":[[[7.3279,5.1001],[7.3346,5.1001],[7.3436,5.1001],[7.3481,5.1046],[7.3571,5.1113],[7.3638,5.1158],[7.3683,5.1203],[7.3773,5.1181],[7.3818,5.1158],[7.384,5.1113],[7.3863,5.1001],[7.3885,5.0889],[7.3885,5.0821],[7.3863,5.0732],[7.3863,5.0642],[7.3863,5.0597],[7.393,5.0619],[7.3975,5.0709],[7.3998,5.0799],[7.402,5.0889],[7.402,5.0979],[7.402,5.1046],[7.3975,5.1136],[7.393,5.1203],[7.3885,5.1271],[7.3818,5.1338],[7.3706,5.1338],[7.3661,5.1338],[7.3616,5.1316],[7.3324,5.1136],[7.3212,5.1024],[7.3279,5.1001]]]}},{"type":"Feature","properties":{"id":"abia/aba-south","name":"Aba South","state":"Abia"},"geometry":{"type":"Polygon","coordinates":[[[7.3144,5.0552],[7.3257,5.053],[7.3369,5.053],[7.3504,5.053],[7.3683,5.0552],[7.3773,5.0574],[7.3818,5.0597],[7.3863,5.0597],[7.3863,5.0642],[7.3863,5.0732],[7.3885,5.0821],[7.3885,5.0889],[7.3863,5.1001],[7.384,5.1113],[7.3818,5.1158],[7.3773,5.1181],[7.3683,5.1203],[7.3638,5.1158],[7.3571,5.1113],[7.3481,5.1046],[7.3436,5.1001],[7.3346,5.1001],[7.3279,5.1001],[7.3212,5.1024],[7.3189,5.1001],[7.3144,5.0934],[7.3122,5.0866],[7.3099,5.0799],[7.3077,5.0777],[7.3077,5.0687],[7.3077,5.0619],[7.3144,5.0552]]]}},{"type":"Feature","properties":{"id":"abia/arochukwu","name":"Arochukwu","state":"Abia"},"geometry":{"type":"Polygon","coordinates":[[[7.6356,5.5919],[7.6423,5.5785],[7.6513,5.5627],[7.6603,5.5538],[7.676,5.5358],[7.6827,5.5291],[7.6917,5.5246],[7.6962,5.5178],[7.7052,5.5178],[7.7097,5.5133],[7.7142,5.5111],[7.7164,5.5133],[7.7187,5.5133],[7.7232,5.5156],[7.7276,5.5156],[7.7299,5.5178],[7.7344,5.5178],[7.7434,5.5178],[7.7479,5.5156],[7.7523,5.5156],[7.7546,5.5133],[7.7568,5.5111],[7.7591,5.5088],[7.7591,5.5043],[7.7591,5.4999],[7.7591,5.4931],[7.7613,5.4909],[7.7613,5.4886],[7.7658,5.4819],[7.7681,5.4796],[7.7748,5.4774],[7.7748,5.4752],[7.7771,5.4729],[7.7793,5.4707],[7.7815,5.4684],[7.7838,5.4617],[7.7838,5.4572],[7.7883,5.4437],[7.7928,5.4392],[7.8085,5.428],[7.822,5.4235],[7.8377,5.4213],[7.8512,5.4213],[7.8557,5.4235],[7.8601,5.4213],[7.8646,5.4213],[7.8646,5.419],[7.8669,5.4123],[7.8691,5.4078],[7.8714,5.4033],[7.8736,5.3988],[7.8759,5.3943],[7.8848,5.3853],[7.8759,5.3696],[7.8804,5.3674],[7.8893,5.3651],[7.9028,5.3629],[7.9208,5.3606],[7.9343,5.3584],[7.941,5.3584],[7.9634,5.3561],[7.9724,5.3539],[7.9769,5.3539],[7.9837,5.3561],[7.9859,5.3584],[7.9859,5.3606],[7.9882,5.3629],[7.9859,5.3696],[7.9837,5.3763],[7.9792,5.3898],[7.9724,5.3988],[7.9634,5.4168],[7.959,5.4325],[7.9567,5.437],[7.9545,5.4415],[7.95,5.4482],[7.9432,5.4572],[7.9387,5.4617],[7.9343,5.4684],[7.932,5.4774],[7.923,5.4999],[7.9208,5.5088],[7.914,5.5201],[7.9073,5.5358],[7.9073,5.5515],[7.9073,5.5605],[7.9051,5.565],[7.9051,5.5695],[7.9006,5.5627],[7.8961,5.5515],[7.8871,5.547],[7.8736,5.5448],[7.8579,5.5403],[7.8422,5.5335],[7.8242,5.5201],[7.8152,5.5111],[7.8085,5.5066],[7.8062,5.5111],[7.804,5.5223],[7.804,5.5358],[7.8018,5.547],[7.795,5.5582],[7.7905,5.5762],[7.7838,5.5942],[7.7793,5.6099],[7.7726,5.6256],[7.7546,5.6638],[7.7501,5.6728],[7.7366,5.6795],[7.7209,5.6818],[7.7097,5.684],[7.7007,5.6773],[7.6895,5.6705],[7.676,5.6705],[7.6648,5.6728],[7.6558,5.6773],[7.6558,5.6683],[7.6693,5.6548],[7.676,5.6503],[7.6805,5.6436],[7.6782,5.6301],[7.6737,5.6234],[7.6648,5.6211],[7.658,5.6211],[7.649,5.6166],[7.6401,5.6099],[7.6333,5.6009],[7.6356,5.5919]]]}},{"type":"Feature","properties":{"id":"abia/bende","name":"Bende","state":"Abia"},"geometry":{"type":"Polygon","coordinates":[[[7.4739,5.6885],[7.4761,5.6818],[7.4784,5.6683],[7.4918,5.6481],[7.5031,5.6346],[7.5143,5.6121],[7.5278,5.6032],[7.5502,5.5897],[7.5727,5.5785],[7.5794,5.5672],[7.5817,5.5538],[7.5794,5.5403],[7.5817,5.5268],[7.5772,5.5111],[7.5951,5.5066],[7.6064,5.5066],[7.6198,5.4999],[7.6243,5.4954],[7.6243,5.4909],[7.6288,5.4796],[7.6333,5.4707],[7.6423,5.4527],[7.6513,5.4415],[7.6535,5.4437],[7.6558,5.4437],[7.6558,5.446],[7.6603,5.4482],[7.667,5.4482],[7.6693,5.446],[7.6715,5.4437],[7.6737,5.4415],[7.676,5.4415],[7.6782,5.4392],[7.6962,5.4347],[7.7007,5.4392],[7.7029,5.4639],[7.7052,5.4796],[7.7052,5.4819],[7.7052,5.4864],[7.7029,5.4909],[7.7007,5.4931],[7.6985,5.4954],[7.694,5.4976],[7.694,5.4999],[7.6917,5.5021],[7.6895,5.5066],[7.6917,5.5111],[7.694,5.5156],[7.6962,5.5178],[7.6917,5.5246],[7.6827,5.5291],[7.676,5.5358],[7.6603,5.5538],[7.6513,5.5627],[7.6423,5.5785],[7.6356,5.5919],[7.6333,5.6009],[7.6401,5.6099],[7.649,5.6166],[7.658,5.6211],[7.6648,5.6211],[7.6737,5.6234],[7.6782,5.6301],[7.6805,5.6436],[7.676,5.6503],[7.6693,5.6548],[7.6558,5.6683],[7.6558,5.6773],[7.658,5.6795],[7.6648,5.693],[7.6827,5.7222],[7.6917,5.7357],[7.7007,5.7424],[7.7052,5.7491],[7.7097,5.7581],[7.7097,5.7671],[7.7142,5.7806],[7.7142,5.803],[7.7142,5.8098],[7.7142,5.8188],[7.685,5.8232],[7.658,5.8232],[7.6311,5.8255],[7.6176,5.8277],[7.6041,5.83],[7.5839,5.8367],[7.566,5.8435],[7.5525,5.8435],[7.548,5.83],[7.5457,5.821],[7.5457,5.812],[7.548,5.794],[7.5525,5.7896],[7.5592,5.7828],[7.5637,5.7761],[7.5682,5.7604],[7.5682,5.7491],[7.5682,5.7379],[7.5637,5.7244],[7.5637,5.7154],[7.5615,5.7132],[7.5457,5.7132],[7.5278,5.7132],[7.5076,5.711],[7.4851,5.7042],[7.4671,5.6997],[7.4739,5.6885]]]}},{"type":"Feature","properties":{"id":"abia/ikwuano","name":"Ikwuano","state":"Abia"},"geometry":{"type":"Polygon","coordinates":[[[7.5098,5.428],[7.5121,5.41],[7.5098,5.4033],[7.5098,5.3898],[7.5098,5.3808],[7.5121,5.3718],[7.5255,5.3651],[7.539,5.3629],[7.548,5.3584],[7.5525,5.3539],[7.5525,5.3471],[7.548,5.3449],[7.5435,5.3449],[7.5368,5.3449],[7.5278,5.3404],[7.5188,5.3382],[7.5188,5.3314],[7.521,5.3224],[7.5278,5.3179],[7.53,5.3157],[7.5323,5.3135],[7.5412,5.309],[7.5435,5.309],[7.5457,5.309],[7.5502,5.3067],[7.5525,5.3067],[7.557,5.3067],[7.5592,5.309],[7.5615,5.309],[7.5615,5.3135],[7.5637,5.3179],[7.566,5.3202],[7.5682,5.3224],[7.5727,5.3247],[7.5749,5.3247],[7.5794,5.3224],[7.5817,5.3224],[7.5839,5.3202],[7.5884,5.3179],[7.5907,5.3179],[7.5951,5.3202],[7.5974,5.3224],[7.6086,5.3224],[7.6109,5.3202],[7.6176,5.3179],[7.6221,5.3179],[7.6266,5.3179],[7.6446,5.3247],[7.649,5.3247],[7.6513,5.3292],[7.6558,5.3337],[7.658,5.3359],[7.6625,5.3404],[7.6648,5.3449],[7.667,5.3471],[7.676,5.3696],[7.6782,5.3808],[7.6782,5.3831],[7.676,5.3853],[7.676,5.3876],[7.6648,5.3921],[7.6625,5.3921],[7.658,5.3921],[7.6558,5.3921],[7.649,5.3898],[7.6468,5.3876],[7.6446,5.3853],[7.6401,5.3831],[7.6378,5.3808],[7.6333,5.3786],[7.6311,5.3786],[7.6288,5.3786],[7.6266,5.3786],[7.6243,5.3808],[7.6243,5.3831],[7.6243,5.3853],[7.6243,5.3876],[7.6266,5.3876],[7.6266,5.3898],[7.6288,5.3921],[7.6311,5.3966],[7.6333,5.4055],[7.6333,5.4078],[7.6333,5.4123],[7.6333,5.4145],[7.6333,5.419],[7.6356,5.4213],[7.6356,5.4257],[7.6401,5.4302],[7.6401,5.4325],[7.6423,5.4347],[7.6468,5.437],[7.649,5.437],[7.6513,5.4415],[7.6423,5.4527],[7.6333,5.4707],[7.6288,5.4796],[7.6243,5.4909],[7.6243,5.4954],[7.6198,5.4999],[7.6064,5.5066],[7.5951,5.5066],[7.5772,5.5111],[7.5749,5.5133],[7.5615,5.5111],[7.5525,5.5088],[7.5435,5.5021],[7.5345,5.4819],[7.53,5.4617],[7.5255,5.4482],[7.5165,5.4392],[7.5076,5.4347],[7.5098,5.428]]]}},{"type":"Feature","properties":{"id":"abia/isiala-ngwa-north","name":"Isiala-Ngwa North","state":"Abia"},"geometry":{"type":"Polygon","coordinates":[[[7.2785,5.2349],[7.2942,5.2349],[7.3077,5.2416],[7.3391,5.2753],[7.3504,5.2932],[7.3661,5.309],[7.3751,5.3112],[7.384,5.3067],[7.3885,5.2955],[7.3885,5.282],[7.3885,5.273],[7.3885,5.2618],[7.3885,5.2528],[7.3863,5.2393],[7.384,5.2236],[7.384,5.2079],[7.384,5.2012],[7.4043,5.1967],[7.4087,5.1989],[7.4245,5.1989],[7.4424,5.2102],[7.4469,5.2146],[7.4604,5.2214],[7.4918,5.2596],[7.4963,5.2753],[7.4963,5.2865],[7.5031,5.2977],[7.4986,5.3022],[7.4963,5.3112],[7.4986,5.3247],[7.5031,5.3337],[7.5076,5.3471],[7.5031,5.3539],[7.4963,5.3539],[7.4851,5.3584],[7.4649,5.3584],[7.4402,5.3584],[7.42,5.3584],[7.411,5.3539],[7.402,5.3539],[7.3885,5.3539],[7.3728,5.3494],[7.3638,5.3449],[7.3481,5.3449],[7.3212,5.3449],[7.3032,5.3471],[7.301,5.3427],[7.2942,5.3314],[7.2942,5.3292],[7.292,5.3269],[7.292,5.3247],[7.292,5.3202],[7.292,5.3112],[7.292,5.3067],[7.292,5.3045],[7.2897,5.3022],[7.2875,5.2955],[7.2852,5.291],[7.283,5.2865],[7.2785,5.2775],[7.2785,5.2753],[7.2785,5.273],[7.2762,5.2596],[7.2762,5.2551],[7.274,5.2528],[7.2695,5.2461],[7.2673,5.2416],[7.2673,5.2393],[7.2785,5.2349]]]}},{"type":"Feature","properties":{"id":"abia/isiala-ngwa-south","name":"Isiala-Ngwa South","state":"Abia"},"geometry":{"type":"Polygon","coordinates":[[[7.3212,5.3449],[7.3481,5.3449],[7.3638,5.3449],[7.3728,5.3494],[7.3885,5.3539],[7.402,5.3539],[7.411,5.3539],[7.42,5.3584],[7.4402,5.3584],[7.4649,5.3584],[7.4851,5.3584],[7.4963,5.3539],[7.5031,5.3539],[7.5076,5.3471],[7.5031,5.3337],[7.4986,5.3247],[7.4963,5.3112],[7.4986,5.3022],[7.5031,5.2977],[7.5098,5.3],[7.5121,5.3022],[7.521,5.3045],[7.5278,5.3045],[7.5345,5.3045],[7.5412,5.309],[7.5323,5.3135],[7.53,5.3157],[7.5278,5.3179],[7.521,5.3224],[7.5188,5.3314],[7.5188,5.3382],[7.5278,5.3404],[7.5368,5.3449],[7.5435,5.3449],[7.548,5.3449],[7.5525,5.3471],[7.5525,5.3539],[7.548,5.3584],[7.539,5.3629],[7.5255,5.3651],[7.5121,5.3718],[7.5098,5.3808],[7.5098,5.3898],[7.5098,5.4033],[7.5121,5.41],[7.5098,5.428],[7.5076,5.4347],[7.4941,5.4437],[7.4784,5.4527],[7.4559,5.4572],[7.4335,5.4572],[7.4222,5.4594],[7.4043,5.4617],[7.3908,5.4639],[7.3818,5.4684],[7.3728,5.4752],[7.3706,5.4729],[7.3661,5.4684],[7.3638,5.4662],[7.3616,5.4594],[7.3616,5.4549],[7.3593,5.4527],[7.3593,5.4504],[7.3571,5.446],[7.3549,5.4437],[7.3504,5.4437],[7.3481,5.4437],[7.3481,5.4415],[7.3436,5.4392],[7.3391,5.4347],[7.3369,5.4325],[7.3346,5.4302],[7.3324,5.4235],[7.3234,5.41],[7.3234,5.4078],[7.3212,5.4055],[7.3234,5.3966],[7.3234,5.3876],[7.3212,5.3831],[7.3167,5.3674],[7.3144,5.3629],[7.3122,5.3606],[7.3077,5.3606],[7.3054,5.3584],[7.3032,5.3516],[7.3032,5.3471],[7.3212,5.3449]]]}},{"type":"Feature","properties":{"id":"abia/isuikwato","name":"Isuikwato","state":"Abia"},"geometry":{"type":"Polygon","coordinates":[[[7.3885,5.8502],[7.3885,5.8479],[7.3908,5.8412],[7.393,5.8345],[7.393,5.83],[7.393,5.8188],[7.393,5.7896],[7.3953,5.7761],[7.3953,5.7693],[7.3953,5.7604],[7.3953,5.7559],[7.3953,5.7536],[7.3953,5.7469],[7.3953,5.7446],[7.3953,5.7357],[7.3975,5.7289],[7.3998,5.7244],[7.3998,5.7199],[7.3998,5.7177],[7.3998,5.7132],[7.411,5.7087],[7.4222,5.7065],[7.4402,5.702],[7.4492,5.7042],[7.4671,5.6997],[7.4851,5.7042],[7.5076,5.711],[7.5278,5.7132],[7.5457,5.7132],[7.5615,5.7132],[7.5637,5.7154],[7.5637,5.7244],[7.5682,5.7379],[7.5682,5.7491],[7.5682,5.7604],[7.5637,5.7761],[7.5592,5.7828],[7.5525,5.7896],[7.548,5.794],[7.5457,5.812],[7.5457,5.821],[7.548,5.83],[7.5525,5.8435],[7.5457,5.8457],[7.539,5.8502],[7.539,5.8592],[7.539,5.8749],[7.5412,5.8906],[7.539,5.9063],[7.5188,5.9086],[7.4918,5.9086],[7.4806,5.9063],[7.4671,5.9041],[7.4537,5.9086],[7.4402,5.9108],[7.429,5.9153],[7.4177,5.9176],[7.402,5.9153],[7.3953,5.9108],[7.3953,5.9086],[7.3975,5.9041],[7.3953,5.8996],[7.3953,5.8951],[7.393,5.8929],[7.393,5.8906],[7.3908,5.8861],[7.3885,5.8794],[7.3885,5.8704],[7.3863,5.8659],[7.3863,5.8637],[7.3863,5.8614],[7.3863,5.8592],[7.3863,5.8547],[7.3885,5.8502]]]}},{"type":"Feature","properties":{"id":"abia/obioma-ngwa","name":"Obioma Ngwa","state":"Abia"},"geometry":{"type":"Polygon","coordinates":[[[7.3661,5.136],[7.3661,5.1338],[7.3706,5.1338],[7.3818,5.1338],[7.3885,5.1271],[7.393,5.1203],[7.3975,5.1136],[7.402,5.1046],[7.402,5.0979],[7.402,5.0889],[7.3998,5.0799],[7.3975,5.0709],[7.393,5.0619],[7.3863,5.0597],[7.3863,5.0574],[7.384,5.0485],[7.3863,5.0395],[7.3885,5.0372],[7.3975,5.0327],[7.4065,5.0305],[7.411,5.0238],[7.4155,5.017],[7.4177,5.0125],[7.42,5.0013],[7.4335,5.0103],[7.4447,5.0148],[7.4559,5.0193],[7.4739,5.0282],[7.4896,5.0372],[7.5121,5.044],[7.5233,5.0485],[7.5255,5.0507],[7.5188,5.053],[7.521,5.0552],[7.5233,5.0552],[7.53,5.0574],[7.5323,5.0619],[7.5368,5.0642],[7.539,5.0664],[7.5412,5.0687],[7.5412,5.0709],[7.5457,5.0844],[7.548,5.0889],[7.5435,5.0934],[7.539,5.1024],[7.5345,5.1091],[7.5345,5.1113],[7.5345,5.1158],[7.5323,5.1293],[7.5323,5.1473],[7.53,5.1495],[7.5278,5.1563],[7.53,5.1607],[7.5345,5.1765],[7.539,5.1877],[7.539,5.1944],[7.5412,5.2169],[7.5412,5.2371],[7.5412,5.2393],[7.5412,5.2528],[7.5435,5.2551],[7.5435,5.2573],[7.5457,5.2596],[7.548,5.2641],[7.5525,5.2685],[7.5525,5.273],[7.5525,5.2753],[7.5502,5.2798],[7.548,5.2865],[7.5435,5.291],[7.5412,5.2932],[7.5368,5.3],[7.5345,5.3],[7.5345,5.3045],[7.5278,5.3045],[7.521,5.3045],[7.5121,5.3022],[7.5098,5.3],[7.5031,5.2977],[7.4963,5.2865],[7.4963,5.2753],[7.4918,5.2596],[7.4604,5.2214],[7.4469,5.2146],[7.4424,5.2102],[7.4245,5.1989],[7.4087,5.1989],[7.4043,5.1967],[7.384,5.2012],[7.3863,5.1922],[7.384,5.1854],[7.3818,5.181],[7.3773,5.1765],[7.3728,5.1742],[7.3661,5.1675],[7.3661,5.1585],[7.3638,5.145],[7.3661,5.136]]]}},{"type":"Feature","properties":{"id":"abia/ohafia","name":"Ohafia","state":"Abia"},"geometry":{"type":"Polygon","coordinates":[[[7.6648,5.6728],[7.676,5.6705],[7.6895,5.6705],[7.7007,5.6773],[7.7097,5.684],[7.7209,5.6818],[7.7366,5.6795],[7.7501,5.6728],[7.7546,5.6638],[7.7726,5.6256],[7.7793,5.6099],[7.7838,5.5942],[7.7905,5.5762],[7.795,5.5582],[7.8018,5.547],[7.804,5.5358],[7.804,5.5223],[7.8062,5.5111],[7.8085,5.5066],[7.8152,5.5111],[7.8242,5.5201],[7.8422,5.5335],[7.8579,5.5403],[7.8736,5.5448],[7.8871,5.547],[7.8961,5.5515],[7.9006,5.5627],[7.9051,5.5695],[7.9051,5.5717],[7.9096,5.5874],[7.9118,5.6099],[7.914,5.6301],[7.9163,5.6436],[7.9185,5.6503],[7.9163,5.6548],[7.9118,5.6616],[7.8961,5.6773],[7.8938,5.6818],[7.8893,5.684],[7.8871,5.6885],[7.8714,5.693],[7.8624,5.6975],[7.8399,5.711],[7.831,5.7222],[7.8197,5.7289],[7.8152,5.7357],[7.804,5.7446],[7.7973,5.7626],[7.795,5.7783],[7.7928,5.7918],[7.786,5.8053],[7.7636,5.8143],[7.7568,5.812],[7.7299,5.8165],[7.7142,5.8188],[7.7142,5.8098],[7.7142,5.803],[7.7142,5.7806],[7.7097,5.7671],[7.7097,5.7581],[7.7052,5.7491],[7.7007,5.7424],[7.6917,5.7357],[7.6827,5.7222],[7.6648,5.693],[7.658,5.6795],[7.6558,5.6773],[7.6648,5.6728]]]}},{"type":"Feature","properties":{"id":"abia/osisioma-ngwa","name":"Osisioma Ngwa","state":"Abia"},"geometry":{"type":"Polygon","coordinates":[[[7.274,5.2102],[7.2807,5.2012],[7.2875,5.1922],[7.2897,5.1832],[7.292,5.172],[7.292,5.1607],[7.2875,5.1473],[7.2807,5.1316],[7.2785,5.1203],[7.2785,5.1158],[7.2718,5.1046],[7.2762,5.1024],[7.2852,5.0979],[7.2897,5.0889],[7.2942,5.0777],[7.2987,5.0732],[7.3077,5.0777],[7.3099,5.0799],[7.3122,5.0866],[7.3144,5.0934],[7.3189,5.1001],[7.3212,5.1024],[7.3324,5.1136],[7.3616,5.1316],[7.3661,5.1338],[7.3661,5.136],[7.3638,5.145],[7.3661,5.1585],[7.3661,5.1675],[7.3728,5.1742],[7.3773,5.1765],[7.3818,5.181],[7.384,5.1854],[7.3863,5.1922],[7.384,5.2012],[7.384,5.2079],[7.384,5.2236],[7.3863,5.2393],[7.3885,5.2528],[7.3885,5.2618],[7.3885,5.273],[7.3885,5.282],[7.3885,5.2955],[7.384,5.3067],[7.3751,5.3112],[7.3661,5.309],[7.3504,5.2932],[7.3391,5.2753],[7.3077,5.2416],[7.2942,5.2349],[7.2785,5.2349],[7.2673,5.2393],[7.2673,5.2371],[7.2673,5.2326],[7.2673,5.2281],[7.265,5.2214],[7.265,5.2146],[7.274,5.2102]]]}},{"type":"Feature","properties":{"id":"abia/ugwunagbo","name":"Ugwunagbo","state":"Abia"},"geometry":{"type":"Polygon","coordinates":[[[7.292,4.9856],[7.2965,4.9766],[7.301,4.9721],[7.3077,4.9699],[7.3099,4.9699],[7.3212,4.9699],[7.3346,4.9721],[7.3436,4.9743],[7.3549,4.9743],[7.3683,4.9766],[7.3751,4.9811],[7.393,4.9833],[7.4065,4.9878],[7.4155,4.9946],[7.42,5.0013],[7.4177,5.0125],[7.4155,5.017],[7.411,5.0238],[7.4065,5.0305],[7.3975,5.0327],[7.3885,5.0372],[7.3863,5.0395],[7.384,5.0485],[7.3863,5.0574],[7.3863,5.0597],[7.3818,5.0597],[7.3773,5.0574],[7.3683,5.0552],[7.3504,5.053],[7.3369,5.053],[7.3257,5.053],[7.3144,5.0552],[7.3077,5.0619],[7.3077,5.0687],[7.3077,5.0777],[7.2987,5.0732],[7.2965,5.0664],[7.2987,5.0552],[7.301,5.0462],[7.301,5.035],[7.301,5.026],[7.2942,5.0103],[7.292,5.0035],[7.2897,4.9946],[7.292,4.9856]]]}},{"type":"Feature","properties":{"id":"abia/ukwa-east","name":"Ukwa East","state":"Abia"},"geometry":{"type":"Polygon","coordinates":[[[7.3144,4.9474],[7.3212,4.9339],[7.3279,4.9249],[7.3301,4.9205],[7.3301,4.9092],[7.3279,4.898],[7.3301,4.8868],[7.3279,4.88],[7.3257,4.8755],[7.3301,4.8733],[7.3346,4.8733],[7.3414,4.8733],[7.3526,4.871],[7.3593,4.8666],[7.3616,4.8643],[7.3728,4.8621],[7.393,4.8621],[7.4065,4.8666],[7.4155,4.8666],[7.429,4.8621],[7.4357,4.8531],[7.4469,4.8463],[7.4559,4.8441],[7.4604,4.8463],[7.4671,4.8463],[7.4716,4.8418],[7.4739,4.8374],[7.4784,4.8329],[7.4873,4.8284],[7.4896,4.8216],[7.4918,4.8239],[7.4963,4.8284],[7.4986,4.8329],[7.5008,4.8351],[7.5008,4.8374],[7.5008,4.8396],[7.4986,4.8553],[7.4986,4.8598],[7.4963,4.8598],[7.4941,4.8621],[7.4918,4.8643],[7.4896,4.8666],[7.4829,4.88],[7.4806,4.8823],[7.4806,4.8868],[7.4806,4.8913],[7.4784,4.9025],[7.4761,4.907],[7.4784,4.916],[7.4784,4.9205],[7.4806,4.9339],[7.4829,4.9339],[7.4851,4.9362],[7.4873,4.9384],[7.4896,4.9429],[7.4918,4.9452],[7.4918,4.9474],[7.4918,4.9541],[7.4918,4.9586],[7.4896,4.9609],[7.4873,4.9609],[7.4829,4.9609],[7.4806,4.9609],[7.4739,4.9654],[7.4671,4.9699],[7.4626,4.9721],[7.4604,4.9743],[7.4604,4.9766],[7.4716,4.9968],[7.4739,4.9968],[7.4784,4.9991],[7.4806,4.9968],[7.4829,4.9968],[7.4851,4.9991],[7.4873,5.0013],[7.4896,5.0035],[7.4896,5.0058],[7.4918,5.008],[7.5053,5.0125],[7.5076,5.0148],[7.5121,5.026],[7.5121,5.0305],[7.5188,5.0372],[7.521,5.0372],[7.5233,5.0372],[7.5255,5.0372],[7.5278,5.0372],[7.5323,5.0417],[7.5345,5.044],[7.5345,5.0485],[7.5255,5.0507],[7.5233,5.0485],[7.5121,5.044],[7.4896,5.0372],[7.4739,5.0282],[7.4559,5.0193],[7.4447,5.0148],[7.4335,5.0103],[7.42,5.0013],[7.4155,4.9946],[7.4065,4.9878],[7.393,4.9833],[7.3751,4.9811],[7.3683,4.9766],[7.3549,4.9743],[7.3436,4.9743],[7.3346,4.9721],[7.3212,4.9699],[7.3099,4.9699],[7.3099,4.9609],[7.3144,4.9474]]]}},{"type":"Feature","properties":{"id":"abia/ukwa-west","name":"Ukwa West","state":"Abia"},"geometry":{"type":"Polygon","coordinates":[[[7.1437,4.8957],[7.1482,4.8913],[7.155,4.8845],[7.164,4.8823],[7.1729,4.88],[7.1842,4.8733],[7.1909,4.8643],[7.2044,4.8576],[7.2156,4.8576],[7.2313,4.8576],[7.2403,4.8576],[7.256,4.8643],[7.2718,4.8733],[7.2942,4.8755],[7.3077,4.8755],[7.3189,4.88],[7.3257,4.8755],[7.3279,4.88],[7.3301,4.8868],[7.3279,4.898],[7.3301,4.9092],[7.3301,4.9205],[7.3279,4.9249],[7.3212,4.9339],[7.3144,4.9474],[7.3099,4.9609],[7.3099,4.9699],[7.3077,4.9699],[7.301,4.9721],[7.2965,4.9766],[7.292,4.9856],[7.2897,4.9946],[7.292,5.0035],[7.2942,5.0103],[7.301,5.026],[7.301,5.035],[7.301,5.0462],[7.2987,5.0552],[7.2965,5.0664],[7.2987,5.0732],[7.2942,5.0777],[7.2897,5.0889],[7.2852,5.0979],[7.2762,5.1024],[7.2718,5.1046],[7.265,5.0956],[7.256,5.0777],[7.2538,5.0642],[7.2515,5.0485],[7.2515,5.0327],[7.2493,5.017],[7.2448,5.008],[7.2403,4.9946],[7.2358,4.9811],[7.2291,4.9699],[7.2179,4.9609],[7.2089,4.9564],[7.1999,4.9541],[7.1819,4.9496],[7.1685,4.9452],[7.1595,4.9362],[7.1505,4.9249],[7.1437,4.9137],[7.1415,4.9002],[7.1437,4.8957]]]}},{"type":"Feature","properties":{"id":"abia/umu-nneochi","name":"Umu-Nneochi","state":"Abia"},"geometry":{"type":"Polygon","coordinates":[[[7.256,5.9513],[7.2605,5.94],[7.2628,5.9333],[7.265,5.9333],[7.2673,5.9288],[7.2695,5.9265],[7.2718,5.9243],[7.274,5.9221],[7.2852,5.9176],[7.2897,5.9176],[7.2942,5.9176],[7.2965,5.9153],[7.3279,5.9131],[7.3346,5.9108],[7.3414,5.9086],[7.3504,5.9063],[7.3638,5.9041],[7.3661,5.9041],[7.3728,5.9041],[7.3773,5.9063],[7.3818,5.9086],[7.3885,5.9131],[7.393,5.9108],[7.3953,5.9108],[7.402,5.9153],[7.4177,5.9176],[7.429,5.9153],[7.4402,5.9108],[7.4537,5.9086],[7.4671,5.9041],[7.4806,5.9063],[7.4918,5.9086],[7.5188,5.9086],[7.539,5.9063],[7.5502,5.9423],[7.5525,5.9535],[7.5525,5.9804],[7.548,5.9939],[7.5323,6.0119],[7.521,6.0209],[7.5098,6.0209],[7.4941,6.0164],[7.4761,6.0119],[7.4626,6.0141],[7.4514,6.0141],[7.4312,6.0052],[7.4155,6.0052],[7.4043,6.0119],[7.3953,6.0254],[7.3863,6.0366],[7.384,6.0366],[7.3773,6.0411],[7.3616,6.0411],[7.3391,6.0411],[7.3391,6.0366],[7.3324,6.0321],[7.3234,6.0029],[7.3189,5.9984],[7.301,5.9984],[7.283,5.9984],[7.2718,5.9984],[7.265,5.9917],[7.2538,5.9647],[7.256,5.9513]]]}},{"type":"Feature","properties":{"id":"abia/umuahia-north","name":"Umuahia North","state":"Abia"},"geometry":{"type":"Polygon","coordinates":[[[7.384,5.6997],[7.3863,5.6975],[7.3908,5.6907],[7.3953,5.6863],[7.402,5.6818],[7.4043,5.6795],[7.4087,5.6773],[7.411,5.6728],[7.4155,5.6638],[7.4155,5.6616],[7.4177,5.6571],[7.4177,5.6526],[7.4177,5.6503],[7.4177,5.6481],[7.42,5.6413],[7.4222,5.6346],[7.4267,5.6324],[7.4267,5.6279],[7.429,5.6234],[7.429,5.6166],[7.4312,5.6054],[7.4267,5.5874],[7.4222,5.5829],[7.4222,5.5807],[7.42,5.5785],[7.4177,5.5785],[7.4155,5.5762],[7.4155,5.574],[7.4155,5.5717],[7.4177,5.5627],[7.4245,5.5605],[7.4402,5.5627],[7.4469,5.5627],[7.4559,5.5582],[7.4582,5.5493],[7.4582,5.538],[7.4582,5.5223],[7.4671,5.5178],[7.4851,5.5133],[7.5143,5.5043],[7.5323,5.5043],[7.5435,5.5021],[7.5525,5.5088],[7.5615,5.5111],[7.5749,5.5133],[7.5772,5.5111],[7.5817,5.5268],[7.5794,5.5403],[7.5817,5.5538],[7.5794,5.5672],[7.5727,5.5785],[7.5502,5.5897],[7.5278,5.6032],[7.5143,5.6121],[7.5031,5.6346],[7.4918,5.6481],[7.4784,5.6683],[7.4761,5.6818],[7.4739,5.6885],[7.4671,5.6997],[7.4492,5.7042],[7.4402,5.702],[7.4222,5.7065],[7.411,5.7087],[7.3998,5.7132],[7.3998,5.711],[7.3975,5.7087],[7.393,5.7087],[7.3908,5.7065],[7.3863,5.7087],[7.384,5.7087],[7.3818,5.7065],[7.3818,5.7042],[7.384,5.6997]]]}},{"type":"Feature","properties":{"id":"abia/umuahia-south","name":"Umuahia South","state":"Abia"},"geometry":{"type":"Polygon","coordinates":[[[7.3818,5.4684],[7.3908,5.4639],[7.4043,5.4617],[7.4222,5.4594],[7.4335,5.4572],[7.4559,5.4572],[7.4784,5.4527],[7.4941,5.4437],[7.5076,5.4347],[7.5165,5.4392],[7.5255,5.4482],[7.53,5.4617],[7.5345,5.4819],[7.5435,5.5021],[7.5323,5.5043],[7.5143,5.5043],[7.4851,5.5133],[7.4671,5.5178],[7.4582,5.5223],[7.4582,5.538],[7.4582,5.5493],[7.4559,5.5582],[7.4469,5.5627],[7.4402,5.5627],[7.4245,5.5605],[7.4177,5.5627],[7.4132,5.5582],[7.4087,5.5448],[7.4087,5.5425],[7.4065,5.5358],[7.4065,5.5335],[7.4043,5.5291],[7.402,5.5268],[7.402,5.5246],[7.3998,5.5223],[7.393,5.5133],[7.3908,5.5111],[7.3885,5.5111],[7.384,5.5021],[7.3773,5.4819],[7.3751,5.4796],[7.3751,5.4774],[7.3728,5.4752],[7.3818,5.4684]]]}}]}