{"type":"FeatureCollection","features":[{"type":"Feature","properties":{"id":"adamawa/demsa","name":"Demsa","state":"Adamawa"},"geometry":{"type":"Polygon","coordinates":[[[11.7004,9.1896],[11.7026,9.1806],[11.7161,9.1829],[11.7273,9.1851],[11.7431,9.1874],[11.752,9.1874],[11.7588,9.1874],[11.7812,9.1851],[11.8104,9.1829],[11.8217,9.1829],[11.8351,9.1806],[11.8509,9.1806],[11.8733,9.1806],[11.8823,9.1784],[11.8935,9.1784],[11.9092,9.1784],[11.9205,9.1784],[11.9429,9.1784],[11.9519,9.1806],[11.9699,9.1874],[11.9789,9.1896],[11.9878,9.1919],[12.0013,9.1941],[12.0103,9.1941],[12.0215,9.1941],[12.0328,9.1919],[12.0462,9.1919],[12.062,9.1896],[12.0709,9.1874],[12.0844,9.1829],[12.0867,9.1874],[12.0979,9.1986],[12.1046,9.2054],[12.1136,9.2143],[12.1203,9.2211],[12.1316,9.2278],[12.1406,9.2368],[12.154,9.2637],[12.1608,9.2772],[12.1675,9.2884],[12.1765,9.2952],[12.1855,9.3064],[12.2012,9.3176],[12.2169,9.3379],[12.2236,9.3423],[12.2618,9.367],[12.2686,9.3715],[12.2731,9.376],[12.2775,9.3873],[12.2843,9.4007],[12.3022,9.4322],[12.309,9.4412],[12.3135,9.4456],[12.3045,9.4501],[12.2955,9.4569],[12.2865,9.4636],[12.2798,9.4704],[12.2753,9.4771],[12.2708,9.4816],[12.2641,9.4906],[12.2663,9.4973],[12.2731,9.522],[12.2731,9.5332],[12.2708,9.5467],[12.2663,9.5534],[12.2641,9.5602],[12.2663,9.5781],[12.2686,9.5826],[12.2775,9.5984],[12.2798,9.6163],[12.2731,9.6343],[12.2686,9.6433],[12.2596,9.6567],[12.2506,9.6657],[12.2439,9.6612],[12.2371,9.659],[12.2102,9.6545],[12.1967,9.6545],[12.1832,9.6523],[12.1698,9.6523],[12.1495,9.65],[12.1338,9.65],[12.0979,9.6478],[12.0844,9.6455],[12.0709,9.6455],[12.0754,9.6365],[12.0732,9.6231],[12.0709,9.6051],[12.0664,9.5916],[12.0597,9.5737],[12.0597,9.5624],[12.0552,9.5467],[12.0575,9.5355],[12.0575,9.5243],[12.0575,9.5108],[12.053,9.4838],[12.0507,9.4748],[12.0485,9.4659],[12.0462,9.4546],[12.0462,9.4479],[12.0373,9.4389],[12.0193,9.4322],[12.0058,9.4322],[11.9946,9.4299],[11.9856,9.4277],[11.9721,9.4254],[11.9654,9.4254],[11.9542,9.4277],[11.9384,9.4299],[11.9205,9.4299],[11.9115,9.4299],[11.9003,9.4299],[11.88,9.4232],[11.8711,9.4187],[11.8553,9.412],[11.8419,9.4052],[11.8351,9.3985],[11.8329,9.3895],[11.8239,9.3783],[11.8172,9.3693],[11.8127,9.3558],[11.8059,9.3423],[11.797,9.3244],[11.7812,9.3042],[11.779,9.2974],[11.7723,9.284],[11.7655,9.2705],[11.7565,9.2637],[11.7453,9.2458],[11.7408,9.2413],[11.7363,9.2345],[11.7318,9.2301],[11.7228,9.2233],[11.7206,9.2211],[11.7161,9.2166],[11.7139,9.2121],[11.7116,9.2098],[11.7004,9.2098],[11.6981,9.2031],[11.6981,9.1986],[11.7004,9.1896]]]}},{"type":"Feature","properties":{"id":"adamawa/fufore","name":"Fufore","state":"Adamawa"},"geometry":{"type":"Polygon","coordinates":[[[12.8547,9.3715],[12.857,9.3693],[12.8592,9.3693],[12.8614,9.3693],[12.8682,9.3693],[12.8682,9.3715],[12.8682,9.376],[12.8682,9.3783],[12.8682,9.3805],[12.8704,9.3828],[12.8727,9.3828],[12.8749,9.3828],[12.8749,9.385],[12.8772,9.3873],[12.8772,9.3895],[12.8772,9.3918],[12.8794,9.394],[12.8817,9.394],[12.8839,9.3962],[12.8884,9.3985],[12.8884,9.3962],[12.8906,9.3962],[12.8974,9.3962],[12.9041,9.3985],[12.9041,9.4007],[12.9064,9.4007],[12.9064,9.403],[12.9108,9.4052],[12.9131,9.4052],[12.9153,9.4075],[12.9176,9.4097],[12.9198,9.4097],[12.9221,9.4097],[12.9243,9.4097],[12.9243,9.4075],[12.9288,9.4097],[12.9288,9.412],[12.9311,9.412],[12.9311,9.4142],[12.9333,9.4142],[12.9356,9.4142],[12.9378,9.4142],[12.94,9.4142],[12.94,9.4165],[12.9445,9.4209],[12.9445,9.4232],[12.9445,9.4254],[12.9445,9.4277],[12.9468,9.4299],[12.9513,9.4367],[12.9513,9.4389],[12.9535,9.4389],[12.9558,9.4389],[12.958,9.4389],[12.9603,9.4389],[12.9603,9.4412],[12.9625,9.4412],[12.967,9.4479],[12.9692,9.4501],[12.9715,9.4524],[12.9737,9.4546],[12.9737,9.4569],[12.9737,9.4614],[12.9737,9.4681],[12.976,9.4681],[12.976,9.4704],[12.9782,9.4704],[12.9782,9.4681],[12.9805,9.4659],[12.9827,9.4659],[12.985,9.4659],[12.985,9.4681],[12.9872,9.4681],[12.9872,9.4704],[12.9895,9.4726],[12.9917,9.4748],[12.9939,9.4748],[12.9962,9.4748],[13.0029,9.4793],[13.0052,9.4816],[13.0074,9.4816],[13.0097,9.4861],[13.0097,9.4883],[13.0097,9.4906],[13.0119,9.4906],[13.0164,9.4928],[13.0186,9.4928],[13.0209,9.4951],[13.0231,9.4951],[13.0254,9.4973],[13.0276,9.4995],[13.0299,9.5018],[13.0321,9.504],[13.0344,9.504],[13.0344,9.5063],[13.0366,9.5063],[13.0389,9.5063],[13.0456,9.504],[13.0478,9.504],[13.0501,9.5063],[13.0591,9.5108],[13.0613,9.513],[13.0613,9.5153],[13.0681,9.5153],[13.0703,9.5153],[13.0703,9.513],[13.0725,9.513],[13.0793,9.5108],[13.0815,9.5108],[13.0838,9.5108],[13.086,9.5108],[13.0883,9.5108],[13.0883,9.513],[13.0883,9.5175],[13.0883,9.5198],[13.0905,9.522],[13.0928,9.5243],[13.095,9.5243],[13.095,9.5265],[13.0972,9.5265],[13.1017,9.5243],[13.104,9.5243],[13.104,9.522],[13.1062,9.522],[13.1107,9.5243],[13.113,9.5265],[13.1197,9.5265],[13.122,9.5265],[13.1242,9.5265],[13.1264,9.5265],[13.1309,9.5287],[13.1309,9.531],[13.1377,9.5332],[13.1377,9.5355],[13.1399,9.5355],[13.1489,9.5377],[13.1444,9.54],[13.1332,9.5467],[13.1085,9.5579],[13.0972,9.5647],[13.0815,9.5692],[13.0658,9.5781],[13.0523,9.5849],[13.0299,9.5939],[13.0186,9.5961],[13.0074,9.5984],[12.9939,9.6029],[12.9692,9.6118],[12.9558,9.6163],[12.9445,9.6208],[12.9221,9.6298],[12.9131,9.6343],[12.8951,9.6433],[12.8749,9.6523],[12.8547,9.6635],[12.848,9.6702],[12.8367,9.677],[12.8233,9.6837],[12.8098,9.6882],[12.7986,9.6949],[12.7873,9.7017],[12.7649,9.7196],[12.7581,9.7264],[12.7492,9.7331],[12.7312,9.7488],[12.7267,9.7533],[12.7222,9.7511],[12.7222,9.7466],[12.72,9.7398],[12.72,9.7309],[12.72,9.7196],[12.7177,9.7039],[12.7155,9.6927],[12.7155,9.6792],[12.7087,9.6455],[12.7065,9.632],[12.7042,9.6276],[12.6953,9.6186],[12.693,9.6118],[12.6885,9.6029],[12.684,9.5961],[12.6683,9.5826],[12.6616,9.5759],[12.6526,9.5669],[12.6459,9.5557],[12.6324,9.5377],[12.6301,9.5355],[12.6189,9.5175],[12.6144,9.5085],[12.6122,9.4973],[12.6122,9.4928],[12.6144,9.4861],[12.6122,9.4591],[12.6144,9.4412],[12.6167,9.4367],[12.6167,9.4254],[12.6167,9.412],[12.6167,9.4007],[12.6189,9.3895],[12.6189,9.3828],[12.6122,9.3648],[12.6077,9.3558],[12.6009,9.3491],[12.5964,9.3468],[12.5897,9.3379],[12.5875,9.3289],[12.5875,9.3199],[12.5942,9.2974],[12.5987,9.2884],[12.6032,9.2727],[12.6054,9.2525],[12.6077,9.239],[12.6077,9.2345],[12.6077,9.2211],[12.6054,9.2098],[12.6077,9.2009],[12.6099,9.1874],[12.6099,9.1717],[12.6054,9.1559],[12.5942,9.1402],[12.5964,9.1312],[12.5897,9.1178],[12.583,9.1088],[12.5717,9.0998],[12.5605,9.0931],[12.547,9.0908],[12.5246,9.0931],[12.4999,9.0953],[12.4931,9.0953],[12.4774,9.0976],[12.4707,9.0953],[12.4662,9.0953],[12.4595,9.0953],[12.4392,9.102],[12.4303,9.1088],[12.4213,9.1133],[12.4145,9.12],[12.4033,9.129],[12.3988,9.138],[12.3921,9.147],[12.3674,9.1762],[12.3606,9.1851],[12.3427,9.2076],[12.3382,9.2143],[12.3337,9.2233],[12.3292,9.2301],[12.3157,9.2413],[12.309,9.2458],[12.3045,9.2503],[12.291,9.2525],[12.2753,9.257],[12.2641,9.2615],[12.2506,9.2593],[12.2371,9.2525],[12.2192,9.2413],[12.2124,9.2368],[12.1967,9.2211],[12.1922,9.2166],[12.1855,9.2098],[12.181,9.2054],[12.172,9.2009],[12.1675,9.1986],[12.1585,9.1964],[12.1518,9.1919],[12.1428,9.1851],[12.1338,9.1806],[12.1248,9.1762],[12.1203,9.1739],[12.1136,9.1717],[12.1091,9.1717],[12.1024,9.1739],[12.0979,9.1762],[12.0889,9.1627],[12.0844,9.1582],[12.0777,9.138],[12.0754,9.1245],[12.0664,9.0998],[12.062,9.0863],[12.0597,9.0684],[12.0597,9.0616],[12.062,9.0549],[12.0597,9.0414],[12.0575,9.0279],[12.0575,9.019],[12.062,9.0167],[12.0732,9.0167],[12.0889,9.0212],[12.1181,9.0279],[12.1338,9.0279],[12.145,9.0324],[12.1585,9.0302],[12.163,9.0234],[12.1675,9.0122],[12.172,9.001],[12.1765,8.983],[12.1787,8.9718],[12.1877,8.9471],[12.1922,8.9269],[12.1945,8.9201],[12.1967,8.9157],[12.1989,8.9112],[12.2057,8.9022],[12.2124,8.8932],[12.2169,8.8865],[12.2214,8.8797],[12.2259,8.8707],[12.2371,8.8573],[12.2528,8.8415],[12.2663,8.8303],[12.2775,8.8236],[12.2933,8.8123],[12.3022,8.8056],[12.309,8.8011],[12.318,8.8056],[12.3202,8.8079],[12.3404,8.8281],[12.3449,8.8303],[12.3517,8.8303],[12.3561,8.8191],[12.3786,8.7989],[12.3921,8.7899],[12.4011,8.7854],[12.4168,8.7764],[12.4235,8.7697],[12.4392,8.7652],[12.446,8.7629],[12.455,8.7629],[12.4819,8.7742],[12.4954,8.7809],[12.5223,8.7899],[12.5381,8.7944],[12.556,8.8011],[12.5875,8.8101],[12.6009,8.8123],[12.6189,8.8191],[12.6279,8.8213],[12.6369,8.8281],[12.6459,8.8348],[12.6661,8.846],[12.6885,8.8618],[12.6997,8.8662],[12.7087,8.8707],[12.7177,8.873],[12.7447,8.8842],[12.7514,8.8909],[12.7559,8.8954],[12.7604,8.9022],[12.7649,8.9067],[12.7671,8.9134],[12.7694,8.9201],[12.7739,8.9291],[12.7806,8.9381],[12.7851,8.9493],[12.7896,8.9538],[12.7986,8.9561],[12.8075,8.9561],[12.8143,8.9561],[12.8188,8.9516],[12.821,8.9561],[12.821,8.9628],[12.8233,8.9718],[12.8278,8.9763],[12.8278,8.9785],[12.8345,8.9853],[12.8412,8.992],[12.848,8.9987],[12.8525,9.0055],[12.8592,9.01],[12.8659,9.0167],[12.8884,9.0729],[12.8861,9.0729],[12.8861,9.0751],[12.8861,9.0818],[12.8861,9.0841],[12.8884,9.0863],[12.8906,9.0863],[12.8906,9.0886],[12.8906,9.0908],[12.8906,9.0953],[12.8906,9.0976],[12.8884,9.0998],[12.8884,9.102],[12.8929,9.111],[12.8951,9.111],[12.8974,9.111],[12.8996,9.1133],[12.9019,9.1155],[12.8996,9.1155],[12.8996,9.1178],[12.8974,9.1223],[12.8951,9.1223],[12.8951,9.1245],[12.8951,9.129],[12.8951,9.1312],[12.8974,9.1335],[12.8974,9.1357],[12.8951,9.1357],[12.8951,9.138],[12.8929,9.138],[12.8906,9.1447],[12.8884,9.1447],[12.8884,9.147],[12.8861,9.147],[12.8839,9.147],[12.8839,9.1492],[12.8861,9.1515],[12.8861,9.1537],[12.8884,9.1537],[12.8861,9.1559],[12.8861,9.1582],[12.8861,9.1604],[12.8861,9.1627],[12.8884,9.1627],[12.8884,9.1649],[12.8906,9.1649],[12.8906,9.1694],[12.8929,9.1694],[12.8929,9.1739],[12.8929,9.1762],[12.8906,9.1762],[12.8884,9.1762],[12.8884,9.1784],[12.8884,9.1806],[12.8906,9.1806],[12.8906,9.1829],[12.8929,9.1874],[12.8929,9.1896],[12.8929,9.1919],[12.8951,9.1919],[12.8974,9.1919],[12.8974,9.1941],[12.8996,9.1941],[12.8996,9.1964],[12.8996,9.1986],[12.8996,9.2009],[12.9019,9.2031],[12.9019,9.2054],[12.9019,9.2076],[12.8996,9.2076],[12.8996,9.2188],[12.8996,9.2211],[12.9019,9.2211],[12.9041,9.2211],[12.9064,9.2211],[12.9064,9.2233],[12.9064,9.2256],[12.9064,9.2278],[12.9086,9.2278],[12.9086,9.2301],[12.9108,9.2301],[12.9108,9.2323],[12.9108,9.2345],[12.9108,9.2368],[12.9131,9.2413],[12.9131,9.2435],[12.9131,9.2458],[12.9153,9.2458],[12.9153,9.248],[12.9176,9.248],[12.9176,9.2503],[12.9176,9.2525],[12.9153,9.2525],[12.9131,9.2525],[12.9131,9.2548],[12.9131,9.257],[12.9108,9.2615],[12.9108,9.266],[12.9108,9.2682],[12.9108,9.2705],[12.9131,9.2705],[12.9131,9.2727],[12.9153,9.2727],[12.9176,9.2727],[12.9176,9.275],[12.9176,9.2772],[12.9176,9.2795],[12.9176,9.2817],[12.9176,9.284],[12.9176,9.2862],[12.9153,9.2862],[12.9131,9.2862],[12.9131,9.2884],[12.9108,9.2907],[12.9108,9.2997],[12.9108,9.3019],[12.9108,9.3042],[12.9131,9.3042],[12.9131,9.3064],[12.9131,9.3087],[12.9108,9.3109],[12.9108,9.3131],[12.9108,9.3154],[12.9131,9.3176],[12.9131,9.3199],[12.9153,9.3199],[12.9176,9.3221],[12.9198,9.3221],[12.9198,9.3244],[12.9198,9.3266],[12.9198,9.3289],[12.9198,9.3311],[12.9221,9.3334],[12.9243,9.3334],[12.9266,9.3356],[12.9243,9.3379],[12.9243,9.3401],[12.9198,9.3468],[12.9176,9.3468],[12.9176,9.3491],[12.9153,9.3513],[12.9131,9.3513],[12.9108,9.3536],[12.9086,9.3536],[12.9019,9.3558],[12.8996,9.3558],[12.8974,9.3558],[12.8906,9.3536],[12.8884,9.3513],[12.8861,9.3513],[12.8861,9.3491],[12.8839,9.3468],[12.8817,9.3468],[12.8794,9.3468],[12.8772,9.3468],[12.8749,9.3468],[12.8659,9.3513],[12.8637,9.3536],[12.8637,9.3558],[12.8637,9.3581],[12.857,9.367],[12.8547,9.367],[12.8525,9.3693],[12.8525,9.3715],[12.8547,9.3715]],[[12.8525,9.3715],[12.8525,9.3738],[12.8502,9.3715],[12.8525,9.3715]]]}},{"type":"Feature","properties":{"id":"adamawa/ganye","name":"Ganye","state":"Adamawa"},"geometry":{"type":"Polygon","coordinates":[[[11.6308,8.3834],[11.6398,8.3789],[11.6442,8.3767],[11.6532,8.3722],[11.6667,8.3632],[11.6734,8.3587],[11.6847,8.3542],[11.6959,8.3475],[11.7116,8.3385],[11.7206,8.334],[11.7318,8.3273],[11.7475,8.3205],[11.7588,8.3138],[11.7723,8.3115],[11.7835,8.3071],[11.7902,8.3048],[11.8104,8.2981],[11.8284,8.2868],[11.8441,8.2801],[11.8531,8.2756],[11.8621,8.2734],[11.8711,8.2689],[11.8868,8.2644],[11.916,8.2554],[11.9384,8.2442],[11.9542,8.2352],[11.9609,8.2307],[11.9699,8.2262],[11.9856,8.2217],[12.0013,8.2172],[12.017,8.2105],[12.0328,8.2082],[12.044,8.2082],[12.053,8.2082],[12.0687,8.2082],[12.0822,8.206],[12.0911,8.2105],[12.1001,8.215],[12.1181,8.2262],[12.1248,8.2329],[12.1338,8.2374],[12.1563,8.2487],[12.1675,8.2464],[12.1787,8.2442],[12.1922,8.2419],[12.1967,8.2374],[12.2034,8.2352],[12.2124,8.2352],[12.2192,8.2374],[12.2236,8.2397],[12.2349,8.2464],[12.2371,8.2464],[12.2371,8.2509],[12.2371,8.2599],[12.2371,8.2689],[12.2394,8.2779],[12.2394,8.2846],[12.2394,8.2868],[12.2394,8.2958],[12.2394,8.3048],[12.2394,8.3071],[12.2394,8.3115],[12.2394,8.3138],[12.2394,8.3183],[12.2394,8.3228],[12.2394,8.3273],[12.2394,8.3318],[12.2416,8.3407],[12.2416,8.343],[12.2416,8.3497],[12.2416,8.3587],[12.2416,8.3677],[12.2439,8.3744],[12.2439,8.3834],[12.2439,8.3857],[12.2461,8.3879],[12.2461,8.3901],[12.2484,8.3924],[12.2484,8.3991],[12.2506,8.4014],[12.2506,8.4104],[12.2528,8.4148],[12.2528,8.4171],[12.2551,8.4216],[12.2573,8.4238],[12.2596,8.4238],[12.2618,8.4261],[12.2618,8.4283],[12.2618,8.4306],[12.2596,8.4328],[12.2596,8.4351],[12.2596,8.4396],[12.2596,8.4418],[12.2596,8.444],[12.2641,8.4463],[12.2663,8.4485],[12.2686,8.4485],[12.2708,8.4485],[12.2753,8.4485],[12.2753,8.4508],[12.2753,8.4575],[12.2731,8.4755],[12.2663,8.48],[12.2596,8.4845],[12.2506,8.4867],[12.2304,8.4822],[12.2102,8.4777],[12.2012,8.4755],[12.19,8.471],[12.181,8.4687],[12.172,8.4665],[12.1585,8.4643],[12.154,8.462],[12.145,8.462],[12.1338,8.4643],[12.1136,8.4598],[12.1001,8.4575],[12.0799,8.4508],[12.0732,8.4485],[12.0687,8.4463],[12.0664,8.444],[12.0597,8.4418],[12.0552,8.4396],[12.0462,8.4373],[12.0395,8.4396],[12.0215,8.4485],[11.9991,8.4665],[11.9923,8.4732],[11.9856,8.4822],[11.9789,8.4957],[11.9766,8.5024],[11.9789,8.5249],[11.9923,8.5361],[12.0013,8.5451],[12.0058,8.5496],[12.0103,8.5631],[12.0148,8.5698],[12.0193,8.581],[12.0215,8.6035],[12.0081,8.6259],[11.9991,8.6372],[11.9811,8.6484],[11.9721,8.6529],[11.9586,8.6619],[11.9317,8.6664],[11.916,8.6686],[11.907,8.6619],[11.8958,8.6529],[11.8756,8.6372],[11.8666,8.6327],[11.8531,8.6237],[11.8441,8.617],[11.8396,8.608],[11.8329,8.5968],[11.8284,8.59],[11.8104,8.5653],[11.8082,8.5608],[11.8014,8.5518],[11.797,8.5473],[11.7902,8.5316],[11.7857,8.5226],[11.7812,8.5137],[11.7655,8.5047],[11.7498,8.489],[11.7296,8.471],[11.7161,8.4643],[11.7094,8.4643],[11.6981,8.4598],[11.6892,8.4575],[11.6847,8.453],[11.6734,8.4485],[11.6689,8.4418],[11.6622,8.4351],[11.6555,8.4306],[11.651,8.4261],[11.6465,8.4171],[11.6375,8.4036],[11.633,8.3924],[11.6285,8.3857],[11.6308,8.3834]]]}},{"type":"Feature","properties":{"id":"adamawa/girei","name":"Girei","state":"Adamawa"},"geometry":{"type":"Polygon","coordinates":[[[12.2708,9.4816],[12.2753,9.4771],[12.2798,9.4704],[12.2865,9.4636],[12.2955,9.4569],[12.3045,9.4501],[12.3135,9.4456],[12.3202,9.4389],[12.3247,9.4299],[12.3292,9.4232],[12.3382,9.4097],[12.3449,9.403],[12.3584,9.3873],[12.3651,9.376],[12.3696,9.3648],[12.3764,9.3536],[12.3853,9.3423],[12.4011,9.3266],[12.41,9.3199],[12.419,9.3109],[12.4347,9.2952],[12.4482,9.2817],[12.4572,9.2727],[12.4684,9.2637],[12.4819,9.2503],[12.4909,9.2435],[12.4999,9.2301],[12.5066,9.2256],[12.5246,9.2188],[12.5291,9.2166],[12.5448,9.2166],[12.5762,9.2211],[12.5807,9.2211],[12.5875,9.2233],[12.6009,9.2301],[12.6077,9.2345],[12.6077,9.239],[12.6054,9.2525],[12.6032,9.2727],[12.5987,9.2884],[12.5942,9.2974],[12.5875,9.3199],[12.5875,9.3289],[12.5897,9.3379],[12.5964,9.3468],[12.6009,9.3491],[12.6077,9.3558],[12.6122,9.3648],[12.6189,9.3828],[12.6189,9.3895],[12.6167,9.4007],[12.6167,9.412],[12.6167,9.4254],[12.6167,9.4367],[12.6144,9.4412],[12.6122,9.4591],[12.6144,9.4861],[12.6122,9.4928],[12.6122,9.4973],[12.6144,9.5085],[12.6189,9.5175],[12.6301,9.5355],[12.6324,9.5377],[12.6459,9.5557],[12.6526,9.5669],[12.6616,9.5759],[12.6683,9.5826],[12.684,9.5961],[12.6885,9.6029],[12.693,9.6118],[12.6818,9.6141],[12.6638,9.6118],[12.6571,9.6096],[12.6436,9.6029],[12.6256,9.5939],[12.6122,9.5849],[12.6009,9.5781],[12.5762,9.5579],[12.556,9.5512],[12.5403,9.5512],[12.5336,9.5557],[12.5246,9.5624],[12.5178,9.5714],[12.5066,9.5849],[12.4954,9.5916],[12.4842,9.5984],[12.4729,9.6029],[12.4572,9.6051],[12.4437,9.6051],[12.4168,9.5984],[12.4011,9.5939],[12.3853,9.5826],[12.3719,9.5737],[12.3629,9.5692],[12.3517,9.5579],[12.3404,9.5467],[12.3247,9.5355],[12.318,9.531],[12.3112,9.5265],[12.3,9.522],[12.2888,9.522],[12.2775,9.522],[12.2731,9.522],[12.2663,9.4973],[12.2641,9.4906],[12.2708,9.4816]]]}},{"type":"Feature","properties":{"id":"adamawa/gombi","name":"Gombi","state":"Adamawa"},"geometry":{"type":"Polygon","coordinates":[[[12.2461,10.034],[12.2506,10.0318],[12.2551,10.0318],[12.2641,10.0318],[12.2686,10.0318],[12.2753,10.0318],[12.2798,10.034],[12.2888,10.0363],[12.2978,10.0385],[12.3292,10.043],[12.3764,10.043],[12.4011,10.0453],[12.4145,10.043],[12.4258,10.043],[12.4347,10.043],[12.4482,10.043],[12.4595,10.0408],[12.4707,10.0385],[12.4819,10.0363],[12.4909,10.0363],[12.5044,10.0385],[12.5291,10.043],[12.5425,10.043],[12.5583,10.043],[12.5695,10.0453],[12.583,10.043],[12.5987,10.043],[12.6167,10.0453],[12.6346,10.043],[12.6481,10.043],[12.6728,10.043],[12.684,10.0408],[12.6953,10.0385],[12.7065,10.0385],[12.72,10.0363],[12.7289,10.034],[12.7379,10.0318],[12.7492,10.0251],[12.7559,10.0206],[12.7739,10.0116],[12.8075,10.0071],[12.821,10.0048],[12.8322,10.0048],[12.83,10.0093],[12.83,10.0228],[12.83,10.043],[12.8278,10.0565],[12.8233,10.0677],[12.821,10.0834],[12.8098,10.1081],[12.8031,10.1216],[12.7986,10.1351],[12.7986,10.1486],[12.7963,10.1665],[12.7851,10.1935],[12.7739,10.2115],[12.7694,10.2249],[12.7581,10.2384],[12.7492,10.2519],[12.7357,10.2721],[12.7222,10.2901],[12.7132,10.3035],[12.7042,10.317],[12.693,10.326],[12.684,10.335],[12.6773,10.3462],[12.6683,10.3574],[12.6616,10.3687],[12.6503,10.3799],[12.6301,10.4001],[12.6211,10.4091],[12.6144,10.4158],[12.6122,10.4181],[12.6077,10.4248],[12.6032,10.4315],[12.5987,10.4405],[12.5964,10.4428],[12.592,10.4405],[12.583,10.436],[12.5672,10.4226],[12.565,10.4203],[12.5628,10.4068],[12.5605,10.3934],[12.5605,10.3844],[12.5605,10.3754],[12.556,10.3709],[12.5448,10.3642],[12.5134,10.3462],[12.5066,10.3417],[12.4999,10.3395],[12.4931,10.3372],[12.4842,10.335],[12.4729,10.3305],[12.4684,10.3282],[12.4595,10.3237],[12.4527,10.3215],[12.4437,10.317],[12.4347,10.317],[12.4235,10.317],[12.4213,10.317],[12.4123,10.3192],[12.4033,10.3192],[12.3966,10.3192],[12.3943,10.3192],[12.3606,10.317],[12.3449,10.3192],[12.3359,10.3192],[12.3292,10.3192],[12.3202,10.3148],[12.3202,10.3103],[12.3247,10.3058],[12.3292,10.299],[12.3292,10.2901],[12.3314,10.2788],[12.3292,10.2676],[12.3247,10.2586],[12.3225,10.2474],[12.3202,10.2362],[12.3112,10.2182],[12.3045,10.2092],[12.3,10.198],[12.291,10.1845],[12.282,10.171],[12.2798,10.162],[12.2775,10.1531],[12.2708,10.1351],[12.2641,10.1239],[12.2573,10.1014],[12.2528,10.0857],[12.2506,10.0722],[12.2461,10.0542],[12.2439,10.0453],[12.2416,10.034],[12.2461,10.034]]]}},{"type":"Feature","properties":{"id":"adamawa/guyuk","name":"Guyuk","state":"Adamawa"},"geometry":{"type":"Polygon","coordinates":[[[11.7655,9.7129],[11.7767,9.7084],[11.7992,9.7039],[11.8239,9.6949],[11.8351,9.6927],[11.8464,9.6904],[11.8531,9.6882],[11.8576,9.6859],[11.8688,9.6815],[11.8823,9.677],[11.9048,9.6702],[11.9205,9.6657],[11.9339,9.659],[11.9429,9.6523],[11.9474,9.6478],[11.9542,9.65],[11.9631,9.65],[11.9676,9.65],[11.9766,9.6478],[11.9923,9.6433],[12.0036,9.641],[12.0103,9.641],[12.0417,9.641],[12.062,9.6433],[12.0709,9.6455],[12.0642,9.6545],[12.053,9.659],[12.044,9.6612],[12.0373,9.6657],[12.0283,9.6747],[12.0238,9.6837],[12.0193,9.6904],[12.0148,9.6972],[12.0125,9.7062],[12.0103,9.7241],[12.0125,9.7376],[12.0125,9.7488],[12.0125,9.7578],[12.0081,9.778],[12.0058,9.7915],[12.0036,9.8027],[12.0013,9.8162],[12.0013,9.8297],[11.9991,9.8589],[11.9991,9.8746],[11.9991,9.8881],[11.9946,9.8993],[11.9878,9.9083],[11.9789,9.9173],[11.9766,9.9262],[11.9766,9.933],[11.9811,9.9397],[11.9811,9.9532],[11.9834,9.9689],[11.9811,9.9756],[11.9923,10.0004],[11.9991,10.0116],[12.0036,10.0228],[11.9946,10.0228],[11.9654,10.0273],[11.9429,10.0295],[11.9115,10.034],[11.8913,10.0408],[11.8778,10.043],[11.8666,10.0453],[11.8621,10.0453],[11.8464,10.0453],[11.8441,10.0453],[11.8441,10.0363],[11.8441,10.0318],[11.8464,10.0273],[11.8486,10.0228],[11.8531,10.0093],[11.8553,10.0048],[11.8531,9.9959],[11.8509,9.9846],[11.8509,9.9801],[11.8509,9.9756],[11.8509,9.9667],[11.8531,9.9599],[11.8531,9.9532],[11.8553,9.9262],[11.8509,9.9105],[11.8509,9.9083],[11.8464,9.897],[11.8441,9.8903],[11.8396,9.8836],[11.8351,9.8679],[11.8351,9.8589],[11.8374,9.8544],[11.8396,9.8409],[11.8486,9.8274],[11.8531,9.8184],[11.8553,9.814],[11.8576,9.7982],[11.8576,9.796],[11.8576,9.7937],[11.8509,9.787],[11.8396,9.7758],[11.8351,9.7735],[11.8284,9.769],[11.8127,9.7601],[11.797,9.7511],[11.7857,9.7398],[11.7745,9.7331],[11.7678,9.7286],[11.7633,9.7264],[11.7588,9.7219],[11.7565,9.7196],[11.7655,9.7129]]]}},{"type":"Feature","properties":{"id":"adamawa/hong","name":"Hong","state":"Adamawa"},"geometry":{"type":"Polygon","coordinates":[[[12.5987,10.4405],[12.6032,10.4315],[12.6077,10.4248],[12.6122,10.4181],[12.6144,10.4158],[12.6211,10.4091],[12.6301,10.4001],[12.6503,10.3799],[12.6616,10.3687],[12.6683,10.3574],[12.6773,10.3462],[12.684,10.335],[12.693,10.326],[12.7042,10.317],[12.7132,10.3035],[12.7222,10.2901],[12.7357,10.2721],[12.7492,10.2519],[12.7581,10.2384],[12.7694,10.2249],[12.7739,10.2115],[12.7851,10.1935],[12.7963,10.1665],[12.7986,10.1486],[12.7986,10.1351],[12.8031,10.1216],[12.8098,10.1081],[12.821,10.0834],[12.8233,10.0677],[12.8278,10.0565],[12.83,10.043],[12.83,10.0228],[12.83,10.0093],[12.8322,10.0048],[12.8367,10.0004],[12.8412,9.9914],[12.848,9.9824],[12.8592,9.9779],[12.8772,9.9712],[12.8906,9.9599],[12.8974,9.9622],[12.9153,9.9689],[12.9423,9.9824],[12.9513,9.9869],[12.9692,9.9981],[12.9805,10.0048],[12.9962,10.0071],[13.0074,10.0138],[13.0276,10.0206],[13.0389,10.0251],[13.0478,10.0273],[13.0568,10.0273],[13.0591,10.0318],[13.0613,10.043],[13.0658,10.052],[13.0748,10.0677],[13.0883,10.0902],[13.0972,10.1014],[13.1017,10.1171],[13.1085,10.1306],[13.113,10.1463],[13.1197,10.1665],[13.1242,10.1755],[13.1264,10.1823],[13.1287,10.1912],[13.1309,10.2002],[13.1332,10.2182],[13.1399,10.2339],[13.1489,10.2519],[13.1579,10.2721],[13.1714,10.3035],[13.1736,10.3192],[13.1781,10.335],[13.1871,10.3507],[13.1916,10.3597],[13.1983,10.3731],[13.2095,10.3934],[13.2118,10.4023],[13.214,10.4203],[13.214,10.427],[13.2118,10.436],[13.2073,10.4338],[13.1916,10.4315],[13.1714,10.427],[13.1669,10.427],[13.1601,10.427],[13.1556,10.4293],[13.1489,10.4315],[13.1399,10.436],[13.1332,10.4383],[13.1287,10.4405],[13.122,10.4428],[13.1152,10.445],[13.1085,10.4473],[13.0972,10.4495],[13.0883,10.454],[13.0793,10.4562],[13.0658,10.4607],[13.0523,10.4652],[13.0456,10.4697],[13.0344,10.4809],[13.0254,10.4922],[13.0186,10.5012],[13.0097,10.5146],[13.0029,10.5214],[12.9872,10.5326],[12.9827,10.5348],[12.9647,10.5438],[12.958,10.5483],[12.94,10.5551],[12.9176,10.5618],[12.9086,10.564],[12.8884,10.5708],[12.8749,10.573],[12.8637,10.5753],[12.8547,10.5753],[12.848,10.5753],[12.8457,10.5753],[12.8322,10.5753],[12.8165,10.5753],[12.8098,10.5753],[12.7986,10.5753],[12.7806,10.5775],[12.7649,10.582],[12.7604,10.582],[12.7447,10.5798],[12.7402,10.5775],[12.7357,10.5753],[12.7312,10.573],[12.7289,10.5685],[12.7222,10.5595],[12.7177,10.5506],[12.7042,10.5371],[12.702,10.5326],[12.6975,10.5236],[12.6953,10.5191],[12.6863,10.4989],[12.6818,10.4967],[12.6795,10.4922],[12.6728,10.4854],[12.6728,10.4809],[12.6706,10.4765],[12.6706,10.472],[12.6683,10.4652],[12.6661,10.4585],[12.6571,10.445],[12.6526,10.4383],[12.6391,10.4383],[12.6369,10.4428],[12.6279,10.4517],[12.6256,10.4517],[12.6122,10.4495],[12.5964,10.4428],[12.5987,10.4405]]]}},{"type":"Feature","properties":{"id":"adamawa/jada","name":"Jada","state":"Adamawa"},"geometry":{"type":"Polygon","coordinates":[[[11.9317,8.6664],[11.9586,8.6619],[11.9721,8.6529],[11.9811,8.6484],[11.9991,8.6372],[12.0081,8.6259],[12.0215,8.6035],[12.0193,8.581],[12.0148,8.5698],[12.0103,8.5631],[12.0058,8.5496],[12.0013,8.5451],[11.9923,8.5361],[11.9789,8.5249],[11.9766,8.5024],[11.9789,8.4957],[11.9856,8.4822],[11.9923,8.4732],[11.9991,8.4665],[12.0215,8.4485],[12.0395,8.4396],[12.0462,8.4373],[12.0552,8.4396],[12.0597,8.4418],[12.0664,8.444],[12.0687,8.4463],[12.0732,8.4485],[12.0799,8.4508],[12.1001,8.4575],[12.1136,8.4598],[12.1338,8.4643],[12.145,8.462],[12.154,8.462],[12.1585,8.4643],[12.172,8.4665],[12.181,8.4687],[12.19,8.471],[12.2012,8.4755],[12.2102,8.4777],[12.2304,8.4822],[12.2506,8.4867],[12.2596,8.4845],[12.2663,8.48],[12.2731,8.4755],[12.2753,8.4575],[12.2753,8.4508],[12.2753,8.4485],[12.2775,8.4463],[12.2798,8.4463],[12.2843,8.4463],[12.291,8.444],[12.2933,8.4463],[12.2955,8.444],[12.3,8.4418],[12.3022,8.4418],[12.3022,8.4396],[12.3045,8.4328],[12.3067,8.4306],[12.309,8.4283],[12.3112,8.4261],[12.3135,8.4261],[12.3157,8.4261],[12.3202,8.4283],[12.3225,8.4283],[12.3292,8.4283],[12.3314,8.4306],[12.3337,8.4306],[12.3359,8.4306],[12.3382,8.4306],[12.3404,8.4306],[12.3427,8.4306],[12.3449,8.4283],[12.3472,8.4261],[12.3494,8.4261],[12.3561,8.4238],[12.3606,8.4216],[12.3629,8.4216],[12.3651,8.4216],[12.3651,8.4193],[12.3674,8.4216],[12.4056,8.4687],[12.4078,8.4755],[12.4078,8.4777],[12.4033,8.4822],[12.4011,8.4822],[12.4011,8.4845],[12.3988,8.4867],[12.3988,8.489],[12.3966,8.4912],[12.3966,8.4934],[12.3943,8.4934],[12.3943,8.4957],[12.3988,8.5114],[12.3988,8.5137],[12.4011,8.5137],[12.4011,8.5159],[12.4033,8.5159],[12.4056,8.5182],[12.4078,8.5226],[12.4078,8.5249],[12.41,8.5339],[12.41,8.5361],[12.4123,8.5384],[12.4123,8.5406],[12.4145,8.5429],[12.4168,8.5429],[12.419,8.5451],[12.4213,8.5451],[12.428,8.5451],[12.437,8.5451],[12.4392,8.5451],[12.4415,8.5451],[12.4437,8.5473],[12.4437,8.5496],[12.446,8.5518],[12.4527,8.5518],[12.455,8.5518],[12.4572,8.5541],[12.4572,8.5563],[12.455,8.5631],[12.455,8.5676],[12.4527,8.5676],[12.4527,8.5698],[12.4505,8.5698],[12.4482,8.5698],[12.446,8.5698],[12.446,8.5788],[12.446,8.581],[12.446,8.5878],[12.446,8.59],[12.446,8.5945],[12.446,8.5968],[12.446,8.6012],[12.446,8.6035],[12.4437,8.6035],[12.4437,8.6057],[12.4415,8.6057],[12.437,8.6102],[12.4325,8.617],[12.4325,8.6192],[12.4347,8.6215],[12.4347,8.6192],[12.437,8.6192],[12.4392,8.6192],[12.446,8.6192],[12.4482,8.6192],[12.4527,8.6215],[12.455,8.6215],[12.4572,8.6215],[12.4595,8.6215],[12.4617,8.6215],[12.4639,8.6215],[12.4662,8.6237],[12.4662,8.6259],[12.4684,8.6259],[12.4684,8.6282],[12.4707,8.6282],[12.4707,8.6304],[12.4729,8.6304],[12.4752,8.6304],[12.4842,8.6327],[12.4864,8.6349],[12.4909,8.6394],[12.4931,8.6417],[12.4954,8.6417],[12.4976,8.6417],[12.5044,8.6417],[12.5066,8.6417],[12.5111,8.6372],[12.5134,8.6372],[12.5156,8.6349],[12.5178,8.6349],[12.5178,8.6327],[12.5223,8.6304],[12.5246,8.6304],[12.5291,8.6304],[12.5313,8.6304],[12.5336,8.6327],[12.5381,8.6327],[12.5381,8.6304],[12.5403,8.6304],[12.5403,8.6282],[12.5425,8.6282],[12.5425,8.6259],[12.5448,8.6237],[12.547,8.6215],[12.547,8.6192],[12.547,8.617],[12.547,8.6147],[12.547,8.6125],[12.5493,8.6125],[12.5515,8.6125],[12.5538,8.6125],[12.556,8.6125],[12.556,8.6102],[12.5583,8.6102],[12.5583,8.608],[12.5605,8.608],[12.5628,8.608],[12.565,8.608],[12.5672,8.6057],[12.5695,8.6035],[12.574,8.6012],[12.583,8.599],[12.5875,8.599],[12.5897,8.599],[12.592,8.599],[12.592,8.5968],[12.5942,8.5968],[12.5942,8.5945],[12.5942,8.5923],[12.5942,8.59],[12.5964,8.59],[12.5987,8.59],[12.5987,8.5923],[12.6009,8.5945],[12.6032,8.599],[12.6054,8.599],[12.6077,8.599],[12.6099,8.599],[12.6122,8.599],[12.6144,8.599],[12.6167,8.599],[12.6167,8.6012],[12.6189,8.6012],[12.6189,8.6035],[12.6144,8.608],[12.6122,8.608],[12.6099,8.608],[12.6099,8.6057],[12.6077,8.6057],[12.6054,8.6057],[12.6032,8.6057],[12.6032,8.608],[12.6009,8.608],[12.6009,8.6102],[12.6009,8.6125],[12.6032,8.6125],[12.6032,8.6147],[12.6054,8.617],[12.6054,8.6215],[12.6054,8.6237],[12.6054,8.6259],[12.6054,8.6282],[12.6077,8.6327],[12.6077,8.6349],[12.6099,8.6372],[12.6122,8.6394],[12.6144,8.6394],[12.6167,8.6394],[12.6167,8.6372],[12.6189,8.6372],[12.6211,8.6372],[12.6279,8.6372],[12.6301,8.6372],[12.6324,8.6372],[12.6346,8.6394],[12.6346,8.6417],[12.6346,8.6439],[12.6324,8.6439],[12.6324,8.6462],[12.6346,8.6462],[12.6346,8.6484],[12.6369,8.6484],[12.6391,8.6484],[12.6391,8.6462],[12.6414,8.6462],[12.6436,8.6462],[12.6481,8.6484],[12.6503,8.6484],[12.6503,8.6507],[12.6526,8.6529],[12.6548,8.6529],[12.6593,8.6529],[12.6616,8.6529],[12.6638,8.6529],[12.6638,8.6507],[12.6661,8.6507],[12.6683,8.6484],[12.6706,8.6484],[12.6728,8.6484],[12.675,8.6484],[12.6818,8.6507],[12.684,8.6529],[12.6863,8.6529],[12.6863,8.6551],[12.6885,8.6574],[12.6885,8.6596],[12.6885,8.6619],[12.6908,8.6619],[12.693,8.6664],[12.6953,8.6686],[12.6975,8.6686],[12.6997,8.6686],[12.6997,8.6709],[12.702,8.6709],[12.6997,8.6731],[12.6997,8.6754],[12.6975,8.6754],[12.6975,8.6776],[12.6975,8.6798],[12.6997,8.6798],[12.6997,8.6821],[12.702,8.6821],[12.702,8.6843],[12.702,8.6866],[12.7042,8.6866],[12.7042,8.6888],[12.702,8.6888],[12.702,8.6911],[12.7065,8.6978],[12.7087,8.7001],[12.7087,8.7023],[12.711,8.7023],[12.711,8.7045],[12.7087,8.7068],[12.7087,8.709],[12.7065,8.7113],[12.7087,8.718],[12.7087,8.7203],[12.7087,8.7225],[12.711,8.727],[12.711,8.7337],[12.7087,8.736],[12.7087,8.7382],[12.7087,8.7405],[12.711,8.7405],[12.7132,8.7427],[12.7132,8.745],[12.7155,8.7472],[12.7155,8.7517],[12.7155,8.754],[12.7155,8.7562],[12.7155,8.7584],[12.7177,8.7584],[12.72,8.7607],[12.72,8.7629],[12.7222,8.7629],[12.7245,8.7629],[12.7289,8.7629],[12.7312,8.7607],[12.7334,8.7607],[12.7334,8.7584],[12.7357,8.7584],[12.7379,8.7584],[12.7402,8.7584],[12.7424,8.7584],[12.7469,8.7607],[12.7492,8.7629],[12.7514,8.7652],[12.7536,8.7652],[12.7581,8.7629],[12.7581,8.7607],[12.7581,8.7584],[12.7581,8.7562],[12.7604,8.7562],[12.7626,8.754],[12.7626,8.7517],[12.7649,8.7517],[12.7694,8.7517],[12.7761,8.7472],[12.7784,8.7472],[12.7784,8.745],[12.7806,8.745],[12.7828,8.745],[12.7851,8.745],[12.7851,8.7472],[12.7851,8.7495],[12.7873,8.7517],[12.7873,8.754],[12.7873,8.7562],[12.7896,8.7562],[12.7896,8.7584],[12.7918,8.7697],[12.7918,8.7742],[12.7918,8.7764],[12.7918,8.7787],[12.7896,8.7787],[12.7873,8.7787],[12.7873,8.7809],[12.7873,8.7832],[12.7896,8.7876],[12.7918,8.7876],[12.7941,8.7876],[12.7963,8.7876],[12.7986,8.7899],[12.8008,8.7899],[12.8031,8.7921],[12.8031,8.7944],[12.8075,8.7944],[12.8098,8.7966],[12.8098,8.7989],[12.812,8.7989],[12.812,8.8011],[12.812,8.8034],[12.8098,8.8056],[12.8098,8.8101],[12.8098,8.8123],[12.8098,8.8146],[12.8098,8.8168],[12.8098,8.8191],[12.812,8.8191],[12.812,8.8213],[12.8143,8.8213],[12.8143,8.8236],[12.8188,8.8303],[12.8188,8.8326],[12.8188,8.8348],[12.8165,8.8348],[12.8165,8.837],[12.8143,8.837],[12.812,8.837],[12.8098,8.837],[12.8098,8.8393],[12.8053,8.8438],[12.8053,8.846],[12.8031,8.8505],[12.8008,8.855],[12.8008,8.8573],[12.8031,8.8618],[12.8031,8.864],[12.8053,8.864],[12.8075,8.864],[12.8098,8.864],[12.812,8.864],[12.812,8.8662],[12.812,8.8685],[12.812,8.8707],[12.8098,8.873],[12.8075,8.873],[12.8075,8.8752],[12.8075,8.8775],[12.8075,8.882],[12.8075,8.8842],[12.8075,8.8865],[12.8075,8.8887],[12.8098,8.8887],[12.812,8.8887],[12.8143,8.8909],[12.8165,8.8932],[12.8165,8.8954],[12.8188,8.8954],[12.8188,8.8977],[12.8188,8.8999],[12.8188,8.9022],[12.8165,8.9044],[12.8143,8.9044],[12.812,8.9044],[12.8098,8.9044],[12.8075,8.9022],[12.8075,8.9044],[12.8053,8.9044],[12.8053,8.9067],[12.8031,8.9089],[12.8031,8.9112],[12.8031,8.9134],[12.8031,8.9157],[12.8075,8.9201],[12.8098,8.9224],[12.812,8.9246],[12.8143,8.9246],[12.8165,8.9291],[12.8165,8.9314],[12.8188,8.9381],[12.8188,8.9471],[12.8188,8.9493],[12.8188,8.9516],[12.8143,8.9561],[12.8075,8.9561],[12.7986,8.9561],[12.7896,8.9538],[12.7851,8.9493],[12.7806,8.9381],[12.7739,8.9291],[12.7694,8.9201],[12.7671,8.9134],[12.7649,8.9067],[12.7604,8.9022],[12.7559,8.8954],[12.7514,8.8909],[12.7447,8.8842],[12.7177,8.873],[12.7087,8.8707],[12.6997,8.8662],[12.6885,8.8618],[12.6661,8.846],[12.6459,8.8348],[12.6369,8.8281],[12.6279,8.8213],[12.6189,8.8191],[12.6009,8.8123],[12.5875,8.8101],[12.556,8.8011],[12.5381,8.7944],[12.5223,8.7899],[12.4954,8.7809],[12.4819,8.7742],[12.455,8.7629],[12.446,8.7629],[12.4392,8.7652],[12.4235,8.7697],[12.4168,8.7764],[12.4011,8.7854],[12.3921,8.7899],[12.3786,8.7989],[12.3561,8.8191],[12.3517,8.8303],[12.3449,8.8303],[12.3404,8.8281],[12.3202,8.8079],[12.318,8.8056],[12.309,8.8011],[12.3022,8.8056],[12.2933,8.8123],[12.2775,8.8236],[12.2663,8.8303],[12.2528,8.8415],[12.2371,8.8573],[12.2259,8.8707],[12.2214,8.8797],[12.2169,8.8865],[12.2124,8.8932],[12.2057,8.9022],[12.1989,8.9112],[12.1967,8.9157],[12.19,8.9112],[12.1832,8.9044],[12.1765,8.8999],[12.172,8.8977],[12.1608,8.8932],[12.1585,8.8909],[12.1473,8.882],[12.1271,8.8618],[12.1181,8.8505],[12.1091,8.8393],[12.1001,8.8326],[12.0867,8.8258],[12.0754,8.8168],[12.0642,8.8056],[12.0485,8.7899],[12.0328,8.7809],[12.0215,8.7719],[12.0081,8.7584],[11.9968,8.7495],[11.9744,8.7315],[11.9631,8.7225],[11.9497,8.7113],[11.9452,8.7068],[11.9384,8.6978],[11.9339,8.6933],[11.925,8.6821],[11.9182,8.6754],[11.916,8.6686],[11.9317,8.6664]]]}},{"type":"Feature","properties":{"id":"adamawa/lamurde","name":"Lamurde","state":"Adamawa"},"geometry":{"type":"Polygon","coordinates":[[[11.4354,9.54],[11.4421,9.5287],[11.4511,9.5063],[11.4578,9.4951],[11.4691,9.4771],[11.4781,9.4659],[11.4848,9.4636],[11.4938,9.4501],[11.4983,9.4412],[11.5073,9.4344],[11.5117,9.4277],[11.5162,9.4209],[11.5252,9.4075],[11.5342,9.403],[11.5387,9.403],[11.5454,9.3985],[11.5522,9.3985],[11.5522,9.4007],[11.5567,9.403],[11.5701,9.4075],[11.5769,9.412],[11.6016,9.4209],[11.6128,9.4277],[11.6263,9.4367],[11.6398,9.4412],[11.6465,9.4456],[11.6577,9.4524],[11.6712,9.4614],[11.6824,9.4681],[11.7026,9.4771],[11.7161,9.4816],[11.7273,9.4861],[11.7408,9.4906],[11.7678,9.4951],[11.779,9.4973],[11.7925,9.4995],[11.8104,9.5018],[11.8217,9.504],[11.8306,9.5063],[11.8441,9.504],[11.8553,9.504],[11.8666,9.5018],[11.8778,9.4995],[11.8913,9.4951],[11.9003,9.4928],[11.907,9.4883],[11.9182,9.4838],[11.925,9.4816],[11.9339,9.4816],[11.9384,9.4816],[11.9474,9.4861],[11.9542,9.4928],[11.9609,9.5018],[11.9631,9.5108],[11.9631,9.522],[11.9654,9.5377],[11.9676,9.5557],[11.9699,9.5781],[11.9699,9.6029],[11.9699,9.6208],[11.9654,9.632],[11.9609,9.641],[11.9474,9.6478],[11.9429,9.6523],[11.9339,9.659],[11.9205,9.6657],[11.9048,9.6702],[11.8823,9.677],[11.8688,9.6815],[11.8576,9.6859],[11.8531,9.6882],[11.8464,9.6904],[11.8351,9.6927],[11.8239,9.6949],[11.7992,9.7039],[11.7767,9.7084],[11.7655,9.7129],[11.7565,9.7196],[11.7565,9.7174],[11.7498,9.7084],[11.7453,9.7062],[11.7386,9.6994],[11.7071,9.677],[11.6959,9.668],[11.6892,9.6635],[11.6847,9.6635],[11.6712,9.6545],[11.6645,9.6478],[11.66,9.6433],[11.6555,9.6365],[11.6442,9.632],[11.633,9.6253],[11.615,9.6163],[11.5993,9.6096],[11.5791,9.6073],[11.5701,9.6073],[11.5634,9.6051],[11.5454,9.6051],[11.5275,9.6073],[11.5073,9.6073],[11.4848,9.6051],[11.4736,9.6006],[11.4691,9.5984],[11.4601,9.5939],[11.4534,9.5849],[11.4444,9.5759],[11.4421,9.5692],[11.4421,9.5602],[11.4331,9.5512],[11.4287,9.549],[11.4354,9.54]]]}},{"type":"Feature","properties":{"id":"adamawa/madagali","name":"Madagali","state":"Adamawa"},"geometry":{"type":"Polygon","coordinates":[[[13.3353,10.7729],[13.3398,10.7706],[13.3443,10.7706],[13.3533,10.7684],[13.3645,10.7639],[13.3802,10.7572],[13.3914,10.7504],[13.3982,10.7437],[13.4117,10.7347],[13.4229,10.728],[13.4341,10.7235],[13.4431,10.7212],[13.4588,10.7123],[13.4723,10.7033],[13.479,10.6965],[13.488,10.6853],[13.4992,10.6763],[13.5127,10.6673],[13.5194,10.6628],[13.5284,10.6539],[13.5419,10.6471],[13.5576,10.6359],[13.5801,10.6269],[13.5801,10.6292],[13.5801,10.6314],[13.5801,10.6359],[13.5801,10.6381],[13.5801,10.6404],[13.5801,10.6426],[13.5801,10.6471],[13.5778,10.6539],[13.5778,10.6561],[13.5801,10.6561],[13.5846,10.6584],[13.5868,10.6606],[13.5891,10.6606],[13.5891,10.6628],[13.5891,10.6651],[13.5891,10.6696],[13.5891,10.6718],[13.5891,10.6741],[13.5891,10.6763],[13.5868,10.6763],[13.5846,10.6763],[13.5823,10.6786],[13.5823,10.6808],[13.5801,10.6831],[13.5801,10.6876],[13.5846,10.692],[13.5868,10.692],[13.5891,10.692],[13.5913,10.692],[13.5936,10.692],[13.5958,10.692],[13.5958,10.6943],[13.5981,10.6943],[13.6003,10.6943],[13.6003,10.692],[13.6048,10.692],[13.607,10.6943],[13.6093,10.6965],[13.6093,10.6988],[13.6115,10.6988],[13.6115,10.701],[13.6115,10.7033],[13.6115,10.7055],[13.6138,10.7055],[13.6183,10.7078],[13.6205,10.7078],[13.6228,10.7078],[13.625,10.7078],[13.6272,10.7078],[13.6272,10.71],[13.6272,10.7123],[13.6272,10.7145],[13.6272,10.7167],[13.6272,10.719],[13.6272,10.728],[13.6295,10.7325],[13.6295,10.7347],[13.6317,10.7414],[13.6317,10.7459],[13.6317,10.7482],[13.6317,10.7504],[13.634,10.7504],[13.6362,10.7504],[13.6385,10.7504],[13.6385,10.7527],[13.6407,10.7527],[13.6407,10.7549],[13.6407,10.7572],[13.6407,10.7594],[13.6407,10.7617],[13.6407,10.7639],[13.643,10.7639],[13.643,10.7662],[13.6452,10.7662],[13.6497,10.7684],[13.6564,10.7751],[13.6587,10.7774],[13.6587,10.7796],[13.6564,10.7796],[13.6564,10.7819],[13.6542,10.7841],[13.6519,10.7864],[13.6475,10.7886],[13.643,10.7909],[13.643,10.7931],[13.643,10.7953],[13.6452,10.7998],[13.6452,10.8021],[13.6475,10.8021],[13.6497,10.8066],[13.6519,10.8088],[13.6519,10.8111],[13.6542,10.8111],[13.6564,10.8111],[13.6587,10.8111],[13.6677,10.8111],[13.6699,10.8111],[13.6699,10.8133],[13.6744,10.8156],[13.6744,10.8178],[13.6722,10.8201],[13.6722,10.8223],[13.6744,10.8223],[13.6744,10.8268],[13.6767,10.829],[13.6767,10.8313],[13.6789,10.8358],[13.6789,10.8403],[13.6811,10.8403],[13.6811,10.8425],[13.6834,10.8448],[13.6834,10.847],[13.6856,10.847],[13.6879,10.847],[13.6879,10.8448],[13.6901,10.8448],[13.6924,10.8448],[13.7014,10.8492],[13.7014,10.8537],[13.7014,10.856],[13.7014,10.8582],[13.7036,10.8582],[13.7058,10.8582],[13.7081,10.8582],[13.7103,10.8582],[13.7126,10.8605],[13.7148,10.8605],[13.7171,10.8627],[13.7193,10.865],[13.7193,10.8717],[13.7193,10.8762],[13.7216,10.8807],[13.7238,10.8852],[13.7216,10.8919],[13.7216,10.8964],[13.7216,10.8987],[13.7216,10.9009],[13.7216,10.9031],[13.7238,10.9031],[13.7261,10.9054],[13.7283,10.9054],[13.7283,10.9076],[13.7306,10.9121],[13.7328,10.9121],[13.7328,10.9144],[13.7328,10.9166],[13.7328,10.9189],[13.7328,10.9211],[13.7328,10.9234],[13.7328,10.9256],[13.7328,10.9278],[13.7306,10.9278],[13.7261,10.9301],[13.7238,10.9323],[13.7216,10.9368],[13.7193,10.9368],[13.7171,10.9368],[13.7171,10.9391],[13.7148,10.9391],[13.7148,10.9413],[13.7126,10.9436],[13.6924,10.9458],[13.6879,10.9436],[13.6632,10.9458],[13.6587,10.9458],[13.6407,10.9458],[13.6295,10.9481],[13.6205,10.9481],[13.6138,10.9503],[13.6048,10.9503],[13.5846,10.9503],[13.5778,10.9481],[13.5733,10.9458],[13.5644,10.9413],[13.5554,10.9368],[13.5486,10.9323],[13.5464,10.9278],[13.5419,10.9256],[13.5352,10.9234],[13.5284,10.9211],[13.5172,10.9189],[13.5127,10.9144],[13.5015,10.9099],[13.4835,10.9054],[13.4745,10.9031],[13.4296,10.9031],[13.4229,10.9031],[13.4139,10.9076],[13.3982,10.9144],[13.3892,10.9189],[13.378,10.9211],[13.3622,10.9278],[13.3578,10.9301],[13.3555,10.9301],[13.351,10.9323],[13.3465,10.9301],[13.342,10.9256],[13.3375,10.9211],[13.3353,10.9144],[13.3353,10.8897],[13.3353,10.8852],[13.3353,10.8807],[13.3353,10.8784],[13.3353,10.8739],[13.3353,10.8695],[13.3353,10.8582],[13.3353,10.8492],[13.3353,10.8425],[13.3353,10.8358],[13.3353,10.8335],[13.3353,10.829],[13.3353,10.8223],[13.3353,10.8156],[13.3353,10.8066],[13.3331,10.7909],[13.3286,10.7751],[13.3353,10.7729]]]}},{"type":"Feature","properties":{"id":"adamawa/maiha","name":"Maiha","state":"Adamawa"},"geometry":{"type":"Polygon","coordinates":[[[13.0478,9.9307],[13.0501,9.9128],[13.0546,9.9015],[13.0546,9.8881],[13.0546,9.8723],[13.0591,9.8454],[13.0636,9.8319],[13.0681,9.8207],[13.0748,9.8095],[13.0815,9.796],[13.086,9.787],[13.0928,9.7735],[13.0928,9.7556],[13.0883,9.7421],[13.0905,9.7309],[13.0905,9.7084],[13.0905,9.6904],[13.0905,9.6815],[13.0883,9.6612],[13.0838,9.6455],[13.086,9.6365],[13.0838,9.6208],[13.086,9.6118],[13.0883,9.6029],[13.086,9.5961],[13.0838,9.5871],[13.0838,9.5781],[13.0838,9.5714],[13.0815,9.5692],[13.0972,9.5647],[13.1085,9.5579],[13.1332,9.5467],[13.1444,9.54],[13.1489,9.5377],[13.1534,9.54],[13.1556,9.54],[13.1579,9.54],[13.1579,9.5377],[13.1601,9.5377],[13.1624,9.5377],[13.1646,9.5377],[13.1646,9.54],[13.1646,9.5422],[13.1669,9.5422],[13.1691,9.5422],[13.1714,9.5422],[13.1736,9.5422],[13.1758,9.5445],[13.1826,9.549],[13.1848,9.549],[13.1871,9.5534],[13.1871,9.5557],[13.1893,9.5557],[13.1893,9.5579],[13.1916,9.5579],[13.1938,9.5602],[13.1938,9.5579],[13.1961,9.5579],[13.1961,9.5557],[13.1983,9.5557],[13.2006,9.5557],[13.205,9.5557],[13.2073,9.5557],[13.2095,9.5557],[13.2095,9.5579],[13.214,9.5624],[13.2163,9.5669],[13.2208,9.5737],[13.2208,9.5759],[13.223,9.5759],[13.2253,9.5781],[13.2253,9.5804],[13.2275,9.5826],[13.2275,9.5849],[13.2275,9.5871],[13.2275,9.5894],[13.2275,9.5916],[13.2275,9.5939],[13.2253,9.5939],[13.2253,9.5961],[13.2253,9.5984],[13.2253,9.6006],[13.2275,9.6051],[13.2297,9.6073],[13.2297,9.6096],[13.232,9.6096],[13.232,9.6118],[13.2342,9.6141],[13.2342,9.6163],[13.2365,9.6208],[13.2342,9.6231],[13.2342,9.6253],[13.232,9.6253],[13.232,9.6276],[13.2297,9.6365],[13.2297,9.6388],[13.2297,9.6433],[13.232,9.6433],[13.2297,9.6478],[13.2275,9.6478],[13.2275,9.65],[13.2297,9.65],[13.232,9.6567],[13.2342,9.6567],[13.2365,9.659],[13.2365,9.6612],[13.2365,9.668],[13.2365,9.6702],[13.2342,9.6702],[13.2342,9.6725],[13.232,9.6725],[13.232,9.6747],[13.2297,9.6747],[13.232,9.6815],[13.232,9.6859],[13.2342,9.6859],[13.2342,9.6882],[13.2365,9.6882],[13.2387,9.6882],[13.241,9.6882],[13.2455,9.6904],[13.2477,9.6904],[13.2477,9.6927],[13.2477,9.6949],[13.2477,9.6972],[13.25,9.6972],[13.2522,9.6972],[13.2522,9.6994],[13.2522,9.7017],[13.2522,9.7039],[13.25,9.7039],[13.25,9.7084],[13.2477,9.7084],[13.2477,9.7106],[13.2477,9.7129],[13.25,9.7151],[13.25,9.7174],[13.25,9.7196],[13.25,9.7219],[13.25,9.7241],[13.2522,9.7241],[13.2522,9.7264],[13.2545,9.7264],[13.2545,9.7286],[13.2567,9.7286],[13.2567,9.7309],[13.2589,9.7376],[13.2589,9.7398],[13.2589,9.7421],[13.2589,9.7466],[13.2567,9.7466],[13.2567,9.7488],[13.2567,9.7511],[13.2567,9.7578],[13.2567,9.7601],[13.2589,9.7645],[13.2612,9.7645],[13.2612,9.7668],[13.2612,9.769],[13.2589,9.7713],[13.2589,9.7735],[13.2634,9.7803],[13.2747,9.7937],[13.2814,9.7982],[13.2836,9.8005],[13.2859,9.8005],[13.2859,9.8027],[13.2881,9.8027],[13.2881,9.805],[13.2881,9.8072],[13.2904,9.8095],[13.2904,9.8117],[13.2904,9.814],[13.2926,9.814],[13.2949,9.8162],[13.2971,9.8184],[13.2994,9.8184],[13.2994,9.8207],[13.2994,9.8229],[13.3016,9.8229],[13.3016,9.8252],[13.3016,9.8274],[13.2994,9.8319],[13.2971,9.8342],[13.2926,9.8342],[13.2926,9.8364],[13.2904,9.8364],[13.2904,9.8387],[13.2904,9.8409],[13.2881,9.8409],[13.2836,9.8431],[13.2814,9.8454],[13.2792,9.8454],[13.2769,9.8454],[13.2769,9.8476],[13.2747,9.8476],[13.2747,9.8499],[13.2702,9.8521],[13.2679,9.8521],[13.2679,9.8499],[13.2657,9.8499],[13.2634,9.8521],[13.2612,9.8521],[13.2612,9.8544],[13.2589,9.8544],[13.2589,9.8566],[13.2567,9.8566],[13.2522,9.8589],[13.2477,9.8611],[13.2455,9.8611],[13.2455,9.8634],[13.2432,9.8634],[13.2432,9.8656],[13.2455,9.8701],[13.2455,9.8723],[13.2432,9.8791],[13.2432,9.8813],[13.241,9.8813],[13.2387,9.8836],[13.2365,9.8858],[13.2365,9.8926],[13.2365,9.8948],[13.2365,9.897],[13.2365,9.8993],[13.2365,9.9038],[13.2365,9.906],[13.2342,9.906],[13.2365,9.9105],[13.241,9.915],[13.2455,9.9217],[13.2477,9.9262],[13.2522,9.9285],[13.2612,9.9285],[13.2657,9.9262],[13.2702,9.9285],[13.2702,9.933],[13.2747,9.9352],[13.2747,9.9375],[13.2769,9.9375],[13.2792,9.9375],[13.2814,9.9375],[13.2814,9.9397],[13.2792,9.942],[13.2769,9.942],[13.2769,9.9442],[13.2769,9.9465],[13.2792,9.9465],[13.2814,9.9465],[13.2836,9.9487],[13.2836,9.9509],[13.2859,9.9554],[13.2859,9.9577],[13.2859,9.9599],[13.2881,9.9622],[13.2859,9.9622],[13.2859,9.9644],[13.2859,9.9689],[13.2859,9.9712],[13.2881,9.9712],[13.2881,9.9734],[13.2881,9.9779],[13.2881,9.9801],[13.2859,9.9801],[13.2836,9.9846],[13.2769,9.9891],[13.2769,9.9914],[13.2702,9.9914],[13.2679,9.9914],[13.2657,9.9914],[13.2634,9.9936],[13.2612,9.9936],[13.2567,9.9959],[13.2545,9.9959],[13.2522,9.9959],[13.2477,10.0026],[13.2477,10.0048],[13.2477,10.0116],[13.25,10.0138],[13.25,10.0183],[13.2477,10.0183],[13.2477,10.0206],[13.2477,10.0251],[13.2477,10.0273],[13.25,10.0273],[13.25,10.0295],[13.25,10.0318],[13.2477,10.034],[13.2477,10.0363],[13.25,10.0363],[13.2567,10.034],[13.2657,10.034],[13.2679,10.034],[13.2679,10.0318],[13.2702,10.0318],[13.2724,10.0318],[13.2724,10.034],[13.2747,10.034],[13.2792,10.0363],[13.2814,10.0363],[13.2904,10.0475],[13.2792,10.0565],[13.2702,10.061],[13.2612,10.0677],[13.2522,10.07],[13.2455,10.0745],[13.232,10.079],[13.2163,10.0812],[13.2095,10.0834],[13.2028,10.0879],[13.2028,10.0924],[13.1983,10.0924],[13.1803,10.1059],[13.1624,10.1284],[13.1534,10.1396],[13.1444,10.1486],[13.1422,10.1531],[13.1377,10.162],[13.1309,10.171],[13.1242,10.1755],[13.1197,10.1665],[13.113,10.1463],[13.1085,10.1306],[13.1017,10.1171],[13.0972,10.1014],[13.0883,10.0902],[13.0748,10.0677],[13.0658,10.052],[13.0613,10.043],[13.0591,10.0318],[13.0568,10.0273],[13.0546,10.0206],[13.0501,10.0093],[13.0478,10.0004],[13.0478,9.9936],[13.0456,9.9824],[13.0433,9.9577],[13.0478,9.9307]]]}},{"type":"Feature","properties":{"id":"adamawa/mayo-belwa","name":"Mayo-Belwa","state":"Adamawa"},"geometry":{"type":"Polygon","coordinates":[[[11.6981,9.0953],[11.7071,9.0751],[11.7094,9.0706],[11.7161,9.0684],[11.7228,9.0639],[11.7296,9.0616],[11.7341,9.0526],[11.7431,9.0526],[11.7498,9.0504],[11.752,9.0504],[11.7588,9.0437],[11.7678,9.0347],[11.7767,9.0279],[11.7925,9.019],[11.8037,9.0145],[11.8194,9.0122],[11.8306,9.0077],[11.8441,9.0055],[11.8486,9.0055],[11.8576,9.0032],[11.8643,8.992],[11.8756,8.9763],[11.88,8.9673],[11.8845,8.9561],[11.8935,8.9448],[11.8958,8.9336],[11.898,8.9269],[11.9003,8.9157],[11.9025,8.9022],[11.9025,8.8909],[11.9025,8.8707],[11.9003,8.8573],[11.8913,8.8438],[11.8778,8.8213],[11.8733,8.8146],[11.8621,8.8034],[11.8306,8.7405],[11.8284,8.727],[11.8261,8.7203],[11.8172,8.7023],[11.8127,8.6888],[11.8104,8.6798],[11.797,8.6641],[11.7902,8.6507],[11.7902,8.6439],[11.788,8.6417],[11.7835,8.6304],[11.7812,8.617],[11.779,8.6102],[11.779,8.6057],[11.779,8.5968],[11.7857,8.5788],[11.7902,8.5698],[11.7925,8.5631],[11.797,8.5473],[11.8014,8.5518],[11.8082,8.5608],[11.8104,8.5653],[11.8284,8.59],[11.8329,8.5968],[11.8396,8.608],[11.8441,8.617],[11.8531,8.6237],[11.8666,8.6327],[11.8756,8.6372],[11.8958,8.6529],[11.907,8.6619],[11.916,8.6686],[11.9182,8.6754],[11.925,8.6821],[11.9339,8.6933],[11.9384,8.6978],[11.9452,8.7068],[11.9497,8.7113],[11.9631,8.7225],[11.9744,8.7315],[11.9968,8.7495],[12.0081,8.7584],[12.0215,8.7719],[12.0328,8.7809],[12.0485,8.7899],[12.0642,8.8056],[12.0754,8.8168],[12.0867,8.8258],[12.1001,8.8326],[12.1091,8.8393],[12.1181,8.8505],[12.1271,8.8618],[12.1473,8.882],[12.1585,8.8909],[12.1608,8.8932],[12.172,8.8977],[12.1765,8.8999],[12.1832,8.9044],[12.19,8.9112],[12.1967,8.9157],[12.1945,8.9201],[12.1922,8.9269],[12.1877,8.9471],[12.1787,8.9718],[12.1765,8.983],[12.172,9.001],[12.1675,9.0122],[12.163,9.0234],[12.1585,9.0302],[12.145,9.0324],[12.1338,9.0279],[12.1181,9.0279],[12.0889,9.0212],[12.0732,9.0167],[12.062,9.0167],[12.0575,9.019],[12.0575,9.0279],[12.0597,9.0414],[12.062,9.0549],[12.0597,9.0616],[12.0597,9.0684],[12.062,9.0863],[12.0664,9.0998],[12.0754,9.1245],[12.0777,9.138],[12.0844,9.1582],[12.0889,9.1627],[12.0979,9.1762],[12.0844,9.1829],[12.0709,9.1874],[12.062,9.1896],[12.0462,9.1919],[12.0328,9.1919],[12.0215,9.1941],[12.0103,9.1941],[12.0013,9.1941],[11.9878,9.1919],[11.9789,9.1896],[11.9699,9.1874],[11.9519,9.1806],[11.9429,9.1784],[11.9205,9.1784],[11.9092,9.1784],[11.8935,9.1784],[11.8823,9.1784],[11.8733,9.1806],[11.8509,9.1806],[11.8351,9.1806],[11.8217,9.1829],[11.8104,9.1829],[11.7812,9.1851],[11.7588,9.1874],[11.752,9.1874],[11.7431,9.1874],[11.7273,9.1851],[11.7161,9.1829],[11.7026,9.1806],[11.7026,9.1762],[11.7026,9.1604],[11.7004,9.1492],[11.6981,9.1447],[11.6959,9.1335],[11.6959,9.1268],[11.6959,9.12],[11.6959,9.1133],[11.6959,9.1065],[11.6981,9.0953]]]}},{"type":"Feature","properties":{"id":"adamawa/michika","name":"Michika","state":"Adamawa"},"geometry":{"type":"Polygon","coordinates":[[[13.232,10.4809],[13.25,10.4787],[13.2545,10.4787],[13.2612,10.4765],[13.2836,10.4742],[13.2904,10.4742],[13.3016,10.472],[13.3196,10.4697],[13.3286,10.4675],[13.342,10.4652],[13.3645,10.463],[13.378,10.4562],[13.3869,10.4495],[13.3937,10.4428],[13.4274,10.4226],[13.4611,10.4068],[13.4745,10.4023],[13.497,10.3911],[13.5082,10.3821],[13.5172,10.3799],[13.5419,10.3731],[13.5419,10.3754],[13.5397,10.3754],[13.5397,10.3799],[13.5374,10.3821],[13.5374,10.3844],[13.5352,10.3866],[13.5329,10.3889],[13.5329,10.3911],[13.5307,10.3934],[13.5284,10.3956],[13.5262,10.3978],[13.5262,10.4001],[13.5262,10.4023],[13.5239,10.4068],[13.5239,10.4136],[13.5217,10.4181],[13.5217,10.4248],[13.5217,10.4315],[13.5194,10.4405],[13.5194,10.4428],[13.5194,10.445],[13.5194,10.4473],[13.5194,10.4495],[13.5194,10.4517],[13.5194,10.454],[13.5217,10.454],[13.5217,10.4562],[13.5239,10.4585],[13.5284,10.463],[13.5284,10.4652],[13.5284,10.4697],[13.5284,10.472],[13.5284,10.4742],[13.5284,10.4765],[13.5307,10.4765],[13.5329,10.4765],[13.5352,10.4765],[13.5374,10.4765],[13.5374,10.4787],[13.5374,10.4809],[13.5397,10.4809],[13.5397,10.4832],[13.5397,10.4854],[13.5397,10.4922],[13.5397,10.4944],[13.5374,10.4944],[13.5374,10.4967],[13.5374,10.5034],[13.5374,10.5056],[13.5397,10.5146],[13.5419,10.5146],[13.5442,10.5124],[13.5464,10.5101],[13.5509,10.5101],[13.5531,10.5101],[13.5554,10.5124],[13.5576,10.5124],[13.5576,10.5146],[13.5599,10.5146],[13.5599,10.5169],[13.5621,10.5169],[13.5644,10.5146],[13.5666,10.5124],[13.5666,10.5101],[13.5733,10.5056],[13.5756,10.5056],[13.5756,10.5079],[13.5756,10.5101],[13.5778,10.5101],[13.5868,10.5146],[13.5913,10.5169],[13.5936,10.5169],[13.5936,10.5191],[13.5958,10.5236],[13.5958,10.5281],[13.5936,10.5281],[13.5936,10.5303],[13.5913,10.5303],[13.5913,10.5326],[13.5891,10.5348],[13.5846,10.5438],[13.5846,10.5483],[13.5823,10.5506],[13.5823,10.5528],[13.5778,10.5528],[13.5756,10.5528],[13.5733,10.5528],[13.5733,10.5506],[13.5711,10.5506],[13.5689,10.5506],[13.5689,10.5528],[13.5666,10.5573],[13.5666,10.5595],[13.5666,10.5618],[13.5689,10.5618],[13.5689,10.564],[13.5689,10.5663],[13.5666,10.5685],[13.5666,10.5708],[13.5689,10.573],[13.5711,10.5775],[13.5711,10.5798],[13.5733,10.5842],[13.5733,10.5865],[13.5711,10.591],[13.5689,10.5932],[13.5666,10.6045],[13.5644,10.6067],[13.5644,10.609],[13.5666,10.609],[13.5666,10.6112],[13.5689,10.6112],[13.5689,10.6134],[13.5666,10.6134],[13.5666,10.6157],[13.5644,10.6157],[13.5644,10.6179],[13.5644,10.6202],[13.5644,10.6224],[13.5711,10.6224],[13.5733,10.6202],[13.5733,10.6179],[13.5756,10.6179],[13.5756,10.6157],[13.5778,10.6157],[13.5778,10.6179],[13.5801,10.6202],[13.5801,10.6269],[13.5576,10.6359],[13.5419,10.6471],[13.5284,10.6539],[13.5194,10.6628],[13.5127,10.6673],[13.4992,10.6763],[13.488,10.6853],[13.479,10.6965],[13.4723,10.7033],[13.4588,10.7123],[13.4431,10.7212],[13.4341,10.7235],[13.4229,10.728],[13.4117,10.7347],[13.3982,10.7437],[13.3914,10.7504],[13.3802,10.7572],[13.3645,10.7639],[13.3533,10.7684],[13.3443,10.7706],[13.3398,10.7706],[13.3353,10.7729],[13.3286,10.7751],[13.3263,10.7662],[13.3218,10.7527],[13.3196,10.737],[13.3173,10.7302],[13.3151,10.7257],[13.3106,10.7145],[13.3039,10.6988],[13.3016,10.6943],[13.2971,10.6876],[13.2904,10.6808],[13.2881,10.6763],[13.2836,10.6673],[13.2769,10.6516],[13.2702,10.6359],[13.2657,10.6247],[13.2634,10.6202],[13.2612,10.6179],[13.2477,10.5932],[13.2455,10.5865],[13.2432,10.5798],[13.2387,10.5685],[13.2365,10.5551],[13.2365,10.5483],[13.2342,10.5393],[13.2297,10.5303],[13.2253,10.5169],[13.2253,10.5056],[13.2208,10.4877],[13.2185,10.4809],[13.232,10.4809]]]}},{"type":"Feature","properties":{"id":"adamawa/mubi-north","name":"Mubi North","state":"Adamawa"},"geometry":{"type":"Polygon","coordinates":[[[13.1309,10.171],[13.1377,10.162],[13.1422,10.1531],[13.1444,10.1486],[13.1534,10.1396],[13.1624,10.1284],[13.1803,10.1059],[13.1983,10.0924],[13.2028,10.0924],[13.2006,10.0947],[13.2006,10.0992],[13.2006,10.1104],[13.2073,10.1306],[13.2118,10.1463],[13.214,10.1553],[13.2185,10.171],[13.2253,10.1823],[13.2275,10.1867],[13.2365,10.207],[13.241,10.2159],[13.2455,10.2272],[13.2612,10.2496],[13.2657,10.2519],[13.2702,10.2564],[13.2836,10.2631],[13.2926,10.2609],[13.3016,10.2586],[13.3151,10.2586],[13.3241,10.2586],[13.3398,10.2609],[13.3578,10.2586],[13.369,10.2564],[13.3802,10.2541],[13.3892,10.2519],[13.3959,10.2496],[13.4027,10.2496],[13.4206,10.2474],[13.4408,10.2474],[13.4543,10.2451],[13.4678,10.2429],[13.497,10.2474],[13.497,10.2496],[13.4992,10.2496],[13.4992,10.2519],[13.506,10.2564],[13.5082,10.2586],[13.5082,10.2609],[13.5105,10.2609],[13.5105,10.2631],[13.5127,10.2631],[13.515,10.2631],[13.5172,10.2631],[13.5172,10.2653],[13.5194,10.2653],[13.5194,10.2676],[13.5217,10.2698],[13.5217,10.2721],[13.5217,10.2743],[13.5217,10.2766],[13.5217,10.2788],[13.5217,10.2811],[13.5217,10.2833],[13.5194,10.2856],[13.5194,10.2878],[13.5194,10.2901],[13.5194,10.2923],[13.5217,10.2968],[13.5217,10.299],[13.5239,10.3013],[13.5239,10.3035],[13.5262,10.308],[13.5284,10.3103],[13.5284,10.3125],[13.5307,10.3125],[13.5307,10.3148],[13.5329,10.3148],[13.5329,10.317],[13.5352,10.3192],[13.5352,10.3215],[13.5352,10.3237],[13.5352,10.326],[13.5374,10.3305],[13.5397,10.344],[13.5397,10.3462],[13.5419,10.3619],[13.5419,10.3664],[13.5419,10.3709],[13.5419,10.3731],[13.5172,10.3799],[13.5082,10.3821],[13.497,10.3911],[13.4745,10.4023],[13.4611,10.4068],[13.4274,10.4226],[13.3937,10.4428],[13.3869,10.4495],[13.378,10.4562],[13.3645,10.463],[13.342,10.4652],[13.3286,10.4675],[13.3196,10.4697],[13.3016,10.472],[13.2904,10.4742],[13.2836,10.4742],[13.2612,10.4765],[13.2545,10.4787],[13.25,10.4787],[13.232,10.4809],[13.2185,10.4809],[13.2185,10.4765],[13.214,10.454],[13.214,10.4428],[13.214,10.4383],[13.2118,10.436],[13.214,10.427],[13.214,10.4203],[13.2118,10.4023],[13.2095,10.3934],[13.1983,10.3731],[13.1916,10.3597],[13.1871,10.3507],[13.1781,10.335],[13.1736,10.3192],[13.1714,10.3035],[13.1579,10.2721],[13.1489,10.2519],[13.1399,10.2339],[13.1332,10.2182],[13.1309,10.2002],[13.1287,10.1912],[13.1264,10.1823],[13.1242,10.1755],[13.1309,10.171]]]}},{"type":"Feature","properties":{"id":"adamawa/mubi-south","name":"Mubi South","state":"Adamawa"},"geometry":{"type":"Polygon","coordinates":[[[13.2028,10.0924],[13.2028,10.0879],[13.2095,10.0834],[13.2163,10.0812],[13.232,10.079],[13.2455,10.0745],[13.2522,10.07],[13.2612,10.0677],[13.2702,10.061],[13.2792,10.0565],[13.2904,10.0475],[13.2949,10.0542],[13.2971,10.0587],[13.2971,10.061],[13.2949,10.07],[13.2949,10.0722],[13.2949,10.0745],[13.2971,10.0834],[13.2971,10.0857],[13.2994,10.0879],[13.3016,10.0879],[13.3039,10.0924],[13.3061,10.0924],[13.3061,10.0969],[13.3061,10.0992],[13.3061,10.1014],[13.3083,10.1037],[13.3083,10.1059],[13.3106,10.1059],[13.3128,10.1059],[13.3151,10.1059],[13.3173,10.1059],[13.3196,10.1059],[13.3218,10.1081],[13.3286,10.1104],[13.3308,10.1126],[13.3331,10.1149],[13.3398,10.1171],[13.342,10.1171],[13.3443,10.1171],[13.3443,10.1149],[13.3443,10.1126],[13.3443,10.1104],[13.3443,10.1081],[13.3465,10.1081],[13.3488,10.1081],[13.351,10.1081],[13.3555,10.1081],[13.3578,10.1081],[13.36,10.1081],[13.3645,10.1126],[13.3645,10.1149],[13.3645,10.1171],[13.3667,10.1171],[13.3735,10.1171],[13.3757,10.1171],[13.378,10.1171],[13.3869,10.1171],[13.3892,10.1171],[13.3914,10.1149],[13.3937,10.1149],[13.3959,10.1126],[13.3982,10.1126],[13.4004,10.1126],[13.4004,10.1149],[13.4004,10.1171],[13.4004,10.1194],[13.4004,10.1216],[13.4004,10.1239],[13.3982,10.1239],[13.3959,10.1239],[13.3959,10.1261],[13.3937,10.1261],[13.3937,10.1284],[13.3959,10.1351],[13.3982,10.1351],[13.4004,10.1351],[13.4049,10.1306],[13.4072,10.1284],[13.4139,10.1261],[13.4161,10.1239],[13.4184,10.1216],[13.4206,10.1216],[13.4296,10.1194],[13.4319,10.1194],[13.4341,10.1216],[13.4341,10.1239],[13.4341,10.1261],[13.4341,10.1306],[13.4341,10.1351],[13.4364,10.1373],[13.4364,10.1396],[13.4386,10.1396],[13.4386,10.1418],[13.4386,10.1441],[13.4364,10.1441],[13.4364,10.1463],[13.4341,10.1486],[13.4319,10.1486],[13.4296,10.1486],[13.4251,10.1508],[13.4229,10.1531],[13.4229,10.1553],[13.4229,10.1576],[13.4251,10.1576],[13.4274,10.1576],[13.4296,10.1598],[13.4319,10.1598],[13.4341,10.1576],[13.4408,10.1598],[13.4453,10.1598],[13.4521,10.162],[13.4521,10.1643],[13.4521,10.1665],[13.4521,10.1688],[13.4543,10.1688],[13.4543,10.171],[13.4566,10.171],[13.4566,10.1688],[13.4588,10.1688],[13.4588,10.1665],[13.4611,10.1665],[13.4633,10.1688],[13.4678,10.1733],[13.4678,10.1755],[13.4678,10.1778],[13.47,10.1823],[13.4678,10.1845],[13.4678,10.1867],[13.4678,10.1912],[13.47,10.1912],[13.47,10.1935],[13.4723,10.1912],[13.4745,10.1912],[13.4768,10.1912],[13.479,10.189],[13.4835,10.1935],[13.4858,10.1957],[13.488,10.198],[13.4903,10.198],[13.4925,10.2002],[13.497,10.2047],[13.4992,10.2047],[13.4992,10.207],[13.5037,10.2204],[13.5037,10.2227],[13.5037,10.2249],[13.4992,10.2317],[13.4992,10.2339],[13.5015,10.2339],[13.5015,10.2362],[13.4992,10.2362],[13.4992,10.2384],[13.497,10.2451],[13.497,10.2474],[13.4678,10.2429],[13.4543,10.2451],[13.4408,10.2474],[13.4206,10.2474],[13.4027,10.2496],[13.3959,10.2496],[13.3892,10.2519],[13.3802,10.2541],[13.369,10.2564],[13.3578,10.2586],[13.3398,10.2609],[13.3241,10.2586],[13.3151,10.2586],[13.3016,10.2586],[13.2926,10.2609],[13.2836,10.2631],[13.2702,10.2564],[13.2657,10.2519],[13.2612,10.2496],[13.2455,10.2272],[13.241,10.2159],[13.2365,10.207],[13.2275,10.1867],[13.2253,10.1823],[13.2185,10.171],[13.214,10.1553],[13.2118,10.1463],[13.2073,10.1306],[13.2006,10.1104],[13.2006,10.0992],[13.2006,10.0947],[13.2028,10.0924]]]}},{"type":"Feature","properties":{"id":"adamawa/numan","name":"Numan","state":"Adamawa"},"geometry":{"type":"Polygon","coordinates":[[[11.5364,9.3985],[11.5409,9.3918],[11.5499,9.385],[11.5567,9.3805],[11.5769,9.3805],[11.5971,9.3783],[11.6016,9.3715],[11.6038,9.367],[11.6128,9.3513],[11.6218,9.3379],[11.6285,9.3289],[11.6353,9.3221],[11.6487,9.3064],[11.6487,9.2974],[11.651,9.2952],[11.6532,9.2907],[11.6555,9.2862],[11.66,9.2772],[11.6622,9.2727],[11.6667,9.266],[11.6712,9.2525],[11.6779,9.2435],[11.6869,9.2301],[11.6937,9.2188],[11.7004,9.2098],[11.7116,9.2098],[11.7139,9.2121],[11.7161,9.2166],[11.7206,9.2211],[11.7228,9.2233],[11.7318,9.2301],[11.7363,9.2345],[11.7408,9.2413],[11.7453,9.2458],[11.7565,9.2637],[11.7655,9.2705],[11.7723,9.284],[11.779,9.2974],[11.7812,9.3042],[11.797,9.3244],[11.8059,9.3423],[11.8127,9.3558],[11.8172,9.3693],[11.8239,9.3783],[11.8329,9.3895],[11.8351,9.3985],[11.8419,9.4052],[11.8553,9.412],[11.8711,9.4187],[11.88,9.4232],[11.9003,9.4299],[11.9115,9.4299],[11.9205,9.4299],[11.9384,9.4299],[11.9542,9.4277],[11.9654,9.4254],[11.9721,9.4254],[11.9856,9.4277],[11.9946,9.4299],[12.0058,9.4322],[12.0193,9.4322],[12.0373,9.4389],[12.0462,9.4479],[12.0462,9.4546],[12.0485,9.4659],[12.0507,9.4748],[12.053,9.4838],[12.0575,9.5108],[12.0575,9.5243],[12.0575,9.5355],[12.0552,9.5467],[12.0597,9.5624],[12.0597,9.5737],[12.0664,9.5916],[12.0709,9.6051],[12.0732,9.6231],[12.0754,9.6365],[12.0709,9.6455],[12.062,9.6433],[12.0417,9.641],[12.0103,9.641],[12.0036,9.641],[11.9923,9.6433],[11.9766,9.6478],[11.9676,9.65],[11.9631,9.65],[11.9542,9.65],[11.9474,9.6478],[11.9609,9.641],[11.9654,9.632],[11.9699,9.6208],[11.9699,9.6029],[11.9699,9.5781],[11.9676,9.5557],[11.9654,9.5377],[11.9631,9.522],[11.9631,9.5108],[11.9609,9.5018],[11.9542,9.4928],[11.9474,9.4861],[11.9384,9.4816],[11.9339,9.4816],[11.925,9.4816],[11.9182,9.4838],[11.907,9.4883],[11.9003,9.4928],[11.8913,9.4951],[11.8778,9.4995],[11.8666,9.5018],[11.8553,9.504],[11.8441,9.504],[11.8306,9.5063],[11.8217,9.504],[11.8104,9.5018],[11.7925,9.4995],[11.779,9.4973],[11.7678,9.4951],[11.7408,9.4906],[11.7273,9.4861],[11.7161,9.4816],[11.7026,9.4771],[11.6824,9.4681],[11.6712,9.4614],[11.6577,9.4524],[11.6465,9.4456],[11.6398,9.4412],[11.6263,9.4367],[11.6128,9.4277],[11.6016,9.4209],[11.5769,9.412],[11.5701,9.4075],[11.5567,9.403],[11.5522,9.4007],[11.5522,9.3985],[11.5454,9.3985],[11.5387,9.403],[11.5342,9.403],[11.5364,9.3985]]]}},{"type":"Feature","properties":{"id":"adamawa/shelleng","name":"Shelleng","state":"Adamawa"},"geometry":{"type":"Polygon","coordinates":[[[11.9789,9.9173],[11.9878,9.9083],[11.9946,9.8993],[11.9991,9.8881],[11.9991,9.8746],[11.9991,9.8589],[12.0013,9.8297],[12.0013,9.8162],[12.0036,9.8027],[12.0058,9.7915],[12.0081,9.778],[12.0125,9.7578],[12.0125,9.7488],[12.0125,9.7376],[12.0103,9.7241],[12.0125,9.7062],[12.0148,9.6972],[12.0193,9.6904],[12.0238,9.6837],[12.0283,9.6747],[12.0373,9.6657],[12.044,9.6612],[12.053,9.659],[12.0642,9.6545],[12.0709,9.6455],[12.0844,9.6455],[12.0979,9.6478],[12.1338,9.65],[12.1495,9.65],[12.1698,9.6523],[12.1832,9.6523],[12.1967,9.6545],[12.2102,9.6545],[12.2371,9.659],[12.2439,9.6612],[12.2506,9.6657],[12.2439,9.6792],[12.2326,9.7017],[12.2214,9.7196],[12.2147,9.7309],[12.2057,9.7466],[12.1989,9.7623],[12.1945,9.7735],[12.1945,9.7825],[12.1989,9.814],[12.2057,9.8364],[12.2124,9.8454],[12.2124,9.8544],[12.2124,9.8656],[12.2124,9.8768],[12.2192,9.897],[12.2214,9.9083],[12.2214,9.9262],[12.2259,9.9375],[12.2304,9.9599],[12.2326,9.9689],[12.2326,9.9801],[12.2371,10.0071],[12.2416,10.0228],[12.2416,10.034],[12.2439,10.0453],[12.2461,10.0542],[12.2506,10.0722],[12.2528,10.0857],[12.2573,10.1014],[12.2641,10.1239],[12.2708,10.1351],[12.2775,10.1531],[12.2798,10.162],[12.282,10.171],[12.291,10.1845],[12.3,10.198],[12.3045,10.2092],[12.3112,10.2182],[12.3202,10.2362],[12.3225,10.2474],[12.3247,10.2586],[12.3292,10.2676],[12.3314,10.2788],[12.3292,10.2901],[12.3292,10.299],[12.3247,10.3058],[12.3202,10.3103],[12.3202,10.3148],[12.3135,10.3148],[12.3022,10.3125],[12.2955,10.308],[12.2888,10.3013],[12.2865,10.2968],[12.2798,10.2878],[12.2708,10.2788],[12.2641,10.2676],[12.2641,10.2631],[12.2641,10.2609],[12.2618,10.2541],[12.2596,10.2451],[12.2573,10.2384],[12.2484,10.2204],[12.2439,10.2159],[12.2371,10.2115],[12.2304,10.2092],[12.2259,10.2092],[12.2214,10.207],[12.2102,10.2002],[12.1967,10.1957],[12.1945,10.1935],[12.1832,10.1823],[12.172,10.171],[12.163,10.162],[12.1585,10.1553],[12.1495,10.1486],[12.145,10.1418],[12.1338,10.1284],[12.1293,10.1171],[12.1271,10.1126],[12.1226,10.1037],[12.1159,10.0969],[12.1091,10.0834],[12.1069,10.0745],[12.1069,10.0677],[12.1069,10.061],[12.1046,10.0542],[12.0979,10.0475],[12.0934,10.043],[12.0844,10.0385],[12.0799,10.0363],[12.0687,10.0363],[12.062,10.0385],[12.0485,10.0385],[12.044,10.0363],[12.0283,10.0318],[12.0058,10.0251],[12.0036,10.0251],[12.0036,10.0228],[11.9991,10.0116],[11.9923,10.0004],[11.9811,9.9756],[11.9834,9.9689],[11.9811,9.9532],[11.9811,9.9397],[11.9766,9.933],[11.9766,9.9262],[11.9789,9.9173]]]}},{"type":"Feature","properties":{"id":"adamawa/song","name":"Song","state":"Adamawa"},"geometry":{"type":"Polygon","coordinates":[[[12.1989,9.7623],[12.2057,9.7466],[12.2147,9.7309],[12.2214,9.7196],[12.2326,9.7017],[12.2439,9.6792],[12.2506,9.6657],[12.2596,9.6567],[12.2686,9.6433],[12.2731,9.6343],[12.2798,9.6163],[12.2775,9.5984],[12.2686,9.5826],[12.2663,9.5781],[12.2641,9.5602],[12.2663,9.5534],[12.2708,9.5467],[12.2731,9.5332],[12.2731,9.522],[12.2775,9.522],[12.2888,9.522],[12.3,9.522],[12.3112,9.5265],[12.318,9.531],[12.3247,9.5355],[12.3404,9.5467],[12.3517,9.5579],[12.3629,9.5692],[12.3719,9.5737],[12.3853,9.5826],[12.4011,9.5939],[12.4168,9.5984],[12.4437,9.6051],[12.4572,9.6051],[12.4729,9.6029],[12.4842,9.5984],[12.4954,9.5916],[12.5066,9.5849],[12.5178,9.5714],[12.5246,9.5624],[12.5336,9.5557],[12.5403,9.5512],[12.556,9.5512],[12.5762,9.5579],[12.6009,9.5781],[12.6122,9.5849],[12.6256,9.5939],[12.6436,9.6029],[12.6571,9.6096],[12.6638,9.6118],[12.6818,9.6141],[12.693,9.6118],[12.6953,9.6186],[12.7042,9.6276],[12.7065,9.632],[12.7087,9.6455],[12.7155,9.6792],[12.7155,9.6927],[12.7177,9.7039],[12.72,9.7196],[12.72,9.7309],[12.72,9.7398],[12.7222,9.7466],[12.7222,9.7511],[12.7267,9.7533],[12.7312,9.7488],[12.7492,9.7331],[12.7581,9.7264],[12.7649,9.7196],[12.7873,9.7017],[12.7986,9.6949],[12.8098,9.6882],[12.8233,9.6837],[12.8367,9.677],[12.848,9.6702],[12.8547,9.6635],[12.8749,9.6523],[12.8951,9.6433],[12.9131,9.6343],[12.9221,9.6298],[12.9445,9.6208],[12.9558,9.6163],[12.9692,9.6118],[12.9939,9.6029],[13.0074,9.5984],[13.0186,9.5961],[13.0299,9.5939],[13.0523,9.5849],[13.0658,9.5781],[13.0815,9.5692],[13.0838,9.5714],[13.0838,9.5781],[13.0838,9.5871],[13.086,9.5961],[13.0883,9.6029],[13.086,9.6118],[13.0838,9.6208],[13.086,9.6365],[13.0838,9.6455],[13.0883,9.6612],[13.0905,9.6815],[13.0905,9.6904],[13.0905,9.7084],[13.0905,9.7309],[13.0883,9.7421],[13.0928,9.7556],[13.0928,9.7735],[13.086,9.787],[13.0815,9.796],[13.0748,9.8095],[13.0681,9.8207],[13.0636,9.8319],[13.0591,9.8454],[13.0546,9.8723],[13.0546,9.8881],[13.0546,9.9015],[13.0501,9.9128],[13.0478,9.9307],[13.0433,9.9577],[13.0456,9.9824],[13.0478,9.9936],[13.0478,10.0004],[13.0501,10.0093],[13.0546,10.0206],[13.0568,10.0273],[13.0478,10.0273],[13.0389,10.0251],[13.0276,10.0206],[13.0074,10.0138],[12.9962,10.0071],[12.9805,10.0048],[12.9692,9.9981],[12.9513,9.9869],[12.9423,9.9824],[12.9153,9.9689],[12.8974,9.9622],[12.8906,9.9599],[12.8772,9.9712],[12.8592,9.9779],[12.848,9.9824],[12.8412,9.9914],[12.8367,10.0004],[12.8322,10.0048],[12.821,10.0048],[12.8075,10.0071],[12.7739,10.0116],[12.7559,10.0206],[12.7492,10.0251],[12.7379,10.0318],[12.7289,10.034],[12.72,10.0363],[12.7065,10.0385],[12.6953,10.0385],[12.684,10.0408],[12.6728,10.043],[12.6481,10.043],[12.6346,10.043],[12.6167,10.0453],[12.5987,10.043],[12.583,10.043],[12.5695,10.0453],[12.5583,10.043],[12.5425,10.043],[12.5291,10.043],[12.5044,10.0385],[12.4909,10.0363],[12.4819,10.0363],[12.4707,10.0385],[12.4595,10.0408],[12.4482,10.043],[12.4347,10.043],[12.4258,10.043],[12.4145,10.043],[12.4011,10.0453],[12.3764,10.043],[12.3292,10.043],[12.2978,10.0385],[12.2888,10.0363],[12.2798,10.034],[12.2753,10.0318],[12.2686,10.0318],[12.2641,10.0318],[12.2551,10.0318],[12.2506,10.0318],[12.2461,10.034],[12.2416,10.034],[12.2416,10.0228],[12.2371,10.0071],[12.2326,9.9801],[12.2326,9.9689],[12.2304,9.9599],[12.2259,9.9375],[12.2214,9.9262],[12.2214,9.9083],[12.2192,9.897],[12.2124,9.8768],[12.2124,9.8656],[12.2124,9.8544],[12.2124,9.8454],[12.2057,9.8364],[12.1989,9.814],[12.1945,9.7825],[12.1945,9.7735],[12.1989,9.7623]]]}},{"type":"Feature","properties":{"id":"adamawa/toungo","name":"Toungo","state":"Adamawa"},"geometry":{"type":"Polygon","coordinates":[[[11.35,8.0129],[11.3523,8.0016],[11.3545,7.9971],[11.3568,7.9926],[11.359,7.9904],[11.3635,7.9837],[11.3658,7.9769],[11.3658,7.9747],[11.3725,7.9657],[11.3837,7.95],[11.3927,7.9387],[11.3995,7.923],[11.4107,7.8983],[11.4197,7.8871],[11.4264,7.8759],[11.4354,7.8669],[11.4534,7.8422],[11.4646,7.8287],[11.4736,7.8152],[11.4825,7.8107],[11.4893,7.7995],[11.4938,7.7995],[11.5005,7.7995],[11.5073,7.8062],[11.514,7.8152],[11.5162,7.8242],[11.5252,7.8444],[11.5275,7.8534],[11.532,7.8669],[11.5342,7.8736],[11.5387,7.8826],[11.5387,7.8871],[11.5409,7.8916],[11.5454,7.8961],[11.5499,7.9028],[11.5522,7.9028],[11.5634,7.9051],[11.5701,7.9051],[11.5791,7.9051],[11.5948,7.8983],[11.624,7.8848],[11.6353,7.8759],[11.6465,7.8669],[11.651,7.8579],[11.6577,7.8467],[11.6712,7.8287],[11.6757,7.8197],[11.6802,7.8107],[11.6824,7.8018],[11.6869,7.795],[11.7049,7.786],[11.7116,7.7771],[11.7139,7.7748],[11.7341,7.7591],[11.7475,7.7434],[11.7543,7.7321],[11.7588,7.7254],[11.7655,7.694],[11.77,7.6827],[11.7723,7.6648],[11.7723,7.6513],[11.77,7.6266],[11.7655,7.6154],[11.7655,7.6041],[11.7678,7.5974],[11.7678,7.5907],[11.7678,7.5817],[11.7655,7.5749],[11.7655,7.5682],[11.7633,7.5592],[11.7633,7.548],[11.7633,7.5412],[11.7678,7.5121],[11.7723,7.4873],[11.7767,7.4806],[11.8014,7.4492],[11.8037,7.4469],[11.8104,7.4424],[11.8329,7.4177],[11.8441,7.3975],[11.8509,7.3863],[11.8531,7.3773],[11.889,7.3324],[11.8913,7.3369],[11.8935,7.3414],[11.8958,7.3436],[11.9003,7.3504],[11.9048,7.3593],[11.9092,7.3661],[11.9137,7.3706],[11.9137,7.3728],[11.9182,7.3796],[11.9227,7.384],[11.9227,7.3863],[11.925,7.3908],[11.925,7.393],[11.9272,7.393],[11.9272,7.3953],[11.9272,7.3998],[11.9272,7.4043],[11.9272,7.4087],[11.9272,7.4155],[11.9272,7.42],[11.9272,7.4222],[11.925,7.4222],[11.925,7.4245],[11.925,7.4267],[11.9272,7.429],[11.9317,7.4357],[11.9317,7.4379],[11.9295,7.4402],[11.925,7.4447],[11.9227,7.4469],[11.9205,7.4469],[11.9182,7.4469],[11.916,7.4514],[11.916,7.4537],[11.9137,7.4626],[11.9137,7.4649],[11.9137,7.4671],[11.916,7.4671],[11.9182,7.4694],[11.9205,7.4716],[11.9227,7.4739],[11.9227,7.4761],[11.9227,7.4784],[11.925,7.4784],[11.9317,7.4851],[11.9339,7.4873],[11.9362,7.4873],[11.9407,7.4873],[11.9429,7.4873],[11.9474,7.4873],[11.9497,7.4873],[11.9542,7.4873],[11.9564,7.4873],[11.9586,7.4873],[11.9586,7.4896],[11.9586,7.4918],[11.9609,7.4941],[11.9631,7.4941],[11.9631,7.4963],[11.9654,7.4963],[11.9676,7.4963],[11.9699,7.4986],[11.9699,7.5008],[11.9721,7.5008],[11.9766,7.5053],[11.9789,7.5053],[11.9856,7.5076],[11.9878,7.5076],[11.9901,7.5076],[11.9901,7.5098],[11.9923,7.5098],[11.9968,7.5098],[11.9991,7.5121],[12.0013,7.5143],[12.0036,7.5143],[12.0081,7.5188],[12.0103,7.521],[12.0103,7.5233],[12.0125,7.5233],[12.017,7.5233],[12.0193,7.5233],[12.0238,7.5278],[12.026,7.5278],[12.0238,7.53],[12.0193,7.5323],[12.017,7.5368],[12.0148,7.5368],[12.0103,7.5457],[12.0103,7.548],[12.0103,7.5502],[12.0125,7.5547],[12.0125,7.5592],[12.0081,7.5592],[12.0058,7.5615],[12.0058,7.5637],[12.0081,7.5637],[12.0081,7.566],[12.0103,7.566],[12.0103,7.5682],[12.0103,7.5727],[12.0081,7.5727],[12.0081,7.5749],[12.0058,7.5749],[12.0058,7.5794],[12.0036,7.5794],[12.0036,7.5817],[12.0058,7.5817],[12.0058,7.5839],[12.0081,7.5839],[12.0081,7.5862],[12.0103,7.5862],[12.0103,7.5884],[12.0103,7.5907],[12.0125,7.5907],[12.0125,7.5929],[12.0125,7.5951],[12.0081,7.5996],[12.0058,7.6019],[12.0058,7.6041],[12.0081,7.6109],[12.0081,7.6131],[12.0103,7.6131],[12.0103,7.6154],[12.0103,7.6176],[12.0103,7.6198],[12.0081,7.6221],[12.0103,7.6266],[12.0103,7.6288],[12.0125,7.6311],[12.0103,7.6311],[12.0081,7.6333],[12.0058,7.6356],[12.0036,7.6378],[12.0036,7.6401],[12.0036,7.6423],[12.0036,7.6446],[12.0058,7.6446],[12.0058,7.6468],[12.0081,7.6468],[12.0081,7.649],[12.0058,7.649],[12.0058,7.6513],[12.0058,7.6535],[12.0036,7.6558],[12.0036,7.658],[12.0013,7.658],[11.9991,7.6648],[11.9968,7.6648],[11.9968,7.667],[11.9968,7.6737],[11.9991,7.676],[11.9991,7.6782],[12.0013,7.6782],[12.0036,7.6782],[12.0058,7.676],[12.0148,7.6782],[12.017,7.6827],[12.017,7.685],[12.017,7.6872],[12.017,7.6895],[12.0193,7.6962],[12.0215,7.6985],[12.026,7.7029],[12.0283,7.7074],[12.0283,7.7097],[12.0283,7.7119],[12.0305,7.7119],[12.0305,7.7142],[12.0305,7.7164],[12.0328,7.7164],[12.0328,7.7187],[12.035,7.7187],[12.0373,7.7187],[12.0373,7.7209],[12.0395,7.7254],[12.0373,7.7276],[12.0373,7.7299],[12.0395,7.7321],[12.0417,7.7344],[12.0462,7.7344],[12.0507,7.7366],[12.053,7.7366],[12.053,7.7389],[12.0552,7.7434],[12.0552,7.7456],[12.0575,7.7456],[12.0575,7.7479],[12.0597,7.7523],[12.062,7.7546],[12.062,7.7568],[12.062,7.7591],[12.062,7.7613],[12.0597,7.7658],[12.0597,7.7681],[12.0597,7.7726],[12.0642,7.7771],[12.0664,7.7815],[12.0664,7.7838],[12.0687,7.786],[12.0687,7.7883],[12.0687,7.7928],[12.0709,7.795],[12.0732,7.7995],[12.0754,7.7995],[12.0777,7.7995],[12.0822,7.8062],[12.0844,7.8085],[12.0889,7.813],[12.0934,7.8197],[12.0979,7.8265],[12.1046,7.8332],[12.1091,7.8399],[12.1159,7.8444],[12.1203,7.8512],[12.1248,7.8579],[12.1271,7.8601],[12.1316,7.8646],[12.1361,7.8714],[12.1428,7.8781],[12.1473,7.8848],[12.1518,7.8916],[12.154,7.8938],[12.1563,7.8961],[12.1585,7.8983],[12.1585,7.9006],[12.163,7.9028],[12.163,7.9096],[12.1653,7.914],[12.1698,7.9185],[12.1698,7.9208],[12.1698,7.923],[12.172,7.923],[12.172,7.9253],[12.1742,7.9275],[12.1765,7.9275],[12.1765,7.9298],[12.1787,7.9298],[12.181,7.9298],[12.1832,7.9343],[12.1832,7.9365],[12.1855,7.9365],[12.1877,7.9365],[12.19,7.9387],[12.1945,7.941],[12.1945,7.9432],[12.1922,7.9455],[12.1922,7.9477],[12.1922,7.95],[12.1945,7.95],[12.1945,7.9522],[12.1945,7.9545],[12.1922,7.9545],[12.19,7.9567],[12.1922,7.959],[12.1945,7.9612],[12.1989,7.9612],[12.2012,7.9634],[12.2034,7.9657],[12.2057,7.9657],[12.2057,7.9679],[12.2079,7.9702],[12.2079,7.9724],[12.2102,7.9724],[12.2102,7.9747],[12.2102,7.9769],[12.2102,7.9792],[12.2102,7.9814],[12.2124,7.9814],[12.2102,7.9859],[12.2102,7.9882],[12.2079,7.9904],[12.2034,7.9971],[12.2012,7.9994],[12.2012,8.0016],[12.1989,8.0084],[12.1989,8.0106],[12.1989,8.0129],[12.1989,8.0151],[12.1989,8.0196],[12.1989,8.0218],[12.2012,8.0241],[12.1989,8.0263],[12.1989,8.0286],[12.1989,8.0308],[12.1989,8.0331],[12.1989,8.0353],[12.1989,8.0443],[12.1989,8.051],[12.2012,8.0555],[12.2012,8.06],[12.1989,8.0623],[12.1967,8.0668],[12.1967,8.069],[12.1945,8.0712],[12.1945,8.0735],[12.1945,8.078],[12.1922,8.087],[12.1922,8.0892],[12.19,8.0937],[12.19,8.0959],[12.1922,8.1072],[12.1922,8.1094],[12.1922,8.1117],[12.1945,8.1139],[12.1967,8.1162],[12.1967,8.1184],[12.2012,8.1251],[12.2012,8.1274],[12.2034,8.1296],[12.2034,8.1319],[12.2057,8.1319],[12.2079,8.1341],[12.2102,8.1364],[12.2124,8.1386],[12.2169,8.1409],[12.2214,8.1431],[12.2259,8.1431],[12.2281,8.1476],[12.2326,8.1543],[12.2326,8.1588],[12.2349,8.1633],[12.2349,8.1723],[12.2349,8.1746],[12.2349,8.1768],[12.2349,8.1813],[12.2349,8.1858],[12.2349,8.1903],[12.2349,8.1925],[12.2349,8.197],[12.2349,8.1993],[12.2349,8.2082],[12.2371,8.2172],[12.2371,8.2195],[12.2371,8.2217],[12.2371,8.224],[12.2371,8.2329],[12.2371,8.2419],[12.2371,8.2442],[12.2371,8.2464],[12.2349,8.2464],[12.2236,8.2397],[12.2192,8.2374],[12.2124,8.2352],[12.2034,8.2352],[12.1967,8.2374],[12.1922,8.2419],[12.1787,8.2442],[12.1675,8.2464],[12.1563,8.2487],[12.1338,8.2374],[12.1248,8.2329],[12.1181,8.2262],[12.1001,8.215],[12.0911,8.2105],[12.0822,8.206],[12.0687,8.2082],[12.053,8.2082],[12.044,8.2082],[12.0328,8.2082],[12.017,8.2105],[12.0013,8.2172],[11.9856,8.2217],[11.9699,8.2262],[11.9609,8.2307],[11.9542,8.2352],[11.9384,8.2442],[11.916,8.2554],[11.8868,8.2644],[11.8711,8.2689],[11.8621,8.2734],[11.8531,8.2756],[11.8441,8.2801],[11.8284,8.2868],[11.8104,8.2981],[11.7902,8.3048],[11.7835,8.3071],[11.7723,8.3115],[11.7588,8.3138],[11.7475,8.3205],[11.7318,8.3273],[11.7206,8.334],[11.7116,8.3385],[11.6959,8.3475],[11.6847,8.3542],[11.6734,8.3587],[11.6667,8.3632],[11.6532,8.3722],[11.6442,8.3767],[11.6398,8.3789],[11.6308,8.3834],[11.6285,8.3857],[11.6218,8.3767],[11.6195,8.3722],[11.615,8.3699],[11.6016,8.352],[11.5903,8.3318],[11.5859,8.3205],[11.5769,8.3048],[11.5724,8.2981],[11.5656,8.2846],[11.5612,8.2734],[11.5544,8.2599],[11.5499,8.2509],[11.5454,8.2464],[11.5387,8.2352],[11.523,8.215],[11.514,8.206],[11.505,8.1948],[11.496,8.1858],[11.4781,8.1701],[11.4623,8.1566],[11.4399,8.1364],[11.4264,8.1229],[11.4084,8.1072],[11.4017,8.1004],[11.3905,8.0937],[11.3837,8.087],[11.3792,8.0825],[11.377,8.078],[11.3635,8.0645],[11.3568,8.0555],[11.3523,8.0465],[11.3456,8.0421],[11.3456,8.0376],[11.3478,8.0353],[11.3523,8.0353],[11.3545,8.0331],[11.3545,8.0263],[11.35,8.0286],[11.3478,8.0308],[11.3433,8.0286],[11.3411,8.0218],[11.3411,8.0196],[11.35,8.0129]]]}},{"type":"Feature","properties":{"id":"adamawa/yola-north","name":"Yola North","state":"Adamawa"},"geometry":{"type":"Polygon","coordinates":[[[12.0979,9.1762],[12.1024,9.1739],[12.1091,9.1717],[12.1136,9.1717],[12.1203,9.1739],[12.1248,9.1762],[12.1338,9.1806],[12.1428,9.1851],[12.1518,9.1919],[12.1585,9.1964],[12.1675,9.1986],[12.172,9.2009],[12.181,9.2054],[12.1855,9.2098],[12.1922,9.2166],[12.1967,9.2211],[12.2124,9.2368],[12.2192,9.2413],[12.2371,9.2525],[12.2506,9.2593],[12.2641,9.2615],[12.2753,9.257],[12.291,9.2525],[12.3045,9.2503],[12.309,9.2458],[12.3157,9.2413],[12.3292,9.2301],[12.3337,9.2233],[12.3382,9.2143],[12.3427,9.2076],[12.3606,9.1851],[12.3674,9.1762],[12.3921,9.147],[12.3988,9.138],[12.4033,9.129],[12.4145,9.12],[12.4213,9.1133],[12.4303,9.1088],[12.4392,9.102],[12.4595,9.0953],[12.4662,9.0953],[12.4707,9.0953],[12.4774,9.0976],[12.4931,9.0953],[12.4999,9.0953],[12.5246,9.0931],[12.547,9.0908],[12.5605,9.0931],[12.5717,9.0998],[12.583,9.1088],[12.5897,9.1178],[12.5964,9.1312],[12.5942,9.1402],[12.6054,9.1559],[12.6099,9.1717],[12.6099,9.1874],[12.6077,9.2009],[12.6054,9.2098],[12.6077,9.2211],[12.6077,9.2345],[12.6009,9.2301],[12.5875,9.2233],[12.5807,9.2211],[12.5762,9.2211],[12.5448,9.2166],[12.5291,9.2166],[12.5246,9.2188],[12.5066,9.2256],[12.4999,9.2301],[12.4909,9.2435],[12.4819,9.2503],[12.4819,9.2435],[12.4819,9.239],[12.4774,9.2278],[12.4729,9.2233],[12.4662,9.2188],[12.455,9.2143],[12.4482,9.2143],[12.428,9.2121],[12.4078,9.2143],[12.3943,9.2188],[12.3853,9.2211],[12.3764,9.2233],[12.3629,9.2278],[12.3539,9.2323],[12.3494,9.2345],[12.3449,9.239],[12.3427,9.2435],[12.3404,9.2548],[12.3449,9.2615],[12.3472,9.2682],[12.3539,9.275],[12.3719,9.2907],[12.3764,9.2929],[12.3831,9.2974],[12.3966,9.3042],[12.4011,9.3042],[12.4145,9.3087],[12.419,9.3109],[12.41,9.3199],[12.4011,9.3266],[12.3853,9.3423],[12.3764,9.3536],[12.3696,9.3648],[12.3651,9.376],[12.3584,9.3873],[12.3449,9.403],[12.3382,9.4097],[12.3292,9.4232],[12.3247,9.4299],[12.3202,9.4389],[12.3135,9.4456],[12.309,9.4412],[12.3022,9.4322],[12.2843,9.4007],[12.2775,9.3873],[12.2731,9.376],[12.2686,9.3715],[12.2618,9.367],[12.2236,9.3423],[12.2169,9.3379],[12.2012,9.3176],[12.1855,9.3064],[12.1765,9.2952],[12.1675,9.2884],[12.1608,9.2772],[12.154,9.2637],[12.1406,9.2368],[12.1316,9.2278],[12.1203,9.2211],[12.1136,9.2143],[12.1046,9.2054],[12.0979,9.1986],[12.0867,9.1874],[12.0844,9.1829],[12.0979,9.1762]]]}},{"type":"Feature","properties":{"id":"adamawa/yola-south","name":"Yola South","state":"Adamawa"},"geometry":{"type":"Polygon","coordinates":[[[12.3427,9.2435],[12.3449,9.239],[12.3494,9.2345],[12.3539,9.2323],[12.3629,9.2278],[12.3764,9.2233],[12.3853,9.2211],[12.3943,9.2188],[12.4078,9.2143],[12.428,9.2121],[12.4482,9.2143],[12.455,9.2143],[12.4662,9.2188],[12.4729,9.2233],[12.4774,9.2278],[12.4819,9.239],[12.4819,9.2435],[12.4819,9.2503],[12.4684,9.2637],[12.4572,9.2727],[12.4482,9.2817],[12.4347,9.2952],[12.419,9.3109],[12.4145,9.3087],[12.4011,9.3042],[12.3966,9.3042],[12.3831,9.2974],[12.3764,9.2929],[12.3719,9.2907],[12.3539,9.275],[12.3472,9.2682],[12.3449,9.2615],[12.3404,9.2548],[12.3427,9.2435]]]}}]}