{"type":"FeatureCollection","features":[{"type":"Feature","properties":{"id":"akwa-ibom/abak","name":"Abak","state":"Akwa Ibom"},"geometry":{"type":"Polygon","coordinates":[[[7.6827,5.0327],[7.6827,5.0305],[7.685,5.0238],[7.6872,5.017],[7.6895,5.0148],[7.6917,5.0103],[7.6985,5.0058],[7.7029,5.0013],[7.7052,5.0013],[7.7097,4.9991],[7.7142,4.9991],[7.7187,4.9991],[7.7209,5.0013],[7.7276,5.0035],[7.7366,5.008],[7.7389,5.0125],[7.7434,5.0148],[7.7456,5.017],[7.7479,5.017],[7.7523,5.0148],[7.7591,5.0103],[7.7591,5.008],[7.7591,5.0035],[7.7568,5.0013],[7.7546,4.9991],[7.7501,4.9991],[7.7456,4.9991],[7.7411,4.9991],[7.7389,5.0013],[7.7366,5.0013],[7.7321,4.9991],[7.7299,4.9968],[7.7299,4.9946],[7.7299,4.9901],[7.7321,4.9901],[7.7344,4.9878],[7.7366,4.9878],[7.7411,4.9878],[7.7479,4.9856],[7.7479,4.9833],[7.7479,4.9811],[7.7434,4.9811],[7.7456,4.9788],[7.7479,4.9766],[7.7523,4.9743],[7.7546,4.9743],[7.7681,4.9699],[7.7771,4.9631],[7.7838,4.9609],[7.786,4.9609],[7.7883,4.9564],[7.7883,4.9541],[7.786,4.9429],[7.786,4.9384],[7.786,4.9362],[7.7838,4.9317],[7.7838,4.9294],[7.7815,4.9272],[7.7793,4.9227],[7.7793,4.9182],[7.7793,4.9137],[7.786,4.898],[7.786,4.8957],[7.7883,4.8913],[7.7905,4.889],[7.795,4.889],[7.7973,4.889],[7.7995,4.8913],[7.8018,4.8957],[7.8062,4.9025],[7.8062,4.907],[7.8085,4.9115],[7.8085,4.9182],[7.8107,4.9317],[7.813,4.9452],[7.8175,4.9609],[7.8197,4.9631],[7.8197,4.9654],[7.8265,4.9811],[7.8287,4.9856],[7.831,4.9901],[7.8332,4.9968],[7.8332,5.0013],[7.8332,5.0035],[7.8332,5.008],[7.8287,5.017],[7.8242,5.0282],[7.8197,5.044],[7.8175,5.0507],[7.8107,5.0709],[7.8107,5.0754],[7.8107,5.0777],[7.813,5.0777],[7.8152,5.0799],[7.8175,5.0844],[7.8152,5.0889],[7.8152,5.0911],[7.813,5.0934],[7.8085,5.0956],[7.8062,5.0979],[7.8062,5.1001],[7.8085,5.1024],[7.8107,5.1024],[7.813,5.1091],[7.813,5.1113],[7.8107,5.1136],[7.8085,5.1158],[7.8062,5.1158],[7.8018,5.1158],[7.7995,5.1158],[7.7905,5.1181],[7.7883,5.1203],[7.7546,5.0709],[7.7479,5.0732],[7.7456,5.0732],[7.7411,5.0754],[7.7389,5.0754],[7.7344,5.0754],[7.7254,5.0754],[7.7209,5.0732],[7.7164,5.0709],[7.7164,5.0687],[7.7142,5.0664],[7.7119,5.0642],[7.7119,5.0597],[7.7097,5.0552],[7.7097,5.053],[7.7097,5.0507],[7.7074,5.0485],[7.7007,5.0485],[7.6962,5.0507],[7.6917,5.0507],[7.6805,5.0485],[7.6805,5.0395],[7.6827,5.0327]]]}},{"type":"Feature","properties":{"id":"akwa-ibom/eastern-obolo","name":"Eastern Obolo","state":"Akwa Ibom"},"geometry":{"type":"Polygon","coordinates":[[[7.5794,4.5117],[7.5862,4.5072],[7.5862,4.505],[7.5974,4.4982],[7.6019,4.4915],[7.6019,4.4893],[7.6019,4.4825],[7.6041,4.4803],[7.6064,4.4758],[7.6198,4.4735],[7.6423,4.4848],[7.6603,4.4938],[7.6625,4.4938],[7.6648,4.4938],[7.6693,4.496],[7.6715,4.4982],[7.676,4.496],[7.6782,4.496],[7.685,4.496],[7.6872,4.496],[7.6962,4.4982],[7.7232,4.5027],[7.7479,4.5072],[7.7546,4.5095],[7.7703,4.514],[7.7748,4.514],[7.7771,4.514],[7.7883,4.5162],[7.7905,4.5162],[7.8062,4.5185],[7.8107,4.5185],[7.8265,4.5207],[7.813,4.5544],[7.8107,4.5634],[7.7928,4.5589],[7.7703,4.5521],[7.7546,4.5477],[7.7321,4.5432],[7.7187,4.5409],[7.7142,4.5409],[7.7052,4.5387],[7.7007,4.5342],[7.6917,4.5319],[7.6872,4.5297],[7.6827,4.5297],[7.6782,4.5297],[7.676,4.5319],[7.6737,4.5342],[7.6737,4.5364],[7.6737,4.5387],[7.6782,4.5409],[7.6827,4.5454],[7.6782,4.5499],[7.6715,4.5477],[7.6625,4.5409],[7.6558,4.5364],[7.6535,4.5342],[7.6513,4.5319],[7.6446,4.5319],[7.6423,4.5319],[7.6401,4.5319],[7.6356,4.5342],[7.6221,4.5364],[7.6086,4.5274],[7.6064,4.5252],[7.6131,4.5185],[7.6198,4.5185],[7.6221,4.5162],[7.6266,4.514],[7.6266,4.5117],[7.6243,4.5095],[7.6154,4.5072],[7.6086,4.5072],[7.6064,4.5072],[7.5996,4.5162],[7.5929,4.5185],[7.5907,4.5185],[7.5839,4.5185],[7.5817,4.514],[7.5772,4.514],[7.5794,4.5117]]]}},{"type":"Feature","properties":{"id":"akwa-ibom/eket","name":"Eket","state":"Akwa Ibom"},"geometry":{"type":"Polygon","coordinates":[[[7.8804,4.6555],[7.8804,4.651],[7.8826,4.6487],[7.8848,4.6465],[7.8848,4.6442],[7.8938,4.6397],[7.8983,4.6397],[7.9006,4.6397],[7.9028,4.642],[7.9096,4.642],[7.9118,4.642],[7.9163,4.642],[7.9163,4.6375],[7.9163,4.6352],[7.9163,4.633],[7.914,4.6307],[7.914,4.6285],[7.9096,4.6263],[7.9096,4.624],[7.9073,4.6218],[7.9073,4.6195],[7.9096,4.615],[7.914,4.6128],[7.9185,4.6105],[7.923,4.6083],[7.9253,4.6083],[7.9253,4.606],[7.9275,4.6038],[7.9275,4.6016],[7.9275,4.5993],[7.9253,4.5971],[7.9208,4.5948],[7.9163,4.5948],[7.914,4.5948],[7.9096,4.5971],[7.9073,4.5971],[7.8983,4.5993],[7.8938,4.6016],[7.8916,4.6016],[7.8893,4.6016],[7.8893,4.5971],[7.8916,4.5858],[7.8938,4.5813],[7.8961,4.5769],[7.8983,4.5724],[7.9006,4.5701],[7.8961,4.5544],[7.9096,4.5566],[7.932,4.5634],[7.941,4.5701],[7.9477,4.5746],[7.9545,4.5769],[7.9612,4.5769],[7.9814,4.5836],[7.9882,4.5858],[7.9926,4.5836],[7.9971,4.5836],[8.0016,4.5813],[8.0039,4.5813],[8.0084,4.5836],[8.0106,4.5858],[8.0106,4.5881],[8.0106,4.5903],[8.0106,4.5971],[8.0061,4.6128],[8.0016,4.6263],[7.9994,4.633],[7.9994,4.6375],[7.9994,4.642],[8.0016,4.6442],[8.0039,4.6465],[8.0061,4.6465],[8.0084,4.6487],[8.0173,4.6532],[8.0173,4.6555],[8.0196,4.6577],[8.0196,4.6599],[8.0196,4.6689],[8.0218,4.6734],[8.0218,4.6824],[8.0218,4.6936],[8.0151,4.6914],[8.0129,4.6914],[8.0084,4.6891],[7.9994,4.6869],[7.9971,4.6846],[7.9926,4.6824],[7.9859,4.6802],[7.9837,4.6824],[7.9814,4.6846],[7.9792,4.6891],[7.9769,4.6936],[7.9724,4.6959],[7.9724,4.6981],[7.9679,4.6959],[7.9634,4.6914],[7.9545,4.6824],[7.9522,4.6802],[7.95,4.6802],[7.9477,4.6802],[7.9432,4.6824],[7.9343,4.6891],[7.9208,4.6981],[7.9096,4.7071],[7.9028,4.7116],[7.8961,4.7138],[7.8938,4.7161],[7.8848,4.7161],[7.8826,4.7138],[7.8826,4.7049],[7.8848,4.7004],[7.8871,4.6959],[7.8893,4.6936],[7.8916,4.6914],[7.8916,4.6891],[7.8938,4.6869],[7.8916,4.6802],[7.8893,4.6802],[7.8893,4.6779],[7.8848,4.6734],[7.8804,4.6644],[7.8781,4.6622],[7.8781,4.6599],[7.8804,4.6555]]]}},{"type":"Feature","properties":{"id":"akwa-ibom/esit-eket","name":"Esit Eket","state":"Akwa Ibom"},"geometry":{"type":"Polygon","coordinates":[[[8.0016,4.6263],[8.0061,4.6128],[8.0106,4.5971],[8.0106,4.5903],[8.0106,4.5881],[8.0106,4.5858],[8.0173,4.5836],[8.0398,4.5858],[8.0735,4.5926],[8.0802,4.5948],[8.1139,4.5971],[8.1229,4.5971],[8.1341,4.5993],[8.1431,4.5993],[8.1476,4.5993],[8.1498,4.6016],[8.1543,4.6128],[8.1543,4.6173],[8.1543,4.6195],[8.1521,4.624],[8.1521,4.633],[8.1521,4.6397],[8.1521,4.6442],[8.1521,4.6465],[8.1521,4.6532],[8.1498,4.6599],[8.1476,4.6644],[8.1409,4.6712],[8.1386,4.6734],[8.1364,4.6757],[8.1341,4.6757],[8.1251,4.6802],[8.1162,4.6846],[8.1072,4.6869],[8.0915,4.6891],[8.0802,4.6959],[8.0757,4.6981],[8.0712,4.7004],[8.069,4.7026],[8.06,4.7004],[8.0555,4.7004],[8.0533,4.7004],[8.0488,4.7004],[8.0421,4.6959],[8.0398,4.6936],[8.0376,4.6914],[8.0286,4.6914],[8.0218,4.6936],[8.0218,4.6824],[8.0218,4.6734],[8.0196,4.6689],[8.0196,4.6599],[8.0196,4.6577],[8.0173,4.6555],[8.0173,4.6532],[8.0084,4.6487],[8.0061,4.6465],[8.0039,4.6465],[8.0016,4.6442],[7.9994,4.642],[7.9994,4.6375],[7.9994,4.633],[8.0016,4.6263]]]}},{"type":"Feature","properties":{"id":"akwa-ibom/essien-udim","name":"Essien Udim","state":"Akwa Ibom"},"geometry":{"type":"Polygon","coordinates":[[[7.5323,5.1473],[7.5323,5.1293],[7.5345,5.1158],[7.5345,5.1113],[7.5345,5.1091],[7.539,5.1024],[7.5435,5.0934],[7.548,5.0889],[7.557,5.0777],[7.5592,5.0754],[7.5615,5.0732],[7.566,5.0709],[7.5704,5.0664],[7.5772,5.0619],[7.5817,5.0597],[7.5907,5.0552],[7.5951,5.0552],[7.6019,5.0552],[7.6064,5.053],[7.6109,5.0507],[7.6154,5.0485],[7.6176,5.0462],[7.6266,5.0215],[7.6311,5.026],[7.6356,5.0305],[7.6446,5.035],[7.649,5.0395],[7.6558,5.044],[7.6625,5.0462],[7.6693,5.0462],[7.6737,5.0462],[7.6805,5.0485],[7.6917,5.0507],[7.6962,5.0507],[7.7007,5.0485],[7.7074,5.0485],[7.7097,5.0507],[7.7097,5.053],[7.7097,5.0552],[7.7119,5.0597],[7.7119,5.0642],[7.7142,5.0664],[7.7164,5.0687],[7.7164,5.0709],[7.7209,5.0732],[7.7254,5.0754],[7.7344,5.0754],[7.7389,5.0754],[7.7411,5.0754],[7.7456,5.0732],[7.7479,5.0732],[7.7546,5.0709],[7.7883,5.1203],[7.7905,5.1248],[7.7973,5.1338],[7.8018,5.1405],[7.7995,5.1428],[7.7928,5.145],[7.7838,5.145],[7.7793,5.145],[7.7771,5.145],[7.7703,5.1473],[7.7636,5.1495],[7.7613,5.145],[7.7591,5.1405],[7.7546,5.1338],[7.7479,5.1316],[7.7456,5.1316],[7.7366,5.1316],[7.7299,5.1338],[7.7254,5.136],[7.7232,5.1383],[7.7187,5.1428],[7.7119,5.1473],[7.7074,5.1473],[7.7007,5.1495],[7.6985,5.1495],[7.6917,5.1518],[7.685,5.1495],[7.6782,5.1518],[7.6737,5.1518],[7.6715,5.154],[7.6648,5.1563],[7.6625,5.1585],[7.6558,5.163],[7.6535,5.1652],[7.6535,5.1675],[7.6535,5.1742],[7.6535,5.1787],[7.6513,5.181],[7.6468,5.1854],[7.6446,5.1877],[7.6401,5.1877],[7.6378,5.1877],[7.6356,5.1854],[7.6333,5.1855],[7.6311,5.1832],[7.6288,5.181],[7.6288,5.1787],[7.6311,5.1765],[7.6311,5.1742],[7.6266,5.172],[7.6221,5.172],[7.6154,5.1697],[7.6131,5.1697],[7.6086,5.172],[7.6086,5.1742],[7.6041,5.1742],[7.5929,5.1765],[7.5839,5.1765],[7.5817,5.1742],[7.5794,5.172],[7.5772,5.1697],[7.5749,5.1675],[7.5727,5.1652],[7.566,5.1607],[7.5615,5.1607],[7.557,5.1585],[7.5525,5.1563],[7.5412,5.1518],[7.53,5.1495],[7.5323,5.1473]]]}},{"type":"Feature","properties":{"id":"akwa-ibom/etim-ekpo","name":"Etim Ekpo","state":"Akwa Ibom"},"geometry":{"type":"Polygon","coordinates":[[[7.4784,4.9025],[7.4806,4.8913],[7.4806,4.8868],[7.4806,4.8823],[7.4829,4.88],[7.4896,4.8666],[7.4918,4.8643],[7.4941,4.8621],[7.4963,4.8598],[7.5053,4.8688],[7.5098,4.8755],[7.5121,4.88],[7.5143,4.8845],[7.5165,4.8868],[7.5188,4.889],[7.5233,4.8913],[7.5255,4.8935],[7.53,4.898],[7.5412,4.9092],[7.5457,4.9137],[7.5547,4.9227],[7.5615,4.9317],[7.566,4.9384],[7.5682,4.9407],[7.5749,4.9452],[7.5772,4.9474],[7.5817,4.9474],[7.5839,4.9474],[7.5884,4.9474],[7.5974,4.9474],[7.6086,4.9519],[7.6176,4.9564],[7.6221,4.9586],[7.6333,4.9631],[7.6356,4.9631],[7.6378,4.9631],[7.6401,4.9609],[7.6468,4.9541],[7.649,4.9519],[7.649,4.9496],[7.6513,4.9452],[7.6535,4.9429],[7.658,4.9384],[7.6693,4.9339],[7.6715,4.9317],[7.676,4.9294],[7.6805,4.9294],[7.685,4.9317],[7.6895,4.9317],[7.6917,4.9362],[7.694,4.9362],[7.6962,4.9407],[7.6962,4.9452],[7.6962,4.9496],[7.6985,4.9609],[7.7007,4.9631],[7.7029,4.9654],[7.7029,4.9676],[7.7052,4.9721],[7.7052,4.9743],[7.7029,4.9766],[7.7029,4.9788],[7.7029,4.9878],[7.7074,4.9923],[7.7097,4.9946],[7.7142,4.9991],[7.7097,4.9991],[7.7052,5.0013],[7.7029,5.0013],[7.6985,5.0058],[7.6917,5.0103],[7.6895,5.0148],[7.6872,5.017],[7.685,5.0238],[7.6827,5.0305],[7.6827,5.0327],[7.6805,5.0395],[7.6805,5.0485],[7.6737,5.0462],[7.6693,5.0462],[7.6625,5.0462],[7.6558,5.044],[7.649,5.0395],[7.6446,5.035],[7.6356,5.0305],[7.6311,5.026],[7.6266,5.0215],[7.6176,5.0462],[7.6109,5.0395],[7.6064,5.035],[7.6041,5.035],[7.6019,5.0327],[7.5974,5.0305],[7.5929,5.0282],[7.5839,5.0238],[7.5817,5.0193],[7.5772,5.017],[7.5749,5.0125],[7.5727,5.0103],[7.5592,4.9901],[7.5502,4.9721],[7.548,4.9699],[7.5435,4.9654],[7.5435,4.9631],[7.5412,4.9609],[7.5323,4.9541],[7.53,4.9519],[7.5255,4.9496],[7.521,4.9474],[7.5143,4.9452],[7.5121,4.9452],[7.5031,4.9452],[7.4918,4.9474],[7.4918,4.9452],[7.4896,4.9429],[7.4873,4.9384],[7.4851,4.9362],[7.4829,4.9339],[7.4806,4.9339],[7.4784,4.9205],[7.4784,4.916],[7.4761,4.907],[7.4784,4.9025]]]}},{"type":"Feature","properties":{"id":"akwa-ibom/etinan","name":"Etinan","state":"Akwa Ibom"},"geometry":{"type":"Polygon","coordinates":[[[7.8018,4.7812],[7.804,4.7655],[7.8085,4.7588],[7.8107,4.7565],[7.813,4.7543],[7.813,4.7498],[7.813,4.7453],[7.813,4.7408],[7.813,4.7363],[7.813,4.7318],[7.8107,4.7206],[7.8175,4.7138],[7.822,4.7116],[7.8265,4.7093],[7.8332,4.7071],[7.8399,4.7026],[7.8422,4.7026],[7.8489,4.7049],[7.8512,4.7049],[7.8579,4.7071],[7.8601,4.7071],[7.8691,4.7116],[7.8759,4.7161],[7.8848,4.7161],[7.8848,4.7228],[7.8848,4.7251],[7.8871,4.7318],[7.8871,4.743],[7.8871,4.7475],[7.8848,4.7498],[7.8848,4.7543],[7.8826,4.7588],[7.8826,4.761],[7.8826,4.7632],[7.8826,4.7677],[7.8826,4.7722],[7.8848,4.7745],[7.8848,4.7767],[7.8848,4.7812],[7.8848,4.7857],[7.8848,4.7902],[7.8826,4.7924],[7.8804,4.7969],[7.8781,4.8014],[7.8736,4.8059],[7.8691,4.8104],[7.8669,4.8127],[7.8691,4.8171],[7.8714,4.8239],[7.8714,4.8306],[7.8736,4.8396],[7.8714,4.8441],[7.8714,4.8508],[7.8691,4.8553],[7.8669,4.8598],[7.8669,4.8621],[7.8646,4.8666],[7.8691,4.871],[7.8714,4.8733],[7.8736,4.8755],[7.8759,4.88],[7.8759,4.8845],[7.8714,4.8913],[7.8669,4.9025],[7.8557,4.9205],[7.8534,4.9317],[7.8534,4.9339],[7.8534,4.9362],[7.8512,4.9384],[7.8512,4.9407],[7.8512,4.9541],[7.8534,4.9609],[7.8534,4.9631],[7.8534,4.9654],[7.8534,4.9699],[7.8534,4.9743],[7.8534,4.9766],[7.8512,4.9788],[7.8512,4.9811],[7.8489,4.9856],[7.8444,4.9878],[7.8422,4.9833],[7.8399,4.9811],[7.8399,4.9788],[7.8399,4.9743],[7.8377,4.9699],[7.8377,4.9631],[7.8354,4.9586],[7.8354,4.9564],[7.8332,4.9496],[7.831,4.9474],[7.8287,4.9452],[7.8287,4.9429],[7.8265,4.9407],[7.8265,4.9339],[7.8265,4.9294],[7.8287,4.9249],[7.8287,4.9227],[7.831,4.9182],[7.8332,4.9092],[7.8332,4.8913],[7.8332,4.8868],[7.8332,4.8845],[7.831,4.8823],[7.8287,4.88],[7.8265,4.8778],[7.822,4.8778],[7.8175,4.8778],[7.8152,4.8778],[7.8062,4.8778],[7.8152,4.8463],[7.8152,4.8441],[7.8175,4.8396],[7.8197,4.8374],[7.8197,4.8329],[7.8197,4.8306],[7.8197,4.8284],[7.8175,4.8261],[7.8152,4.8239],[7.8107,4.8171],[7.8062,4.8127],[7.8062,4.8104],[7.8062,4.8059],[7.804,4.7992],[7.8018,4.7924],[7.8018,4.788],[7.7995,4.7857],[7.8018,4.7812]]]}},{"type":"Feature","properties":{"id":"akwa-ibom/ibeno","name":"Ibeno","state":"Akwa Ibom"},"geometry":{"type":"Polygon","coordinates":[[[7.8265,4.5207],[7.8399,4.523],[7.8534,4.5252],[7.932,4.5319],[7.9522,4.5342],[7.9882,4.5387],[8.0016,4.5387],[8.0106,4.5409],[8.0196,4.5409],[8.0263,4.5432],[8.0847,4.5432],[8.1162,4.5454],[8.1229,4.5454],[8.1454,4.5454],[8.1476,4.5454],[8.1543,4.5454],[8.1746,4.5454],[8.179,4.5454],[8.2037,4.5454],[8.206,4.5454],[8.215,4.5454],[8.2464,4.5432],[8.2621,4.5432],[8.2756,4.5432],[8.2823,4.5432],[8.2891,4.5432],[8.2936,4.5454],[8.2958,4.5499],[8.3003,4.5544],[8.3115,4.5679],[8.316,4.5724],[8.2981,4.5746],[8.2936,4.5724],[8.2936,4.5679],[8.2913,4.5656],[8.2891,4.5634],[8.2779,4.5589],[8.2689,4.5589],[8.2644,4.5589],[8.2464,4.5634],[8.2464,4.5679],[8.2442,4.5746],[8.2419,4.5769],[8.2419,4.5791],[8.2284,4.5948],[8.224,4.5993],[8.2172,4.6038],[8.2082,4.6038],[8.2015,4.6038],[8.197,4.6038],[8.1835,4.6016],[8.1678,4.6038],[8.1633,4.6038],[8.1588,4.6016],[8.1498,4.6016],[8.1476,4.5993],[8.1431,4.5993],[8.1341,4.5993],[8.1229,4.5971],[8.1139,4.5971],[8.0802,4.5948],[8.0735,4.5926],[8.0398,4.5858],[8.0173,4.5836],[8.0106,4.5858],[8.0084,4.5836],[8.0039,4.5813],[8.0016,4.5813],[7.9971,4.5836],[7.9926,4.5836],[7.9882,4.5858],[7.9814,4.5836],[7.9612,4.5769],[7.9545,4.5769],[7.9477,4.5746],[7.941,4.5701],[7.932,4.5634],[7.9096,4.5566],[7.8961,4.5544],[7.8938,4.5544],[7.8848,4.5544],[7.8736,4.5544],[7.8557,4.5544],[7.8512,4.5544],[7.8354,4.5544],[7.822,4.5566],[7.813,4.5544],[7.8265,4.5207]]]}},{"type":"Feature","properties":{"id":"akwa-ibom/ibesikpo-asutan","name":"Ibesikpo Asutan","state":"Akwa Ibom"},"geometry":{"type":"Polygon","coordinates":[[[7.8848,4.9968],[7.8871,4.9901],[7.8871,4.9878],[7.8871,4.9833],[7.8871,4.9811],[7.8893,4.9743],[7.8938,4.9631],[7.8961,4.9609],[7.8983,4.9564],[7.9006,4.9519],[7.9051,4.9474],[7.9096,4.9429],[7.9208,4.9227],[7.9253,4.9137],[7.9275,4.9047],[7.9343,4.8845],[7.9365,4.8666],[7.9365,4.8598],[7.9365,4.8553],[7.9365,4.8531],[7.9365,4.8508],[7.941,4.8441],[7.9432,4.8418],[7.9455,4.8374],[7.9477,4.8374],[7.95,4.8351],[7.9545,4.8351],[7.9567,4.8351],[7.959,4.8351],[7.9657,4.8374],[7.9702,4.8396],[7.9724,4.8396],[7.9747,4.8374],[7.9747,4.8351],[7.9792,4.8351],[7.9814,4.8351],[7.9882,4.8396],[7.9904,4.8418],[7.9926,4.8463],[7.9994,4.8553],[8.0016,4.8643],[8.0039,4.8666],[8.0061,4.871],[8.0084,4.88],[8.0061,4.889],[8.0061,4.8935],[8.0061,4.898],[8.0061,4.9047],[8.0084,4.9092],[8.0084,4.9137],[8.0084,4.9182],[8.0039,4.9205],[8.0016,4.9339],[8.0016,4.9384],[8.0016,4.9429],[7.9994,4.9496],[7.9971,4.9564],[7.9926,4.9631],[7.9926,4.9699],[7.9882,4.9699],[7.9792,4.9766],[7.9702,4.9833],[7.9657,4.9878],[7.9612,4.9901],[7.9567,4.9946],[7.9432,4.9968],[7.9365,4.9968],[7.9343,4.9968],[7.932,4.9968],[7.9253,4.9968],[7.9208,4.9968],[7.9185,4.9968],[7.8916,4.9991],[7.8871,4.9991],[7.8826,5.0013],[7.8848,4.9968]]]}},{"type":"Feature","properties":{"id":"akwa-ibom/ibiono-ibom","name":"Ibiono Ibom","state":"Akwa Ibom"},"geometry":{"type":"Polygon","coordinates":[[[7.8085,5.282],[7.8085,5.2798],[7.8107,5.2775],[7.813,5.2775],[7.8175,5.2775],[7.8197,5.2775],[7.822,5.2753],[7.8265,5.2753],[7.8332,5.2685],[7.8399,5.2551],[7.8444,5.2438],[7.8467,5.2259],[7.8467,5.2214],[7.8467,5.2191],[7.8444,5.2146],[7.8422,5.2124],[7.8399,5.2079],[7.8354,5.2034],[7.8332,5.1989],[7.8354,5.1877],[7.8354,5.1832],[7.8377,5.181],[7.8399,5.1787],[7.8422,5.1765],[7.8422,5.1742],[7.8444,5.1697],[7.8444,5.1652],[7.8422,5.1563],[7.8399,5.1518],[7.8399,5.1495],[7.8377,5.145],[7.8354,5.1405],[7.8332,5.1383],[7.8354,5.136],[7.8377,5.1338],[7.8399,5.1316],[7.8422,5.1316],[7.8444,5.1271],[7.8444,5.1248],[7.8444,5.1226],[7.8444,5.1181],[7.8422,5.1136],[7.8399,5.1113],[7.8422,5.1068],[7.8467,5.1046],[7.8512,5.1001],[7.8512,5.0956],[7.8489,5.0934],[7.8467,5.0889],[7.8444,5.0866],[7.8422,5.0821],[7.8422,5.0799],[7.8422,5.0754],[7.8444,5.0732],[7.8444,5.0709],[7.8489,5.0664],[7.8512,5.0619],[7.8512,5.0597],[7.8489,5.053],[7.8467,5.0507],[7.8444,5.0462],[7.8422,5.0417],[7.8534,5.0417],[7.8691,5.0417],[7.8759,5.0417],[7.8781,5.0485],[7.8804,5.053],[7.8916,5.0709],[7.8961,5.0754],[7.9028,5.0799],[7.9073,5.0821],[7.9118,5.0844],[7.914,5.0844],[7.914,5.0866],[7.9163,5.0911],[7.9163,5.0934],[7.9163,5.0956],[7.914,5.1024],[7.9118,5.1046],[7.9253,5.1293],[7.9275,5.1338],[7.9298,5.136],[7.932,5.1405],[7.9455,5.1563],[7.9522,5.1607],[7.9612,5.1675],[7.9634,5.1697],[7.9634,5.172],[7.9634,5.1742],[7.9612,5.1765],[7.9567,5.181],[7.9567,5.1832],[7.9545,5.1922],[7.9545,5.1967],[7.9567,5.2012],[7.9567,5.2034],[7.959,5.2057],[7.9702,5.2214],[7.9679,5.2259],[7.9657,5.2304],[7.9612,5.2371],[7.9545,5.2393],[7.9477,5.2416],[7.9432,5.2461],[7.941,5.2506],[7.9387,5.2551],[7.9365,5.2596],[7.9365,5.2618],[7.9365,5.2663],[7.9365,5.2708],[7.9343,5.273],[7.9343,5.2775],[7.9298,5.2843],[7.9253,5.291],[7.923,5.2932],[7.9118,5.3045],[7.9096,5.3067],[7.9051,5.309],[7.9006,5.3135],[7.8916,5.3157],[7.8893,5.3179],[7.8826,5.3179],[7.8759,5.3179],[7.8714,5.3179],[7.8691,5.3157],[7.8669,5.3157],[7.8646,5.3135],[7.8624,5.3157],[7.8601,5.3179],[7.8579,5.3179],[7.8579,5.3202],[7.8557,5.3224],[7.8534,5.3247],[7.8489,5.3292],[7.8444,5.3337],[7.8422,5.3359],[7.8399,5.3382],[7.8422,5.3404],[7.8467,5.3427],[7.8489,5.3449],[7.8557,5.3449],[7.8691,5.3427],[7.8714,5.3404],[7.8736,5.3404],[7.8826,5.3359],[7.8961,5.3337],[7.8983,5.3337],[7.9006,5.3359],[7.9028,5.3382],[7.9051,5.3404],[7.9028,5.3427],[7.9006,5.3449],[7.8961,5.3494],[7.8916,5.3516],[7.8848,5.3584],[7.8804,5.3629],[7.8804,5.3674],[7.8759,5.3696],[7.8691,5.3629],[7.8669,5.3629],[7.8624,5.3606],[7.8579,5.3606],[7.8557,5.3584],[7.8534,5.3584],[7.8512,5.3584],[7.8467,5.3584],[7.8444,5.3584],[7.8422,5.3561],[7.8399,5.3561],[7.8377,5.3539],[7.8332,5.3427],[7.831,5.3404],[7.831,5.3382],[7.8242,5.3247],[7.8197,5.3224],[7.8152,5.3157],[7.8085,5.3022],[7.8085,5.3],[7.8062,5.2977],[7.8085,5.2932],[7.8062,5.2888],[7.8085,5.282]]]}},{"type":"Feature","properties":{"id":"akwa-ibom/ika","name":"Ika","state":"Akwa Ibom"},"geometry":{"type":"Polygon","coordinates":[[[7.4626,4.9721],[7.4671,4.9699],[7.4739,4.9654],[7.4806,4.9609],[7.4829,4.9609],[7.4873,4.9609],[7.4896,4.9609],[7.4918,4.9586],[7.4918,4.9541],[7.4918,4.9474],[7.5031,4.9452],[7.5121,4.9452],[7.5143,4.9452],[7.521,4.9474],[7.5255,4.9496],[7.53,4.9519],[7.5323,4.9541],[7.5412,4.9609],[7.5435,4.9631],[7.5435,4.9654],[7.548,4.9699],[7.5502,4.9721],[7.5592,4.9901],[7.5727,5.0103],[7.5749,5.0125],[7.5772,5.017],[7.5817,5.0193],[7.5839,5.0238],[7.5929,5.0282],[7.5974,5.0305],[7.6019,5.0327],[7.6041,5.035],[7.6064,5.035],[7.6109,5.0395],[7.6176,5.0462],[7.6154,5.0485],[7.6109,5.0507],[7.6064,5.053],[7.6019,5.0552],[7.5951,5.0552],[7.5907,5.0552],[7.5817,5.0597],[7.5772,5.0619],[7.5704,5.0664],[7.566,5.0709],[7.5615,5.0732],[7.5592,5.0754],[7.557,5.0777],[7.548,5.0889],[7.5457,5.0844],[7.5412,5.0709],[7.5412,5.0687],[7.539,5.0664],[7.5368,5.0642],[7.5323,5.0619],[7.53,5.0574],[7.5233,5.0552],[7.521,5.0552],[7.5188,5.053],[7.5255,5.0507],[7.5345,5.0485],[7.5345,5.044],[7.5323,5.0417],[7.5278,5.0372],[7.5255,5.0372],[7.5233,5.0372],[7.521,5.0372],[7.5188,5.0372],[7.5121,5.0305],[7.5121,5.026],[7.5076,5.0148],[7.5053,5.0125],[7.4918,5.008],[7.4896,5.0058],[7.4896,5.0035],[7.4873,5.0013],[7.4851,4.9991],[7.4829,4.9968],[7.4806,4.9968],[7.4784,4.9991],[7.4739,4.9968],[7.4716,4.9968],[7.4604,4.9766],[7.4604,4.9743],[7.4626,4.9721]]]}},{"type":"Feature","properties":{"id":"akwa-ibom/ikono","name":"Ikono","state":"Akwa Ibom"},"geometry":{"type":"Polygon","coordinates":[[[7.6805,5.2955],[7.6805,5.2932],[7.6872,5.2843],[7.6962,5.2775],[7.7007,5.2708],[7.7029,5.2708],[7.7074,5.2641],[7.7097,5.2618],[7.7119,5.2573],[7.7119,5.2528],[7.7142,5.2483],[7.7164,5.2438],[7.7209,5.2349],[7.7232,5.2304],[7.7254,5.2304],[7.7299,5.2236],[7.7321,5.2214],[7.7389,5.2191],[7.7434,5.2169],[7.7456,5.2146],[7.7479,5.2124],[7.7501,5.2102],[7.7523,5.2079],[7.7523,5.2012],[7.7523,5.1967],[7.7501,5.1922],[7.7479,5.1877],[7.7456,5.1832],[7.7456,5.1787],[7.7479,5.1742],[7.7479,5.172],[7.7523,5.163],[7.7591,5.154],[7.7636,5.1495],[7.7703,5.1473],[7.7771,5.145],[7.7793,5.145],[7.7838,5.145],[7.7928,5.145],[7.7995,5.1428],[7.8018,5.1405],[7.7973,5.1338],[7.7905,5.1248],[7.7883,5.1203],[7.7905,5.1181],[7.7995,5.1158],[7.8018,5.1158],[7.8062,5.1158],[7.8085,5.1158],[7.8107,5.1136],[7.813,5.1113],[7.813,5.1091],[7.8107,5.1024],[7.813,5.1024],[7.8152,5.1001],[7.8175,5.1001],[7.8197,5.0956],[7.822,5.0934],[7.822,5.0911],[7.822,5.0889],[7.822,5.0844],[7.822,5.0821],[7.822,5.0754],[7.8197,5.0709],[7.8197,5.0687],[7.822,5.0642],[7.822,5.0574],[7.8242,5.0552],[7.8265,5.0552],[7.8287,5.0507],[7.831,5.0485],[7.8377,5.044],[7.8422,5.0417],[7.8444,5.0462],[7.8467,5.0507],[7.8489,5.053],[7.8512,5.0597],[7.8512,5.0619],[7.8489,5.0664],[7.8444,5.0709],[7.8444,5.0732],[7.8422,5.0754],[7.8422,5.0799],[7.8422,5.0821],[7.8444,5.0866],[7.8467,5.0889],[7.8489,5.0934],[7.8512,5.0956],[7.8512,5.1001],[7.8467,5.1046],[7.8422,5.1068],[7.8399,5.1113],[7.8422,5.1136],[7.8444,5.1181],[7.8444,5.1226],[7.8444,5.1248],[7.8444,5.1271],[7.8422,5.1316],[7.8399,5.1316],[7.8377,5.1338],[7.8354,5.136],[7.8332,5.1383],[7.8354,5.1405],[7.8377,5.145],[7.8399,5.1495],[7.8399,5.1518],[7.8422,5.1563],[7.8444,5.1652],[7.8444,5.1697],[7.8422,5.1742],[7.8422,5.1765],[7.8399,5.1787],[7.8377,5.181],[7.8354,5.1832],[7.8354,5.1877],[7.8332,5.1989],[7.8354,5.2034],[7.8399,5.2079],[7.8422,5.2124],[7.8444,5.2146],[7.8467,5.2191],[7.8467,5.2214],[7.8467,5.2259],[7.8444,5.2438],[7.8399,5.2551],[7.8332,5.2685],[7.8265,5.2753],[7.822,5.2753],[7.8197,5.2775],[7.8175,5.2775],[7.813,5.2775],[7.8107,5.2775],[7.8085,5.2798],[7.8085,5.282],[7.8062,5.2888],[7.7995,5.2888],[7.795,5.2888],[7.7905,5.291],[7.786,5.2955],[7.7815,5.3],[7.7793,5.3022],[7.7771,5.3045],[7.7748,5.3067],[7.7636,5.3179],[7.7568,5.3224],[7.7546,5.3247],[7.7501,5.3247],[7.7479,5.3247],[7.7299,5.3247],[7.7187,5.3224],[7.7164,5.3202],[7.7142,5.3179],[7.7119,5.3157],[7.7097,5.3135],[7.7052,5.3112],[7.6962,5.309],[7.685,5.3045],[7.6805,5.3022],[7.6782,5.2977],[7.6805,5.2955]]]}},{"type":"Feature","properties":{"id":"akwa-ibom/ikot-abasi","name":"Ikot Abasi","state":"Akwa Ibom"},"geometry":{"type":"Polygon","coordinates":[[[7.53,4.6173],[7.5323,4.6038],[7.5457,4.5858],[7.5457,4.5701],[7.5345,4.5566],[7.5278,4.5499],[7.5345,4.5409],[7.539,4.5387],[7.5435,4.5342],[7.5525,4.5207],[7.5615,4.514],[7.5727,4.514],[7.5772,4.514],[7.5817,4.514],[7.5839,4.5185],[7.5907,4.5185],[7.5929,4.5185],[7.5996,4.5162],[7.6064,4.5072],[7.6086,4.5072],[7.6154,4.5072],[7.6243,4.5095],[7.6266,4.5117],[7.6266,4.514],[7.6221,4.5162],[7.6198,4.5185],[7.6131,4.5185],[7.6064,4.5252],[7.6086,4.5274],[7.6221,4.5364],[7.6356,4.5342],[7.6401,4.5319],[7.6423,4.5319],[7.6446,4.5319],[7.6513,4.5319],[7.6535,4.5342],[7.6558,4.5364],[7.6625,4.5409],[7.6715,4.5477],[7.6782,4.5499],[7.6827,4.5454],[7.685,4.5454],[7.6917,4.5521],[7.6985,4.5566],[7.7029,4.5589],[7.7052,4.5611],[7.7097,4.5611],[7.7119,4.5634],[7.7142,4.5656],[7.7164,4.5679],[7.7209,4.5746],[7.7276,4.5813],[7.7299,4.5858],[7.7299,4.5881],[7.7366,4.5971],[7.7389,4.6016],[7.7411,4.606],[7.7434,4.6128],[7.7434,4.615],[7.7434,4.6195],[7.7434,4.6218],[7.7434,4.6263],[7.7434,4.6307],[7.7344,4.6352],[7.7299,4.6375],[7.7276,4.6397],[7.7209,4.642],[7.7164,4.6442],[7.7074,4.6465],[7.7052,4.651],[7.7074,4.6555],[7.7097,4.6577],[7.7119,4.6622],[7.7142,4.6644],[7.7142,4.6689],[7.7164,4.6779],[7.7164,4.6824],[7.7187,4.6869],[7.7187,4.6936],[7.7187,4.6981],[7.7164,4.7004],[7.7142,4.7049],[7.7119,4.7049],[7.7029,4.7093],[7.6872,4.7093],[7.6827,4.7093],[7.6782,4.6981],[7.676,4.6959],[7.6737,4.6914],[7.667,4.6846],[7.6603,4.6824],[7.6558,4.6802],[7.6535,4.6802],[7.6468,4.6779],[7.6446,4.6802],[7.6423,4.6802],[7.6356,4.6802],[7.6288,4.6824],[7.6288,4.6757],[7.6311,4.6734],[7.6311,4.6689],[7.6311,4.6667],[7.6266,4.6667],[7.6221,4.6689],[7.6198,4.6689],[7.6154,4.6712],[7.6131,4.6712],[7.6109,4.6734],[7.6086,4.6712],[7.5996,4.6689],[7.5951,4.6667],[7.5907,4.6622],[7.5862,4.6622],[7.5839,4.6622],[7.5794,4.6622],[7.5772,4.6622],[7.5749,4.6622],[7.5727,4.6644],[7.5704,4.6644],[7.557,4.6622],[7.5547,4.6622],[7.5525,4.6599],[7.5502,4.6599],[7.548,4.6622],[7.5457,4.6689],[7.5435,4.6734],[7.5412,4.6779],[7.539,4.6802],[7.5345,4.6869],[7.53,4.6914],[7.5233,4.6846],[7.5233,4.6712],[7.5255,4.6644],[7.5278,4.651],[7.5233,4.6307],[7.53,4.6173]]]}},{"type":"Feature","properties":{"id":"akwa-ibom/ikot-ekpene","name":"Ikot Ekpene","state":"Akwa Ibom"},"geometry":{"type":"Polygon","coordinates":[[[7.6535,5.1787],[7.6535,5.1742],[7.6535,5.1675],[7.6535,5.1652],[7.6558,5.163],[7.6625,5.1585],[7.6648,5.1563],[7.6715,5.154],[7.6737,5.1518],[7.6782,5.1518],[7.685,5.1495],[7.6917,5.1518],[7.6985,5.1495],[7.7007,5.1495],[7.7074,5.1473],[7.7119,5.1473],[7.7187,5.1428],[7.7232,5.1383],[7.7254,5.136],[7.7299,5.1338],[7.7366,5.1316],[7.7456,5.1316],[7.7479,5.1316],[7.7546,5.1338],[7.7591,5.1405],[7.7613,5.145],[7.7636,5.1495],[7.7591,5.154],[7.7523,5.163],[7.7479,5.172],[7.7479,5.1742],[7.7456,5.1787],[7.7456,5.1832],[7.7479,5.1877],[7.7501,5.1922],[7.7523,5.1967],[7.7523,5.2012],[7.7523,5.2079],[7.7501,5.2102],[7.7479,5.2124],[7.7456,5.2146],[7.7434,5.2169],[7.7389,5.2191],[7.7321,5.2214],[7.7299,5.2236],[7.7254,5.2304],[7.7232,5.2304],[7.7209,5.2349],[7.7164,5.2438],[7.7142,5.2483],[7.7119,5.2528],[7.7119,5.2573],[7.7097,5.2618],[7.7074,5.2641],[7.7029,5.2708],[7.7007,5.2708],[7.6985,5.2685],[7.6917,5.2641],[7.685,5.2551],[7.6827,5.2551],[7.6805,5.2528],[7.6782,5.2528],[7.6715,5.2506],[7.6648,5.2506],[7.6625,5.2506],[7.6603,5.2483],[7.6603,5.2438],[7.658,5.2349],[7.658,5.2304],[7.6603,5.2281],[7.6603,5.2259],[7.6603,5.2214],[7.6603,5.2191],[7.6603,5.2146],[7.6603,5.2034],[7.658,5.2012],[7.658,5.1944],[7.6558,5.1899],[7.6535,5.1877],[7.6513,5.181],[7.6535,5.1787]]]}},{"type":"Feature","properties":{"id":"akwa-ibom/ini","name":"Ini","state":"Akwa Ibom"},"geometry":{"type":"Polygon","coordinates":[[[7.6266,5.3786],[7.6288,5.3786],[7.6311,5.3786],[7.6333,5.3786],[7.6378,5.3808],[7.6401,5.3831],[7.6446,5.3853],[7.6468,5.3876],[7.649,5.3898],[7.6558,5.3921],[7.658,5.3921],[7.6625,5.3921],[7.6648,5.3921],[7.676,5.3876],[7.676,5.3853],[7.6782,5.3831],[7.6782,5.3808],[7.676,5.3696],[7.667,5.3471],[7.6648,5.3449],[7.6625,5.3404],[7.658,5.3359],[7.6805,5.3022],[7.685,5.3045],[7.6962,5.309],[7.7052,5.3112],[7.7097,5.3135],[7.7119,5.3157],[7.7142,5.3179],[7.7164,5.3202],[7.7187,5.3224],[7.7299,5.3247],[7.7479,5.3247],[7.7501,5.3247],[7.7546,5.3247],[7.7568,5.3224],[7.7636,5.3179],[7.7748,5.3067],[7.7771,5.3045],[7.7793,5.3022],[7.7815,5.3],[7.786,5.2955],[7.7905,5.291],[7.795,5.2888],[7.7995,5.2888],[7.8062,5.2888],[7.8085,5.2932],[7.8062,5.2977],[7.8085,5.3],[7.8085,5.3022],[7.8152,5.3157],[7.8197,5.3224],[7.8242,5.3247],[7.831,5.3382],[7.831,5.3404],[7.8332,5.3427],[7.8377,5.3539],[7.8399,5.3561],[7.8422,5.3561],[7.8444,5.3584],[7.8467,5.3584],[7.8512,5.3584],[7.8534,5.3584],[7.8557,5.3584],[7.8579,5.3606],[7.8624,5.3606],[7.8669,5.3629],[7.8691,5.3629],[7.8759,5.3696],[7.8848,5.3853],[7.8759,5.3943],[7.8736,5.3988],[7.8714,5.4033],[7.8691,5.4078],[7.8669,5.4123],[7.8646,5.419],[7.8646,5.4213],[7.8601,5.4213],[7.8557,5.4235],[7.8512,5.4213],[7.8377,5.4213],[7.822,5.4235],[7.8085,5.428],[7.7928,5.4392],[7.7883,5.4437],[7.7838,5.4572],[7.7838,5.4617],[7.7815,5.4684],[7.7793,5.4707],[7.7771,5.4729],[7.7748,5.4752],[7.7748,5.4774],[7.7681,5.4796],[7.7658,5.4819],[7.7613,5.4886],[7.7613,5.4909],[7.7591,5.4931],[7.7591,5.4999],[7.7591,5.5043],[7.7591,5.5088],[7.7568,5.5111],[7.7546,5.5133],[7.7523,5.5156],[7.7479,5.5156],[7.7434,5.5178],[7.7344,5.5178],[7.7299,5.5178],[7.7276,5.5156],[7.7232,5.5156],[7.7187,5.5133],[7.7164,5.5133],[7.7142,5.5111],[7.7097,5.5133],[7.7052,5.5178],[7.6962,5.5178],[7.694,5.5156],[7.6917,5.5111],[7.6895,5.5066],[7.6917,5.5021],[7.694,5.4999],[7.694,5.4976],[7.6985,5.4954],[7.7007,5.4931],[7.7029,5.4909],[7.7052,5.4864],[7.7052,5.4819],[7.7052,5.4796],[7.7029,5.4639],[7.7007,5.4392],[7.6962,5.4347],[7.6782,5.4392],[7.676,5.4415],[7.6737,5.4415],[7.6715,5.4437],[7.6693,5.446],[7.667,5.4482],[7.6603,5.4482],[7.6558,5.446],[7.6558,5.4437],[7.6535,5.4437],[7.6513,5.4415],[7.649,5.437],[7.6468,5.437],[7.6423,5.4347],[7.6401,5.4325],[7.6401,5.4302],[7.6356,5.4257],[7.6356,5.4213],[7.6333,5.419],[7.6333,5.4145],[7.6333,5.4123],[7.6333,5.4078],[7.6333,5.4055],[7.6311,5.3966],[7.6288,5.3921],[7.6266,5.3898],[7.6266,5.3876],[7.6243,5.3876],[7.6243,5.3853],[7.6243,5.3831],[7.6243,5.3808],[7.6266,5.3786]]]}},{"type":"Feature","properties":{"id":"akwa-ibom/itu","name":"Itu","state":"Akwa Ibom"},"geometry":{"type":"Polygon","coordinates":[[[7.8871,5.0417],[7.8916,5.0417],[7.8938,5.0417],[7.8961,5.0417],[7.9028,5.0417],[7.9073,5.0417],[7.9096,5.044],[7.9118,5.044],[7.914,5.0462],[7.914,5.0485],[7.9163,5.0507],[7.9298,5.0732],[7.932,5.0799],[7.941,5.0866],[7.9455,5.0911],[7.9612,5.1046],[7.9634,5.1091],[7.9657,5.1113],[7.9679,5.1113],[7.9747,5.1136],[7.9792,5.1158],[7.9814,5.1158],[7.9837,5.1181],[7.9926,5.1203],[7.9949,5.1226],[7.9971,5.1248],[7.9994,5.1271],[8.0039,5.1316],[8.0084,5.1338],[8.0241,5.1338],[8.0376,5.1338],[8.051,5.1338],[8.0555,5.1338],[8.06,5.1338],[8.0645,5.1338],[8.0668,5.136],[8.069,5.136],[8.0645,5.145],[8.0623,5.1585],[8.0645,5.1675],[8.0668,5.172],[8.0668,5.181],[8.0645,5.1989],[8.0623,5.2057],[8.0555,5.2169],[8.0353,5.2438],[8.0263,5.2483],[8.0173,5.2461],[8.0106,5.2371],[8.0061,5.2259],[8.0039,5.2191],[7.9926,5.2057],[7.9837,5.2057],[7.9769,5.2079],[7.9724,5.2124],[7.9702,5.2214],[7.959,5.2057],[7.9567,5.2034],[7.9567,5.2012],[7.9545,5.1967],[7.9545,5.1922],[7.9567,5.1832],[7.9567,5.181],[7.9612,5.1765],[7.9634,5.1742],[7.9634,5.172],[7.9634,5.1697],[7.9612,5.1675],[7.9522,5.1607],[7.9455,5.1563],[7.932,5.1405],[7.9298,5.136],[7.9275,5.1338],[7.9253,5.1293],[7.9118,5.1046],[7.914,5.1024],[7.9163,5.0956],[7.9163,5.0934],[7.9163,5.0911],[7.914,5.0866],[7.914,5.0844],[7.9118,5.0844],[7.9073,5.0821],[7.9028,5.0799],[7.8961,5.0754],[7.8916,5.0709],[7.8804,5.053],[7.8781,5.0485],[7.8759,5.0417],[7.8871,5.0417]]]}},{"type":"Feature","properties":{"id":"akwa-ibom/mbo","name":"Mbo","state":"Akwa Ibom"},"geometry":{"type":"Polygon","coordinates":[[[8.1588,4.6016],[8.1633,4.6038],[8.1678,4.6038],[8.1835,4.6016],[8.197,4.6038],[8.2015,4.6038],[8.2082,4.6038],[8.2172,4.6038],[8.224,4.5993],[8.2284,4.5948],[8.2419,4.5791],[8.2419,4.5769],[8.2442,4.5746],[8.2464,4.5679],[8.2464,4.5634],[8.2644,4.5589],[8.2689,4.5589],[8.2779,4.5589],[8.2891,4.5634],[8.2913,4.5656],[8.2936,4.5679],[8.2936,4.5724],[8.2981,4.5746],[8.316,4.5724],[8.3295,4.5903],[8.3318,4.5926],[8.3407,4.6038],[8.3565,4.6263],[8.3587,4.6307],[8.3609,4.6375],[8.3385,4.6936],[8.3295,4.7206],[8.3273,4.7251],[8.316,4.7228],[8.3115,4.7251],[8.3093,4.7296],[8.3026,4.7408],[8.3003,4.743],[8.3026,4.7341],[8.2913,4.7228],[8.2891,4.7228],[8.2868,4.7206],[8.2711,4.7183],[8.2689,4.7183],[8.2666,4.7206],[8.2644,4.7228],[8.2621,4.7251],[8.2487,4.7318],[8.2442,4.7318],[8.2397,4.7296],[8.2307,4.7273],[8.2284,4.7273],[8.2217,4.7273],[8.2217,4.7228],[8.224,4.7116],[8.2217,4.7071],[8.2172,4.7026],[8.2105,4.6891],[8.2105,4.6869],[8.2082,4.6869],[8.2082,4.6846],[8.206,4.6712],[8.2037,4.6622],[8.2015,4.6555],[8.197,4.6532],[8.1948,4.6555],[8.188,4.6599],[8.1858,4.6622],[8.179,4.6622],[8.1768,4.6622],[8.1746,4.6599],[8.1723,4.6599],[8.1678,4.6555],[8.1611,4.6487],[8.1566,4.6465],[8.1521,4.6465],[8.1521,4.6442],[8.1521,4.6397],[8.1521,4.633],[8.1521,4.624],[8.1543,4.6195],[8.1543,4.6173],[8.1543,4.6128],[8.1498,4.6016],[8.1588,4.6016]]]}},{"type":"Feature","properties":{"id":"akwa-ibom/mkpat-enin","name":"Mkpat Enin","state":"Akwa Ibom"},"geometry":{"type":"Polygon","coordinates":[[[7.676,4.5319],[7.6782,4.5297],[7.6827,4.5297],[7.6872,4.5297],[7.6917,4.5319],[7.7007,4.5342],[7.7052,4.5387],[7.7142,4.5409],[7.7187,4.5409],[7.7321,4.5432],[7.7546,4.5477],[7.7703,4.5521],[7.7928,4.5589],[7.8107,4.5634],[7.8018,4.5926],[7.7973,4.6128],[7.795,4.615],[7.7973,4.6195],[7.7973,4.6218],[7.7995,4.624],[7.8018,4.624],[7.804,4.6263],[7.8107,4.6285],[7.8197,4.633],[7.8265,4.6352],[7.831,4.6375],[7.8354,4.6465],[7.8354,4.6487],[7.8354,4.651],[7.8354,4.6555],[7.8332,4.6577],[7.831,4.6599],[7.8265,4.6644],[7.813,4.6757],[7.7973,4.6891],[7.795,4.6914],[7.7973,4.6936],[7.7995,4.6936],[7.8018,4.6936],[7.804,4.6936],[7.8085,4.6959],[7.8085,4.6981],[7.8085,4.7026],[7.8085,4.7116],[7.8107,4.7206],[7.813,4.7318],[7.813,4.7363],[7.813,4.7408],[7.813,4.7453],[7.813,4.7498],[7.813,4.7543],[7.8107,4.7565],[7.8085,4.7588],[7.804,4.7655],[7.8018,4.7812],[7.7995,4.7857],[7.8018,4.788],[7.8018,4.7924],[7.804,4.7992],[7.8062,4.8059],[7.8062,4.8104],[7.8062,4.8127],[7.8107,4.8171],[7.8152,4.8239],[7.8175,4.8261],[7.8197,4.8284],[7.8197,4.8306],[7.8197,4.8329],[7.8197,4.8374],[7.8175,4.8396],[7.8152,4.8441],[7.8152,4.8463],[7.8062,4.8778],[7.7995,4.88],[7.7973,4.8778],[7.786,4.8666],[7.7815,4.8598],[7.7771,4.8553],[7.7636,4.8351],[7.7613,4.8306],[7.7523,4.8194],[7.7434,4.8127],[7.7344,4.8059],[7.7321,4.8037],[7.7321,4.8014],[7.7321,4.7992],[7.7321,4.7924],[7.7344,4.7902],[7.7344,4.788],[7.7366,4.7812],[7.7366,4.779],[7.7344,4.7722],[7.7321,4.7677],[7.7299,4.7655],[7.7276,4.7632],[7.7232,4.761],[7.7187,4.761],[7.7164,4.7588],[7.7119,4.7543],[7.7052,4.7475],[7.7029,4.7453],[7.694,4.7296],[7.685,4.7161],[7.6827,4.7093],[7.6872,4.7093],[7.7029,4.7093],[7.7119,4.7049],[7.7142,4.7049],[7.7164,4.7004],[7.7187,4.6981],[7.7187,4.6936],[7.7187,4.6869],[7.7164,4.6824],[7.7164,4.6779],[7.7142,4.6689],[7.7142,4.6644],[7.7119,4.6622],[7.7097,4.6577],[7.7074,4.6555],[7.7052,4.651],[7.7074,4.6465],[7.7164,4.6442],[7.7209,4.642],[7.7276,4.6397],[7.7299,4.6375],[7.7344,4.6352],[7.7434,4.6307],[7.7434,4.6263],[7.7434,4.6218],[7.7434,4.6195],[7.7434,4.615],[7.7434,4.6128],[7.7411,4.606],[7.7389,4.6016],[7.7366,4.5971],[7.7299,4.5881],[7.7299,4.5858],[7.7276,4.5813],[7.7209,4.5746],[7.7164,4.5679],[7.7142,4.5656],[7.7119,4.5634],[7.7097,4.5611],[7.7052,4.5611],[7.7029,4.5589],[7.6985,4.5566],[7.6917,4.5521],[7.685,4.5454],[7.6827,4.5454],[7.6782,4.5409],[7.6737,4.5387],[7.6737,4.5364],[7.6737,4.5342],[7.676,4.5319]]]}},{"type":"Feature","properties":{"id":"akwa-ibom/nsit-atai","name":"Nsit Atai","state":"Akwa Ibom"},"geometry":{"type":"Polygon","coordinates":[[[7.9769,4.8171],[7.9926,4.7857],[8.0106,4.7632],[8.0196,4.7543],[8.0241,4.7475],[8.0308,4.743],[8.0331,4.7408],[8.0376,4.7385],[8.0398,4.7363],[8.051,4.7341],[8.0488,4.7385],[8.0488,4.7408],[8.051,4.7453],[8.051,4.7498],[8.0555,4.7588],[8.0555,4.761],[8.0578,4.7655],[8.0623,4.77],[8.0668,4.7767],[8.069,4.7812],[8.0735,4.7857],[8.0735,4.788],[8.0757,4.7902],[8.0757,4.7924],[8.0757,4.7947],[8.0735,4.7992],[8.0712,4.8014],[8.0645,4.8059],[8.0555,4.8149],[8.051,4.8194],[8.051,4.8216],[8.0488,4.8239],[8.051,4.8261],[8.0578,4.8374],[8.06,4.8418],[8.0623,4.8441],[8.0668,4.8463],[8.069,4.8486],[8.0712,4.8486],[8.0735,4.8531],[8.0757,4.8598],[8.0847,4.8666],[8.0892,4.8688],[8.0847,4.8733],[8.0802,4.88],[8.0757,4.8868],[8.0735,4.8913],[8.069,4.8935],[8.0668,4.8957],[8.0623,4.8957],[8.0578,4.8957],[8.051,4.898],[8.0488,4.898],[8.0376,4.9025],[8.0353,4.9025],[8.0286,4.9047],[8.0196,4.9047],[8.0151,4.9047],[8.0106,4.9002],[8.0061,4.898],[8.0061,4.8935],[8.0061,4.889],[8.0084,4.88],[8.0061,4.871],[8.0039,4.8666],[8.0016,4.8643],[7.9994,4.8553],[7.9926,4.8463],[7.9904,4.8418],[7.9882,4.8396],[7.9814,4.8351],[7.9792,4.8351],[7.9747,4.8351],[7.9747,4.8284],[7.9747,4.8239],[7.9747,4.8194],[7.9769,4.8171]]]}},{"type":"Feature","properties":{"id":"akwa-ibom/nsit-ibom","name":"Nsit Ibom","state":"Akwa Ibom"},"geometry":{"type":"Polygon","coordinates":[[[7.8489,4.9856],[7.8512,4.9811],[7.8512,4.9788],[7.8534,4.9766],[7.8534,4.9743],[7.8534,4.9699],[7.8534,4.9654],[7.8534,4.9631],[7.8534,4.9609],[7.8512,4.9541],[7.8512,4.9407],[7.8512,4.9384],[7.8534,4.9362],[7.8534,4.9339],[7.8534,4.9317],[7.8557,4.9205],[7.8669,4.9025],[7.8714,4.8913],[7.8759,4.8845],[7.8759,4.88],[7.8736,4.8755],[7.8714,4.8733],[7.8691,4.871],[7.8646,4.8666],[7.8669,4.8621],[7.8669,4.8598],[7.8691,4.8553],[7.8714,4.8508],[7.8714,4.8441],[7.8736,4.8396],[7.8714,4.8306],[7.8714,4.8239],[7.8691,4.8171],[7.8669,4.8127],[7.8691,4.8104],[7.8736,4.8059],[7.8781,4.8014],[7.8804,4.7969],[7.8826,4.7924],[7.8848,4.7947],[7.8893,4.7969],[7.8938,4.8014],[7.8961,4.8059],[7.9028,4.8082],[7.9073,4.8127],[7.9096,4.8149],[7.9163,4.8171],[7.9208,4.8171],[7.9253,4.8171],[7.932,4.8149],[7.941,4.8127],[7.9432,4.8149],[7.9477,4.8171],[7.95,4.8171],[7.9522,4.8216],[7.9567,4.8261],[7.9567,4.8306],[7.9567,4.8351],[7.9545,4.8351],[7.95,4.8351],[7.9477,4.8374],[7.9455,4.8374],[7.9432,4.8418],[7.941,4.8441],[7.9365,4.8508],[7.9365,4.8531],[7.9365,4.8553],[7.9365,4.8598],[7.9365,4.8666],[7.9343,4.8845],[7.9275,4.9047],[7.9253,4.9137],[7.9208,4.9227],[7.9096,4.9429],[7.9051,4.9474],[7.9006,4.9519],[7.8983,4.9564],[7.8961,4.9609],[7.8938,4.9631],[7.8893,4.9743],[7.8871,4.9811],[7.8871,4.9833],[7.8871,4.9878],[7.8871,4.9901],[7.8848,4.9968],[7.8826,5.0013],[7.8804,5.0035],[7.8759,5.008],[7.8714,5.0125],[7.8691,5.0125],[7.8669,5.0125],[7.8646,5.0125],[7.8624,5.008],[7.8624,5.0058],[7.8601,5.0013],[7.8579,4.9991],[7.8557,4.9946],[7.8444,4.9878],[7.8489,4.9856]]]}},{"type":"Feature","properties":{"id":"akwa-ibom/nsit-ubium","name":"Nsit Ubium","state":"Akwa Ibom"},"geometry":{"type":"Polygon","coordinates":[[[7.8848,4.7543],[7.8848,4.7498],[7.8871,4.7475],[7.8871,4.743],[7.8871,4.7318],[7.8848,4.7251],[7.8848,4.7228],[7.8848,4.7161],[7.8938,4.7161],[7.8961,4.7138],[7.9028,4.7116],[7.9096,4.7071],[7.9208,4.6981],[7.9343,4.6891],[7.9432,4.6824],[7.9477,4.6802],[7.95,4.6802],[7.9522,4.6802],[7.9545,4.6824],[7.9634,4.6914],[7.9679,4.6959],[7.9724,4.6981],[7.9724,4.6959],[7.9769,4.6936],[7.9792,4.6891],[7.9814,4.6846],[7.9837,4.6824],[7.9859,4.6802],[7.9926,4.6824],[7.9971,4.6846],[7.9994,4.6869],[8.0084,4.6891],[8.0129,4.6914],[8.0151,4.6914],[8.0218,4.6936],[8.0286,4.6914],[8.0376,4.6914],[8.0398,4.6936],[8.0421,4.6959],[8.0488,4.7004],[8.0533,4.7004],[8.0555,4.7004],[8.06,4.7004],[8.069,4.7026],[8.0623,4.7093],[8.06,4.7093],[8.0555,4.7161],[8.0533,4.7206],[8.051,4.7273],[8.0488,4.7296],[8.051,4.7341],[8.0398,4.7363],[8.0376,4.7385],[8.0331,4.7408],[8.0308,4.743],[8.0241,4.7475],[8.0196,4.7543],[8.0106,4.7632],[7.9926,4.7857],[7.9769,4.8171],[7.9747,4.8194],[7.9747,4.8239],[7.9747,4.8284],[7.9747,4.8351],[7.9747,4.8374],[7.9724,4.8396],[7.9702,4.8396],[7.9657,4.8374],[7.959,4.8351],[7.9567,4.8351],[7.9567,4.8306],[7.9567,4.8261],[7.9522,4.8216],[7.95,4.8171],[7.9477,4.8171],[7.9432,4.8149],[7.941,4.8127],[7.932,4.8149],[7.9253,4.8171],[7.9208,4.8171],[7.9163,4.8171],[7.9096,4.8149],[7.9073,4.8127],[7.9028,4.8082],[7.8961,4.8059],[7.8938,4.8014],[7.8893,4.7969],[7.8848,4.7947],[7.8826,4.7924],[7.8848,4.7902],[7.8848,4.7857],[7.8848,4.7812],[7.8848,4.7767],[7.8848,4.7745],[7.8826,4.7722],[7.8826,4.7677],[7.8826,4.7632],[7.8826,4.761],[7.8826,4.7588],[7.8848,4.7543]]]}},{"type":"Feature","properties":{"id":"akwa-ibom/obot-akara","name":"Obot Akara","state":"Akwa Ibom"},"geometry":{"type":"Polygon","coordinates":[[[7.53,5.1495],[7.5412,5.1518],[7.5525,5.1563],[7.557,5.1585],[7.5615,5.1607],[7.566,5.1607],[7.5727,5.1652],[7.5749,5.1675],[7.5772,5.1697],[7.5794,5.172],[7.5817,5.1742],[7.5839,5.1765],[7.5929,5.1765],[7.6041,5.1742],[7.6086,5.1742],[7.6086,5.172],[7.6131,5.1697],[7.6154,5.1697],[7.6221,5.172],[7.6266,5.172],[7.6311,5.1742],[7.6311,5.1765],[7.6288,5.1787],[7.6288,5.181],[7.6311,5.1832],[7.6333,5.1855],[7.6356,5.1854],[7.6378,5.1877],[7.6401,5.1877],[7.6446,5.1877],[7.6468,5.1854],[7.6513,5.181],[7.6535,5.1877],[7.6558,5.1899],[7.658,5.1944],[7.658,5.2012],[7.6603,5.2034],[7.6603,5.2146],[7.6603,5.2191],[7.6603,5.2214],[7.6603,5.2259],[7.6603,5.2281],[7.658,5.2304],[7.658,5.2349],[7.6603,5.2438],[7.6603,5.2483],[7.6625,5.2506],[7.6648,5.2506],[7.6715,5.2506],[7.6782,5.2528],[7.6805,5.2528],[7.6827,5.2551],[7.685,5.2551],[7.6917,5.2641],[7.6985,5.2685],[7.7007,5.2708],[7.6962,5.2775],[7.6872,5.2843],[7.6805,5.2932],[7.6805,5.2955],[7.6782,5.2977],[7.6805,5.3022],[7.658,5.3359],[7.6558,5.3337],[7.6513,5.3292],[7.649,5.3247],[7.6446,5.3247],[7.6266,5.3179],[7.6221,5.3179],[7.6176,5.3179],[7.6109,5.3202],[7.6086,5.3224],[7.5974,5.3224],[7.5951,5.3202],[7.5907,5.3179],[7.5884,5.3179],[7.5839,5.3202],[7.5817,5.3224],[7.5794,5.3224],[7.5749,5.3247],[7.5727,5.3247],[7.5682,5.3224],[7.566,5.3202],[7.5637,5.3179],[7.5615,5.3135],[7.5615,5.309],[7.5592,5.309],[7.557,5.3067],[7.5525,5.3067],[7.5502,5.3067],[7.5457,5.309],[7.5435,5.309],[7.5412,5.309],[7.5345,5.3045],[7.5345,5.3],[7.5368,5.3],[7.5412,5.2932],[7.5435,5.291],[7.548,5.2865],[7.5502,5.2798],[7.5525,5.2753],[7.5525,5.273],[7.5525,5.2685],[7.548,5.2641],[7.5457,5.2596],[7.5435,5.2573],[7.5435,5.2551],[7.5412,5.2528],[7.5412,5.2393],[7.5412,5.2371],[7.5412,5.2169],[7.539,5.1944],[7.539,5.1877],[7.5345,5.1765],[7.53,5.1607],[7.5278,5.1563],[7.53,5.1495]]]}},{"type":"Feature","properties":{"id":"akwa-ibom/okobo","name":"Okobo","state":"Akwa Ibom"},"geometry":{"type":"Polygon","coordinates":[[[8.051,4.7273],[8.0533,4.7206],[8.0555,4.7161],[8.06,4.7093],[8.0623,4.7093],[8.069,4.7026],[8.0712,4.7004],[8.0757,4.6981],[8.0802,4.6959],[8.0915,4.6891],[8.0959,4.6959],[8.1004,4.7004],[8.1027,4.7049],[8.1072,4.7093],[8.1139,4.7183],[8.1184,4.7251],[8.1207,4.7296],[8.1229,4.7341],[8.1251,4.7385],[8.1296,4.7453],[8.1364,4.752],[8.1386,4.7543],[8.1409,4.7565],[8.1431,4.7565],[8.1476,4.7565],[8.1521,4.7565],[8.1588,4.7565],[8.1611,4.7565],[8.1656,4.7588],[8.1768,4.7632],[8.1813,4.7655],[8.179,4.77],[8.179,4.7722],[8.1768,4.7745],[8.1768,4.7767],[8.1768,4.7812],[8.179,4.7835],[8.1835,4.788],[8.188,4.7924],[8.1925,4.7992],[8.1903,4.8037],[8.1903,4.8127],[8.1903,4.8149],[8.1925,4.8194],[8.1925,4.8216],[8.197,4.8284],[8.1993,4.8306],[8.2037,4.8329],[8.206,4.8329],[8.2127,4.8351],[8.215,4.8374],[8.2284,4.8418],[8.2352,4.8463],[8.2374,4.8463],[8.2374,4.8531],[8.2307,4.8598],[8.224,4.8733],[8.2195,4.8823],[8.215,4.898],[8.2082,4.9092],[8.197,4.9137],[8.1768,4.9294],[8.1723,4.9339],[8.1521,4.9384],[8.1498,4.9339],[8.1476,4.9317],[8.1476,4.9294],[8.1454,4.9272],[8.1409,4.9205],[8.1386,4.916],[8.1364,4.9137],[8.1274,4.9092],[8.1207,4.9047],[8.1162,4.9002],[8.1139,4.8957],[8.1117,4.889],[8.1072,4.8845],[8.1027,4.88],[8.0982,4.8755],[8.0937,4.871],[8.0892,4.8688],[8.0847,4.8666],[8.0757,4.8598],[8.0735,4.8531],[8.0712,4.8486],[8.069,4.8486],[8.0668,4.8463],[8.0623,4.8441],[8.06,4.8418],[8.0578,4.8374],[8.051,4.8261],[8.0488,4.8239],[8.051,4.8216],[8.051,4.8194],[8.0555,4.8149],[8.0645,4.8059],[8.0712,4.8014],[8.0735,4.7992],[8.0757,4.7947],[8.0757,4.7924],[8.0757,4.7902],[8.0735,4.788],[8.0735,4.7857],[8.069,4.7812],[8.0668,4.7767],[8.0623,4.77],[8.0578,4.7655],[8.0555,4.761],[8.0555,4.7588],[8.051,4.7498],[8.051,4.7453],[8.0488,4.7408],[8.0488,4.7385],[8.051,4.7341],[8.0488,4.7296],[8.051,4.7273]]]}},{"type":"Feature","properties":{"id":"akwa-ibom/onna","name":"Onna","state":"Akwa Ibom"},"geometry":{"type":"Polygon","coordinates":[[[7.7973,4.6128],[7.8018,4.5926],[7.8107,4.5634],[7.813,4.5544],[7.822,4.5566],[7.8354,4.5544],[7.8512,4.5544],[7.8557,4.5544],[7.8736,4.5544],[7.8848,4.5544],[7.8938,4.5544],[7.8961,4.5544],[7.9006,4.5701],[7.8983,4.5724],[7.8961,4.5769],[7.8938,4.5813],[7.8916,4.5858],[7.8893,4.5971],[7.8893,4.6016],[7.8916,4.6016],[7.8938,4.6016],[7.8983,4.5993],[7.9073,4.5971],[7.9096,4.5971],[7.914,4.5948],[7.9163,4.5948],[7.9208,4.5948],[7.9253,4.5971],[7.9275,4.5993],[7.9275,4.6016],[7.9275,4.6038],[7.9253,4.606],[7.9253,4.6083],[7.923,4.6083],[7.9185,4.6105],[7.914,4.6128],[7.9096,4.615],[7.9073,4.6195],[7.9073,4.6218],[7.9096,4.624],[7.9096,4.6263],[7.914,4.6285],[7.914,4.6307],[7.9163,4.633],[7.9163,4.6352],[7.9163,4.6375],[7.9163,4.642],[7.9118,4.642],[7.9096,4.642],[7.9028,4.642],[7.9006,4.6397],[7.8983,4.6397],[7.8938,4.6397],[7.8848,4.6442],[7.8848,4.6465],[7.8826,4.6487],[7.8804,4.651],[7.8804,4.6555],[7.8781,4.6599],[7.8781,4.6622],[7.8804,4.6644],[7.8848,4.6734],[7.8893,4.6779],[7.8893,4.6802],[7.8916,4.6802],[7.8938,4.6869],[7.8916,4.6891],[7.8916,4.6914],[7.8893,4.6936],[7.8871,4.6959],[7.8848,4.7004],[7.8826,4.7049],[7.8826,4.7138],[7.8848,4.7161],[7.8759,4.7161],[7.8691,4.7116],[7.8601,4.7071],[7.8579,4.7071],[7.8512,4.7049],[7.8489,4.7049],[7.8422,4.7026],[7.8399,4.7026],[7.8332,4.7071],[7.8265,4.7093],[7.822,4.7116],[7.8175,4.7138],[7.8107,4.7206],[7.8085,4.7116],[7.8085,4.7026],[7.8085,4.6981],[7.8085,4.6959],[7.804,4.6936],[7.8018,4.6936],[7.7995,4.6936],[7.7973,4.6936],[7.795,4.6914],[7.7973,4.6891],[7.813,4.6757],[7.8265,4.6644],[7.831,4.6599],[7.8332,4.6577],[7.8354,4.6555],[7.8354,4.651],[7.8354,4.6487],[7.8354,4.6465],[7.831,4.6375],[7.8265,4.6352],[7.8197,4.633],[7.8107,4.6285],[7.804,4.6263],[7.8018,4.624],[7.7995,4.624],[7.7973,4.6218],[7.7973,4.6195],[7.795,4.615],[7.7973,4.6128]]]}},{"type":"Feature","properties":{"id":"akwa-ibom/oron","name":"Oron","state":"Akwa Ibom"},"geometry":{"type":"Polygon","coordinates":[[[8.1925,4.7992],[8.197,4.7924],[8.1993,4.7902],[8.2037,4.788],[8.206,4.7857],[8.215,4.7812],[8.2195,4.7767],[8.2307,4.7745],[8.2329,4.7745],[8.2374,4.7767],[8.2419,4.779],[8.2464,4.779],[8.2532,4.7767],[8.2576,4.7767],[8.2621,4.7767],[8.2666,4.7767],[8.2711,4.7767],[8.2756,4.7767],[8.2779,4.7767],[8.2823,4.779],[8.2846,4.779],[8.2913,4.7857],[8.2756,4.8014],[8.2734,4.8037],[8.2666,4.8127],[8.2644,4.8149],[8.2599,4.8239],[8.2599,4.8284],[8.2644,4.8351],[8.2621,4.8374],[8.2621,4.8396],[8.2464,4.8531],[8.2397,4.8531],[8.2374,4.8531],[8.2374,4.8463],[8.2352,4.8463],[8.2284,4.8418],[8.215,4.8374],[8.2127,4.8351],[8.206,4.8329],[8.2037,4.8329],[8.1993,4.8306],[8.197,4.8284],[8.1925,4.8216],[8.1925,4.8194],[8.1903,4.8149],[8.1903,4.8127],[8.1903,4.8037],[8.1925,4.7992]]]}},{"type":"Feature","properties":{"id":"akwa-ibom/oruk-anam","name":"Oruk Anam","state":"Akwa Ibom"},"geometry":{"type":"Polygon","coordinates":[[[7.5255,4.779],[7.5255,4.77],[7.5233,4.7632],[7.5233,4.7565],[7.5233,4.7543],[7.5255,4.7498],[7.53,4.743],[7.5368,4.7385],[7.5412,4.7363],[7.5435,4.7341],[7.5457,4.7318],[7.548,4.7251],[7.5457,4.7183],[7.5412,4.7071],[7.5368,4.7026],[7.5345,4.7004],[7.5323,4.6914],[7.5345,4.6869],[7.539,4.6802],[7.5412,4.6779],[7.5435,4.6734],[7.5457,4.6689],[7.548,4.6622],[7.5502,4.6599],[7.5525,4.6599],[7.5547,4.6622],[7.557,4.6622],[7.5704,4.6644],[7.5727,4.6644],[7.5749,4.6622],[7.5772,4.6622],[7.5794,4.6622],[7.5839,4.6622],[7.5862,4.6622],[7.5907,4.6622],[7.5951,4.6667],[7.5996,4.6689],[7.6086,4.6712],[7.6109,4.6734],[7.6131,4.6712],[7.6154,4.6712],[7.6198,4.6689],[7.6221,4.6689],[7.6266,4.6667],[7.6311,4.6667],[7.6311,4.6689],[7.6311,4.6734],[7.6288,4.6757],[7.6288,4.6824],[7.6356,4.6802],[7.6423,4.6802],[7.6446,4.6802],[7.6468,4.6779],[7.6535,4.6802],[7.6558,4.6802],[7.6603,4.6824],[7.667,4.6846],[7.6737,4.6914],[7.676,4.6959],[7.6782,4.6981],[7.6827,4.7093],[7.685,4.7161],[7.694,4.7296],[7.7029,4.7453],[7.7052,4.7475],[7.7119,4.7543],[7.7164,4.7588],[7.7187,4.761],[7.7232,4.761],[7.7276,4.7632],[7.7299,4.7655],[7.7321,4.7677],[7.7344,4.7722],[7.7366,4.779],[7.7366,4.7812],[7.7344,4.788],[7.7344,4.7902],[7.7321,4.7924],[7.7321,4.7992],[7.7321,4.8014],[7.7321,4.8037],[7.7344,4.8059],[7.7434,4.8127],[7.7523,4.8194],[7.7613,4.8306],[7.7636,4.8351],[7.7771,4.8553],[7.7815,4.8598],[7.786,4.8666],[7.7973,4.8778],[7.7995,4.88],[7.795,4.889],[7.7905,4.889],[7.7883,4.8913],[7.786,4.8957],[7.786,4.898],[7.7793,4.9137],[7.7793,4.9182],[7.7793,4.9227],[7.7815,4.9272],[7.7838,4.9294],[7.7838,4.9317],[7.786,4.9362],[7.786,4.9384],[7.786,4.9429],[7.7883,4.9541],[7.7883,4.9564],[7.786,4.9609],[7.7838,4.9609],[7.7771,4.9631],[7.7681,4.9699],[7.7546,4.9743],[7.7523,4.9743],[7.7479,4.9766],[7.7456,4.9788],[7.7434,4.9811],[7.7411,4.9788],[7.7366,4.9788],[7.7321,4.9743],[7.7299,4.9721],[7.7276,4.9654],[7.7209,4.9541],[7.7187,4.9474],[7.7142,4.9362],[7.7119,4.9339],[7.7119,4.9317],[7.7097,4.9294],[7.7052,4.9272],[7.6962,4.9227],[7.685,4.916],[7.6805,4.9115],[7.6782,4.9092],[7.676,4.907],[7.676,4.9025],[7.6715,4.889],[7.6648,4.871],[7.6625,4.8666],[7.6625,4.8643],[7.658,4.8598],[7.6558,4.8553],[7.6535,4.8553],[7.6468,4.8508],[7.6401,4.8463],[7.6378,4.8418],[7.6356,4.8396],[7.6333,4.8374],[7.6311,4.8374],[7.6266,4.8351],[7.6243,4.8351],[7.6041,4.8374],[7.5974,4.8374],[7.5929,4.8396],[7.5907,4.8418],[7.5884,4.8418],[7.5862,4.8418],[7.5817,4.8418],[7.5794,4.8418],[7.5749,4.8418],[7.5727,4.8418],[7.5682,4.8396],[7.5525,4.8239],[7.5435,4.8082],[7.5345,4.7969],[7.53,4.7947],[7.5278,4.7924],[7.5233,4.7902],[7.521,4.788],[7.5255,4.779]]]}},{"type":"Feature","properties":{"id":"akwa-ibom/udung-uko","name":"Udung Uko","state":"Akwa Ibom"},"geometry":{"type":"Polygon","coordinates":[[[8.2015,4.7498],[8.2015,4.7475],[8.2037,4.7453],[8.2037,4.743],[8.2082,4.7408],[8.2127,4.7385],[8.2172,4.7408],[8.2195,4.7408],[8.224,4.743],[8.2262,4.743],[8.2307,4.7408],[8.2374,4.7385],[8.2442,4.7318],[8.2487,4.7318],[8.2621,4.7251],[8.2644,4.7228],[8.2666,4.7206],[8.2689,4.7183],[8.2711,4.7183],[8.2868,4.7206],[8.2891,4.7228],[8.2913,4.7228],[8.3026,4.7341],[8.3003,4.743],[8.3026,4.7408],[8.3093,4.7296],[8.3115,4.7251],[8.316,4.7228],[8.3273,4.7251],[8.3228,4.7341],[8.3228,4.7385],[8.3183,4.7475],[8.3183,4.7498],[8.316,4.7565],[8.3138,4.761],[8.3115,4.7632],[8.3048,4.7745],[8.3026,4.7745],[8.2981,4.7812],[8.2958,4.7835],[8.2936,4.7835],[8.2913,4.7857],[8.2846,4.779],[8.2823,4.779],[8.2779,4.7767],[8.2756,4.7767],[8.2711,4.7767],[8.2666,4.7767],[8.2621,4.7767],[8.2576,4.7767],[8.2532,4.7767],[8.2464,4.779],[8.2419,4.779],[8.2374,4.7767],[8.2329,4.7745],[8.2307,4.7745],[8.2195,4.7767],[8.215,4.7812],[8.2082,4.779],[8.206,4.7767],[8.2015,4.7722],[8.1993,4.752],[8.2015,4.7498]]]}},{"type":"Feature","properties":{"id":"akwa-ibom/ukanafun","name":"Ukanafun","state":"Akwa Ibom"},"geometry":{"type":"Polygon","coordinates":[[[7.5008,4.8082],[7.5076,4.8037],[7.5098,4.8014],[7.5165,4.7924],[7.521,4.788],[7.5233,4.7902],[7.5278,4.7924],[7.53,4.7947],[7.5345,4.7969],[7.5435,4.8082],[7.5525,4.8239],[7.5682,4.8396],[7.5727,4.8418],[7.5749,4.8418],[7.5794,4.8418],[7.5817,4.8418],[7.5862,4.8418],[7.5884,4.8418],[7.5907,4.8418],[7.5929,4.8396],[7.5974,4.8374],[7.6041,4.8374],[7.6243,4.8351],[7.6266,4.8351],[7.6311,4.8374],[7.6333,4.8374],[7.6356,4.8396],[7.6378,4.8418],[7.6401,4.8463],[7.6468,4.8508],[7.6535,4.8553],[7.6558,4.8553],[7.658,4.8598],[7.6625,4.8643],[7.6625,4.8666],[7.6648,4.871],[7.6715,4.889],[7.676,4.9025],[7.676,4.907],[7.6782,4.9092],[7.6805,4.9115],[7.685,4.916],[7.6962,4.9227],[7.7052,4.9272],[7.7097,4.9294],[7.7119,4.9317],[7.7119,4.9339],[7.7142,4.9362],[7.7187,4.9474],[7.7209,4.9541],[7.7276,4.9654],[7.7299,4.9721],[7.7321,4.9743],[7.7366,4.9788],[7.7411,4.9788],[7.7434,4.9811],[7.7479,4.9811],[7.7479,4.9833],[7.7479,4.9856],[7.7411,4.9878],[7.7366,4.9878],[7.7344,4.9878],[7.7321,4.9901],[7.7299,4.9901],[7.7299,4.9946],[7.7299,4.9968],[7.7321,4.9991],[7.7366,5.0013],[7.7389,5.0013],[7.7411,4.9991],[7.7456,4.9991],[7.7501,4.9991],[7.7546,4.9991],[7.7568,5.0013],[7.7591,5.0035],[7.7591,5.008],[7.7591,5.0103],[7.7523,5.0148],[7.7479,5.017],[7.7456,5.017],[7.7434,5.0148],[7.7389,5.0125],[7.7366,5.008],[7.7276,5.0035],[7.7209,5.0013],[7.7187,4.9991],[7.7142,4.9991],[7.7097,4.9946],[7.7074,4.9923],[7.7029,4.9878],[7.7029,4.9788],[7.7029,4.9766],[7.7052,4.9743],[7.7052,4.9721],[7.7029,4.9676],[7.7029,4.9654],[7.7007,4.9631],[7.6985,4.9609],[7.6962,4.9496],[7.6962,4.9452],[7.6962,4.9407],[7.694,4.9362],[7.6917,4.9362],[7.6895,4.9317],[7.685,4.9317],[7.6805,4.9294],[7.676,4.9294],[7.6715,4.9317],[7.6693,4.9339],[7.658,4.9384],[7.6535,4.9429],[7.6513,4.9452],[7.649,4.9496],[7.649,4.9519],[7.6468,4.9541],[7.6401,4.9609],[7.6378,4.9631],[7.6356,4.9631],[7.6333,4.9631],[7.6221,4.9586],[7.6176,4.9564],[7.6086,4.9519],[7.5974,4.9474],[7.5884,4.9474],[7.5839,4.9474],[7.5817,4.9474],[7.5772,4.9474],[7.5749,4.9452],[7.5682,4.9407],[7.566,4.9384],[7.5615,4.9317],[7.5547,4.9227],[7.5457,4.9137],[7.5412,4.9092],[7.53,4.898],[7.5255,4.8935],[7.5233,4.8913],[7.5188,4.889],[7.5165,4.8868],[7.5143,4.8845],[7.5121,4.88],[7.5098,4.8755],[7.5053,4.8688],[7.4963,4.8598],[7.4986,4.8598],[7.4986,4.8553],[7.5008,4.8396],[7.5008,4.8374],[7.5008,4.8351],[7.4986,4.8329],[7.4963,4.8284],[7.4918,4.8239],[7.4896,4.8216],[7.5008,4.8082]]]}},{"type":"Feature","properties":{"id":"akwa-ibom/uruan","name":"Uruan","state":"Akwa Ibom"},"geometry":{"type":"Polygon","coordinates":[[[7.941,5.0732],[7.9612,5.0687],[7.9724,5.0664],[7.9747,5.0664],[7.9792,5.0687],[7.9837,5.0687],[7.9926,5.0664],[7.9949,5.0642],[7.9971,5.0619],[7.9994,5.0597],[7.9994,5.0574],[7.9971,5.0507],[7.9971,5.0485],[7.9971,5.044],[7.9971,5.0417],[7.9994,5.0395],[8.0061,5.0327],[8.0084,5.0305],[8.0106,5.0282],[8.0129,5.0282],[8.0218,5.0215],[8.0308,5.0125],[8.0331,5.0103],[8.0353,5.008],[8.0353,5.0013],[8.0353,4.9968],[8.0331,4.9923],[8.0308,4.9878],[8.0263,4.9788],[8.0218,4.9766],[8.0173,4.9743],[8.0151,4.9721],[8.0106,4.9721],[8.0084,4.9699],[8.0039,4.9699],[8.0016,4.9721],[7.9971,4.9721],[7.9949,4.9699],[7.9926,4.9699],[7.9926,4.9631],[7.9971,4.9564],[7.9994,4.9496],[8.0016,4.9429],[8.0016,4.9384],[8.0016,4.9339],[8.0039,4.9205],[8.0084,4.9182],[8.0084,4.9137],[8.0084,4.9092],[8.0061,4.9047],[8.0061,4.898],[8.0106,4.9002],[8.0151,4.9047],[8.0196,4.9047],[8.0286,4.9047],[8.0353,4.9025],[8.0376,4.9025],[8.0488,4.898],[8.051,4.898],[8.0578,4.8957],[8.0623,4.8957],[8.0668,4.8957],[8.069,4.8935],[8.0735,4.8913],[8.0757,4.8868],[8.0802,4.88],[8.0847,4.8733],[8.0892,4.8688],[8.0937,4.871],[8.0982,4.8755],[8.1027,4.88],[8.1072,4.8845],[8.1117,4.889],[8.1139,4.8957],[8.1162,4.9002],[8.1207,4.9047],[8.1274,4.9092],[8.1364,4.9137],[8.1386,4.916],[8.1409,4.9205],[8.1454,4.9272],[8.1476,4.9294],[8.1476,4.9317],[8.1498,4.9339],[8.1521,4.9384],[8.1498,4.9384],[8.1274,4.9699],[8.1251,4.9811],[8.1229,4.9946],[8.1162,5.0035],[8.1027,5.0238],[8.1004,5.0327],[8.0982,5.044],[8.1004,5.0619],[8.1004,5.0821],[8.0982,5.1068],[8.0959,5.1158],[8.0825,5.1271],[8.0757,5.1316],[8.069,5.136],[8.0668,5.136],[8.0645,5.1338],[8.06,5.1338],[8.0555,5.1338],[8.051,5.1338],[8.0376,5.1338],[8.0241,5.1338],[8.0084,5.1338],[8.0039,5.1316],[7.9994,5.1271],[7.9971,5.1248],[7.9949,5.1226],[7.9926,5.1203],[7.9837,5.1181],[7.9814,5.1158],[7.9792,5.1158],[7.9747,5.1136],[7.9679,5.1113],[7.9657,5.1113],[7.9634,5.1091],[7.9612,5.1046],[7.9455,5.0911],[7.941,5.0866],[7.932,5.0799],[7.941,5.0732]]]}},{"type":"Feature","properties":{"id":"akwa-ibom/urue-offong-oruko","name":"Urue-Offong/Oruko","state":"Akwa Ibom"},"geometry":{"type":"Polygon","coordinates":[[[8.1072,4.6869],[8.1162,4.6846],[8.1251,4.6802],[8.1341,4.6757],[8.1364,4.6757],[8.1386,4.6734],[8.1409,4.6712],[8.1476,4.6644],[8.1498,4.6599],[8.1521,4.6532],[8.1521,4.6465],[8.1566,4.6465],[8.1611,4.6487],[8.1678,4.6555],[8.1723,4.6599],[8.1746,4.6599],[8.1768,4.6622],[8.179,4.6622],[8.1858,4.6622],[8.188,4.6599],[8.1948,4.6555],[8.197,4.6532],[8.2015,4.6555],[8.2037,4.6622],[8.206,4.6712],[8.2082,4.6846],[8.2082,4.6869],[8.2105,4.6869],[8.2105,4.6891],[8.2172,4.7026],[8.2217,4.7071],[8.224,4.7116],[8.2217,4.7228],[8.2217,4.7273],[8.2284,4.7273],[8.2307,4.7273],[8.2397,4.7296],[8.2442,4.7318],[8.2374,4.7385],[8.2307,4.7408],[8.2262,4.743],[8.224,4.743],[8.2195,4.7408],[8.2172,4.7408],[8.2127,4.7385],[8.2082,4.7408],[8.2037,4.743],[8.2037,4.7453],[8.2015,4.7475],[8.2015,4.7498],[8.1993,4.752],[8.2015,4.7722],[8.206,4.7767],[8.2082,4.779],[8.215,4.7812],[8.206,4.7857],[8.2037,4.788],[8.1993,4.7902],[8.197,4.7924],[8.1925,4.7992],[8.188,4.7924],[8.1835,4.788],[8.179,4.7835],[8.1768,4.7812],[8.1768,4.7767],[8.1768,4.7745],[8.179,4.7722],[8.179,4.77],[8.1813,4.7655],[8.1768,4.7632],[8.1656,4.7588],[8.1611,4.7565],[8.1588,4.7565],[8.1521,4.7565],[8.1476,4.7565],[8.1431,4.7565],[8.1409,4.7565],[8.1386,4.7543],[8.1364,4.752],[8.1296,4.7453],[8.1251,4.7385],[8.1229,4.7341],[8.1207,4.7296],[8.1184,4.7251],[8.1139,4.7183],[8.1072,4.7093],[8.1027,4.7049],[8.1004,4.7004],[8.0959,4.6959],[8.0915,4.6891],[8.1072,4.6869]]]}},{"type":"Feature","properties":{"id":"akwa-ibom/uyo","name":"Uyo","state":"Akwa Ibom"},"geometry":{"type":"Polygon","coordinates":[[[7.7995,4.88],[7.8062,4.8778],[7.8152,4.8778],[7.8175,4.8778],[7.822,4.8778],[7.8265,4.8778],[7.8287,4.88],[7.831,4.8823],[7.8332,4.8845],[7.8332,4.8868],[7.8332,4.8913],[7.8332,4.9092],[7.831,4.9182],[7.8287,4.9227],[7.8287,4.9249],[7.8265,4.9294],[7.8265,4.9339],[7.8265,4.9407],[7.8287,4.9429],[7.8287,4.9452],[7.831,4.9474],[7.8332,4.9496],[7.8354,4.9564],[7.8354,4.9586],[7.8377,4.9631],[7.8377,4.9699],[7.8399,4.9743],[7.8399,4.9788],[7.8399,4.9811],[7.8422,4.9833],[7.8444,4.9878],[7.8557,4.9946],[7.8579,4.9991],[7.8601,5.0013],[7.8624,5.0058],[7.8624,5.008],[7.8646,5.0125],[7.8669,5.0125],[7.8691,5.0125],[7.8714,5.0125],[7.8759,5.008],[7.8804,5.0035],[7.8826,5.0013],[7.8871,4.9991],[7.8916,4.9991],[7.9185,4.9968],[7.9208,4.9968],[7.9253,4.9968],[7.932,4.9968],[7.9343,4.9968],[7.9365,4.9968],[7.9432,4.9968],[7.9567,4.9946],[7.9612,4.9901],[7.9657,4.9878],[7.9702,4.9833],[7.9792,4.9766],[7.9882,4.9699],[7.9926,4.9699],[7.9949,4.9699],[7.9971,4.9721],[8.0016,4.9721],[8.0039,4.9699],[8.0084,4.9699],[8.0106,4.9721],[8.0151,4.9721],[8.0173,4.9743],[8.0218,4.9766],[8.0263,4.9788],[8.0308,4.9878],[8.0331,4.9923],[8.0353,4.9968],[8.0353,5.0013],[8.0353,5.008],[8.0331,5.0103],[8.0308,5.0125],[8.0218,5.0215],[8.0129,5.0282],[8.0106,5.0282],[8.0084,5.0305],[8.0061,5.0327],[7.9994,5.0395],[7.9971,5.0417],[7.9971,5.044],[7.9971,5.0485],[7.9971,5.0507],[7.9994,5.0574],[7.9994,5.0597],[7.9971,5.0619],[7.9949,5.0642],[7.9926,5.0664],[7.9837,5.0687],[7.9792,5.0687],[7.9747,5.0664],[7.9724,5.0664],[7.9612,5.0687],[7.941,5.0732],[7.932,5.0799],[7.9298,5.0732],[7.9163,5.0507],[7.914,5.0485],[7.914,5.0462],[7.9118,5.044],[7.9096,5.044],[7.9073,5.0417],[7.9028,5.0417],[7.8961,5.0417],[7.8938,5.0417],[7.8916,5.0417],[7.8871,5.0417],[7.8759,5.0417],[7.8691,5.0417],[7.8534,5.0417],[7.8422,5.0417],[7.8377,5.044],[7.831,5.0485],[7.8287,5.0507],[7.8265,5.0552],[7.8242,5.0552],[7.822,5.0574],[7.822,5.0642],[7.8197,5.0687],[7.8197,5.0709],[7.822,5.0754],[7.822,5.0821],[7.822,5.0844],[7.822,5.0889],[7.822,5.0911],[7.822,5.0934],[7.8197,5.0956],[7.8175,5.1001],[7.8152,5.1001],[7.813,5.1024],[7.8107,5.1024],[7.8085,5.1024],[7.8062,5.1001],[7.8062,5.0979],[7.8085,5.0956],[7.813,5.0934],[7.8152,5.0911],[7.8152,5.0889],[7.8175,5.0844],[7.8152,5.0799],[7.813,5.0777],[7.8107,5.0777],[7.8107,5.0754],[7.8107,5.0709],[7.8175,5.0507],[7.8197,5.044],[7.8242,5.0282],[7.8287,5.017],[7.8332,5.008],[7.8332,5.0035],[7.8332,5.0013],[7.8332,4.9968],[7.831,4.9901],[7.8287,4.9856],[7.8265,4.9811],[7.8197,4.9654],[7.8197,4.9631],[7.8175,4.9609],[7.813,4.9452],[7.8107,4.9317],[7.8085,4.9182],[7.8085,4.9115],[7.8062,4.907],[7.8062,4.9025],[7.8018,4.8957],[7.7995,4.8913],[7.7973,4.889],[7.795,4.889],[7.7995,4.88]]]}}]}