{"type":"FeatureCollection","features":[{"type":"Feature","properties":{"id":"anambra/aguata","name":"Aguata","state":"Anambra"},"geometry":{"type":"Polygon","coordinates":[[[6.9843,6.0052],[6.9888,6.0007],[6.9933,5.9962],[7.0023,5.9939],[7.0202,5.9894],[7.0382,5.9827],[7.0494,5.976],[7.0607,5.967],[7.0651,5.9602],[7.0651,5.9513],[7.0629,5.9445],[7.0584,5.9378],[7.0562,5.931],[7.0607,5.931],[7.0629,5.931],[7.0809,5.9288],[7.0988,5.9265],[7.1168,5.9221],[7.1325,5.9198],[7.1393,5.9198],[7.1437,5.9176],[7.146,5.9176],[7.1482,5.9176],[7.164,5.9108],[7.1729,5.9063],[7.1752,5.9063],[7.1774,5.9041],[7.1797,5.9041],[7.1819,5.9018],[7.1864,5.8996],[7.1887,5.8996],[7.1909,5.8996],[7.1932,5.9018],[7.1954,5.9041],[7.1954,5.9086],[7.1999,5.9176],[7.2021,5.9221],[7.1909,5.9243],[7.1707,5.9333],[7.164,5.9378],[7.155,5.9468],[7.1527,5.9535],[7.1527,5.9625],[7.1527,5.9737],[7.1505,5.9782],[7.146,5.9849],[7.146,5.9894],[7.1393,5.9917],[7.1348,6.0007],[7.1325,6.0096],[7.1303,6.0186],[7.1258,6.0254],[7.1146,6.0433],[7.1101,6.0523],[7.1011,6.0568],[7.0899,6.0568],[7.0786,6.059],[7.0741,6.0613],[7.0607,6.0635],[7.0562,6.0635],[7.0494,6.0658],[7.0472,6.0613],[7.0404,6.0568],[7.0337,6.0523],[7.0292,6.0501],[7.0202,6.0456],[7.018,6.0388],[7.0112,6.0343],[6.991,6.0231],[6.9865,6.0209],[6.9821,6.0209],[6.9821,6.0186],[6.9843,6.0052]]]}},{"type":"Feature","properties":{"id":"anambra/anambra-east","name":"Anambra East","state":"Anambra"},"geometry":{"type":"Polygon","coordinates":[[[6.7867,6.1893],[6.7957,6.1938],[6.8046,6.1915],[6.8159,6.1915],[6.8181,6.1915],[6.8226,6.1938],[6.8271,6.1983],[6.8406,6.205],[6.8428,6.2118],[6.8428,6.223],[6.8451,6.2252],[6.8518,6.2297],[6.8585,6.2365],[6.863,6.2432],[6.8675,6.2499],[6.8832,6.2679],[6.8922,6.2746],[6.8967,6.2746],[6.9057,6.2814],[6.9102,6.2836],[6.9304,6.2926],[6.9394,6.2993],[6.9506,6.3128],[6.9618,6.3173],[6.9663,6.3173],[6.9663,6.3218],[6.9663,6.333],[6.9686,6.3398],[6.9708,6.3488],[6.9686,6.3555],[6.9641,6.3667],[6.9618,6.3757],[6.9618,6.3847],[6.9708,6.4049],[6.9753,6.4116],[6.9798,6.4139],[6.9821,6.4161],[6.9708,6.4251],[6.9686,6.4341],[6.9663,6.4408],[6.9506,6.4363],[6.9461,6.4274],[6.9394,6.4139],[6.9326,6.4116],[6.9237,6.4004],[6.9102,6.3982],[6.8877,6.3937],[6.8653,6.3712],[6.8608,6.3622],[6.8608,6.36],[6.8406,6.3488],[6.8338,6.3375],[6.8316,6.3263],[6.8293,6.3106],[6.8204,6.2926],[6.8091,6.2859],[6.8024,6.2769],[6.7979,6.2634],[6.7912,6.2499],[6.7889,6.2387],[6.7867,6.2095],[6.7822,6.1915],[6.7822,6.1893],[6.7867,6.1893]]]}},{"type":"Feature","properties":{"id":"anambra/anambra-west","name":"Anambra West","state":"Anambra"},"geometry":{"type":"Polygon","coordinates":[[[6.6699,6.5015],[6.6721,6.4857],[6.6744,6.4678],[6.6811,6.4565],[6.6879,6.4318],[6.6924,6.4184],[6.6946,6.4071],[6.6968,6.3937],[6.6991,6.3824],[6.7081,6.369],[6.7126,6.3532],[6.7171,6.324],[6.7193,6.3128],[6.7193,6.2993],[6.7238,6.2746],[6.726,6.2657],[6.726,6.2589],[6.7305,6.2387],[6.735,6.2252],[6.7418,6.2095],[6.753,6.1938],[6.762,6.1848],[6.7822,6.1893],[6.7822,6.1915],[6.7867,6.2095],[6.7889,6.2387],[6.7912,6.2499],[6.7979,6.2634],[6.8024,6.2769],[6.8091,6.2859],[6.8204,6.2926],[6.8293,6.3106],[6.8316,6.3263],[6.8338,6.3375],[6.8406,6.3488],[6.8608,6.36],[6.8608,6.3622],[6.8585,6.369],[6.8585,6.3824],[6.8563,6.3869],[6.8585,6.3937],[6.8608,6.4004],[6.863,6.4071],[6.8608,6.4161],[6.8675,6.4296],[6.8787,6.4498],[6.8832,6.4655],[6.8832,6.4768],[6.8832,6.488],[6.8832,6.497],[6.8877,6.5104],[6.8967,6.5284],[6.899,6.5419],[6.9057,6.5441],[6.9057,6.5486],[6.9012,6.5576],[6.9102,6.5576],[6.9124,6.5599],[6.9169,6.5711],[6.9214,6.5733],[6.9214,6.5778],[6.9169,6.5846],[6.9214,6.589],[6.9259,6.5935],[6.9326,6.6093],[6.9371,6.6138],[6.9416,6.6205],[6.9416,6.625],[6.9371,6.6295],[6.9349,6.6407],[6.9349,6.6429],[6.9371,6.6497],[6.9394,6.6609],[6.9371,6.6654],[6.9349,6.6744],[6.9371,6.6766],[6.9461,6.6811],[6.9439,6.6879],[6.9304,6.6901],[6.9326,6.6991],[6.9326,6.7103],[6.9326,6.7215],[6.9326,6.735],[6.9326,6.7687],[6.9304,6.7889],[6.9237,6.8024],[6.9124,6.8001],[6.8967,6.7934],[6.8855,6.7732],[6.8832,6.7687],[6.8787,6.7597],[6.8675,6.7552],[6.8608,6.753],[6.854,6.744],[6.8428,6.7305],[6.8338,6.7215],[6.8204,6.7126],[6.8069,6.7036],[6.8001,6.6924],[6.7979,6.6789],[6.8001,6.6699],[6.8024,6.6564],[6.8046,6.6362],[6.8091,6.616],[6.8091,6.598],[6.8091,6.5801],[6.7934,6.5733],[6.7642,6.5643],[6.744,6.5576],[6.7171,6.5509],[6.6834,6.5441],[6.6654,6.5329],[6.6699,6.5015]]]}},{"type":"Feature","properties":{"id":"anambra/anaocha","name":"Anaocha","state":"Anambra"},"geometry":{"type":"Polygon","coordinates":[[[6.9821,6.0209],[6.9865,6.0209],[6.991,6.0231],[7.0112,6.0343],[7.018,6.0388],[7.0202,6.0456],[7.0292,6.0501],[7.0337,6.0523],[7.0404,6.0568],[7.0472,6.0613],[7.0494,6.0658],[7.0517,6.0725],[7.0562,6.086],[7.0674,6.0995],[7.0764,6.1107],[7.0809,6.1129],[7.0809,6.1152],[7.0764,6.1174],[7.0741,6.1197],[7.0607,6.1264],[7.0449,6.1377],[7.0404,6.1444],[7.036,6.1511],[7.0404,6.1579],[7.0337,6.1624],[7.027,6.1624],[7.018,6.1601],[7.0157,6.1556],[7.0135,6.1489],[7.0135,6.1421],[7.009,6.1354],[7.0045,6.1264],[6.991,6.1219],[6.9776,6.1242],[6.9753,6.1242],[6.9776,6.1129],[6.9821,6.104],[6.9821,6.0972],[6.9798,6.0882],[6.9753,6.0725],[6.9708,6.0613],[6.9708,6.0523],[6.9686,6.0433],[6.9686,6.0231],[6.9821,6.0209]]]}},{"type":"Feature","properties":{"id":"anambra/awka-north","name":"Awka North","state":"Anambra"},"geometry":{"type":"Polygon","coordinates":[[[6.9641,6.3667],[6.9686,6.3555],[6.9708,6.3488],[6.9686,6.3398],[6.9663,6.333],[6.9663,6.3218],[6.9663,6.3173],[6.9708,6.3173],[6.9776,6.3151],[6.9888,6.3038],[6.9933,6.2949],[6.9978,6.2836],[7.0068,6.2612],[7.009,6.2544],[7.0112,6.2522],[7.0135,6.2454],[7.0157,6.241],[7.018,6.2387],[7.0292,6.2432],[7.0382,6.2522],[7.0562,6.2657],[7.0674,6.2679],[7.0786,6.2679],[7.0921,6.2612],[7.1011,6.2522],[7.1123,6.2432],[7.1168,6.241],[7.1325,6.241],[7.1482,6.2432],[7.146,6.2454],[7.146,6.2522],[7.1482,6.2634],[7.146,6.2746],[7.1415,6.2881],[7.1505,6.2971],[7.1595,6.3038],[7.1617,6.3038],[7.1595,6.3151],[7.155,6.3218],[7.1505,6.3353],[7.1415,6.36],[7.1348,6.3735],[7.128,6.3869],[7.1146,6.4004],[7.0966,6.4229],[7.0899,6.4296],[7.0651,6.4363],[7.0382,6.4408],[7.027,6.4431],[7.0247,6.4453],[7.009,6.4363],[6.991,6.4229],[6.9821,6.4161],[6.9798,6.4139],[6.9753,6.4116],[6.9708,6.4049],[6.9618,6.3847],[6.9618,6.3757],[6.9641,6.3667]]]}},{"type":"Feature","properties":{"id":"anambra/awka-south","name":"Awka South","state":"Anambra"},"geometry":{"type":"Polygon","coordinates":[[[7.0202,6.2275],[7.0247,6.2252],[7.027,6.2207],[7.0315,6.2095],[7.036,6.2005],[7.0404,6.1803],[7.0404,6.1713],[7.0404,6.1579],[7.036,6.1511],[7.0404,6.1444],[7.0449,6.1377],[7.0607,6.1264],[7.0741,6.1197],[7.0764,6.1174],[7.0809,6.1152],[7.0809,6.1129],[7.0899,6.1152],[7.1078,6.1287],[7.1146,6.1332],[7.1168,6.1377],[7.119,6.1444],[7.1258,6.1489],[7.1303,6.1534],[7.137,6.1579],[7.1393,6.1601],[7.1437,6.1758],[7.1505,6.1848],[7.1527,6.1983],[7.1527,6.2252],[7.1505,6.232],[7.1482,6.2432],[7.1325,6.241],[7.1168,6.241],[7.1123,6.2432],[7.1011,6.2522],[7.0921,6.2612],[7.0786,6.2679],[7.0674,6.2679],[7.0562,6.2657],[7.0382,6.2522],[7.0292,6.2432],[7.018,6.2387],[7.018,6.232],[7.0202,6.2275]]]}},{"type":"Feature","properties":{"id":"anambra/ayamelum","name":"Ayamelum","state":"Anambra"},"geometry":{"type":"Polygon","coordinates":[[[6.8585,6.3824],[6.8585,6.369],[6.8608,6.3622],[6.8653,6.3712],[6.8877,6.3937],[6.9102,6.3982],[6.9237,6.4004],[6.9326,6.4116],[6.9394,6.4139],[6.9461,6.4274],[6.9506,6.4363],[6.9663,6.4408],[6.9686,6.4341],[6.9708,6.4251],[6.9821,6.4161],[6.991,6.4229],[7.009,6.4363],[7.0247,6.4453],[7.027,6.4431],[7.0292,6.4476],[7.0337,6.4565],[7.0337,6.4678],[7.036,6.4745],[7.0449,6.4723],[7.0494,6.4745],[7.0494,6.4857],[7.0472,6.5015],[7.0472,6.5127],[7.0494,6.5284],[7.0562,6.5464],[7.0629,6.5554],[7.0786,6.5576],[7.0831,6.5621],[7.0876,6.5688],[7.0921,6.5756],[7.1101,6.5935],[7.1146,6.6025],[7.1168,6.616],[7.1258,6.625],[7.128,6.6362],[7.1325,6.6429],[7.1325,6.6519],[7.128,6.6587],[7.1011,6.6766],[7.0899,6.6766],[7.0696,6.6856],[7.0607,6.6834],[7.0517,6.6834],[7.0472,6.6879],[7.0315,6.6968],[7.0157,6.7058],[7.0068,6.7081],[6.991,6.7126],[6.9821,6.7126],[6.9574,6.7103],[6.9439,6.7058],[6.9326,6.6991],[6.9304,6.6901],[6.9439,6.6879],[6.9461,6.6811],[6.9371,6.6766],[6.9349,6.6744],[6.9371,6.6654],[6.9394,6.6609],[6.9371,6.6497],[6.9349,6.6429],[6.9349,6.6407],[6.9371,6.6295],[6.9416,6.625],[6.9416,6.6205],[6.9371,6.6138],[6.9326,6.6093],[6.9259,6.5935],[6.9214,6.589],[6.9169,6.5846],[6.9214,6.5778],[6.9214,6.5733],[6.9169,6.5711],[6.9124,6.5599],[6.9102,6.5576],[6.9012,6.5576],[6.9057,6.5486],[6.9057,6.5441],[6.899,6.5419],[6.8967,6.5284],[6.8877,6.5104],[6.8832,6.497],[6.8832,6.488],[6.8832,6.4768],[6.8832,6.4655],[6.8787,6.4498],[6.8675,6.4296],[6.8608,6.4161],[6.863,6.4071],[6.8608,6.4004],[6.8585,6.3937],[6.8563,6.3869],[6.8585,6.3824]]]}},{"type":"Feature","properties":{"id":"anambra/dunukofia","name":"Dunukofia","state":"Anambra"},"geometry":{"type":"MultiPolygon","coordinates":[[[[6.9551,6.2432],[6.9663,6.2522],[6.9708,6.2522],[6.9753,6.2477],[6.9821,6.2432],[6.9865,6.2365],[6.991,6.2342],[6.9955,6.2365],[7.0023,6.2432],[7.0068,6.2522],[7.009,6.2544],[7.0068,6.2612],[6.9978,6.2836],[6.9933,6.2949],[6.9888,6.3038],[6.9776,6.3151],[6.9708,6.3173],[6.9663,6.3173],[6.9641,6.3151],[6.9618,6.3016],[6.9574,6.2881],[6.9529,6.2634],[6.9529,6.2544],[6.9529,6.2432],[6.9551,6.2432]]],[[[6.9124,6.1691],[6.9259,6.1601],[6.9349,6.1511],[6.9461,6.1399],[6.9551,6.1354],[6.9618,6.1354],[6.9686,6.1377],[6.9641,6.1444],[6.9551,6.1556],[6.9439,6.1713],[6.9439,6.1758],[6.9439,6.1826],[6.9506,6.1893],[6.9551,6.196],[6.9641,6.2005],[6.9731,6.2028],[6.9798,6.2028],[6.9865,6.2073],[6.9821,6.214],[6.9731,6.2185],[6.9708,6.223],[6.9663,6.2275],[6.9574,6.2342],[6.9551,6.2342],[6.9529,6.2297],[6.9506,6.2207],[6.9461,6.2073],[6.9439,6.2028],[6.9416,6.1983],[6.9192,6.1803],[6.9102,6.1758],[6.9079,6.1713],[6.9124,6.1691]]]]}},{"type":"Feature","properties":{"id":"anambra/ekwusigo","name":"Ekwusigo","state":"Anambra"},"geometry":{"type":"Polygon","coordinates":[[[6.7867,6.0456],[6.7934,6.0299],[6.7957,6.0164],[6.7979,6.0052],[6.8024,5.9939],[6.8114,5.9827],[6.8136,5.9715],[6.8114,5.9647],[6.8181,5.9513],[6.8249,5.9468],[6.8271,5.9445],[6.8361,5.9355],[6.8563,5.9198],[6.8698,5.9086],[6.8945,5.8996],[6.9102,5.8974],[6.9102,5.9063],[6.9147,5.9153],[6.9102,5.9176],[6.9012,5.9176],[6.8608,5.94],[6.8653,5.9535],[6.8675,5.9692],[6.8743,5.9939],[6.8787,6.0029],[6.8855,6.0209],[6.89,6.0299],[6.8922,6.0411],[6.8945,6.0478],[6.8922,6.0568],[6.8922,6.0613],[6.8967,6.0748],[6.89,6.0725],[6.881,6.0635],[6.8765,6.059],[6.8698,6.0523],[6.8653,6.0478],[6.854,6.0433],[6.8473,6.0411],[6.8316,6.0433],[6.8001,6.0456],[6.7889,6.0546],[6.7844,6.059],[6.7867,6.0456]]]}},{"type":"Feature","properties":{"id":"anambra/idemili-north","name":"Idemili North","state":"Anambra"},"geometry":{"type":"Polygon","coordinates":[[[6.8001,6.0995],[6.8114,6.0995],[6.8226,6.104],[6.8316,6.104],[6.8428,6.1017],[6.854,6.0995],[6.8653,6.095],[6.8743,6.0972],[6.8855,6.1062],[6.89,6.1062],[6.9035,6.0995],[6.9124,6.095],[6.9214,6.0905],[6.9349,6.0905],[6.9394,6.0972],[6.9529,6.1085],[6.9574,6.1152],[6.9731,6.1219],[6.9753,6.1242],[6.9686,6.1377],[6.9618,6.1354],[6.9551,6.1354],[6.9461,6.1399],[6.9349,6.1511],[6.9259,6.1601],[6.9124,6.1691],[6.9079,6.1713],[6.9012,6.1668],[6.8743,6.1646],[6.863,6.1646],[6.8473,6.1668],[6.8451,6.1668],[6.8406,6.1713],[6.8383,6.1758],[6.8383,6.1803],[6.8361,6.1826],[6.8316,6.1781],[6.8293,6.1736],[6.8271,6.1668],[6.8271,6.1601],[6.8181,6.1399],[6.8114,6.1242],[6.8046,6.1197],[6.7957,6.1129],[6.7912,6.1085],[6.7912,6.104],[6.8001,6.0995]]]}},{"type":"Feature","properties":{"id":"anambra/idemili-south","name":"Idemili South","state":"Anambra"},"geometry":{"type":"Polygon","coordinates":[[[6.7799,6.059],[6.7844,6.059],[6.7889,6.0546],[6.8001,6.0456],[6.8316,6.0433],[6.8473,6.0411],[6.854,6.0433],[6.8653,6.0478],[6.8698,6.0523],[6.8765,6.059],[6.881,6.0635],[6.89,6.0725],[6.8967,6.0748],[6.9035,6.0703],[6.9102,6.0635],[6.9169,6.0478],[6.9237,6.0321],[6.9326,6.0231],[6.9416,6.0209],[6.9461,6.0209],[6.9551,6.0209],[6.9618,6.0231],[6.9686,6.0231],[6.9686,6.0433],[6.9708,6.0523],[6.9708,6.0613],[6.9753,6.0725],[6.9798,6.0882],[6.9821,6.0972],[6.9821,6.104],[6.9776,6.1129],[6.9753,6.1242],[6.9731,6.1219],[6.9574,6.1152],[6.9529,6.1085],[6.9394,6.0972],[6.9349,6.0905],[6.9214,6.0905],[6.9124,6.095],[6.9035,6.0995],[6.89,6.1062],[6.8855,6.1062],[6.8743,6.0972],[6.8653,6.095],[6.854,6.0995],[6.8428,6.1017],[6.8316,6.104],[6.8226,6.104],[6.8114,6.0995],[6.8001,6.0995],[6.7912,6.104],[6.7822,6.1017],[6.7754,6.0972],[6.7754,6.0882],[6.7754,6.0793],[6.7754,6.0703],[6.7799,6.059]]]}},{"type":"Feature","properties":{"id":"anambra/ihiala","name":"Ihiala","state":"Anambra"},"geometry":{"type":"Polygon","coordinates":[[[6.7912,5.8592],[6.7934,5.8524],[6.7934,5.8457],[6.7912,5.8367],[6.7889,5.821],[6.7889,5.8143],[6.7912,5.8075],[6.7957,5.794],[6.7957,5.7896],[6.7979,5.7896],[6.8114,5.7873],[6.8136,5.7873],[6.8159,5.7851],[6.8204,5.7828],[6.8226,5.7828],[6.8249,5.7806],[6.8249,5.7783],[6.8316,5.7738],[6.8338,5.7738],[6.8383,5.7716],[6.8406,5.7693],[6.8428,5.7671],[6.8473,5.7649],[6.8496,5.7649],[6.8518,5.7626],[6.8585,5.7536],[6.8608,5.7536],[6.8608,5.7514],[6.863,5.7491],[6.8653,5.7469],[6.8675,5.7469],[6.872,5.7446],[6.8743,5.7446],[6.8765,5.7446],[6.8787,5.7446],[6.8832,5.7514],[6.8832,5.7536],[6.8832,5.7649],[6.8855,5.7873],[6.8855,5.7918],[6.89,5.8053],[6.8922,5.8098],[6.8967,5.812],[6.9012,5.8165],[6.9147,5.8232],[6.9237,5.8277],[6.9326,5.83],[6.9416,5.8345],[6.9439,5.8345],[6.9461,5.8367],[6.9484,5.839],[6.9529,5.8435],[6.9529,5.8457],[6.9551,5.8479],[6.9551,5.8502],[6.9574,5.8524],[6.9663,5.8614],[6.9753,5.8704],[6.9798,5.8749],[6.9821,5.8794],[6.9955,5.8974],[6.9933,5.8974],[6.9865,5.9018],[6.9731,5.9018],[6.9663,5.9041],[6.9506,5.9086],[6.9282,5.9153],[6.9169,5.9153],[6.9147,5.9153],[6.9102,5.9063],[6.9102,5.8974],[6.8945,5.8996],[6.8698,5.9086],[6.8563,5.9198],[6.8361,5.9355],[6.8271,5.9445],[6.8249,5.9355],[6.8204,5.9176],[6.8114,5.8951],[6.8046,5.8884],[6.7979,5.8816],[6.7912,5.8727],[6.7867,5.8659],[6.7912,5.8592]]]}},{"type":"Feature","properties":{"id":"anambra/njikoka","name":"Njikoka","state":"Anambra"},"geometry":{"type":"Polygon","coordinates":[[[6.9551,6.1556],[6.9641,6.1444],[6.9686,6.1377],[6.9753,6.1242],[6.9776,6.1242],[6.991,6.1219],[7.0045,6.1264],[7.009,6.1354],[7.0135,6.1421],[7.0135,6.1489],[7.0157,6.1556],[7.018,6.1601],[7.027,6.1624],[7.0337,6.1624],[7.0404,6.1579],[7.0404,6.1713],[7.0404,6.1803],[7.036,6.2005],[7.0315,6.2095],[7.027,6.2207],[7.0247,6.2252],[7.0202,6.2275],[7.018,6.232],[7.018,6.2387],[7.0157,6.241],[7.0135,6.2454],[7.0112,6.2522],[7.009,6.2544],[7.0068,6.2522],[7.0023,6.2432],[6.9955,6.2365],[6.991,6.2342],[6.9865,6.2365],[6.9821,6.2432],[6.9753,6.2477],[6.9708,6.2522],[6.9663,6.2522],[6.9551,6.2432],[6.9529,6.2432],[6.9551,6.2342],[6.9574,6.2342],[6.9663,6.2275],[6.9708,6.223],[6.9731,6.2185],[6.9821,6.214],[6.9865,6.2073],[6.9798,6.2028],[6.9731,6.2028],[6.9641,6.2005],[6.9551,6.196],[6.9506,6.1893],[6.9439,6.1826],[6.9439,6.1758],[6.9439,6.1713],[6.9551,6.1556]]]}},{"type":"Feature","properties":{"id":"anambra/nnewi-north","name":"Nnewi North","state":"Anambra"},"geometry":{"type":"Polygon","coordinates":[[[6.8698,5.9468],[6.8832,5.9535],[6.8945,5.958],[6.899,5.9602],[6.9124,5.9737],[6.9237,5.9827],[6.9394,5.9962],[6.9439,6.0029],[6.9439,6.0096],[6.9439,6.0164],[6.9461,6.0209],[6.9416,6.0209],[6.9326,6.0231],[6.9237,6.0321],[6.9169,6.0478],[6.9102,6.0635],[6.9035,6.0703],[6.8967,6.0748],[6.8922,6.0613],[6.8922,6.0568],[6.8945,6.0478],[6.8922,6.0411],[6.89,6.0299],[6.8855,6.0209],[6.8787,6.0029],[6.8743,5.9939],[6.8675,5.9692],[6.8653,5.9535],[6.8608,5.94],[6.8698,5.9468]]]}},{"type":"Feature","properties":{"id":"anambra/nnewi-south","name":"Nnewi South","state":"Anambra"},"geometry":{"type":"Polygon","coordinates":[[[6.9012,5.9176],[6.9102,5.9176],[6.9147,5.9153],[6.9169,5.9153],[6.9282,5.9153],[6.9506,5.9086],[6.9663,5.9041],[6.9731,5.9018],[6.9865,5.9018],[6.9933,5.8974],[6.9955,5.8974],[7.0023,5.9041],[7.009,5.9086],[7.0135,5.9086],[7.0202,5.9086],[7.0247,5.9108],[7.0315,5.9131],[7.0337,5.9153],[7.036,5.9153],[7.0382,5.9176],[7.0404,5.9198],[7.0404,5.9221],[7.0472,5.9265],[7.0539,5.9288],[7.0562,5.931],[7.0584,5.9378],[7.0629,5.9445],[7.0651,5.9513],[7.0651,5.9602],[7.0607,5.967],[7.0494,5.976],[7.0382,5.9827],[7.0202,5.9894],[7.0023,5.9939],[6.9933,5.9962],[6.9888,6.0007],[6.9843,6.0052],[6.9821,6.0186],[6.9821,6.0209],[6.9686,6.0231],[6.9618,6.0231],[6.9551,6.0209],[6.9461,6.0209],[6.9439,6.0164],[6.9439,6.0096],[6.9439,6.0029],[6.9394,5.9962],[6.9237,5.9827],[6.9124,5.9737],[6.899,5.9602],[6.8945,5.958],[6.8832,5.9535],[6.8698,5.9468],[6.8608,5.94],[6.9012,5.9176]]]}},{"type":"Feature","properties":{"id":"anambra/ogbaru","name":"Ogbaru","state":"Anambra"},"geometry":{"type":"Polygon","coordinates":[[[6.6519,5.7244],[6.6654,5.7222],[6.6676,5.7222],[6.6721,5.7267],[6.6744,5.7312],[6.6789,5.7334],[6.6879,5.7424],[6.7058,5.7559],[6.7148,5.7604],[6.7215,5.7649],[6.7238,5.7671],[6.735,5.7716],[6.7395,5.7761],[6.744,5.7783],[6.7463,5.7783],[6.7485,5.7806],[6.7552,5.7828],[6.7597,5.7851],[6.762,5.7851],[6.7665,5.7873],[6.7799,5.7896],[6.7912,5.7896],[6.7957,5.7896],[6.7957,5.794],[6.7912,5.8075],[6.7889,5.8143],[6.7889,5.821],[6.7912,5.8367],[6.7934,5.8457],[6.7934,5.8524],[6.7912,5.8592],[6.7867,5.8659],[6.7912,5.8727],[6.7979,5.8816],[6.8046,5.8884],[6.8114,5.8951],[6.8204,5.9176],[6.8249,5.9355],[6.8271,5.9445],[6.8249,5.9468],[6.8181,5.9513],[6.8114,5.9647],[6.8136,5.9715],[6.8114,5.9827],[6.8024,5.9939],[6.7979,6.0052],[6.7957,6.0164],[6.7934,6.0299],[6.7867,6.0456],[6.7844,6.059],[6.7799,6.059],[6.7754,6.0703],[6.7754,6.0793],[6.7754,6.0882],[6.7754,6.0972],[6.7822,6.1017],[6.7912,6.104],[6.7912,6.1085],[6.7867,6.1242],[6.7732,6.1242],[6.7642,6.1219],[6.7552,6.1242],[6.7552,6.1197],[6.7485,6.1129],[6.7373,6.1062],[6.7215,6.0972],[6.7126,6.086],[6.7103,6.077],[6.7171,6.0613],[6.726,6.0456],[6.726,6.0299],[6.7238,6.0119],[6.7193,5.9917],[6.7171,5.9804],[6.7148,5.9692],[6.7126,5.9557],[6.7081,5.94],[6.7036,5.9265],[6.6968,5.9131],[6.6879,5.8974],[6.6789,5.8884],[6.6744,5.8749],[6.6609,5.8569],[6.6587,5.8412],[6.6497,5.8165],[6.6519,5.7985],[6.6542,5.7783],[6.6542,5.7716],[6.6429,5.7469],[6.634,5.7289],[6.6519,5.7244]]]}},{"type":"Feature","properties":{"id":"anambra/onitsha-north","name":"Onitsha North","state":"Anambra"},"geometry":{"type":"Polygon","coordinates":[[[6.7665,6.1826],[6.7687,6.1691],[6.7665,6.1579],[6.7642,6.1556],[6.7687,6.1534],[6.7822,6.1511],[6.7844,6.1489],[6.7867,6.1421],[6.7867,6.1354],[6.7867,6.1264],[6.7867,6.1242],[6.7912,6.1085],[6.7957,6.1129],[6.8046,6.1197],[6.8114,6.1242],[6.8181,6.1399],[6.8271,6.1601],[6.8271,6.1668],[6.8293,6.1736],[6.8316,6.1781],[6.8361,6.1826],[6.8226,6.1938],[6.8181,6.1915],[6.8159,6.1915],[6.8046,6.1915],[6.7957,6.1938],[6.7867,6.1893],[6.7822,6.1893],[6.762,6.1848],[6.7665,6.1826]]]}},{"type":"Feature","properties":{"id":"anambra/onitsha-south","name":"Onitsha South","state":"Anambra"},"geometry":{"type":"Polygon","coordinates":[[[6.7642,6.1219],[6.7732,6.1242],[6.7867,6.1242],[6.7867,6.1264],[6.7867,6.1354],[6.7867,6.1421],[6.7844,6.1489],[6.7822,6.1511],[6.7687,6.1534],[6.7642,6.1556],[6.7597,6.1489],[6.7575,6.1354],[6.7552,6.1264],[6.7552,6.1242],[6.7642,6.1219]]]}},{"type":"Feature","properties":{"id":"anambra/orumba-north","name":"Orumba North","state":"Anambra"},"geometry":{"type":"Polygon","coordinates":[[[7.0562,6.0635],[7.0607,6.0635],[7.0741,6.0613],[7.0786,6.059],[7.0899,6.0568],[7.1011,6.0568],[7.1101,6.0523],[7.1146,6.0433],[7.1258,6.0254],[7.1303,6.0186],[7.1325,6.0096],[7.1348,6.0007],[7.1393,5.9917],[7.146,5.9894],[7.146,5.9917],[7.1505,5.9939],[7.1572,5.9984],[7.1685,6.0052],[7.1685,6.0096],[7.1662,6.0119],[7.155,6.0119],[7.1505,6.0164],[7.1482,6.0209],[7.1527,6.0276],[7.164,6.0343],[7.1774,6.0456],[7.1887,6.0478],[7.2089,6.0501],[7.2224,6.0523],[7.2358,6.0523],[7.2448,6.0501],[7.265,6.0546],[7.274,6.0568],[7.2695,6.0613],[7.2628,6.0703],[7.2605,6.0882],[7.2538,6.104],[7.2493,6.1085],[7.2403,6.1152],[7.2291,6.1287],[7.2246,6.1421],[7.2224,6.1579],[7.2246,6.1781],[7.2246,6.1915],[7.2179,6.196],[7.2089,6.2028],[7.2044,6.2095],[7.2044,6.2185],[7.1999,6.2342],[7.1887,6.2387],[7.1729,6.2342],[7.1572,6.2297],[7.1505,6.232],[7.1527,6.2252],[7.1527,6.1983],[7.1505,6.1848],[7.1437,6.1758],[7.1393,6.1601],[7.137,6.1579],[7.1303,6.1534],[7.1258,6.1489],[7.119,6.1444],[7.1168,6.1377],[7.1146,6.1332],[7.1078,6.1287],[7.0899,6.1152],[7.0809,6.1129],[7.0764,6.1107],[7.0674,6.0995],[7.0562,6.086],[7.0517,6.0725],[7.0494,6.0658],[7.0562,6.0635]]]}},{"type":"Feature","properties":{"id":"anambra/orumba-south","name":"Orumba South","state":"Anambra"},"geometry":{"type":"Polygon","coordinates":[[[7.1505,5.9782],[7.1527,5.9737],[7.1527,5.9625],[7.1527,5.9535],[7.155,5.9468],[7.164,5.9378],[7.1707,5.9333],[7.1909,5.9243],[7.2021,5.9221],[7.2089,5.9265],[7.2111,5.9288],[7.2156,5.931],[7.2179,5.931],[7.2201,5.931],[7.2224,5.9333],[7.2291,5.9333],[7.2313,5.9333],[7.2358,5.9333],[7.2381,5.931],[7.2403,5.931],[7.2448,5.931],[7.2493,5.931],[7.2515,5.9333],[7.2538,5.9333],[7.256,5.9355],[7.2583,5.9355],[7.2605,5.94],[7.256,5.9513],[7.2538,5.9647],[7.265,5.9917],[7.2718,5.9984],[7.283,5.9984],[7.301,5.9984],[7.3189,5.9984],[7.3234,6.0029],[7.3324,6.0321],[7.3391,6.0366],[7.3391,6.0411],[7.3279,6.0433],[7.3099,6.0456],[7.301,6.0456],[7.2897,6.0478],[7.274,6.0568],[7.265,6.0546],[7.2448,6.0501],[7.2358,6.0523],[7.2224,6.0523],[7.2089,6.0501],[7.1887,6.0478],[7.1774,6.0456],[7.164,6.0343],[7.1527,6.0276],[7.1482,6.0209],[7.1505,6.0164],[7.155,6.0119],[7.1662,6.0119],[7.1685,6.0096],[7.1685,6.0052],[7.1572,5.9984],[7.1505,5.9939],[7.146,5.9917],[7.146,5.9894],[7.146,5.9849],[7.1505,5.9782]]]}},{"type":"Feature","properties":{"id":"anambra/oyi","name":"Oyi","state":"Anambra"},"geometry":{"type":"Polygon","coordinates":[[[6.8361,6.1826],[6.8383,6.1803],[6.8383,6.1758],[6.8406,6.1713],[6.8451,6.1668],[6.8473,6.1668],[6.863,6.1646],[6.8743,6.1646],[6.9012,6.1668],[6.9079,6.1713],[6.9102,6.1758],[6.9192,6.1803],[6.9416,6.1983],[6.9439,6.2028],[6.9461,6.2073],[6.9506,6.2207],[6.9529,6.2297],[6.9551,6.2342],[6.9529,6.2432],[6.9529,6.2544],[6.9529,6.2634],[6.9574,6.2881],[6.9618,6.3016],[6.9641,6.3151],[6.9663,6.3173],[6.9618,6.3173],[6.9506,6.3128],[6.9394,6.2993],[6.9304,6.2926],[6.9102,6.2836],[6.9057,6.2814],[6.8967,6.2746],[6.8922,6.2746],[6.8832,6.2679],[6.8675,6.2499],[6.863,6.2432],[6.8585,6.2365],[6.8518,6.2297],[6.8451,6.2252],[6.8428,6.223],[6.8428,6.2118],[6.8406,6.205],[6.8271,6.1983],[6.8226,6.1938],[6.8361,6.1826]]]}}]}