{"type":"FeatureCollection","features":[{"type":"Feature","properties":{"id":"bauchi/alkaleri","name":"Alkaleri","state":"Bauchi"},"geometry":{"type":"Polygon","coordinates":[[[9.9307,9.8072],[9.9375,9.8027],[9.9465,9.796],[9.9554,9.787],[9.9599,9.7803],[9.9667,9.7735],[9.9846,9.769],[9.9936,9.769],[10.0026,9.7668],[10.0048,9.7668],[10.0093,9.769],[10.0161,9.7668],[10.0228,9.7668],[10.0453,9.7601],[10.061,9.7578],[10.0969,9.7421],[10.1126,9.7331],[10.1284,9.7241],[10.1306,9.7219],[10.1373,9.7084],[10.1441,9.6927],[10.1598,9.6567],[10.162,9.6523],[10.1665,9.65],[10.1845,9.6523],[10.1867,9.6545],[10.1957,9.6567],[10.2115,9.659],[10.2294,9.6612],[10.2451,9.6657],[10.2586,9.668],[10.2631,9.668],[10.2766,9.6657],[10.2811,9.6635],[10.2923,9.6567],[10.2968,9.6523],[10.3125,9.6433],[10.326,9.641],[10.3395,9.6298],[10.3529,9.6163],[10.3619,9.6096],[10.3731,9.6029],[10.3821,9.5984],[10.3934,9.5939],[10.4293,9.5804],[10.4495,9.5714],[10.4652,9.5602],[10.4787,9.5579],[10.4832,9.5557],[10.4899,9.5534],[10.4922,9.5422],[10.4989,9.5287],[10.5034,9.5265],[10.5079,9.522],[10.5101,9.5153],[10.5124,9.5108],[10.5169,9.5108],[10.5214,9.5175],[10.5371,9.5265],[10.5416,9.5332],[10.5483,9.5377],[10.5528,9.5422],[10.5685,9.5534],[10.5798,9.5602],[10.5887,9.5647],[10.6022,9.5624],[10.609,9.5624],[10.6247,9.5557],[10.6561,9.5445],[10.6718,9.54],[10.6786,9.54],[10.6853,9.5422],[10.7055,9.5512],[10.71,9.5557],[10.7167,9.5602],[10.7235,9.5624],[10.7302,9.5647],[10.7437,9.5804],[10.7504,9.5849],[10.7572,9.5916],[10.7617,9.5984],[10.7706,9.6051],[10.7796,9.6096],[10.7841,9.6118],[10.7998,9.6141],[10.8201,9.6163],[10.838,9.6186],[10.856,9.6186],[10.8762,9.6163],[10.8874,9.6163],[10.9009,9.6118],[10.9054,9.6073],[10.9144,9.6051],[10.9256,9.6006],[10.9323,9.5984],[10.9458,9.5939],[10.9728,9.5916],[10.975,9.5939],[10.9728,9.6006],[10.9705,9.6096],[10.966,9.6298],[10.9615,9.6478],[10.957,9.659],[10.9526,9.6837],[10.9503,9.6949],[10.9503,9.7084],[10.9503,9.7151],[10.9503,9.7264],[10.9503,9.7376],[10.9481,9.7511],[10.9503,9.7848],[10.9503,9.796],[10.9503,9.805],[10.9436,9.8319],[10.9413,9.8499],[10.9391,9.8723],[10.9323,9.9015],[10.9278,9.9105],[10.9076,9.9195],[10.8762,9.9397],[10.865,9.9509],[10.8582,9.9554],[10.8403,9.9622],[10.8245,9.9689],[10.8111,9.9801],[10.8021,9.9914],[10.7953,10.0004],[10.7886,10.0071],[10.7751,10.0116],[10.7639,10.0206],[10.7504,10.0273],[10.7392,10.034],[10.728,10.0408],[10.7145,10.052],[10.6943,10.0655],[10.6898,10.0722],[10.6853,10.0812],[10.692,10.0969],[10.701,10.1126],[10.719,10.1149],[10.7504,10.1149],[10.7617,10.1126],[10.7796,10.1104],[10.7909,10.1104],[10.7976,10.1104],[10.8066,10.1149],[10.8111,10.1239],[10.8156,10.1284],[10.8178,10.1441],[10.8178,10.1576],[10.8178,10.1688],[10.8201,10.1823],[10.8245,10.189],[10.8313,10.198],[10.8156,10.2025],[10.7976,10.2025],[10.7819,10.2025],[10.7729,10.2047],[10.7572,10.2025],[10.7302,10.2002],[10.7167,10.1912],[10.701,10.1823],[10.6853,10.1755],[10.6741,10.171],[10.6606,10.1688],[10.6471,10.1643],[10.6202,10.162],[10.6045,10.162],[10.5932,10.1643],[10.5775,10.171],[10.564,10.1755],[10.5348,10.1845],[10.5169,10.1845],[10.4967,10.1867],[10.4854,10.1935],[10.4765,10.2025],[10.4697,10.2092],[10.4585,10.2182],[10.4517,10.2249],[10.4383,10.2384],[10.4315,10.2496],[10.4248,10.2609],[10.4091,10.2698],[10.4023,10.2766],[10.3934,10.2811],[10.3866,10.2923],[10.3776,10.3013],[10.3731,10.3058],[10.3619,10.3125],[10.344,10.317],[10.3327,10.3192],[10.317,10.3192],[10.2968,10.317],[10.2878,10.3148],[10.2811,10.3148],[10.2811,10.3013],[10.2788,10.2878],[10.2743,10.2721],[10.2721,10.2496],[10.2766,10.2272],[10.2788,10.2204],[10.2788,10.2092],[10.2766,10.1957],[10.2743,10.171],[10.2721,10.1598],[10.2698,10.1486],[10.2676,10.1373],[10.2653,10.1306],[10.2609,10.1126],[10.2609,10.1014],[10.2609,10.0834],[10.2653,10.07],[10.2698,10.0587],[10.2609,10.0453],[10.2406,10.0363],[10.2317,10.0408],[10.2159,10.0408],[10.1935,10.0408],[10.1845,10.0453],[10.1688,10.0498],[10.1508,10.052],[10.1441,10.0565],[10.1261,10.0565],[10.1104,10.0565],[10.0947,10.061],[10.0834,10.061],[10.0677,10.0587],[10.0475,10.061],[10.034,10.061],[10.0183,10.0542],[10.0071,10.0475],[9.9959,10.034],[9.9891,10.0251],[9.9824,10.0071],[9.9801,9.9824],[9.9734,9.9622],[9.9644,9.9285],[9.9622,9.9173],[9.9577,9.906],[9.9554,9.8903],[9.9509,9.8791],[9.9487,9.8656],[9.9465,9.8566],[9.9397,9.8454],[9.933,9.8319],[9.9285,9.8184],[9.9307,9.8072]]]}},{"type":"Feature","properties":{"id":"bauchi/bauchi","name":"Bauchi","state":"Bauchi"},"geometry":{"type":"Polygon","coordinates":[[[9.6253,10.5595],[9.6276,10.5483],[9.6298,10.5169],[9.6298,10.5034],[9.632,10.4944],[9.6343,10.4854],[9.6388,10.4562],[9.641,10.4428],[9.6433,10.4293],[9.6455,10.4046],[9.6478,10.3866],[9.6478,10.3776],[9.6478,10.3619],[9.6478,10.3462],[9.65,10.326],[9.65,10.3103],[9.6478,10.299],[9.6455,10.2878],[9.6455,10.2766],[9.6433,10.2653],[9.641,10.2564],[9.6365,10.2541],[9.6388,10.2496],[9.6455,10.2406],[9.6523,10.2294],[9.6567,10.2137],[9.659,10.2002],[9.659,10.1733],[9.6545,10.1576],[9.6455,10.1373],[9.641,10.1328],[9.632,10.1216],[9.6343,10.0992],[9.6478,10.0857],[9.6612,10.07],[9.6792,10.0498],[9.6927,10.0363],[9.7106,10.0206],[9.7241,10.0071],[9.7309,10.0026],[9.7443,9.9959],[9.7601,9.9824],[9.7803,9.9667],[9.787,9.9622],[9.7982,9.9487],[9.8229,9.9262],[9.8387,9.9105],[9.8499,9.9015],[9.8566,9.8903],[9.8813,9.8566],[9.8881,9.8431],[9.9015,9.8252],[9.9128,9.8184],[9.9285,9.8184],[9.933,9.8319],[9.9397,9.8454],[9.9465,9.8566],[9.9487,9.8656],[9.9509,9.8791],[9.9554,9.8903],[9.9577,9.906],[9.9622,9.9173],[9.9644,9.9285],[9.9734,9.9622],[9.9801,9.9824],[9.9824,10.0071],[9.9891,10.0251],[9.9959,10.034],[10.0071,10.0475],[10.0183,10.0542],[10.034,10.061],[10.0475,10.061],[10.0677,10.0587],[10.0834,10.061],[10.0947,10.061],[10.1104,10.0565],[10.1261,10.0565],[10.1441,10.0565],[10.1508,10.052],[10.1688,10.0498],[10.1845,10.0453],[10.1935,10.0408],[10.2159,10.0408],[10.2317,10.0408],[10.2406,10.0363],[10.2609,10.0453],[10.2698,10.0587],[10.2653,10.07],[10.2609,10.0834],[10.2609,10.1014],[10.2609,10.1126],[10.2653,10.1306],[10.2676,10.1373],[10.2698,10.1486],[10.2721,10.1598],[10.2743,10.171],[10.2766,10.1957],[10.2788,10.2092],[10.2788,10.2204],[10.2766,10.2272],[10.2721,10.2496],[10.2743,10.2721],[10.2788,10.2878],[10.2811,10.3013],[10.2811,10.3148],[10.2811,10.3215],[10.2811,10.3327],[10.2788,10.344],[10.2766,10.3529],[10.2743,10.3664],[10.2721,10.3754],[10.2721,10.3934],[10.2653,10.4203],[10.2609,10.436],[10.2474,10.4607],[10.2362,10.4742],[10.2272,10.4832],[10.2249,10.4854],[10.2204,10.4809],[10.198,10.4742],[10.189,10.472],[10.1778,10.4697],[10.162,10.4697],[10.1463,10.472],[10.1284,10.4675],[10.1149,10.4652],[10.0969,10.4585],[10.0745,10.4562],[10.0565,10.4517],[10.0295,10.4428],[10.0206,10.4383],[10.0093,10.4338],[9.9936,10.4248],[9.9824,10.4181],[9.9689,10.4113],[9.9532,10.4068],[9.9307,10.3978],[9.9217,10.3934],[9.9038,10.3866],[9.8926,10.3911],[9.8836,10.3978],[9.8723,10.4068],[9.8634,10.427],[9.8589,10.4383],[9.8521,10.454],[9.8454,10.4675],[9.8319,10.5012],[9.8252,10.5146],[9.8184,10.5214],[9.8072,10.5303],[9.7982,10.5393],[9.7848,10.5461],[9.7668,10.5506],[9.7466,10.5573],[9.7264,10.5618],[9.7106,10.5685],[9.6927,10.5708],[9.6725,10.5775],[9.6635,10.5775],[9.6478,10.5775],[9.6276,10.5708],[9.6208,10.5685],[9.6253,10.5595]]]}},{"type":"Feature","properties":{"id":"bauchi/bogoro","name":"Bogoro","state":"Bauchi"},"geometry":{"type":"Polygon","coordinates":[[[9.403,9.513],[9.4052,9.5085],[9.4075,9.504],[9.4232,9.4995],[9.4367,9.4973],[9.4456,9.4995],[9.4614,9.5018],[9.4726,9.5085],[9.4771,9.5085],[9.4816,9.5153],[9.4838,9.5198],[9.4928,9.5287],[9.5085,9.54],[9.5175,9.5377],[9.5243,9.5287],[9.5287,9.522],[9.531,9.5153],[9.5422,9.5085],[9.5512,9.504],[9.5647,9.5063],[9.5737,9.5085],[9.6073,9.5153],[9.6118,9.5153],[9.6208,9.5175],[9.632,9.5198],[9.6455,9.5243],[9.6567,9.522],[9.659,9.5175],[9.6702,9.5175],[9.6859,9.5198],[9.6949,9.522],[9.7039,9.5265],[9.7129,9.5287],[9.7331,9.5332],[9.7421,9.5355],[9.7466,9.5377],[9.7578,9.5445],[9.778,9.5512],[9.7825,9.5557],[9.778,9.5692],[9.7803,9.5804],[9.7825,9.5939],[9.7892,9.6073],[9.8005,9.6231],[9.8027,9.6276],[9.805,9.632],[9.814,9.6523],[9.8184,9.659],[9.8184,9.677],[9.8162,9.6859],[9.8072,9.7017],[9.796,9.7106],[9.7803,9.7129],[9.7578,9.7151],[9.7443,9.7219],[9.7286,9.7264],[9.7106,9.7331],[9.7017,9.7398],[9.6837,9.7443],[9.668,9.7488],[9.6612,9.7488],[9.65,9.7443],[9.6186,9.7421],[9.6006,9.7398],[9.5512,9.7443],[9.54,9.7488],[9.522,9.7421],[9.504,9.7241],[9.4928,9.6972],[9.4816,9.6792],[9.4726,9.6657],[9.4614,9.6433],[9.4501,9.6231],[9.4456,9.6073],[9.4389,9.5939],[9.4322,9.5804],[9.4277,9.5602],[9.4165,9.5377],[9.4097,9.5287],[9.403,9.5332],[9.3985,9.5377],[9.3985,9.531],[9.403,9.513]]]}},{"type":"Feature","properties":{"id":"bauchi/damban","name":"Damban","state":"Bauchi"},"geometry":{"type":"Polygon","coordinates":[[[10.5932,11.6398],[10.609,11.6061],[10.6292,11.5769],[10.6359,11.5679],[10.6449,11.5589],[10.6628,11.5432],[10.7167,11.5342],[10.7212,11.5297],[10.7212,11.5162],[10.719,11.5073],[10.7235,11.496],[10.728,11.487],[10.7325,11.4758],[10.7347,11.4713],[10.7482,11.4736],[10.7976,11.4736],[10.8178,11.4646],[10.8245,11.4511],[10.829,11.4421],[10.8537,11.4219],[10.865,11.4129],[10.8762,11.4062],[10.8852,11.3995],[10.8942,11.395],[10.8987,11.4017],[10.9054,11.4062],[10.9099,11.4107],[10.9189,11.4219],[10.9211,11.4242],[10.9256,11.4354],[10.9301,11.4444],[10.9323,11.4623],[10.9346,11.4736],[10.9346,11.4825],[10.9346,11.4915],[10.9301,11.5005],[10.9301,11.505],[10.9301,11.514],[10.9301,11.5162],[10.9278,11.5185],[10.9278,11.5252],[10.9278,11.5297],[10.9301,11.5387],[10.9323,11.5499],[10.9323,11.5656],[10.9323,11.5701],[10.9301,11.5814],[10.9278,11.5859],[10.9278,11.5993],[10.9256,11.6195],[10.9256,11.6353],[10.9256,11.6465],[10.9256,11.651],[10.9234,11.6555],[10.9211,11.6622],[10.9189,11.6645],[10.9144,11.6667],[10.9121,11.6712],[10.9099,11.6779],[10.9099,11.6824],[10.9099,11.6869],[10.9076,11.6914],[10.9054,11.7049],[10.8897,11.7408],[10.8852,11.7498],[10.8807,11.7543],[10.8762,11.7565],[10.8717,11.7633],[10.8672,11.7723],[10.865,11.779],[10.8627,11.7835],[10.8627,11.7992],[10.856,11.8172],[10.8515,11.8194],[10.838,11.8127],[10.8245,11.8014],[10.7886,11.788],[10.7684,11.7812],[10.7504,11.7745],[10.737,11.77],[10.7235,11.7633],[10.7145,11.7588],[10.6876,11.752],[10.6651,11.7408],[10.6337,11.7184],[10.6179,11.7094],[10.5977,11.6959],[10.5932,11.6914],[10.5887,11.6847],[10.5887,11.66],[10.5932,11.6398]]]}},{"type":"Feature","properties":{"id":"bauchi/darazo","name":"Darazo","state":"Bauchi"},"geometry":{"type":"Polygon","coordinates":[[[10.2317,11.0828],[10.2339,11.0648],[10.2384,11.0469],[10.2474,11.0132],[10.2653,10.9795],[10.2856,10.957],[10.3035,10.9413],[10.3282,10.9234],[10.3507,10.9099],[10.3642,10.9009],[10.3889,10.8897],[10.4113,10.8807],[10.4383,10.8739],[10.4652,10.8762],[10.4809,10.8784],[10.4944,10.8829],[10.5056,10.8874],[10.5191,10.8919],[10.5326,10.8942],[10.5438,10.8919],[10.5461,10.8807],[10.5348,10.8695],[10.5236,10.8627],[10.4809,10.856],[10.4675,10.8537],[10.454,10.856],[10.4383,10.856],[10.4226,10.8515],[10.4226,10.8313],[10.4293,10.8178],[10.4405,10.8066],[10.4562,10.7976],[10.4675,10.7931],[10.4854,10.7886],[10.5034,10.7819],[10.5124,10.7774],[10.5214,10.7729],[10.5259,10.7639],[10.5348,10.7706],[10.5438,10.7819],[10.5506,10.7931],[10.5528,10.8066],[10.5595,10.829],[10.564,10.8425],[10.5685,10.8582],[10.5708,10.8717],[10.5753,10.8852],[10.5798,10.8897],[10.5865,10.8919],[10.5887,10.8919],[10.5932,10.8897],[10.6,10.8852],[10.6067,10.8762],[10.6112,10.8672],[10.6179,10.8582],[10.6292,10.856],[10.6426,10.8605],[10.6449,10.8784],[10.6381,10.8964],[10.6292,10.9144],[10.6157,10.9256],[10.6022,10.9615],[10.6112,10.984],[10.6179,10.9952],[10.6314,11.0042],[10.6404,11.0132],[10.6471,11.0177],[10.6584,11.0177],[10.6696,11.0199],[10.6786,11.0312],[10.6876,11.0401],[10.701,11.0626],[10.7123,11.0783],[10.7212,11.0873],[10.7325,11.0963],[10.7617,11.1165],[10.7684,11.1187],[10.7796,11.1187],[10.7931,11.1142],[10.8043,11.1053],[10.8088,11.1008],[10.8223,11.0873],[10.8313,11.0783],[10.8403,11.0716],[10.8515,11.0716],[10.8627,11.0806],[10.8717,11.094],[10.8739,11.1075],[10.8964,11.1322],[10.9054,11.1457],[10.9234,11.1592],[10.9368,11.1681],[10.9503,11.1816],[10.9526,11.1839],[10.9705,11.2018],[10.984,11.2198],[10.9997,11.2355],[11.0132,11.2647],[11.0199,11.2782],[11.0222,11.2849],[11.0222,11.2917],[11.0064,11.2962],[11.002,11.2962],[10.9862,11.2962],[10.9773,11.2939],[10.9728,11.2939],[10.9526,11.3029],[10.9346,11.3096],[10.9256,11.3141],[10.8942,11.3298],[10.8874,11.3343],[10.8784,11.3388],[10.865,11.3456],[10.8582,11.35],[10.8515,11.3568],[10.8515,11.3635],[10.8537,11.368],[10.8582,11.3703],[10.8672,11.3748],[10.8762,11.3815],[10.8807,11.386],[10.8852,11.3882],[10.8942,11.395],[10.8852,11.3995],[10.8762,11.4062],[10.865,11.4129],[10.8537,11.4219],[10.829,11.4421],[10.8245,11.4511],[10.8178,11.4646],[10.7976,11.4736],[10.7482,11.4736],[10.7347,11.4713],[10.719,11.4646],[10.7123,11.4623],[10.7033,11.4578],[10.692,11.4511],[10.6853,11.4466],[10.6741,11.4421],[10.6494,11.4354],[10.6269,11.4331],[10.6179,11.4309],[10.5955,11.4287],[10.5842,11.4197],[10.5798,11.4084],[10.5798,11.3882],[10.5798,11.3703],[10.5775,11.35],[10.5753,11.3366],[10.5685,11.3186],[10.5595,11.2939],[10.5528,11.2804],[10.5416,11.2759],[10.5191,11.2714],[10.4989,11.2647],[10.4832,11.2557],[10.454,11.2378],[10.4315,11.2265],[10.4023,11.2243],[10.3799,11.222],[10.3619,11.2108],[10.3574,11.2086],[10.3642,11.2063],[10.3664,11.2063],[10.3664,11.2018],[10.3664,11.1951],[10.3642,11.1794],[10.3619,11.1749],[10.3552,11.1704],[10.3507,11.1659],[10.3395,11.1524],[10.3395,11.1502],[10.335,11.1434],[10.335,11.1389],[10.3327,11.1345],[10.3305,11.1322],[10.3282,11.13],[10.3237,11.13],[10.3192,11.1345],[10.317,11.1367],[10.3125,11.1367],[10.3058,11.1345],[10.2945,11.1277],[10.2856,11.1187],[10.2766,11.1142],[10.2676,11.103],[10.2676,11.1008],[10.2653,11.0985],[10.2631,11.0963],[10.2609,11.094],[10.2564,11.094],[10.2429,11.094],[10.2339,11.0963],[10.2294,11.1008],[10.2317,11.0828]]]}},{"type":"Feature","properties":{"id":"bauchi/dass","name":"Dass","state":"Bauchi"},"geometry":{"type":"Polygon","coordinates":[[[9.3715,9.9712],[9.3783,9.9599],[9.3828,9.9554],[9.3918,9.9487],[9.394,9.9442],[9.3962,9.9375],[9.3985,9.9217],[9.403,9.9217],[9.4299,9.9173],[9.4412,9.9173],[9.4636,9.9173],[9.4816,9.915],[9.4928,9.9173],[9.5108,9.9173],[9.531,9.9195],[9.5534,9.9128],[9.5647,9.9105],[9.5737,9.9083],[9.5826,9.906],[9.5871,9.9128],[9.6029,9.933],[9.6141,9.9509],[9.6186,9.9734],[9.6231,9.9891],[9.6163,9.9981],[9.6073,10.0048],[9.5624,10.0071],[9.5669,10.0206],[9.5759,10.0318],[9.5759,10.0408],[9.5714,10.0475],[9.5669,10.061],[9.5826,10.0587],[9.5894,10.0745],[9.5871,10.0834],[9.5781,10.0902],[9.5692,10.0947],[9.5602,10.0969],[9.549,10.1059],[9.531,10.1194],[9.5153,10.1284],[9.504,10.1396],[9.4973,10.1508],[9.4861,10.1463],[9.4636,10.1396],[9.4434,10.1351],[9.4299,10.1284],[9.4142,10.1194],[9.4052,10.1059],[9.3962,10.0992],[9.3828,10.0767],[9.3805,10.061],[9.376,10.052],[9.3715,10.0363],[9.3603,10.0161],[9.3603,9.9891],[9.3715,9.9712]]]}},{"type":"Feature","properties":{"id":"bauchi/gamawa","name":"Gamawa","state":"Bauchi"},"geometry":{"type":"Polygon","coordinates":[[[10.3282,12.1989],[10.3462,12.2057],[10.3709,12.2034],[10.3866,12.1967],[10.4001,12.1787],[10.4046,12.1563],[10.4023,12.1316],[10.3934,12.1091],[10.3866,12.0956],[10.3776,12.0867],[10.3776,12.0709],[10.3799,12.0485],[10.3889,12.0305],[10.3934,12.0193],[10.3934,12.0081],[10.3956,11.9834],[10.4001,11.9564],[10.4046,11.9407],[10.4068,11.9295],[10.4091,11.9182],[10.4158,11.916],[10.4473,11.9137],[10.463,11.9137],[10.4697,11.9048],[10.4675,11.8958],[10.4607,11.889],[10.4517,11.8823],[10.436,11.8711],[10.4158,11.8531],[10.4136,11.8441],[10.4136,11.8419],[10.4203,11.8306],[10.4315,11.8127],[10.4428,11.8037],[10.454,11.797],[10.4562,11.7857],[10.4675,11.7678],[10.4765,11.7565],[10.4899,11.7453],[10.5012,11.7318],[10.5101,11.7206],[10.5214,11.7071],[10.5326,11.6981],[10.5371,11.6914],[10.5551,11.6847],[10.5708,11.6892],[10.5932,11.6914],[10.5977,11.6959],[10.6179,11.7094],[10.6337,11.7184],[10.6651,11.7408],[10.6876,11.752],[10.7145,11.7588],[10.7235,11.7633],[10.737,11.77],[10.7504,11.7745],[10.7684,11.7812],[10.7886,11.788],[10.8245,11.8014],[10.838,11.8127],[10.8515,11.8194],[10.847,11.8217],[10.838,11.8239],[10.8335,11.8239],[10.8313,11.8239],[10.8268,11.8284],[10.8156,11.8419],[10.8111,11.8486],[10.8088,11.8531],[10.8066,11.8576],[10.8066,11.8621],[10.8066,11.8666],[10.8111,11.8756],[10.8133,11.88],[10.8156,11.8823],[10.8178,11.8868],[10.8156,11.8958],[10.8156,11.907],[10.8133,11.9137],[10.8133,11.916],[10.8111,11.9205],[10.8088,11.925],[10.8021,11.9339],[10.7976,11.9407],[10.7931,11.9452],[10.7909,11.9564],[10.7841,11.9676],[10.7819,11.9744],[10.7819,11.9834],[10.7819,11.9946],[10.7819,12.0013],[10.7819,12.0125],[10.7819,12.0193],[10.7841,12.0328],[10.7864,12.0417],[10.7841,12.0462],[10.7841,12.0507],[10.7841,12.0709],[10.7841,12.0844],[10.7796,12.1024],[10.7729,12.1226],[10.7706,12.1316],[10.7639,12.1473],[10.7572,12.1585],[10.7549,12.1698],[10.7459,12.1945],[10.7459,12.2012],[10.7414,12.2169],[10.7414,12.2192],[10.7414,12.2236],[10.7392,12.2326],[10.7392,12.2394],[10.737,12.2506],[10.7347,12.2618],[10.7302,12.2978],[10.7302,12.3112],[10.728,12.3314],[10.728,12.3561],[10.7257,12.3809],[10.719,12.3786],[10.71,12.3764],[10.692,12.3786],[10.6808,12.3809],[10.6539,12.3943],[10.6381,12.3943],[10.5977,12.3809],[10.5842,12.3741],[10.5708,12.3696],[10.5393,12.3764],[10.5348,12.3966],[10.5281,12.4078],[10.5169,12.4078],[10.5101,12.4056],[10.4989,12.3943],[10.4899,12.3876],[10.4809,12.3809],[10.472,12.3786],[10.4562,12.3719],[10.4248,12.3629],[10.4136,12.3584],[10.4068,12.3494],[10.4001,12.3404],[10.3889,12.327],[10.3799,12.318],[10.3709,12.3112],[10.3664,12.3022],[10.3597,12.2933],[10.3507,12.2775],[10.335,12.2618],[10.3305,12.2551],[10.3125,12.2371],[10.3282,12.1989]]]}},{"type":"Feature","properties":{"id":"bauchi/ganjuwa","name":"Ganjuwa","state":"Bauchi"},"geometry":{"type":"Polygon","coordinates":[[[9.5714,10.6898],[9.5759,10.6741],[9.5826,10.6606],[9.5871,10.6404],[9.5916,10.6224],[9.5961,10.6112],[9.6006,10.6045],[9.6051,10.5955],[9.6096,10.5865],[9.6163,10.573],[9.6208,10.5685],[9.6276,10.5708],[9.6478,10.5775],[9.6635,10.5775],[9.6725,10.5775],[9.6927,10.5708],[9.7106,10.5685],[9.7264,10.5618],[9.7466,10.5573],[9.7668,10.5506],[9.7848,10.5461],[9.7982,10.5393],[9.8072,10.5303],[9.8184,10.5214],[9.8252,10.5146],[9.8319,10.5012],[9.8454,10.4675],[9.8521,10.454],[9.8589,10.4383],[9.8634,10.427],[9.8723,10.4068],[9.8836,10.3978],[9.8926,10.3911],[9.9038,10.3866],[9.9217,10.3934],[9.9307,10.3978],[9.9532,10.4068],[9.9689,10.4113],[9.9824,10.4181],[9.9936,10.4248],[10.0093,10.4338],[10.0206,10.4383],[10.0295,10.4428],[10.0565,10.4517],[10.0745,10.4562],[10.0969,10.4585],[10.1149,10.4652],[10.1284,10.4675],[10.1463,10.472],[10.162,10.4697],[10.1778,10.4697],[10.189,10.472],[10.198,10.4742],[10.2204,10.4809],[10.2249,10.4854],[10.2384,10.4944],[10.2519,10.5259],[10.2586,10.5416],[10.2676,10.5595],[10.2856,10.5842],[10.2968,10.5955],[10.3125,10.6112],[10.317,10.6134],[10.3305,10.6202],[10.3574,10.6269],[10.4113,10.6381],[10.4248,10.6404],[10.4495,10.6494],[10.4562,10.6539],[10.4675,10.6606],[10.472,10.6696],[10.4765,10.6718],[10.4742,10.6786],[10.4809,10.692],[10.4967,10.7167],[10.5101,10.7392],[10.5236,10.7617],[10.5259,10.7639],[10.5214,10.7729],[10.5124,10.7774],[10.5034,10.7819],[10.4854,10.7886],[10.4675,10.7931],[10.4562,10.7976],[10.4405,10.8066],[10.4293,10.8178],[10.4226,10.8313],[10.4226,10.8515],[10.4383,10.856],[10.454,10.856],[10.4675,10.8537],[10.4809,10.856],[10.5236,10.8627],[10.5348,10.8695],[10.5461,10.8807],[10.5438,10.8919],[10.5326,10.8942],[10.5191,10.8919],[10.5056,10.8874],[10.4944,10.8829],[10.4809,10.8784],[10.4652,10.8762],[10.4383,10.8739],[10.4113,10.8807],[10.3889,10.8897],[10.3642,10.9009],[10.3507,10.9099],[10.3282,10.9234],[10.3035,10.9413],[10.2856,10.957],[10.2653,10.9795],[10.2474,11.0132],[10.2384,11.0469],[10.2339,11.0648],[10.2317,11.0828],[10.2294,11.1008],[10.2294,11.103],[10.2182,11.103],[10.2159,11.103],[10.207,11.103],[10.2025,11.1008],[10.198,11.1008],[10.1935,11.094],[10.189,11.0895],[10.18,11.0806],[10.1778,11.0783],[10.1755,11.0738],[10.1688,11.0671],[10.1665,11.0626],[10.162,11.0559],[10.1598,11.0536],[10.1531,11.0424],[10.1531,11.0401],[10.1486,11.0334],[10.1418,11.0177],[10.1441,11.0064],[10.1531,10.993],[10.1553,10.9907],[10.1576,10.9862],[10.1643,10.9817],[10.1665,10.9817],[10.1755,10.9773],[10.18,10.9773],[10.1867,10.9728],[10.1935,10.9683],[10.1957,10.9638],[10.1957,10.9615],[10.1957,10.9593],[10.1935,10.9526],[10.1935,10.9503],[10.1912,10.9481],[10.1867,10.9436],[10.1823,10.9436],[10.1755,10.9413],[10.1733,10.9413],[10.1598,10.9436],[10.1441,10.9458],[10.1351,10.9481],[10.1261,10.9503],[10.1194,10.9548],[10.1149,10.9593],[10.1104,10.9638],[10.1081,10.9683],[10.1059,10.975],[10.1059,10.9773],[10.1037,10.9817],[10.1014,10.9817],[10.0857,10.9862],[10.079,10.9885],[10.0767,10.9885],[10.0722,10.9885],[10.0677,10.9862],[10.0587,10.9862],[10.052,10.9885],[10.0295,10.9862],[10.0206,10.9817],[10.0183,10.9773],[10.0093,10.9683],[10.0026,10.966],[9.9936,10.966],[9.9846,10.966],[9.9734,10.9638],[9.9689,10.9615],[9.9667,10.9615],[9.9577,10.9615],[9.9532,10.9615],[9.9509,10.9638],[9.9397,10.9683],[9.9217,10.975],[9.9083,10.9817],[9.9015,10.984],[9.8881,10.993],[9.8746,10.9975],[9.8656,10.9997],[9.8589,11.0154],[9.8589,11.0199],[9.8544,11.0379],[9.8544,11.0401],[9.8544,11.0446],[9.8544,11.0514],[9.8544,11.0536],[9.8454,11.0536],[9.8387,11.0536],[9.8162,11.0559],[9.7982,11.0559],[9.7668,11.0514],[9.6837,11.0603],[9.6523,11.0671],[9.6388,11.0693],[9.6186,11.0716],[9.6208,11.0648],[9.6208,11.0469],[9.6208,11.0289],[9.6298,11.0132],[9.6298,11.0042],[9.6298,10.984],[9.6253,10.9526],[9.6231,10.9413],[9.6141,10.9256],[9.6096,10.9054],[9.6029,10.8942],[9.5961,10.8695],[9.5939,10.8605],[9.5939,10.8582],[9.5939,10.8515],[9.5916,10.8425],[9.5871,10.8335],[9.5781,10.8156],[9.5759,10.7998],[9.5737,10.7864],[9.5737,10.7729],[9.5714,10.7549],[9.5692,10.728],[9.5692,10.7033],[9.5714,10.6898]]]}},{"type":"Feature","properties":{"id":"bauchi/giade","name":"Giade","state":"Bauchi"},"geometry":{"type":"Polygon","coordinates":[[[10.0632,11.2602],[10.0767,11.258],[10.0879,11.258],[10.0992,11.2535],[10.1081,11.249],[10.1171,11.2445],[10.1284,11.24],[10.1328,11.24],[10.1373,11.24],[10.1418,11.24],[10.1486,11.24],[10.1508,11.2378],[10.1598,11.231],[10.1643,11.2288],[10.1755,11.2243],[10.189,11.222],[10.1957,11.2243],[10.2002,11.2265],[10.2092,11.2265],[10.2137,11.2265],[10.2294,11.2243],[10.2362,11.2243],[10.2384,11.222],[10.2384,11.2265],[10.2406,11.2378],[10.2429,11.2512],[10.2474,11.2782],[10.2474,11.3029],[10.2496,11.3141],[10.2564,11.3366],[10.2653,11.3478],[10.2698,11.3545],[10.2766,11.3613],[10.2833,11.3703],[10.2923,11.3882],[10.2945,11.3995],[10.2945,11.4084],[10.3013,11.4309],[10.299,11.4444],[10.2968,11.4578],[10.2968,11.4691],[10.3035,11.4938],[10.2968,11.5095],[10.2923,11.5162],[10.2788,11.5275],[10.2811,11.5454],[10.2923,11.5544],[10.3035,11.5589],[10.3192,11.5634],[10.3372,11.5746],[10.3327,11.6106],[10.3237,11.6173],[10.3125,11.6173],[10.3013,11.615],[10.2901,11.615],[10.2811,11.6173],[10.2676,11.6173],[10.2541,11.615],[10.2406,11.6128],[10.2272,11.6128],[10.2137,11.6173],[10.2002,11.6195],[10.1867,11.6173],[10.1823,11.6128],[10.1778,11.6061],[10.1755,11.5859],[10.18,11.5634],[10.1823,11.5522],[10.1823,11.5409],[10.18,11.523],[10.1935,11.5117],[10.2137,11.5028],[10.2204,11.4938],[10.2092,11.4668],[10.1867,11.4489],[10.1598,11.4399],[10.1396,11.4242],[10.1171,11.3972],[10.1081,11.3792],[10.0992,11.3635],[10.0857,11.3276],[10.0722,11.2849],[10.061,11.2625],[10.0632,11.2602]]]}},{"type":"Feature","properties":{"id":"bauchi/itas-gadau","name":"Itas/Gadau","state":"Bauchi"},"geometry":{"type":"Polygon","coordinates":[[[9.6298,11.7475],[9.632,11.7431],[9.6343,11.7408],[9.6388,11.7363],[9.6455,11.7318],[9.65,11.7318],[9.6523,11.7318],[9.6612,11.7296],[9.6635,11.7296],[9.6815,11.7296],[9.7106,11.7341],[9.7151,11.7341],[9.7309,11.7386],[9.7331,11.7408],[9.7354,11.7408],[9.7443,11.7431],[9.7354,11.7453],[9.7354,11.7498],[9.7398,11.7543],[9.7533,11.77],[9.7645,11.7835],[9.7735,11.7902],[9.7892,11.797],[9.8005,11.8014],[9.8342,11.8014],[9.8476,11.8014],[9.8634,11.8014],[9.8858,11.8014],[9.9195,11.8014],[9.9397,11.797],[9.9554,11.7992],[9.9644,11.8037],[9.9712,11.8037],[9.9779,11.8104],[9.9981,11.8194],[10.0138,11.8284],[10.0318,11.8374],[10.0453,11.8374],[10.0565,11.8351],[10.0745,11.8306],[10.0879,11.8284],[10.1014,11.8261],[10.1149,11.8194],[10.1306,11.8127],[10.1418,11.8082],[10.1531,11.8037],[10.18,11.7992],[10.2002,11.8082],[10.2227,11.8194],[10.2384,11.8239],[10.2721,11.8284],[10.2878,11.8284],[10.3058,11.8194],[10.317,11.8127],[10.3327,11.8059],[10.3709,11.8014],[10.3776,11.8014],[10.3866,11.8104],[10.3934,11.8172],[10.3978,11.8261],[10.4113,11.8396],[10.4136,11.8419],[10.4136,11.8441],[10.4158,11.8531],[10.436,11.8711],[10.4517,11.8823],[10.4607,11.889],[10.4675,11.8958],[10.4697,11.9048],[10.463,11.9137],[10.4473,11.9137],[10.4158,11.916],[10.4091,11.9182],[10.4001,11.9182],[10.3821,11.925],[10.3642,11.9295],[10.3462,11.9317],[10.3237,11.9362],[10.3035,11.9384],[10.2923,11.9384],[10.2766,11.9452],[10.2653,11.9497],[10.2519,11.9497],[10.2384,11.9519],[10.2204,11.9564],[10.2025,11.9654],[10.1935,11.9789],[10.1957,11.9991],[10.1957,12.0215],[10.1823,12.053],[10.1778,12.0597],[10.1755,12.062],[10.1733,12.0597],[10.1733,12.053],[10.1688,12.0507],[10.1643,12.0485],[10.1598,12.0462],[10.1553,12.0417],[10.1531,12.0395],[10.1508,12.0395],[10.1441,12.0373],[10.1418,12.0373],[10.1396,12.0373],[10.1351,12.0395],[10.1306,12.0395],[10.1261,12.0373],[10.1216,12.0305],[10.1216,12.0283],[10.1126,12.0283],[10.1104,12.0283],[10.1059,12.0305],[10.1037,12.0305],[10.0992,12.0283],[10.0947,12.0238],[10.0969,12.017],[10.0969,12.0148],[10.0969,12.0125],[10.0947,12.0103],[10.0722,12.0013],[10.0655,11.9968],[10.0587,11.9946],[10.0475,11.9923],[10.0363,11.9878],[10.0206,11.9834],[10.0093,11.9789],[9.9959,11.9766],[9.9801,11.9721],[9.9689,11.9654],[9.9644,11.9631],[9.9622,11.9654],[9.9577,11.9654],[9.9509,11.9676],[9.9487,11.9676],[9.9375,11.9654],[9.9128,11.9586],[9.906,11.9564],[9.9015,11.9542],[9.8993,11.9519],[9.8948,11.9519],[9.8903,11.9519],[9.8836,11.9519],[9.8791,11.9497],[9.8611,11.9429],[9.8521,11.9407],[9.8476,11.9384],[9.8319,11.9227],[9.8207,11.9137],[9.8117,11.907],[9.8072,11.9048],[9.8027,11.9048],[9.8005,11.9048],[9.7848,11.9003],[9.778,11.8958],[9.769,11.8935],[9.7601,11.8935],[9.7578,11.8935],[9.7511,11.8935],[9.7443,11.8913],[9.7421,11.8868],[9.7354,11.8823],[9.7309,11.88],[9.7264,11.88],[9.7196,11.8778],[9.7151,11.8778],[9.7106,11.88],[9.6994,11.8868],[9.6927,11.8913],[9.6904,11.8913],[9.6837,11.889],[9.6815,11.8868],[9.6747,11.8778],[9.6725,11.8688],[9.6725,11.8621],[9.6747,11.8553],[9.6747,11.8464],[9.6725,11.8396],[9.6725,11.8374],[9.6702,11.8351],[9.668,11.8306],[9.6657,11.8217],[9.6657,11.8149],[9.6657,11.8104],[9.6657,11.8082],[9.6635,11.8037],[9.6612,11.7992],[9.6567,11.7947],[9.6523,11.7925],[9.65,11.7925],[9.6433,11.7902],[9.6388,11.7857],[9.6365,11.7835],[9.6343,11.7812],[9.6298,11.7678],[9.6276,11.7633],[9.6276,11.761],[9.6276,11.7588],[9.6276,11.7543],[9.6298,11.7475]]]}},{"type":"Feature","properties":{"id":"bauchi/jama-are","name":"Jama'Are","state":"Bauchi"},"geometry":{"type":"Polygon","coordinates":[[[9.7443,11.7431],[9.7533,11.7453],[9.7578,11.7475],[9.7623,11.7475],[9.7668,11.7498],[9.7848,11.752],[9.7982,11.7475],[9.8027,11.7453],[9.805,11.7431],[9.8095,11.7408],[9.814,11.7341],[9.8162,11.7296],[9.8184,11.7206],[9.8207,11.7139],[9.8207,11.7004],[9.8207,11.6959],[9.8207,11.6914],[9.8207,11.6892],[9.8207,11.6824],[9.8207,11.6712],[9.8207,11.6645],[9.8229,11.6555],[9.8252,11.6487],[9.8274,11.642],[9.8274,11.6263],[9.8252,11.6195],[9.8229,11.6128],[9.8207,11.6083],[9.8184,11.6061],[9.8162,11.6016],[9.8162,11.5971],[9.8184,11.5903],[9.8364,11.5859],[9.8431,11.5859],[9.8679,11.5926],[9.8813,11.5971],[9.8881,11.6016],[9.8948,11.615],[9.906,11.624],[9.915,11.6375],[9.924,11.6465],[9.9307,11.6577],[9.9352,11.6689],[9.9465,11.6734],[9.9577,11.6712],[9.9801,11.6734],[9.9891,11.6667],[9.9981,11.6622],[10.0116,11.6555],[10.0273,11.6622],[10.043,11.6712],[10.0565,11.6824],[10.0722,11.7004],[10.0879,11.7116],[10.0857,11.7318],[10.0812,11.7408],[10.07,11.7543],[10.0565,11.761],[10.0318,11.7655],[10.0026,11.7745],[9.9959,11.779],[9.9801,11.7902],[9.9689,11.8014],[9.9644,11.8037],[9.9554,11.7992],[9.9397,11.797],[9.9195,11.8014],[9.8858,11.8014],[9.8634,11.8014],[9.8476,11.8014],[9.8342,11.8014],[9.8005,11.8014],[9.7892,11.797],[9.7735,11.7902],[9.7645,11.7835],[9.7533,11.77],[9.7398,11.7543],[9.7354,11.7498],[9.7354,11.7453],[9.7443,11.7431]]]}},{"type":"Feature","properties":{"id":"bauchi/katagum","name":"Katagum","state":"Bauchi"},"geometry":{"type":"Polygon","coordinates":[[[9.9689,11.8014],[9.9801,11.7902],[9.9959,11.779],[10.0026,11.7745],[10.0318,11.7655],[10.0565,11.761],[10.07,11.7543],[10.0812,11.7408],[10.0857,11.7318],[10.0879,11.7116],[10.0902,11.7094],[10.0947,11.6981],[10.0969,11.6847],[10.0992,11.6734],[10.1126,11.6645],[10.1284,11.6555],[10.1373,11.642],[10.1508,11.6308],[10.1778,11.6173],[10.1823,11.6128],[10.1867,11.6173],[10.2002,11.6195],[10.2137,11.6173],[10.2272,11.6128],[10.2406,11.6128],[10.2541,11.615],[10.2676,11.6173],[10.2811,11.6173],[10.2901,11.615],[10.3013,11.615],[10.3125,11.6173],[10.3237,11.6173],[10.3327,11.6106],[10.3372,11.5746],[10.3192,11.5634],[10.3305,11.5499],[10.3395,11.532],[10.3507,11.5162],[10.3642,11.5095],[10.3776,11.5073],[10.3911,11.5073],[10.4113,11.5073],[10.4248,11.505],[10.4405,11.5073],[10.4562,11.5095],[10.4697,11.5117],[10.4877,11.5117],[10.5079,11.514],[10.5303,11.5185],[10.5528,11.523],[10.5663,11.5297],[10.5753,11.5342],[10.591,11.5387],[10.6157,11.5522],[10.6269,11.5589],[10.6359,11.5679],[10.6292,11.5769],[10.609,11.6061],[10.5932,11.6398],[10.5887,11.66],[10.5887,11.6847],[10.5932,11.6914],[10.5708,11.6892],[10.5551,11.6847],[10.5371,11.6914],[10.5326,11.6981],[10.5214,11.7071],[10.5101,11.7206],[10.5012,11.7318],[10.4899,11.7453],[10.4765,11.7565],[10.4675,11.7678],[10.4562,11.7857],[10.454,11.797],[10.4428,11.8037],[10.4315,11.8127],[10.4203,11.8306],[10.4136,11.8419],[10.4113,11.8396],[10.3978,11.8261],[10.3934,11.8172],[10.3866,11.8104],[10.3776,11.8014],[10.3709,11.8014],[10.3327,11.8059],[10.317,11.8127],[10.3058,11.8194],[10.2878,11.8284],[10.2721,11.8284],[10.2384,11.8239],[10.2227,11.8194],[10.2002,11.8082],[10.18,11.7992],[10.1531,11.8037],[10.1418,11.8082],[10.1306,11.8127],[10.1149,11.8194],[10.1014,11.8261],[10.0879,11.8284],[10.0745,11.8306],[10.0565,11.8351],[10.0453,11.8374],[10.0318,11.8374],[10.0138,11.8284],[9.9981,11.8194],[9.9779,11.8104],[9.9712,11.8037],[9.9644,11.8037],[9.9689,11.8014]]]}},{"type":"Feature","properties":{"id":"bauchi/kirfi","name":"Kirfi","state":"Bauchi"},"geometry":{"type":"Polygon","coordinates":[[[10.2272,10.4832],[10.2362,10.4742],[10.2474,10.4607],[10.2609,10.436],[10.2653,10.4203],[10.2721,10.3934],[10.2721,10.3754],[10.2743,10.3664],[10.2766,10.3529],[10.2788,10.344],[10.2811,10.3327],[10.2811,10.3215],[10.2811,10.3148],[10.2878,10.3148],[10.2968,10.317],[10.317,10.3192],[10.3327,10.3192],[10.344,10.317],[10.3619,10.3125],[10.3731,10.3058],[10.3776,10.3013],[10.3866,10.2923],[10.3934,10.2811],[10.4023,10.2766],[10.4091,10.2698],[10.4248,10.2609],[10.4315,10.2496],[10.4383,10.2384],[10.4517,10.2249],[10.4585,10.2182],[10.4697,10.2092],[10.4765,10.2025],[10.4854,10.1935],[10.4967,10.1867],[10.5169,10.1845],[10.5348,10.1845],[10.564,10.1755],[10.5775,10.171],[10.5932,10.1643],[10.6045,10.162],[10.6202,10.162],[10.6471,10.1643],[10.6606,10.1688],[10.6741,10.171],[10.6853,10.1755],[10.701,10.1823],[10.7167,10.1912],[10.7302,10.2002],[10.7572,10.2025],[10.7729,10.2047],[10.7819,10.2025],[10.7976,10.2025],[10.8156,10.2025],[10.8313,10.198],[10.8358,10.2047],[10.8403,10.2159],[10.8515,10.2249],[10.8582,10.2362],[10.8448,10.2676],[10.8313,10.2811],[10.8268,10.2945],[10.829,10.317],[10.8335,10.3417],[10.8335,10.3642],[10.8335,10.3821],[10.8358,10.3956],[10.8358,10.4001],[10.8335,10.4181],[10.8201,10.4405],[10.8066,10.4562],[10.7886,10.4652],[10.7796,10.4697],[10.7662,10.4787],[10.7504,10.4832],[10.728,10.4854],[10.7055,10.4944],[10.692,10.4967],[10.6606,10.5012],[10.6381,10.5012],[10.6179,10.5079],[10.5887,10.5281],[10.5775,10.5371],[10.5663,10.5506],[10.5595,10.5618],[10.5528,10.5753],[10.5506,10.5887],[10.5461,10.6022],[10.5393,10.6157],[10.5326,10.6292],[10.5259,10.6404],[10.5169,10.6494],[10.5101,10.6516],[10.4944,10.6584],[10.4787,10.6673],[10.4765,10.6718],[10.472,10.6696],[10.4675,10.6606],[10.4562,10.6539],[10.4495,10.6494],[10.4248,10.6404],[10.4113,10.6381],[10.3574,10.6269],[10.3305,10.6202],[10.317,10.6134],[10.3125,10.6112],[10.2968,10.5955],[10.2856,10.5842],[10.2676,10.5595],[10.2586,10.5416],[10.2519,10.5259],[10.2384,10.4944],[10.2249,10.4854],[10.2272,10.4832]]]}},{"type":"Feature","properties":{"id":"bauchi/misau","name":"Misau","state":"Bauchi"},"geometry":{"type":"Polygon","coordinates":[[[10.2474,11.2198],[10.2609,11.2131],[10.2653,11.2131],[10.2698,11.2131],[10.2878,11.2086],[10.299,11.2063],[10.3192,11.2041],[10.3305,11.2063],[10.3395,11.2063],[10.3462,11.2086],[10.3529,11.2086],[10.3574,11.2086],[10.3619,11.2108],[10.3799,11.222],[10.4023,11.2243],[10.4315,11.2265],[10.454,11.2378],[10.4832,11.2557],[10.4989,11.2647],[10.5191,11.2714],[10.5416,11.2759],[10.5528,11.2804],[10.5595,11.2939],[10.5685,11.3186],[10.5753,11.3366],[10.5775,11.35],[10.5798,11.3703],[10.5798,11.3882],[10.5798,11.4084],[10.5842,11.4197],[10.5955,11.4287],[10.6179,11.4309],[10.6269,11.4331],[10.6494,11.4354],[10.6741,11.4421],[10.6853,11.4466],[10.692,11.4511],[10.7033,11.4578],[10.7123,11.4623],[10.719,11.4646],[10.7347,11.4713],[10.7325,11.4758],[10.728,11.487],[10.7235,11.496],[10.719,11.5073],[10.7212,11.5162],[10.7212,11.5297],[10.7167,11.5342],[10.6628,11.5432],[10.6449,11.5589],[10.6359,11.5679],[10.6269,11.5589],[10.6157,11.5522],[10.591,11.5387],[10.5753,11.5342],[10.5663,11.5297],[10.5528,11.523],[10.5303,11.5185],[10.5079,11.514],[10.4877,11.5117],[10.4697,11.5117],[10.4562,11.5095],[10.4405,11.5073],[10.4248,11.505],[10.4113,11.5073],[10.3911,11.5073],[10.3776,11.5073],[10.3642,11.5095],[10.3507,11.5162],[10.3395,11.532],[10.3305,11.5499],[10.3192,11.5634],[10.3035,11.5589],[10.2923,11.5544],[10.2811,11.5454],[10.2788,11.5275],[10.2923,11.5162],[10.2968,11.5095],[10.3035,11.4938],[10.2968,11.4691],[10.2968,11.4578],[10.299,11.4444],[10.3013,11.4309],[10.2945,11.4084],[10.2945,11.3995],[10.2923,11.3882],[10.2833,11.3703],[10.2766,11.3613],[10.2698,11.3545],[10.2653,11.3478],[10.2564,11.3366],[10.2496,11.3141],[10.2474,11.3029],[10.2474,11.2782],[10.2429,11.2512],[10.2406,11.2378],[10.2384,11.2265],[10.2384,11.222],[10.2474,11.2198]]]}},{"type":"Feature","properties":{"id":"bauchi/ningi","name":"Ningi","state":"Bauchi"},"geometry":{"type":"Polygon","coordinates":[[[8.7674,10.838],[8.7697,10.829],[8.7787,10.8088],[8.7854,10.7976],[8.7899,10.7931],[8.7921,10.7909],[8.7966,10.7953],[8.8101,10.8088],[8.8213,10.8178],[8.8505,10.8358],[8.8595,10.8425],[8.8685,10.847],[8.8775,10.8492],[8.8842,10.8515],[8.8977,10.8515],[8.9134,10.8448],[8.9336,10.8425],[8.9875,10.8156],[9.0032,10.8043],[9.0122,10.7976],[9.0212,10.7864],[9.0459,10.7706],[9.0616,10.7706],[9.0818,10.7706],[9.0976,10.7729],[9.1043,10.7729],[9.1178,10.7706],[9.129,10.7684],[9.1559,10.7662],[9.1739,10.7684],[9.1919,10.7729],[9.2278,10.7864],[9.2413,10.7931],[9.2548,10.8043],[9.2682,10.8088],[9.2817,10.8088],[9.3087,10.8066],[9.3289,10.8066],[9.3468,10.8066],[9.3558,10.8043],[9.3693,10.8066],[9.3895,10.8111],[9.4075,10.8111],[9.4277,10.8111],[9.4704,10.8201],[9.4838,10.8245],[9.4995,10.8335],[9.5175,10.8425],[9.5287,10.8448],[9.5422,10.847],[9.5714,10.8537],[9.5916,10.8605],[9.5939,10.8605],[9.5961,10.8695],[9.6029,10.8942],[9.6096,10.9054],[9.6141,10.9256],[9.6231,10.9413],[9.6253,10.9526],[9.6298,10.984],[9.6298,11.0042],[9.6298,11.0132],[9.6208,11.0289],[9.6208,11.0469],[9.6208,11.0648],[9.6186,11.0716],[9.6141,11.0873],[9.6073,11.1098],[9.6051,11.1255],[9.5984,11.1547],[9.5984,11.1726],[9.5984,11.1771],[9.6051,11.1973],[9.6118,11.2108],[9.6141,11.222],[9.6186,11.24],[9.6231,11.249],[9.6253,11.2535],[9.6163,11.2557],[9.6141,11.2557],[9.6029,11.258],[9.5961,11.2602],[9.5894,11.2602],[9.5849,11.258],[9.5826,11.2602],[9.5759,11.2714],[9.5759,11.2759],[9.5759,11.2804],[9.5759,11.2827],[9.5781,11.2872],[9.5759,11.2984],[9.5759,11.3096],[9.5737,11.3164],[9.5714,11.3209],[9.5714,11.3231],[9.5669,11.3276],[9.5579,11.3343],[9.5557,11.3343],[9.5467,11.3388],[9.5422,11.3388],[9.5355,11.3411],[9.5287,11.3411],[9.5243,11.3388],[9.5153,11.3366],[9.5063,11.3343],[9.4995,11.3343],[9.4951,11.3298],[9.4861,11.3209],[9.4748,11.3096],[9.4659,11.3074],[9.4546,11.3074],[9.4456,11.3074],[9.4344,11.3119],[9.4277,11.3119],[9.4232,11.3141],[9.4165,11.3164],[9.4007,11.3231],[9.3918,11.3298],[9.3805,11.3366],[9.3626,11.3456],[9.3491,11.35],[9.3356,11.359],[9.3311,11.359],[9.3131,11.3703],[9.2997,11.3703],[9.2795,11.3725],[9.239,11.368],[9.2256,11.3658],[9.1941,11.35],[9.1604,11.3321],[9.1559,11.3298],[9.1492,11.3276],[9.1447,11.3298],[9.1425,11.3321],[9.1425,11.3276],[9.1335,11.3186],[9.1268,11.3141],[9.12,11.3096],[9.111,11.3051],[9.1088,11.3029],[9.1065,11.2984],[9.1043,11.2962],[9.0976,11.2917],[9.0908,11.2894],[9.0773,11.2849],[9.0684,11.2804],[9.0549,11.2714],[9.0459,11.2647],[9.0324,11.2557],[9.0234,11.2445],[9.0234,11.24],[9.0212,11.2378],[9.0145,11.2288],[9.0122,11.2243],[9.0032,11.2153],[8.9943,11.2086],[8.983,11.1951],[8.9763,11.1906],[8.9695,11.1884],[8.9628,11.1839],[8.9561,11.1771],[8.9471,11.1726],[8.9404,11.1614],[8.9314,11.1502],[8.9269,11.1412],[8.9246,11.1367],[8.9201,11.1322],[8.9157,11.1277],[8.9089,11.1165],[8.9067,11.112],[8.8954,11.1008],[8.8887,11.0985],[8.8842,11.0963],[8.8752,11.0895],[8.8662,11.0895],[8.8573,11.0918],[8.8438,11.0963],[8.837,11.0985],[8.8281,11.1008],[8.8236,11.0985],[8.8213,11.0985],[8.8168,11.0963],[8.8101,11.0895],[8.8056,11.0851],[8.8011,11.0783],[8.7966,11.0671],[8.7921,11.0603],[8.7876,11.0491],[8.7832,11.0379],[8.7809,11.0222],[8.7787,11.0109],[8.7787,11.0042],[8.7809,10.9862],[8.7832,10.975],[8.7876,10.9638],[8.7876,10.9548],[8.7899,10.9481],[8.7876,10.9413],[8.7876,10.9368],[8.7854,10.9278],[8.7809,10.9189],[8.7764,10.9121],[8.7719,10.9031],[8.7719,10.8964],[8.7697,10.8852],[8.7674,10.8739],[8.7652,10.865],[8.7652,10.8605],[8.7674,10.838]]]}},{"type":"Feature","properties":{"id":"bauchi/shira","name":"Shira","state":"Bauchi"},"geometry":{"type":"Polygon","coordinates":[[[9.7803,11.5207],[9.7825,11.514],[9.7825,11.5095],[9.7848,11.505],[9.7848,11.4983],[9.787,11.4781],[9.787,11.4736],[9.7915,11.4668],[9.7982,11.4623],[9.8005,11.4623],[9.8095,11.4601],[9.8184,11.4623],[9.8319,11.4736],[9.8364,11.4803],[9.8387,11.4848],[9.8409,11.487],[9.8476,11.4983],[9.8521,11.4983],[9.8544,11.496],[9.8634,11.4915],[9.8679,11.487],[9.8701,11.4803],[9.8746,11.4736],[9.8836,11.4646],[9.8836,11.4623],[9.8836,11.4556],[9.8813,11.4444],[9.8791,11.4331],[9.8791,11.4309],[9.8791,11.4287],[9.8813,11.4197],[9.8813,11.4129],[9.8813,11.4084],[9.8813,11.4039],[9.8813,11.4017],[9.8813,11.3995],[9.8791,11.386],[9.8791,11.3792],[9.8768,11.3748],[9.8768,11.3725],[9.8768,11.368],[9.8791,11.3658],[9.8836,11.359],[9.8858,11.3568],[9.897,11.3478],[9.906,11.3456],[9.9083,11.3456],[9.9128,11.3478],[9.915,11.3478],[9.9173,11.3478],[9.9195,11.3478],[9.9217,11.3456],[9.924,11.3433],[9.9262,11.3388],[9.9307,11.3343],[9.9442,11.3253],[9.9532,11.3209],[9.9554,11.3141],[9.9577,11.3096],[9.9667,11.2962],[9.9734,11.2894],[9.9756,11.2827],[9.9779,11.2804],[9.9801,11.2737],[9.9914,11.2512],[9.9981,11.2467],[10.0004,11.2467],[10.0026,11.249],[10.0048,11.249],[10.0071,11.2512],[10.0138,11.2535],[10.0318,11.2602],[10.0363,11.2625],[10.0498,11.2625],[10.0565,11.2625],[10.061,11.2625],[10.0722,11.2849],[10.0857,11.3276],[10.0992,11.3635],[10.1081,11.3792],[10.1171,11.3972],[10.1396,11.4242],[10.1598,11.4399],[10.1867,11.4489],[10.2092,11.4668],[10.2204,11.4938],[10.2137,11.5028],[10.1935,11.5117],[10.18,11.523],[10.1823,11.5409],[10.1823,11.5522],[10.18,11.5634],[10.1755,11.5859],[10.1778,11.6061],[10.1823,11.6128],[10.1778,11.6173],[10.1508,11.6308],[10.1373,11.642],[10.1284,11.6555],[10.1126,11.6645],[10.0992,11.6734],[10.0969,11.6847],[10.0947,11.6981],[10.0902,11.7094],[10.0879,11.7116],[10.0722,11.7004],[10.0565,11.6824],[10.043,11.6712],[10.0273,11.6622],[10.0116,11.6555],[9.9981,11.6622],[9.9891,11.6667],[9.9801,11.6734],[9.9577,11.6712],[9.9465,11.6734],[9.9352,11.6689],[9.9307,11.6577],[9.924,11.6465],[9.915,11.6375],[9.906,11.624],[9.8948,11.615],[9.8881,11.6016],[9.8813,11.5971],[9.8679,11.5926],[9.8431,11.5859],[9.8364,11.5859],[9.8184,11.5903],[9.8207,11.5859],[9.8207,11.5791],[9.8207,11.5769],[9.8184,11.5701],[9.8184,11.5679],[9.814,11.5612],[9.8095,11.5589],[9.8027,11.5544],[9.7982,11.5522],[9.7915,11.5477],[9.7825,11.5387],[9.778,11.532],[9.778,11.5297],[9.778,11.5252],[9.7803,11.5207]]]}},{"type":"Feature","properties":{"id":"bauchi/tafawa-balewa","name":"Tafawa-Balewa","state":"Bauchi"},"geometry":{"type":"Polygon","coordinates":[[[9.1604,9.7398],[9.1694,9.7331],[9.1739,9.7309],[9.1829,9.7241],[9.1986,9.7084],[9.2031,9.7039],[9.2098,9.7017],[9.2368,9.6927],[9.2435,9.6972],[9.248,9.6972],[9.2503,9.7017],[9.2615,9.7129],[9.2705,9.7174],[9.2727,9.7151],[9.2795,9.7084],[9.2884,9.6927],[9.2907,9.6837],[9.2952,9.6725],[9.2907,9.6612],[9.2884,9.6523],[9.284,9.6433],[9.284,9.6365],[9.2952,9.6253],[9.3042,9.6208],[9.3131,9.6231],[9.3199,9.6186],[9.3199,9.6118],[9.3244,9.6006],[9.3266,9.5961],[9.3311,9.5916],[9.3334,9.5871],[9.3356,9.5781],[9.3401,9.5759],[9.3513,9.5714],[9.3558,9.5714],[9.3581,9.5714],[9.3626,9.5669],[9.3648,9.5624],[9.3693,9.5602],[9.3895,9.5512],[9.394,9.5467],[9.3985,9.5377],[9.403,9.5332],[9.4097,9.5287],[9.4165,9.5377],[9.4277,9.5602],[9.4322,9.5804],[9.4389,9.5939],[9.4456,9.6073],[9.4501,9.6231],[9.4614,9.6433],[9.4726,9.6657],[9.4816,9.6792],[9.4928,9.6972],[9.504,9.7241],[9.522,9.7421],[9.54,9.7488],[9.5512,9.7443],[9.6006,9.7398],[9.6186,9.7421],[9.65,9.7443],[9.6612,9.7488],[9.668,9.7488],[9.6837,9.7443],[9.7017,9.7398],[9.7106,9.7331],[9.7286,9.7264],[9.7443,9.7219],[9.7578,9.7151],[9.7803,9.7129],[9.796,9.7106],[9.8072,9.7017],[9.8162,9.6859],[9.8184,9.677],[9.8184,9.659],[9.814,9.6523],[9.805,9.632],[9.8027,9.6276],[9.8005,9.6231],[9.7892,9.6073],[9.7825,9.5939],[9.7803,9.5804],[9.778,9.5692],[9.7825,9.5557],[9.7848,9.5579],[9.7937,9.5669],[9.8095,9.5871],[9.8162,9.5939],[9.8544,9.6073],[9.8813,9.6073],[9.906,9.6118],[9.915,9.6118],[9.942,9.6096],[9.9622,9.6118],[9.9801,9.6231],[9.9914,9.6388],[9.9914,9.6455],[9.9846,9.6635],[9.9756,9.6904],[9.9712,9.7084],[9.9622,9.7264],[9.9622,9.7466],[9.9622,9.7556],[9.9667,9.7713],[9.9667,9.7735],[9.9599,9.7803],[9.9554,9.787],[9.9465,9.796],[9.9375,9.8027],[9.9307,9.8072],[9.9285,9.8184],[9.9128,9.8184],[9.9015,9.8252],[9.8881,9.8431],[9.8813,9.8566],[9.8566,9.8903],[9.8499,9.9015],[9.8387,9.9105],[9.8229,9.9262],[9.7982,9.9487],[9.787,9.9622],[9.7803,9.9667],[9.7601,9.9824],[9.7443,9.9959],[9.7309,10.0026],[9.7241,10.0071],[9.7106,10.0206],[9.6927,10.0363],[9.6792,10.0498],[9.6612,10.07],[9.6478,10.0857],[9.6343,10.0992],[9.632,10.1216],[9.641,10.1328],[9.6455,10.1373],[9.6545,10.1576],[9.659,10.1733],[9.659,10.2002],[9.6567,10.2137],[9.6523,10.2294],[9.6455,10.2406],[9.6388,10.2496],[9.6365,10.2541],[9.6343,10.2496],[9.6096,10.2474],[9.5984,10.2429],[9.5804,10.2272],[9.5849,10.2159],[9.5939,10.2092],[9.6029,10.1957],[9.6051,10.1823],[9.5871,10.1778],[9.5692,10.1733],[9.5467,10.171],[9.5377,10.1688],[9.5265,10.1643],[9.5085,10.1576],[9.4973,10.1508],[9.504,10.1396],[9.5153,10.1284],[9.531,10.1194],[9.549,10.1059],[9.5602,10.0969],[9.5692,10.0947],[9.5781,10.0902],[9.5871,10.0834],[9.5894,10.0745],[9.5826,10.0587],[9.5669,10.061],[9.5714,10.0475],[9.5759,10.0408],[9.5759,10.0318],[9.5669,10.0206],[9.5624,10.0071],[9.6073,10.0048],[9.6163,9.9981],[9.6231,9.9891],[9.6186,9.9734],[9.6141,9.9509],[9.6029,9.933],[9.5871,9.9128],[9.5826,9.906],[9.5737,9.9083],[9.5647,9.9105],[9.5534,9.9128],[9.531,9.9195],[9.5108,9.9173],[9.4928,9.9173],[9.4816,9.915],[9.4636,9.9173],[9.4412,9.9173],[9.4299,9.9173],[9.403,9.9217],[9.3985,9.9217],[9.4007,9.915],[9.394,9.897],[9.376,9.8723],[9.3536,9.8589],[9.3289,9.8454],[9.3019,9.8364],[9.2862,9.8342],[9.2682,9.8364],[9.266,9.8297],[9.2615,9.8184],[9.2525,9.8095],[9.2301,9.7915],[9.2188,9.7848],[9.2121,9.7825],[9.1851,9.769],[9.1739,9.7645],[9.1694,9.7623],[9.1604,9.7578],[9.1559,9.7556],[9.1515,9.7511],[9.1515,9.7488],[9.1515,9.7443],[9.1604,9.7398]]]}},{"type":"Feature","properties":{"id":"bauchi/toro","name":"Toro","state":"Bauchi"},"geometry":{"type":"Polygon","coordinates":[[[8.7337,10.436],[8.7405,10.4293],[8.7472,10.427],[8.754,10.427],[8.7629,10.4248],[8.7719,10.4248],[8.7832,10.4226],[8.7966,10.4158],[8.8056,10.4091],[8.8123,10.4023],[8.8168,10.3956],[8.8213,10.3911],[8.8236,10.3844],[8.8281,10.3799],[8.8505,10.3709],[8.8595,10.3664],[8.8707,10.3574],[8.8865,10.3574],[8.8932,10.3574],[8.8977,10.3574],[8.9134,10.3552],[8.9269,10.3529],[8.9291,10.3529],[8.9359,10.3484],[8.9381,10.3417],[8.9426,10.3327],[8.9538,10.3125],[8.9538,10.308],[8.9538,10.2901],[8.9448,10.2788],[8.9381,10.2743],[8.9359,10.2676],[8.9359,10.2586],[8.9314,10.2429],[8.9291,10.2294],[8.9291,10.2182],[8.9314,10.2159],[8.9381,10.2092],[8.9516,10.2025],[8.9651,10.1957],[8.974,10.189],[8.9785,10.18],[8.9763,10.162],[8.974,10.1553],[8.9718,10.1508],[8.9718,10.1463],[8.9718,10.1441],[8.974,10.1373],[8.9718,10.1284],[8.9695,10.1104],[8.9673,10.1037],[8.9673,10.0947],[8.9628,10.079],[8.9628,10.07],[8.9606,10.061],[8.9606,10.052],[8.9583,10.0453],[8.9583,10.0363],[8.9561,10.034],[8.9538,10.0273],[8.9561,10.0228],[8.9673,10.0183],[8.9785,10.0116],[8.983,10.0116],[8.9853,10.0093],[8.992,10.0093],[8.9987,10.0093],[9.0145,10.0138],[9.0302,10.0138],[9.0414,10.0161],[9.0481,10.0161],[9.0594,10.0183],[9.0639,10.0206],[9.0751,10.0228],[9.0863,10.0251],[9.1155,10.0363],[9.1245,10.0385],[9.1357,10.043],[9.1425,10.043],[9.1447,10.043],[9.1492,10.0408],[9.1604,10.043],[9.1627,10.0453],[9.1762,10.0475],[9.1896,10.0475],[9.2031,10.0475],[9.2166,10.0453],[9.2211,10.0453],[9.239,10.034],[9.248,10.0318],[9.2503,10.0251],[9.2548,10.0161],[9.2593,10.0071],[9.2637,9.9914],[9.2637,9.9891],[9.2637,9.9801],[9.266,9.9779],[9.2682,9.9689],[9.2705,9.9622],[9.275,9.9577],[9.2795,9.9532],[9.284,9.9307],[9.2907,9.9083],[9.2907,9.9015],[9.2907,9.8903],[9.2862,9.8791],[9.2795,9.8723],[9.2772,9.8701],[9.275,9.8589],[9.2727,9.8499],[9.2705,9.8431],[9.2682,9.8364],[9.2862,9.8342],[9.3019,9.8364],[9.3289,9.8454],[9.3536,9.8589],[9.376,9.8723],[9.394,9.897],[9.4007,9.915],[9.3985,9.9217],[9.3962,9.9375],[9.394,9.9442],[9.3918,9.9487],[9.3828,9.9554],[9.3783,9.9599],[9.3715,9.9712],[9.3603,9.9891],[9.3603,10.0161],[9.3715,10.0363],[9.376,10.052],[9.3805,10.061],[9.3828,10.0767],[9.3962,10.0992],[9.4052,10.1059],[9.4142,10.1194],[9.4299,10.1284],[9.4434,10.1351],[9.4636,10.1396],[9.4861,10.1463],[9.4973,10.1508],[9.5085,10.1576],[9.5265,10.1643],[9.5377,10.1688],[9.5467,10.171],[9.5692,10.1733],[9.5871,10.1778],[9.6051,10.1823],[9.6029,10.1957],[9.5939,10.2092],[9.5849,10.2159],[9.5804,10.2272],[9.5984,10.2429],[9.6096,10.2474],[9.6343,10.2496],[9.6365,10.2541],[9.641,10.2564],[9.6433,10.2653],[9.6455,10.2766],[9.6455,10.2878],[9.6478,10.299],[9.65,10.3103],[9.65,10.326],[9.6478,10.3462],[9.6478,10.3619],[9.6478,10.3776],[9.6478,10.3866],[9.6455,10.4046],[9.6433,10.4293],[9.641,10.4428],[9.6388,10.4562],[9.6343,10.4854],[9.632,10.4944],[9.6298,10.5034],[9.6298,10.5169],[9.6276,10.5483],[9.6253,10.5595],[9.6208,10.5685],[9.6163,10.573],[9.6096,10.5865],[9.6051,10.5955],[9.6006,10.6045],[9.5961,10.6112],[9.5916,10.6224],[9.5871,10.6404],[9.5826,10.6606],[9.5759,10.6741],[9.5714,10.6898],[9.5692,10.7033],[9.5692,10.728],[9.5714,10.7549],[9.5737,10.7729],[9.5737,10.7864],[9.5759,10.7998],[9.5781,10.8156],[9.5871,10.8335],[9.5916,10.8425],[9.5939,10.8515],[9.5939,10.8582],[9.5939,10.8605],[9.5916,10.8605],[9.5714,10.8537],[9.5422,10.847],[9.5287,10.8448],[9.5175,10.8425],[9.4995,10.8335],[9.4838,10.8245],[9.4704,10.8201],[9.4277,10.8111],[9.4075,10.8111],[9.3895,10.8111],[9.3693,10.8066],[9.3558,10.8043],[9.3468,10.8066],[9.3289,10.8066],[9.3087,10.8066],[9.2817,10.8088],[9.2682,10.8088],[9.2548,10.8043],[9.2413,10.7931],[9.2278,10.7864],[9.1919,10.7729],[9.1739,10.7684],[9.1559,10.7662],[9.129,10.7684],[9.1178,10.7706],[9.1043,10.7729],[9.0976,10.7729],[9.0818,10.7706],[9.0616,10.7706],[9.0459,10.7706],[9.0212,10.7864],[9.0122,10.7976],[9.0032,10.8043],[8.9875,10.8156],[8.9336,10.8425],[8.9134,10.8448],[8.8977,10.8515],[8.8842,10.8515],[8.8775,10.8492],[8.8685,10.847],[8.8595,10.8425],[8.8505,10.8358],[8.8213,10.8178],[8.8101,10.8088],[8.7966,10.7953],[8.7921,10.7909],[8.7966,10.7864],[8.8079,10.7796],[8.8213,10.7684],[8.8281,10.7572],[8.8326,10.7527],[8.8348,10.7437],[8.837,10.7347],[8.846,10.7235],[8.8505,10.719],[8.855,10.7078],[8.855,10.6965],[8.8528,10.6853],[8.8483,10.6763],[8.846,10.6673],[8.8415,10.6561],[8.8393,10.6516],[8.8348,10.6404],[8.8303,10.6314],[8.8213,10.6134],[8.8168,10.6045],[8.8011,10.582],[8.7921,10.573],[8.7787,10.5618],[8.7764,10.5551],[8.7742,10.5438],[8.7742,10.5393],[8.7719,10.5259],[8.7652,10.4989],[8.7629,10.4922],[8.7584,10.4854],[8.754,10.4809],[8.745,10.4742],[8.736,10.4652],[8.7293,10.4562],[8.7293,10.4517],[8.7337,10.436]]]}},{"type":"Feature","properties":{"id":"bauchi/warji","name":"Warji","state":"Bauchi"},"geometry":{"type":"Polygon","coordinates":[[[9.6051,11.1255],[9.6073,11.1098],[9.6141,11.0873],[9.6186,11.0716],[9.6388,11.0693],[9.6523,11.0671],[9.6837,11.0603],[9.7668,11.0514],[9.7982,11.0559],[9.8162,11.0559],[9.8387,11.0536],[9.8454,11.0536],[9.8544,11.0536],[9.8521,11.0648],[9.8521,11.0671],[9.8544,11.0716],[9.8544,11.0761],[9.8544,11.0895],[9.8544,11.1008],[9.8544,11.1098],[9.8566,11.1187],[9.8589,11.121],[9.8634,11.1277],[9.8656,11.13],[9.8723,11.1345],[9.8791,11.1412],[9.8903,11.1524],[9.8926,11.1547],[9.8926,11.1592],[9.8926,11.1614],[9.8881,11.1659],[9.8813,11.1704],[9.8791,11.1726],[9.8768,11.1726],[9.8701,11.1794],[9.8656,11.1861],[9.8634,11.1928],[9.8611,11.1951],[9.8566,11.2108],[9.8499,11.2265],[9.8454,11.2355],[9.8431,11.24],[9.8387,11.2445],[9.8364,11.2467],[9.8342,11.2512],[9.8319,11.2602],[9.8252,11.2737],[9.8252,11.2782],[9.8252,11.2827],[9.8229,11.2827],[9.8184,11.2849],[9.8095,11.2849],[9.8005,11.2849],[9.7848,11.2759],[9.7601,11.2647],[9.7488,11.2625],[9.7466,11.2625],[9.7376,11.2647],[9.7241,11.2647],[9.7084,11.2602],[9.6927,11.258],[9.6702,11.2557],[9.6545,11.2535],[9.65,11.2535],[9.6253,11.2535],[9.6231,11.249],[9.6186,11.24],[9.6141,11.222],[9.6118,11.2108],[9.6051,11.1973],[9.5984,11.1771],[9.5984,11.1726],[9.5984,11.1547],[9.6051,11.1255]]]}},{"type":"Feature","properties":{"id":"bauchi/zaki","name":"Zaki","state":"Bauchi"},"geometry":{"type":"Polygon","coordinates":[[[10.1643,12.1046],[10.1688,12.0934],[10.1733,12.0822],[10.1755,12.0754],[10.1755,12.0709],[10.1755,12.0664],[10.1755,12.062],[10.1778,12.0597],[10.1823,12.053],[10.1957,12.0215],[10.1957,11.9991],[10.1935,11.9789],[10.2025,11.9654],[10.2204,11.9564],[10.2384,11.9519],[10.2519,11.9497],[10.2653,11.9497],[10.2766,11.9452],[10.2923,11.9384],[10.3035,11.9384],[10.3237,11.9362],[10.3462,11.9317],[10.3642,11.9295],[10.3821,11.925],[10.4001,11.9182],[10.4091,11.9182],[10.4068,11.9295],[10.4046,11.9407],[10.4001,11.9564],[10.3956,11.9834],[10.3934,12.0081],[10.3934,12.0193],[10.3889,12.0305],[10.3799,12.0485],[10.3776,12.0709],[10.3776,12.0867],[10.3866,12.0956],[10.3934,12.1091],[10.4023,12.1316],[10.4046,12.1563],[10.4001,12.1787],[10.3866,12.1967],[10.3709,12.2034],[10.3462,12.2057],[10.3282,12.1989],[10.3125,12.2371],[10.3305,12.2551],[10.335,12.2618],[10.3507,12.2775],[10.3597,12.2933],[10.3664,12.3022],[10.3709,12.3112],[10.3799,12.318],[10.3889,12.327],[10.4001,12.3404],[10.4068,12.3494],[10.4136,12.3584],[10.4248,12.3629],[10.4562,12.3719],[10.472,12.3786],[10.4809,12.3809],[10.4899,12.3876],[10.4989,12.3943],[10.5101,12.4056],[10.5169,12.4078],[10.5281,12.4078],[10.5348,12.3966],[10.5393,12.3764],[10.5708,12.3696],[10.5842,12.3741],[10.5977,12.3809],[10.6381,12.3943],[10.6539,12.3943],[10.6808,12.3809],[10.692,12.3786],[10.71,12.3764],[10.719,12.3786],[10.7257,12.3809],[10.7257,12.3853],[10.7257,12.4056],[10.7257,12.4303],[10.7257,12.4415],[10.7257,12.446],[10.7235,12.4505],[10.7235,12.4527],[10.7167,12.4572],[10.6988,12.4662],[10.6898,12.4707],[10.6853,12.4729],[10.6651,12.4842],[10.6471,12.4954],[10.6426,12.4976],[10.6359,12.5066],[10.6359,12.5111],[10.6337,12.5134],[10.6292,12.5156],[10.6224,12.5178],[10.6134,12.5201],[10.6112,12.5223],[10.6045,12.5223],[10.5932,12.5201],[10.5932,12.5178],[10.591,12.5134],[10.5887,12.5111],[10.5842,12.5066],[10.582,12.5044],[10.5775,12.5021],[10.573,12.4999],[10.564,12.4976],[10.5618,12.4954],[10.5528,12.4931],[10.5438,12.4909],[10.5259,12.4819],[10.5169,12.4729],[10.5101,12.4639],[10.5056,12.4595],[10.4922,12.4392],[10.4854,12.437],[10.4765,12.4325],[10.4517,12.4235],[10.4473,12.4235],[10.4383,12.428],[10.436,12.4325],[10.4338,12.4347],[10.4338,12.4392],[10.4338,12.4415],[10.4293,12.4617],[10.4293,12.4662],[10.4248,12.4707],[10.4158,12.4729],[10.4136,12.4729],[10.4068,12.4729],[10.4023,12.4707],[10.3799,12.4729],[10.3754,12.4729],[10.3709,12.4729],[10.3597,12.4707],[10.3574,12.4684],[10.3529,12.4684],[10.3484,12.4684],[10.344,12.4684],[10.335,12.4662],[10.3282,12.4617],[10.3013,12.455],[10.2968,12.455],[10.2878,12.4505],[10.2856,12.4505],[10.2766,12.4437],[10.2676,12.4347],[10.2586,12.4235],[10.2564,12.419],[10.2541,12.4123],[10.2496,12.4033],[10.2451,12.3898],[10.2451,12.3831],[10.2429,12.3741],[10.2429,12.3606],[10.2429,12.3517],[10.2429,12.3247],[10.2429,12.3225],[10.2406,12.318],[10.2384,12.3135],[10.2294,12.2955],[10.2204,12.2775],[10.2182,12.2731],[10.2159,12.2731],[10.2137,12.2663],[10.2047,12.2528],[10.2025,12.2484],[10.2002,12.2461],[10.198,12.2416],[10.1935,12.2349],[10.1912,12.2259],[10.189,12.2192],[10.1867,12.2102],[10.1845,12.1989],[10.18,12.19],[10.1778,12.1832],[10.1755,12.181],[10.1733,12.1742],[10.1665,12.1518],[10.162,12.1383],[10.162,12.1316],[10.162,12.1226],[10.162,12.1114],[10.162,12.1091],[10.1643,12.1046]]]}}]}