{"type":"FeatureCollection","features":[{"type":"Feature","properties":{"id":"bayelsa/brass","name":"Brass","state":"Bayelsa"},"geometry":{"type":"MultiPolygon","coordinates":[[[[6.2477,4.359],[6.2522,4.3635],[6.2544,4.377],[6.2567,4.3792],[6.2454,4.3905],[6.2432,4.3725],[6.241,4.3613],[6.2477,4.359]]],[[[5.8682,4.3815],[5.931,4.341],[5.94,4.3366],[5.976,4.3208],[5.9782,4.3208],[5.9782,4.3163],[5.9782,4.3141],[5.9782,4.3119],[5.9804,4.3119],[5.9962,4.3051],[6.0096,4.3006],[6.0568,4.2871],[6.0725,4.2827],[6.0815,4.2804],[6.0838,4.2804],[6.0838,4.2782],[6.0838,4.2759],[6.0838,4.2737],[6.086,4.2714],[6.0905,4.2714],[6.104,4.2737],[6.1107,4.2714],[6.1152,4.2737],[6.1354,4.2759],[6.1713,4.2782],[6.1915,4.2804],[6.2095,4.2804],[6.2185,4.2827],[6.2207,4.2827],[6.2207,4.2849],[6.2207,4.2871],[6.2185,4.2916],[6.2163,4.3006],[6.214,4.3051],[6.214,4.3298],[6.214,4.3366],[6.2207,4.3568],[6.232,4.377],[6.232,4.386],[6.2365,4.3994],[6.2387,4.4084],[6.2365,4.4084],[6.2297,4.4241],[6.2207,4.4309],[6.2005,4.4354],[6.1871,4.4399],[6.1736,4.4466],[6.1601,4.4556],[6.1511,4.4623],[6.1466,4.4848],[6.1466,4.4982],[6.1466,4.5117],[6.1534,4.5207],[6.1579,4.5319],[6.1646,4.5521],[6.1601,4.5656],[6.1377,4.5387],[6.1264,4.5297],[6.1152,4.5297],[6.1062,4.5185],[6.0927,4.505],[6.0748,4.487],[6.0568,4.4758],[6.0478,4.4713],[6.0366,4.4646],[6.0186,4.4601],[6.0052,4.4556],[5.9939,4.4533],[5.9894,4.4444],[5.9827,4.4309],[5.9782,4.4129],[5.9715,4.4039],[5.9715,4.3927],[5.9737,4.3792],[5.9647,4.3702],[5.9557,4.3702],[5.9535,4.3702],[5.9468,4.3725],[5.9423,4.3747],[5.9265,4.3792],[5.9041,4.3882],[5.8861,4.3949],[5.8771,4.3994],[5.8682,4.3994],[5.8547,4.3994],[5.8479,4.3994],[5.8682,4.3815]]],[[[6.2387,4.2916],[6.2432,4.2916],[6.2499,4.2916],[6.2544,4.2894],[6.2634,4.2894],[6.2634,4.2916],[6.2724,4.2939],[6.2926,4.2939],[6.2949,4.2939],[6.3083,4.2961],[6.3308,4.2961],[6.3398,4.2984],[6.3555,4.3006],[6.3667,4.3006],[6.3869,4.3029],[6.4094,4.3051],[6.4139,4.3074],[6.461,4.3141],[6.4655,4.3141],[6.4655,4.3163],[6.4745,4.3163],[6.4947,4.3231],[6.5396,4.3253],[6.5419,4.3253],[6.5486,4.3253],[6.5486,4.3343],[6.5486,4.3433],[6.5441,4.3545],[6.5351,4.3568],[6.5194,4.3613],[6.5149,4.368],[6.5127,4.3792],[6.5127,4.3927],[6.5127,4.4174],[6.5127,4.4309],[6.5194,4.4533],[6.5239,4.4623],[6.5262,4.4691],[6.5329,4.478],[6.5351,4.4893],[6.5374,4.496],[6.5396,4.5005],[6.5509,4.5095],[6.5419,4.523],[6.5441,4.5342],[6.5531,4.5364],[6.5599,4.5409],[6.5666,4.5544],[6.5599,4.5544],[6.5509,4.5589],[6.5441,4.5679],[6.5396,4.5769],[6.5464,4.5813],[6.5486,4.5858],[6.5441,4.5903],[6.5374,4.5971],[6.5351,4.6083],[6.5262,4.615],[6.5172,4.6218],[6.5127,4.6442],[6.5284,4.6622],[6.5374,4.6734],[6.5464,4.6824],[6.5531,4.6891],[6.5666,4.7026],[6.5733,4.7093],[6.5868,4.7183],[6.5935,4.7228],[6.6003,4.7341],[6.607,4.7453],[6.598,4.752],[6.5801,4.7588],[6.5531,4.7588],[6.5374,4.7565],[6.5284,4.752],[6.5172,4.7475],[6.4992,4.7318],[6.4902,4.7228],[6.479,4.7138],[6.461,4.7138],[6.4498,4.6936],[6.4386,4.6802],[6.4296,4.6689],[6.4229,4.6577],[6.4071,4.642],[6.3937,4.6285],[6.3869,4.6195],[6.3892,4.6016],[6.3937,4.5836],[6.3959,4.5746],[6.4071,4.5544],[6.4094,4.5409],[6.4094,4.5274],[6.4206,4.5072],[6.4251,4.496],[6.4296,4.4668],[6.4296,4.4601],[6.4318,4.4511],[6.4318,4.4354],[6.4296,4.4219],[6.4229,4.4062],[6.4161,4.3949],[6.4071,4.3837],[6.3914,4.377],[6.3802,4.377],[6.3645,4.3725],[6.3555,4.3657],[6.3375,4.3635],[6.324,4.3635],[6.3038,4.3635],[6.2926,4.3702],[6.2814,4.3747],[6.2791,4.3725],[6.2701,4.368],[6.2589,4.359],[6.2522,4.3343],[6.241,4.3186],[6.241,4.3163],[6.2387,4.3119],[6.2365,4.3051],[6.2342,4.3006],[6.2342,4.2984],[6.2387,4.2916]]]]}},{"type":"Feature","properties":{"id":"bayelsa/ekeremor","name":"Ekeremor","state":"Bayelsa"},"geometry":{"type":"Polygon","coordinates":[[[5.3831,5.1091],[5.3831,5.1068],[5.3853,5.1024],[5.3898,5.0956],[5.4078,5.0574],[5.4123,5.0462],[5.4235,5.0238],[5.437,4.9901],[5.4415,4.9766],[5.4415,4.9743],[5.4415,4.9631],[5.4415,4.9496],[5.446,4.9429],[5.446,4.9407],[5.4504,4.9339],[5.4527,4.9227],[5.4527,4.9182],[5.4527,4.9092],[5.4527,4.907],[5.4527,4.9047],[5.4572,4.898],[5.4594,4.8913],[5.4662,4.8778],[5.4841,4.8441],[5.4886,4.8351],[5.4954,4.8261],[5.5066,4.8082],[5.5201,4.7857],[5.5223,4.7812],[5.5246,4.7767],[5.5268,4.7722],[5.5291,4.7632],[5.5291,4.761],[5.5313,4.752],[5.5335,4.7453],[5.538,4.7475],[5.5403,4.7498],[5.5448,4.7475],[5.547,4.7453],[5.5493,4.7453],[5.5515,4.743],[5.556,4.7385],[5.5582,4.7363],[5.5605,4.7318],[5.5695,4.7228],[5.5829,4.7273],[5.5897,4.7296],[5.5964,4.7341],[5.5964,4.7408],[5.5987,4.7453],[5.6032,4.7453],[5.6077,4.7385],[5.6099,4.7296],[5.6211,4.7296],[5.6211,4.7341],[5.6279,4.7318],[5.6301,4.7341],[5.6324,4.7363],[5.6279,4.7408],[5.6256,4.743],[5.6324,4.7408],[5.6458,4.7385],[5.6481,4.7475],[5.6436,4.7565],[5.6436,4.7655],[5.6481,4.7745],[5.666,4.7835],[5.675,4.7857],[5.684,4.7812],[5.6885,4.779],[5.693,4.7857],[5.6975,4.7924],[5.6952,4.8014],[5.6975,4.8104],[5.702,4.8127],[5.7042,4.8082],[5.711,4.8059],[5.7132,4.8082],[5.7199,4.8059],[5.7244,4.8014],[5.7357,4.7992],[5.7559,4.7969],[5.7671,4.8014],[5.7671,4.8127],[5.7716,4.8149],[5.7806,4.8082],[5.7851,4.8037],[5.7963,4.8059],[5.812,4.8127],[5.8277,4.8171],[5.8457,4.8239],[5.8614,4.8306],[5.8794,4.8396],[5.8951,4.8463],[5.9041,4.8508],[5.9176,4.8576],[5.9423,4.8688],[5.9535,4.8733],[5.967,4.88],[5.9782,4.8845],[5.9917,4.8935],[5.9872,4.9047],[5.9827,4.9137],[5.9804,4.9227],[5.9804,4.9384],[5.9849,4.9541],[5.9894,4.9654],[5.9917,4.9856],[5.9939,4.9968],[5.9939,5.0148],[5.9917,5.026],[5.9939,5.0395],[5.9917,5.0485],[5.9782,5.0619],[5.9715,5.0732],[5.967,5.0821],[5.9625,5.0911],[5.9602,5.1001],[5.967,5.1091],[5.9692,5.1271],[5.976,5.1383],[5.9715,5.1405],[5.9647,5.1495],[5.9602,5.1563],[5.9468,5.1652],[5.9333,5.1652],[5.9288,5.1607],[5.9265,5.154],[5.9265,5.1405],[5.9221,5.136],[5.9176,5.1338],[5.9153,5.1316],[5.9153,5.1181],[5.9153,5.1091],[5.9086,5.1046],[5.8974,5.1046],[5.8861,5.1001],[5.8816,5.1024],[5.8816,5.1091],[5.8771,5.1046],[5.8771,5.1001],[5.8749,5.0866],[5.8704,5.0709],[5.8682,5.0687],[5.8659,5.0687],[5.8637,5.0754],[5.8569,5.0777],[5.8524,5.0754],[5.8524,5.0709],[5.8479,5.0664],[5.8412,5.0687],[5.839,5.0709],[5.839,5.0754],[5.8412,5.0799],[5.8412,5.0821],[5.8345,5.0821],[5.83,5.0799],[5.8255,5.0777],[5.8143,5.0821],[5.8053,5.0844],[5.7918,5.0866],[5.7896,5.0844],[5.7896,5.0777],[5.7873,5.0732],[5.7806,5.0642],[5.7738,5.0619],[5.7693,5.0642],[5.7649,5.0642],[5.7581,5.0619],[5.7514,5.053],[5.7491,5.053],[5.7424,5.0552],[5.7357,5.0574],[5.7312,5.0552],[5.7289,5.0507],[5.7244,5.0417],[5.7199,5.0305],[5.711,5.0238],[5.702,5.0238],[5.6907,5.0238],[5.6818,5.0282],[5.675,5.0305],[5.666,5.0282],[5.6638,5.0238],[5.6638,5.0193],[5.6638,5.0148],[5.6616,5.0125],[5.6571,5.0125],[5.6481,5.0125],[5.6324,5.0193],[5.6256,5.026],[5.6189,5.035],[5.6121,5.0395],[5.5987,5.0417],[5.5919,5.044],[5.5852,5.0485],[5.5852,5.0552],[5.5695,5.0552],[5.5515,5.0552],[5.5448,5.0574],[5.5335,5.0619],[5.5246,5.0687],[5.5178,5.0799],[5.5111,5.0889],[5.5021,5.0934],[5.4931,5.0911],[5.4752,5.0934],[5.4707,5.0934],[5.4639,5.1001],[5.4549,5.1068],[5.4482,5.1181],[5.437,5.1316],[5.4325,5.1338],[5.4145,5.136],[5.4055,5.136],[5.401,5.1383],[5.3988,5.136],[5.3966,5.1338],[5.3876,5.1316],[5.3831,5.1293],[5.3808,5.1271],[5.3763,5.1271],[5.3763,5.1248],[5.3763,5.1203],[5.3831,5.1091]]]}},{"type":"Feature","properties":{"id":"bayelsa/kolokuma-opokuma","name":"Kolokuma/Opokuma","state":"Bayelsa"},"geometry":{"type":"Polygon","coordinates":[[[6.1466,4.9407],[6.1601,4.9407],[6.1848,4.9564],[6.2073,4.9743],[6.2252,4.9878],[6.2477,5.0103],[6.2612,5.0238],[6.2657,5.0372],[6.2679,5.0462],[6.2746,5.0552],[6.2836,5.0619],[6.2926,5.0552],[6.2926,5.0462],[6.3061,5.0507],[6.3128,5.0574],[6.3196,5.0732],[6.3218,5.0866],[6.3308,5.0889],[6.342,5.0911],[6.3577,5.0934],[6.369,5.1046],[6.3959,5.1383],[6.4004,5.145],[6.4004,5.154],[6.3982,5.1697],[6.3892,5.1944],[6.3802,5.1877],[6.3398,5.1854],[6.324,5.1877],[6.3106,5.1877],[6.2993,5.1855],[6.2769,5.181],[6.2657,5.1787],[6.2544,5.172],[6.2477,5.163],[6.2387,5.1518],[6.2297,5.1405],[6.2185,5.1293],[6.214,5.1181],[6.2028,5.1024],[6.1871,5.0821],[6.1803,5.0732],[6.1713,5.0597],[6.1646,5.0485],[6.1579,5.0417],[6.1421,5.0148],[6.1421,4.9991],[6.1466,4.9407]]]}},{"type":"Feature","properties":{"id":"bayelsa/nembe","name":"Nembe","state":"Bayelsa"},"geometry":{"type":"Polygon","coordinates":[[[6.1511,4.4623],[6.1601,4.4556],[6.1736,4.4466],[6.1871,4.4399],[6.2005,4.4354],[6.2207,4.4309],[6.2297,4.4241],[6.2365,4.4084],[6.2387,4.4084],[6.2454,4.3994],[6.2454,4.3905],[6.2567,4.3792],[6.2701,4.3905],[6.2814,4.3747],[6.2926,4.3702],[6.3038,4.3635],[6.324,4.3635],[6.3375,4.3635],[6.3555,4.3657],[6.3645,4.3725],[6.3802,4.377],[6.3914,4.377],[6.4071,4.3837],[6.4161,4.3949],[6.4229,4.4062],[6.4296,4.4219],[6.4318,4.4354],[6.4318,4.4511],[6.4296,4.4601],[6.4296,4.4668],[6.4251,4.496],[6.4206,4.5072],[6.4094,4.5274],[6.4094,4.5409],[6.4071,4.5544],[6.3959,4.5746],[6.3937,4.5836],[6.3892,4.6016],[6.3869,4.6195],[6.3645,4.6218],[6.351,4.6218],[6.3375,4.6218],[6.3263,4.6307],[6.3218,4.642],[6.3151,4.6532],[6.3061,4.6599],[6.2926,4.6622],[6.2679,4.6644],[6.2522,4.6599],[6.2342,4.6465],[6.2252,4.6397],[6.2028,4.642],[6.1938,4.6173],[6.1871,4.606],[6.1803,4.5971],[6.1736,4.5881],[6.1691,4.5791],[6.1601,4.5656],[6.1646,4.5521],[6.1579,4.5319],[6.1534,4.5207],[6.1466,4.5117],[6.1466,4.4982],[6.1466,4.4848],[6.1511,4.4623]]]}},{"type":"Feature","properties":{"id":"bayelsa/ogbia","name":"Ogbia","state":"Bayelsa"},"geometry":{"type":"Polygon","coordinates":[[[6.1983,4.6577],[6.2028,4.642],[6.2252,4.6397],[6.2342,4.6465],[6.2522,4.6599],[6.2679,4.6644],[6.2926,4.6622],[6.3061,4.6599],[6.3151,4.6532],[6.3218,4.642],[6.3263,4.6307],[6.3375,4.6218],[6.351,4.6218],[6.3645,4.6218],[6.3869,4.6195],[6.3937,4.6285],[6.4071,4.642],[6.4229,4.6577],[6.4296,4.6689],[6.4386,4.6802],[6.4498,4.6936],[6.461,4.7138],[6.4588,4.7251],[6.4453,4.7296],[6.4408,4.7453],[6.4431,4.761],[6.4453,4.7745],[6.4296,4.7655],[6.4229,4.7767],[6.4139,4.8037],[6.4094,4.8127],[6.4026,4.8261],[6.3982,4.8374],[6.3982,4.8508],[6.3982,4.8643],[6.4004,4.8755],[6.4071,4.8868],[6.4139,4.8957],[6.4206,4.907],[6.4251,4.9205],[6.4341,4.9294],[6.4408,4.9429],[6.4408,4.9541],[6.4363,4.9654],[6.4296,4.9743],[6.4206,4.9811],[6.4184,4.9721],[6.4026,4.9586],[6.3892,4.9474],[6.3735,4.9362],[6.3488,4.916],[6.3375,4.9092],[6.324,4.9025],[6.3151,4.8957],[6.2949,4.88],[6.2859,4.8778],[6.2746,4.8733],[6.2589,4.8733],[6.2432,4.8688],[6.2387,4.8531],[6.2342,4.8396],[6.232,4.8284],[6.2252,4.8194],[6.214,4.8014],[6.2095,4.7902],[6.2073,4.7812],[6.2073,4.7722],[6.2073,4.7543],[6.2073,4.7296],[6.2073,4.7206],[6.205,4.7093],[6.2005,4.6981],[6.1983,4.6869],[6.196,4.6667],[6.1983,4.6577]]]}},{"type":"Feature","properties":{"id":"bayelsa/sagbama","name":"Sagbama","state":"Bayelsa"},"geometry":{"type":"Polygon","coordinates":[[[5.9625,5.0911],[5.967,5.0821],[5.9715,5.0732],[5.9782,5.0619],[5.9917,5.0485],[5.9939,5.0395],[5.9917,5.026],[5.9939,5.0148],[5.9939,4.9968],[5.9917,4.9856],[5.9894,4.9654],[5.9849,4.9541],[5.9804,4.9384],[5.9804,4.9227],[5.9827,4.9137],[5.9872,4.9047],[5.9917,4.8935],[6.0029,4.889],[6.0029,4.8755],[6.0007,4.8666],[5.9962,4.8576],[5.9894,4.8374],[5.9872,4.8284],[5.9894,4.8149],[6.0096,4.8127],[6.0411,4.8149],[6.0613,4.8171],[6.0725,4.8216],[6.0748,4.8418],[6.0748,4.8576],[6.0725,4.871],[6.0725,4.889],[6.0725,4.898],[6.0748,4.907],[6.077,4.916],[6.0815,4.9272],[6.086,4.9384],[6.0882,4.9541],[6.0905,4.9654],[6.0905,4.9766],[6.086,4.9901],[6.0793,5.0035],[6.0703,5.017],[6.0635,5.0282],[6.0546,5.0395],[6.0546,5.0485],[6.0658,5.053],[6.0748,5.0597],[6.0793,5.053],[6.1017,5.0215],[6.1085,5.0103],[6.1197,4.9968],[6.1309,4.9946],[6.1421,4.9991],[6.1421,5.0148],[6.1579,5.0417],[6.1646,5.0485],[6.1713,5.0597],[6.1803,5.0732],[6.1871,5.0821],[6.2028,5.1024],[6.214,5.1181],[6.2185,5.1293],[6.2297,5.1405],[6.2387,5.1518],[6.2477,5.163],[6.2544,5.172],[6.2657,5.1787],[6.2769,5.181],[6.2993,5.1855],[6.3106,5.1877],[6.324,5.1877],[6.3398,5.1854],[6.3802,5.1877],[6.3892,5.1944],[6.4004,5.1944],[6.4251,5.2079],[6.4386,5.2146],[6.4521,5.2214],[6.4633,5.2259],[6.4745,5.2326],[6.488,5.2416],[6.5127,5.2685],[6.5194,5.2753],[6.5307,5.2843],[6.5419,5.2955],[6.5486,5.3022],[6.5554,5.3112],[6.5621,5.3202],[6.5666,5.3337],[6.5688,5.3471],[6.5688,5.3629],[6.5688,5.3718],[6.5621,5.3786],[6.5531,5.3808],[6.5396,5.3808],[6.5194,5.3808],[6.5015,5.3786],[6.4857,5.3786],[6.497,5.3696],[6.5015,5.3516],[6.5037,5.3382],[6.4925,5.3269],[6.4902,5.3247],[6.4723,5.3224],[6.4498,5.3269],[6.4341,5.3224],[6.4251,5.3112],[6.4094,5.3045],[6.3937,5.3067],[6.3802,5.309],[6.3622,5.3135],[6.3465,5.3202],[6.3398,5.3202],[6.333,5.3179],[6.3308,5.3135],[6.3285,5.3112],[6.3151,5.3045],[6.3061,5.3022],[6.3038,5.3],[6.2993,5.3],[6.2971,5.2955],[6.2881,5.2843],[6.2859,5.282],[6.2859,5.2798],[6.2836,5.2753],[6.2836,5.2708],[6.2836,5.2663],[6.2859,5.2618],[6.2881,5.2596],[6.2904,5.2506],[6.2926,5.2461],[6.2926,5.2393],[6.2904,5.2349],[6.2791,5.2281],[6.2724,5.2281],[6.2589,5.2281],[6.2387,5.2349],[6.2342,5.2371],[6.214,5.2393],[6.2028,5.2326],[6.196,5.2236],[6.1938,5.2169],[6.196,5.2102],[6.1983,5.2034],[6.2005,5.1899],[6.2028,5.1787],[6.2005,5.1697],[6.1915,5.1585],[6.1781,5.1607],[6.1668,5.1607],[6.1556,5.1518],[6.1511,5.1405],[6.1444,5.1338],[6.1287,5.1293],[6.1197,5.1338],[6.1085,5.1428],[6.0972,5.1495],[6.086,5.1518],[6.0703,5.1405],[6.0658,5.1338],[6.0635,5.1226],[6.0635,5.1113],[6.0613,5.1024],[6.0546,5.0979],[6.0433,5.0956],[6.0276,5.0956],[6.0186,5.0979],[6.0052,5.1046],[6.0007,5.1068],[5.9849,5.1248],[5.9804,5.1316],[5.976,5.1383],[5.9692,5.1271],[5.967,5.1091],[5.9602,5.1001],[5.9625,5.0911]]]}},{"type":"Feature","properties":{"id":"bayelsa/southern-ijaw","name":"Southern Ijaw","state":"Bayelsa"},"geometry":{"type":"Polygon","coordinates":[[[5.5448,4.7183],[5.5515,4.7071],[5.5672,4.6802],[5.5785,4.6599],[5.5852,4.651],[5.5942,4.6397],[5.6032,4.6307],[5.6571,4.5611],[5.6638,4.5544],[5.6975,4.523],[5.6975,4.5162],[5.6975,4.514],[5.7177,4.5005],[5.7357,4.487],[5.7738,4.4578],[5.7873,4.4466],[5.8435,4.4017],[5.8479,4.3994],[5.8547,4.3994],[5.8682,4.3994],[5.8771,4.3994],[5.8861,4.3949],[5.9041,4.3882],[5.9265,4.3792],[5.9423,4.3747],[5.9468,4.3725],[5.9535,4.3702],[5.9557,4.3702],[5.9647,4.3702],[5.9737,4.3792],[5.9715,4.3927],[5.9715,4.4039],[5.9782,4.4129],[5.9827,4.4309],[5.9894,4.4444],[5.9939,4.4533],[6.0052,4.4556],[6.0186,4.4601],[6.0366,4.4646],[6.0478,4.4713],[6.0568,4.4758],[6.0748,4.487],[6.0927,4.505],[6.1062,4.5185],[6.1152,4.5297],[6.1264,4.5297],[6.1377,4.5387],[6.1601,4.5656],[6.1691,4.5791],[6.1736,4.5881],[6.1803,4.5971],[6.1871,4.606],[6.1938,4.6173],[6.2028,4.642],[6.1983,4.6577],[6.196,4.6667],[6.1983,4.6869],[6.2005,4.6981],[6.205,4.7093],[6.2073,4.7206],[6.2073,4.7296],[6.2073,4.7543],[6.2073,4.7722],[6.2073,4.7812],[6.2095,4.7902],[6.214,4.8014],[6.2252,4.8194],[6.232,4.8284],[6.2342,4.8396],[6.2387,4.8531],[6.196,4.8463],[6.1803,4.8463],[6.1556,4.8486],[6.1534,4.8598],[6.1534,4.8778],[6.1466,4.9407],[6.1421,4.9991],[6.1309,4.9946],[6.1197,4.9968],[6.1085,5.0103],[6.1017,5.0215],[6.0793,5.053],[6.0748,5.0597],[6.0658,5.053],[6.0546,5.0485],[6.0546,5.0395],[6.0635,5.0282],[6.0703,5.017],[6.0793,5.0035],[6.086,4.9901],[6.0905,4.9766],[6.0905,4.9654],[6.0882,4.9541],[6.086,4.9384],[6.0815,4.9272],[6.077,4.916],[6.0748,4.907],[6.0725,4.898],[6.0725,4.889],[6.0725,4.871],[6.0748,4.8576],[6.0748,4.8418],[6.0725,4.8216],[6.0613,4.8171],[6.0411,4.8149],[6.0096,4.8127],[5.9894,4.8149],[5.9872,4.8284],[5.9894,4.8374],[5.9962,4.8576],[6.0007,4.8666],[6.0029,4.8755],[6.0029,4.889],[5.9917,4.8935],[5.9782,4.8845],[5.967,4.88],[5.9535,4.8733],[5.9423,4.8688],[5.9176,4.8576],[5.9041,4.8508],[5.8951,4.8463],[5.8794,4.8396],[5.8614,4.8306],[5.8457,4.8239],[5.8277,4.8171],[5.812,4.8127],[5.7963,4.8059],[5.7851,4.8037],[5.7806,4.8082],[5.7716,4.8149],[5.7671,4.8127],[5.7671,4.8014],[5.7559,4.7969],[5.7357,4.7992],[5.7244,4.8014],[5.7199,4.8059],[5.7132,4.8082],[5.711,4.8059],[5.7042,4.8082],[5.702,4.8127],[5.6975,4.8104],[5.6952,4.8014],[5.6975,4.7924],[5.693,4.7857],[5.6885,4.779],[5.684,4.7812],[5.675,4.7857],[5.666,4.7835],[5.6481,4.7745],[5.6436,4.7655],[5.6436,4.7565],[5.6481,4.7475],[5.6458,4.7385],[5.6324,4.7408],[5.6256,4.743],[5.6279,4.7408],[5.6324,4.7363],[5.6301,4.7341],[5.6279,4.7318],[5.6211,4.7341],[5.6211,4.7296],[5.6099,4.7296],[5.6077,4.7385],[5.6032,4.7453],[5.5987,4.7453],[5.5964,4.7408],[5.5964,4.7341],[5.5897,4.7296],[5.5829,4.7273],[5.5695,4.7228],[5.5605,4.7318],[5.5582,4.7363],[5.556,4.7385],[5.5515,4.743],[5.5493,4.7453],[5.547,4.7453],[5.5448,4.7475],[5.5403,4.7498],[5.538,4.7475],[5.5335,4.7453],[5.5335,4.7385],[5.5448,4.7183]]]}},{"type":"Feature","properties":{"id":"bayelsa/yenegoa","name":"Yenegoa","state":"Bayelsa"},"geometry":{"type":"Polygon","coordinates":[[[6.1534,4.8778],[6.1534,4.8598],[6.1556,4.8486],[6.1803,4.8463],[6.196,4.8463],[6.2387,4.8531],[6.2432,4.8688],[6.2589,4.8733],[6.2746,4.8733],[6.2859,4.8778],[6.2949,4.88],[6.3151,4.8957],[6.324,4.9025],[6.3375,4.9092],[6.3488,4.916],[6.3735,4.9362],[6.3892,4.9474],[6.4026,4.9586],[6.4184,4.9721],[6.4206,4.9811],[6.4094,4.9901],[6.4116,5.0035],[6.4184,5.017],[6.4251,5.0305],[6.4296,5.0395],[6.4386,5.053],[6.4431,5.0687],[6.4521,5.0821],[6.461,5.0979],[6.4633,5.1068],[6.4723,5.1293],[6.4857,5.154],[6.4925,5.163],[6.5104,5.172],[6.5262,5.1742],[6.5351,5.1877],[6.5441,5.1855],[6.5531,5.1899],[6.5599,5.1989],[6.5486,5.2124],[6.5531,5.2259],[6.5666,5.2371],[6.5486,5.2573],[6.5374,5.2641],[6.5329,5.273],[6.5307,5.2843],[6.5194,5.2753],[6.5127,5.2685],[6.488,5.2416],[6.4745,5.2326],[6.4633,5.2259],[6.4521,5.2214],[6.4386,5.2146],[6.4251,5.2079],[6.4004,5.1944],[6.3892,5.1944],[6.3982,5.1697],[6.4004,5.154],[6.4004,5.145],[6.3959,5.1383],[6.369,5.1046],[6.3577,5.0934],[6.342,5.0911],[6.3308,5.0889],[6.3218,5.0866],[6.3196,5.0732],[6.3128,5.0574],[6.3061,5.0507],[6.2926,5.0462],[6.2926,5.0552],[6.2836,5.0619],[6.2746,5.0552],[6.2679,5.0462],[6.2657,5.0372],[6.2612,5.0238],[6.2477,5.0103],[6.2252,4.9878],[6.2073,4.9743],[6.1848,4.9564],[6.1601,4.9407],[6.1466,4.9407],[6.1534,4.8778]]]}}]}