{"type":"FeatureCollection","features":[{"type":"Feature","properties":{"id":"benue/ado","name":"Ado","state":"Benue"},"geometry":{"type":"Polygon","coordinates":[[[7.8062,6.634],[7.822,6.6385],[7.831,6.6385],[7.8332,6.6272],[7.8332,6.6205],[7.8377,6.6138],[7.8444,6.6093],[7.8467,6.6048],[7.8534,6.589],[7.8557,6.5801],[7.8691,6.5688],[7.8871,6.5531],[7.9096,6.5419],[7.923,6.5374],[7.9298,6.5329],[7.932,6.5307],[7.95,6.5329],[7.9634,6.5441],[7.9657,6.5576],[7.9702,6.5688],[7.9769,6.5823],[7.9882,6.6115],[7.9882,6.6182],[7.9882,6.634],[7.9882,6.6497],[7.9882,6.6609],[7.9859,6.6699],[7.9882,6.6879],[7.9949,6.7036],[7.9994,6.7126],[8.0084,6.7148],[8.0263,6.7148],[8.0353,6.7126],[8.051,6.7103],[8.0645,6.7126],[8.0757,6.7148],[8.0802,6.7126],[8.0892,6.7126],[8.0959,6.7081],[8.0982,6.7081],[8.1117,6.7103],[8.1274,6.7126],[8.1364,6.7171],[8.1454,6.726],[8.1454,6.735],[8.1476,6.744],[8.1498,6.7463],[8.1521,6.7552],[8.1656,6.7665],[8.1723,6.7732],[8.1925,6.7777],[8.1993,6.7777],[8.2127,6.7754],[8.2195,6.7777],[8.2262,6.7889],[8.2284,6.8001],[8.2262,6.8069],[8.2082,6.8114],[8.1858,6.8181],[8.1678,6.8204],[8.1611,6.8249],[8.1454,6.8473],[8.1319,6.8585],[8.1229,6.881],[8.1207,6.8967],[8.1184,6.9124],[8.1162,6.9192],[8.1139,6.9416],[8.1117,6.9551],[8.1049,6.9776],[8.1027,6.9865],[8.1027,6.9888],[8.1004,7.0023],[8.1004,7.009],[8.1004,7.0135],[8.1027,7.018],[8.0937,7.0135],[8.0825,7.0135],[8.069,7.0157],[8.0555,7.0225],[8.0488,7.0292],[8.0353,7.027],[8.0173,7.027],[7.9994,7.0292],[7.9814,7.027],[7.9657,7.0225],[7.9522,7.0157],[7.9455,7.0157],[7.9343,7.009],[7.9185,6.991],[7.9073,6.9798],[7.9006,6.9663],[7.8961,6.9551],[7.8961,6.9439],[7.8983,6.9371],[7.9096,6.9169],[7.9208,6.9035],[7.9275,6.89],[7.9298,6.8787],[7.9275,6.872],[7.914,6.8675],[7.9051,6.8675],[7.8961,6.863],[7.8826,6.8585],[7.8871,6.854],[7.8893,6.8428],[7.8893,6.8226],[7.8871,6.8046],[7.8871,6.7934],[7.8871,6.7889],[7.8893,6.7844],[7.9006,6.7867],[7.9028,6.7822],[7.8893,6.7665],[7.8781,6.7597],[7.8557,6.7418],[7.8422,6.7148],[7.831,6.6901],[7.822,6.6744],[7.8152,6.6587],[7.8107,6.6497],[7.804,6.6407],[7.8062,6.634]]]}},{"type":"Feature","properties":{"id":"benue/agatu","name":"Agatu","state":"Benue"},"geometry":{"type":"Polygon","coordinates":[[[7.6693,7.8848],[7.694,7.8377],[7.7276,7.7928],[7.7456,7.7681],[7.7501,7.7726],[7.7591,7.7771],[7.7815,7.7883],[7.7905,7.7905],[7.8152,7.7928],[7.8399,7.7928],[7.8601,7.7905],[7.8848,7.7815],[7.9051,7.7726],[7.9185,7.7658],[7.941,7.7591],[7.9634,7.7501],[7.9859,7.7434],[7.9994,7.7389],[8.0308,7.7321],[8.0465,7.7299],[8.0555,7.7299],[8.0645,7.7299],[8.069,7.7366],[8.069,7.7434],[8.078,7.7546],[8.0847,7.7636],[8.0937,7.7771],[8.1027,7.7905],[8.1072,7.8018],[8.1184,7.813],[8.1386,7.8287],[8.1476,7.831],[8.1633,7.8354],[8.1723,7.8422],[8.1813,7.8534],[8.1768,7.8557],[8.1588,7.8601],[8.1386,7.8624],[8.1139,7.8646],[8.0959,7.8691],[8.0735,7.8781],[8.069,7.8804],[8.0398,7.8961],[7.9949,7.923],[7.9724,7.9387],[7.932,7.9567],[7.9028,7.9679],[7.8781,7.9837],[7.8669,7.9859],[7.8377,7.9859],[7.8107,7.9904],[7.7815,7.9994],[7.7613,8.0039],[7.7389,8.0061],[7.6985,8.0129],[7.676,8.0151],[7.6715,7.9837],[7.6648,7.9343],[7.6625,7.9051],[7.6693,7.8848]]]}},{"type":"Feature","properties":{"id":"benue/apa","name":"Apa","state":"Benue"},"geometry":{"type":"Polygon","coordinates":[[[7.7523,7.7434],[7.7523,7.7074],[7.7546,7.6805],[7.7546,7.6603],[7.7546,7.6468],[7.7523,7.6468],[7.7523,7.6243],[7.7501,7.5951],[7.7523,7.5637],[7.7546,7.5435],[7.7568,7.53],[7.7546,7.5121],[7.7546,7.5053],[7.7591,7.4918],[7.7591,7.4784],[7.7613,7.4514],[7.7636,7.4335],[7.7681,7.4267],[7.7771,7.42],[7.7928,7.4155],[7.813,7.4155],[7.8354,7.4177],[7.8489,7.42],[7.8601,7.4132],[7.8691,7.4222],[7.8848,7.4559],[7.8871,7.4626],[7.8938,7.4829],[7.9028,7.5053],[7.9073,7.5098],[7.9185,7.521],[7.9387,7.539],[7.9679,7.5637],[7.9904,7.5794],[8.0084,7.5907],[8.0263,7.6064],[8.0488,7.6266],[8.069,7.6378],[8.0802,7.6446],[8.0802,7.649],[8.0757,7.667],[8.0757,7.6737],[8.0668,7.6895],[8.0645,7.7007],[8.0645,7.7164],[8.0645,7.7299],[8.0555,7.7299],[8.0465,7.7299],[8.0308,7.7321],[7.9994,7.7389],[7.9859,7.7434],[7.9634,7.7501],[7.941,7.7591],[7.9185,7.7658],[7.9051,7.7726],[7.8848,7.7815],[7.8601,7.7905],[7.8399,7.7928],[7.8152,7.7928],[7.7905,7.7905],[7.7815,7.7883],[7.7591,7.7771],[7.7501,7.7726],[7.7456,7.7681],[7.7523,7.7434]]]}},{"type":"Feature","properties":{"id":"benue/buruku","name":"Buruku","state":"Benue"},"geometry":{"type":"Polygon","coordinates":[[[8.8865,7.5076],[8.8865,7.5008],[8.8932,7.5076],[8.9022,7.5053],[8.9157,7.5076],[8.9359,7.5121],[8.9471,7.5143],[8.9651,7.5121],[8.9785,7.5076],[8.983,7.5098],[8.9965,7.5053],[9.0212,7.4918],[9.0504,7.4784],[9.0818,7.4582],[9.0976,7.4447],[9.111,7.429],[9.12,7.4087],[9.1268,7.3975],[9.1312,7.3818],[9.138,7.3706],[9.1537,7.3638],[9.1694,7.3661],[9.1762,7.3683],[9.1829,7.3661],[9.1806,7.3571],[9.1627,7.3346],[9.147,7.3189],[9.1357,7.3077],[9.1245,7.2875],[9.111,7.2673],[9.0998,7.2515],[9.0841,7.2381],[9.0796,7.2291],[9.0661,7.2044],[9.0616,7.1954],[9.0459,7.1819],[9.0414,7.1797],[9.0504,7.1662],[9.0661,7.1482],[9.0931,7.1258],[9.1043,7.119],[9.1245,7.1146],[9.1402,7.1078],[9.1627,7.1078],[9.1919,7.1078],[9.2143,7.1123],[9.2345,7.1213],[9.2525,7.128],[9.2637,7.1437],[9.2884,7.164],[9.3019,7.1752],[9.3042,7.1774],[9.2929,7.1864],[9.2795,7.1976],[9.2727,7.2066],[9.2705,7.2134],[9.2727,7.2246],[9.284,7.2291],[9.3019,7.2358],[9.3087,7.2471],[9.2974,7.265],[9.2862,7.2875],[9.2795,7.3054],[9.2795,7.3279],[9.284,7.3414],[9.2974,7.3638],[9.3087,7.3796],[9.3109,7.4065],[9.3131,7.4312],[9.3109,7.4402],[9.3064,7.4514],[9.2974,7.4537],[9.2795,7.4694],[9.266,7.4829],[9.2345,7.4941],[9.2076,7.4986],[9.1806,7.4963],[9.1649,7.5008],[9.1492,7.5233],[9.1402,7.5412],[9.1335,7.5525],[9.1223,7.5637],[9.1043,7.5794],[9.0931,7.5929],[9.0706,7.6019],[9.0526,7.5996],[9.0437,7.6019],[9.0392,7.5929],[9.0347,7.5862],[9.0257,7.5817],[9.019,7.5794],[9.0145,7.5772],[9.0055,7.5817],[8.9965,7.5951],[8.9853,7.6243],[8.9763,7.6513],[8.9673,7.6715],[8.9628,7.6872],[8.9538,7.6962],[8.9359,7.7074],[8.9269,7.7142],[8.9224,7.7029],[8.9157,7.6895],[8.9089,7.6805],[8.9022,7.658],[8.8932,7.6176],[8.8932,7.6041],[8.8909,7.5862],[8.8887,7.5727],[8.8887,7.5637],[8.8887,7.5525],[8.8842,7.5255],[8.8865,7.5076]]]}},{"type":"Feature","properties":{"id":"benue/gboko","name":"Gboko","state":"Benue"},"geometry":{"type":"Polygon","coordinates":[[[8.6102,7.3436],[8.6215,7.3122],[8.6215,7.3032],[8.6282,7.274],[8.6349,7.2493],[8.6417,7.2358],[8.6709,7.1999],[8.7135,7.1595],[8.7248,7.1505],[8.7427,7.1415],[8.7495,7.1393],[8.7495,7.146],[8.754,7.146],[8.7584,7.1482],[8.7629,7.1482],[8.7697,7.1527],[8.7719,7.1595],[8.7764,7.1662],[8.7899,7.1774],[8.7966,7.1842],[8.8011,7.1932],[8.8168,7.2066],[8.8303,7.2111],[8.8393,7.2201],[8.873,7.2515],[8.9022,7.274],[8.9201,7.2807],[8.9426,7.2785],[8.9493,7.2785],[8.9785,7.265],[8.9808,7.2583],[8.992,7.2493],[8.9987,7.2403],[9.0145,7.2201],[9.0414,7.1819],[9.0414,7.1797],[9.0459,7.1819],[9.0616,7.1954],[9.0661,7.2044],[9.0796,7.2291],[9.0841,7.2381],[9.0998,7.2515],[9.111,7.2673],[9.1245,7.2875],[9.1357,7.3077],[9.147,7.3189],[9.1627,7.3346],[9.1806,7.3571],[9.1829,7.3661],[9.1762,7.3683],[9.1694,7.3661],[9.1537,7.3638],[9.138,7.3706],[9.1312,7.3818],[9.1268,7.3975],[9.12,7.4087],[9.111,7.429],[9.0976,7.4447],[9.0818,7.4582],[9.0504,7.4784],[9.0212,7.4918],[8.9965,7.5053],[8.983,7.5098],[8.9785,7.5076],[8.9651,7.5121],[8.9471,7.5143],[8.9359,7.5121],[8.9157,7.5076],[8.9022,7.5053],[8.8932,7.5076],[8.8865,7.5008],[8.8752,7.5031],[8.8573,7.5031],[8.8348,7.5076],[8.8258,7.5053],[8.8146,7.4963],[8.8079,7.4986],[8.7876,7.5188],[8.7742,7.5412],[8.7697,7.5502],[8.7697,7.5704],[8.7674,7.5951],[8.7652,7.6019],[8.7584,7.6086],[8.754,7.6109],[8.745,7.6019],[8.7248,7.5839],[8.7045,7.5682],[8.6731,7.5435],[8.6619,7.53],[8.6484,7.5076],[8.6394,7.4896],[8.6259,7.4694],[8.6192,7.4514],[8.6102,7.429],[8.6102,7.42],[8.6125,7.4132],[8.6125,7.3998],[8.6102,7.3953],[8.6102,7.3751],[8.608,7.3593],[8.6102,7.3436]]]}},{"type":"Feature","properties":{"id":"benue/guma","name":"Guma","state":"Benue"},"geometry":{"type":"Polygon","coordinates":[[[8.3632,7.9455],[8.3789,7.9163],[8.3969,7.8804],[8.4059,7.8601],[8.4036,7.8377],[8.4126,7.8444],[8.4283,7.8557],[8.4485,7.8691],[8.4732,7.8826],[8.4957,7.8848],[8.5159,7.8871],[8.5384,7.8848],[8.5586,7.8781],[8.5855,7.8669],[8.608,7.8534],[8.6327,7.8287],[8.6484,7.8107],[8.6596,7.7838],[8.6664,7.7636],[8.6664,7.7389],[8.6641,7.7119],[8.6596,7.7029],[8.6686,7.7052],[8.6843,7.7074],[8.7023,7.7029],[8.718,7.7029],[8.7293,7.6985],[8.736,7.694],[8.745,7.6917],[8.745,7.694],[8.7472,7.7052],[8.7517,7.7142],[8.7652,7.7232],[8.7787,7.7344],[8.7899,7.7344],[8.7989,7.7344],[8.8079,7.7321],[8.8281,7.7299],[8.8528,7.7232],[8.882,7.7209],[8.8977,7.7164],[8.9134,7.7142],[8.9269,7.7142],[8.9359,7.7074],[8.9538,7.6962],[8.9628,7.6872],[8.9673,7.6715],[8.9763,7.6513],[8.9853,7.6243],[8.9965,7.5951],[9.0055,7.5817],[9.0145,7.5772],[9.019,7.5794],[9.0257,7.5817],[9.0347,7.5862],[9.0392,7.5929],[9.0437,7.6019],[9.0437,7.6131],[9.0414,7.6311],[9.0414,7.6782],[9.0369,7.694],[9.0302,7.7164],[9.0257,7.7389],[9.0212,7.7479],[9.019,7.7636],[9.019,7.7815],[9.0234,7.8018],[9.0302,7.8152],[9.0481,7.8377],[9.0594,7.8557],[9.0818,7.8759],[9.0931,7.8781],[9.1223,7.8781],[9.1335,7.8826],[9.1717,7.8871],[9.1739,7.8871],[9.1784,7.8893],[9.1829,7.8916],[9.1829,7.8961],[9.1806,7.9028],[9.1784,7.9073],[9.1762,7.9163],[9.1627,7.9365],[9.1447,7.9702],[9.1335,7.9904],[9.1155,8.0084],[9.0976,8.0286],[9.0841,8.0465],[9.0684,8.0668],[9.0616,8.0735],[9.0571,8.078],[9.0504,8.0757],[9.0257,8.0623],[8.9718,8.0578],[8.9112,8.0555],[8.8415,8.0668],[8.8191,8.0712],[8.7809,8.0757],[8.6956,8.0959],[8.6372,8.1162],[8.5878,8.1296],[8.5608,8.1409],[8.5249,8.1566],[8.5137,8.1588],[8.5047,8.1588],[8.4665,8.1386],[8.4261,8.1117],[8.3901,8.078],[8.3722,8.0465],[8.3632,8.0173],[8.3609,7.9882],[8.3609,7.9612],[8.3632,7.9455]]]}},{"type":"Feature","properties":{"id":"benue/gwer-east","name":"Gwer East","state":"Benue"},"geometry":{"type":"Polygon","coordinates":[[[8.1319,7.3818],[8.1341,7.3751],[8.1454,7.3548],[8.1588,7.3324],[8.1656,7.3144],[8.1723,7.292],[8.1813,7.2807],[8.1903,7.2718],[8.1993,7.2583],[8.2262,7.2358],[8.2352,7.2268],[8.2487,7.2089],[8.2554,7.1976],[8.2644,7.1774],[8.2689,7.164],[8.2711,7.155],[8.2756,7.146],[8.2756,7.1437],[8.2846,7.1348],[8.2981,7.1235],[8.3138,7.1168],[8.334,7.1101],[8.3475,7.1033],[8.3632,7.0943],[8.3857,7.0809],[8.3991,7.0719],[8.4104,7.0651],[8.4306,7.0494],[8.4396,7.0472],[8.444,7.0539],[8.4508,7.0696],[8.4575,7.0809],[8.4665,7.1033],[8.4687,7.1258],[8.4732,7.155],[8.4732,7.1729],[8.4755,7.1864],[8.4777,7.1999],[8.48,7.2156],[8.4822,7.2336],[8.4822,7.2538],[8.4822,7.2628],[8.4867,7.274],[8.5047,7.301],[8.5249,7.3257],[8.5361,7.3391],[8.5473,7.3481],[8.5676,7.3728],[8.5743,7.384],[8.599,7.4087],[8.6102,7.42],[8.6102,7.429],[8.6192,7.4514],[8.6259,7.4694],[8.6394,7.4896],[8.6484,7.5076],[8.6619,7.53],[8.6731,7.5435],[8.7045,7.5682],[8.7248,7.5839],[8.745,7.6019],[8.754,7.6109],[8.7517,7.6288],[8.7472,7.6513],[8.745,7.6603],[8.7427,7.676],[8.745,7.6895],[8.745,7.6917],[8.736,7.694],[8.7293,7.6985],[8.718,7.7029],[8.7023,7.7029],[8.6843,7.7074],[8.6686,7.7052],[8.6596,7.7029],[8.6551,7.6872],[8.6372,7.6558],[8.6192,7.6333],[8.5968,7.6131],[8.5743,7.5974],[8.5384,7.5884],[8.5002,7.5907],[8.462,7.5996],[8.4373,7.6131],[8.4216,7.6266],[8.4036,7.6468],[8.3901,7.6693],[8.3879,7.676],[8.3767,7.6715],[8.3497,7.649],[8.3362,7.6356],[8.334,7.6311],[8.334,7.6266],[8.3273,7.6109],[8.3138,7.5907],[8.2981,7.5749],[8.2801,7.557],[8.2711,7.5457],[8.2532,7.5233],[8.2464,7.5031],[8.2397,7.4896],[8.2307,7.4739],[8.2262,7.4649],[8.2015,7.4447],[8.179,7.429],[8.1678,7.42],[8.1476,7.4043],[8.1319,7.3953],[8.1274,7.393],[8.1319,7.3818]]]}},{"type":"Feature","properties":{"id":"benue/gwer-west","name":"Gwer West","state":"Benue"},"geometry":{"type":"Polygon","coordinates":[[[8.0668,7.6895],[8.0757,7.6737],[8.0757,7.667],[8.0802,7.649],[8.0802,7.6446],[8.0802,7.6288],[8.0825,7.6064],[8.0802,7.5907],[8.0802,7.5794],[8.0825,7.5615],[8.087,7.5435],[8.0915,7.521],[8.0959,7.5053],[8.1049,7.4739],[8.1117,7.4582],[8.1117,7.4514],[8.1162,7.4335],[8.1184,7.42],[8.1229,7.3998],[8.1274,7.393],[8.1319,7.3953],[8.1476,7.4043],[8.1678,7.42],[8.179,7.429],[8.2015,7.4447],[8.2262,7.4649],[8.2307,7.4739],[8.2397,7.4896],[8.2464,7.5031],[8.2532,7.5233],[8.2711,7.5457],[8.2801,7.557],[8.2981,7.5749],[8.3138,7.5907],[8.3273,7.6109],[8.334,7.6266],[8.334,7.6311],[8.3362,7.6356],[8.3497,7.649],[8.3767,7.6715],[8.3879,7.676],[8.3857,7.6805],[8.3789,7.7007],[8.3722,7.7164],[8.3699,7.7434],[8.3699,7.7546],[8.3699,7.7636],[8.3722,7.7703],[8.3632,7.7748],[8.3452,7.7838],[8.3295,7.7928],[8.3026,7.8018],[8.2756,7.8152],[8.2509,7.822],[8.215,7.8354],[8.1903,7.8489],[8.1858,7.8512],[8.1835,7.8534],[8.1813,7.8534],[8.1723,7.8422],[8.1633,7.8354],[8.1476,7.831],[8.1386,7.8287],[8.1184,7.813],[8.1072,7.8018],[8.1027,7.7905],[8.0937,7.7771],[8.0847,7.7636],[8.078,7.7546],[8.069,7.7434],[8.069,7.7366],[8.0645,7.7299],[8.0645,7.7164],[8.0645,7.7007],[8.0668,7.6895]]]}},{"type":"Feature","properties":{"id":"benue/katsina-ala","name":"Katsina-Ala","state":"Benue"},"geometry":{"type":"Polygon","coordinates":[[[9.2727,7.2066],[9.2795,7.1976],[9.2929,7.1864],[9.3042,7.1774],[9.3199,7.164],[9.3311,7.155],[9.3401,7.146],[9.3648,7.1258],[9.3693,7.1213],[9.3805,7.1168],[9.3962,7.1146],[9.4097,7.1078],[9.4232,7.1011],[9.4299,7.1011],[9.4479,7.0921],[9.4614,7.0741],[9.4816,7.0562],[9.4906,7.0382],[9.4995,7.0315],[9.5153,7.0337],[9.5287,7.0517],[9.5579,7.0943],[9.5849,7.1146],[9.6096,7.137],[9.6523,7.1572],[9.6972,7.1707],[9.769,7.2089],[9.8252,7.2538],[9.8274,7.2583],[9.8409,7.2807],[9.8566,7.3257],[9.8656,7.3638],[9.8836,7.4132],[9.8881,7.4626],[9.8836,7.5076],[9.8701,7.5412],[9.8454,7.5749],[9.8409,7.5794],[9.8207,7.5951],[9.8162,7.5974],[9.796,7.5907],[9.7556,7.5435],[9.7354,7.5188],[9.7196,7.4873],[9.7039,7.4671],[9.6837,7.4424],[9.6231,7.393],[9.6006,7.3773],[9.5939,7.3751],[9.5849,7.3751],[9.5759,7.384],[9.5647,7.3998],[9.5422,7.4447],[9.5287,7.4649],[9.5085,7.4941],[9.4973,7.5076],[9.4816,7.5368],[9.4681,7.5502],[9.4524,7.557],[9.4479,7.5525],[9.4322,7.5368],[9.4165,7.5255],[9.3805,7.4873],[9.3648,7.4694],[9.3491,7.4604],[9.3131,7.4424],[9.3109,7.4402],[9.3131,7.4312],[9.3109,7.4065],[9.3087,7.3796],[9.2974,7.3638],[9.284,7.3414],[9.2795,7.3279],[9.2795,7.3054],[9.2862,7.2875],[9.2974,7.265],[9.3087,7.2471],[9.3019,7.2358],[9.284,7.2291],[9.2727,7.2246],[9.2705,7.2134],[9.2727,7.2066]]]}},{"type":"Feature","properties":{"id":"benue/konshisha","name":"Konshisha","state":"Benue"},"geometry":{"type":"Polygon","coordinates":[[[8.4485,7.0382],[8.462,7.0247],[8.48,7.009],[8.4912,7.0],[8.5137,6.9776],[8.5226,6.9641],[8.5384,6.9439],[8.5608,6.9237],[8.572,6.9147],[8.5923,6.9147],[8.599,6.9124],[8.6012,6.9102],[8.6012,6.9012],[8.5968,6.9012],[8.5945,6.8967],[8.5945,6.89],[8.599,6.872],[8.6057,6.8653],[8.608,6.8585],[8.6192,6.8608],[8.6372,6.863],[8.6462,6.863],[8.6507,6.8653],[8.6574,6.8653],[8.6619,6.8675],[8.6641,6.8675],[8.6686,6.8698],[8.6754,6.8743],[8.6866,6.8832],[8.7045,6.8967],[8.7203,6.8967],[8.727,6.8945],[8.7472,6.8922],[8.7607,6.8922],[8.7764,6.8877],[8.7809,6.8855],[8.7989,6.881],[8.8123,6.8765],[8.8393,6.8698],[8.8483,6.8653],[8.8573,6.8608],[8.864,6.8563],[8.8797,6.8496],[8.8865,6.8428],[8.8977,6.8383],[8.9022,6.8361],[8.9089,6.8338],[8.9134,6.8316],[8.9224,6.8249],[8.9269,6.8226],[8.9291,6.8204],[8.9404,6.8136],[8.9404,6.8249],[8.9404,6.8451],[8.9426,6.8675],[8.9471,6.89],[8.9516,6.9035],[8.9471,6.9237],[8.9336,6.9506],[8.9269,6.9686],[8.9179,6.9821],[8.9044,6.9978],[8.8954,7.0068],[8.882,7.0292],[8.8775,7.0337],[8.8528,7.0472],[8.8348,7.0584],[8.8034,7.0809],[8.7966,7.0854],[8.7809,7.1011],[8.7719,7.1146],[8.7584,7.1303],[8.7495,7.1393],[8.7427,7.1415],[8.7248,7.1505],[8.7135,7.1595],[8.6709,7.1999],[8.6417,7.2358],[8.6349,7.2493],[8.6282,7.274],[8.6215,7.3032],[8.6215,7.3122],[8.6102,7.3436],[8.608,7.3593],[8.6102,7.3751],[8.6102,7.3953],[8.6125,7.3998],[8.6125,7.4132],[8.6102,7.42],[8.599,7.4087],[8.5743,7.384],[8.5676,7.3728],[8.5473,7.3481],[8.5361,7.3391],[8.5249,7.3257],[8.5047,7.301],[8.4867,7.274],[8.4822,7.2628],[8.4822,7.2538],[8.4822,7.2336],[8.48,7.2156],[8.4777,7.1999],[8.4755,7.1864],[8.4732,7.1729],[8.4732,7.155],[8.4687,7.1258],[8.4665,7.1033],[8.4575,7.0809],[8.4508,7.0696],[8.444,7.0539],[8.4396,7.0472],[8.4485,7.0382]]]}},{"type":"Feature","properties":{"id":"benue/kwande","name":"Kwande","state":"Benue"},"geometry":{"type":"Polygon","coordinates":[[[9.1357,6.6789],[9.1492,6.6834],[9.1537,6.6834],[9.1717,6.6879],[9.1762,6.6879],[9.1851,6.6924],[9.1919,6.6946],[9.1986,6.6968],[9.2098,6.7013],[9.2166,6.7058],[9.2278,6.7081],[9.248,6.7148],[9.2548,6.7171],[9.266,6.7193],[9.2705,6.7193],[9.2795,6.7193],[9.2862,6.7193],[9.2907,6.7215],[9.2997,6.7193],[9.3042,6.7171],[9.3064,6.7126],[9.3087,6.7081],[9.3131,6.7013],[9.3176,6.6946],[9.3244,6.6834],[9.3334,6.6744],[9.3423,6.6654],[9.3468,6.6564],[9.3513,6.6474],[9.3603,6.6362],[9.367,6.6295],[9.3918,6.6093],[9.3962,6.6048],[9.403,6.6003],[9.4142,6.5868],[9.4165,6.5823],[9.4232,6.5733],[9.4277,6.5643],[9.4322,6.5576],[9.4389,6.5509],[9.4501,6.5396],[9.4591,6.5329],[9.4681,6.5262],[9.4704,6.5239],[9.4726,6.5172],[9.4748,6.5104],[9.4748,6.5037],[9.4748,6.4992],[9.4726,6.4947],[9.4726,6.4902],[9.4704,6.488],[9.4681,6.4723],[9.4659,6.4588],[9.4659,6.4565],[9.4681,6.4565],[9.4748,6.4543],[9.5153,6.4453],[9.5287,6.4453],[9.5669,6.4655],[9.5849,6.4745],[9.5849,6.4768],[9.5849,6.479],[9.5849,6.4835],[9.5849,6.4857],[9.5849,6.488],[9.5849,6.4902],[9.5826,6.4902],[9.5826,6.4925],[9.5849,6.4992],[9.5849,6.5037],[9.5849,6.506],[9.5849,6.5082],[9.5871,6.5082],[9.5871,6.5104],[9.5894,6.5104],[9.5894,6.5127],[9.5916,6.5149],[9.5916,6.5172],[9.5916,6.5194],[9.5916,6.5217],[9.5939,6.5217],[9.5939,6.5262],[9.5939,6.5284],[9.5961,6.5284],[9.5961,6.5307],[9.5984,6.5307],[9.6006,6.5307],[9.6006,6.5284],[9.6029,6.5284],[9.6029,6.5307],[9.6029,6.5374],[9.6073,6.5711],[9.6231,6.6632],[9.6365,6.7126],[9.6455,6.7395],[9.6478,6.8001],[9.6433,6.8428],[9.641,6.8675],[9.6455,6.8945],[9.6635,6.9349],[9.6882,6.9865],[9.6994,7.0112],[9.7376,7.0786],[9.7623,7.1011],[9.8229,7.1729],[9.8342,7.1999],[9.8342,7.2179],[9.8297,7.2358],[9.8252,7.2538],[9.769,7.2089],[9.6972,7.1707],[9.6523,7.1572],[9.6096,7.137],[9.5849,7.1146],[9.5579,7.0943],[9.5287,7.0517],[9.5153,7.0337],[9.4995,7.0315],[9.4906,7.0382],[9.4816,7.0562],[9.4614,7.0741],[9.4479,7.0921],[9.4299,7.1011],[9.4232,7.1011],[9.4165,7.0966],[9.403,7.0786],[9.3895,7.0607],[9.3558,7.0292],[9.3401,7.0135],[9.3266,7.0023],[9.3131,6.9843],[9.2974,6.9708],[9.2884,6.9618],[9.266,6.9461],[9.2525,6.9371],[9.2323,6.9326],[9.2098,6.9304],[9.1784,6.9304],[9.1784,6.9282],[9.1762,6.9124],[9.1649,6.8832],[9.1604,6.8675],[9.1537,6.8428],[9.147,6.8226],[9.147,6.8001],[9.1425,6.7754],[9.1402,6.762],[9.138,6.744],[9.1312,6.7171],[9.129,6.6766],[9.1357,6.6789]]]}},{"type":"Feature","properties":{"id":"benue/logo","name":"Logo","state":"Benue"},"geometry":{"type":"Polygon","coordinates":[[[9.0212,7.7479],[9.0257,7.7389],[9.0302,7.7164],[9.0369,7.694],[9.0414,7.6782],[9.0414,7.6311],[9.0437,7.6131],[9.0437,7.6019],[9.0526,7.5996],[9.0706,7.6019],[9.0931,7.5929],[9.1043,7.5794],[9.1223,7.5637],[9.1335,7.5525],[9.1402,7.5412],[9.1492,7.5233],[9.1649,7.5008],[9.1806,7.4963],[9.2076,7.4986],[9.2345,7.4941],[9.266,7.4829],[9.2795,7.4694],[9.2974,7.4537],[9.3064,7.4514],[9.3109,7.4402],[9.3131,7.4424],[9.3491,7.4604],[9.3648,7.4694],[9.3805,7.4873],[9.4165,7.5255],[9.4322,7.5368],[9.4479,7.5525],[9.4524,7.557],[9.4187,7.5862],[9.4052,7.6086],[9.3895,7.6311],[9.3783,7.6558],[9.3693,7.6805],[9.3693,7.7119],[9.3715,7.7591],[9.3738,7.7995],[9.3783,7.8332],[9.3783,7.8444],[9.3154,7.8354],[9.2727,7.822],[9.2256,7.8175],[9.1896,7.8107],[9.1559,7.7973],[9.1312,7.7883],[9.12,7.7928],[9.1155,7.8085],[9.1245,7.8265],[9.1402,7.8489],[9.1492,7.8601],[9.1627,7.8691],[9.1694,7.8826],[9.1717,7.8871],[9.1335,7.8826],[9.1223,7.8781],[9.0931,7.8781],[9.0818,7.8759],[9.0594,7.8557],[9.0481,7.8377],[9.0302,7.8152],[9.0234,7.8018],[9.019,7.7815],[9.019,7.7636],[9.0212,7.7479]]]}},{"type":"Feature","properties":{"id":"benue/makurdi","name":"Makurdi","state":"Benue"},"geometry":{"type":"Polygon","coordinates":[[[8.3722,7.7164],[8.3789,7.7007],[8.3857,7.6805],[8.3879,7.676],[8.3901,7.6693],[8.4036,7.6468],[8.4216,7.6266],[8.4373,7.6131],[8.462,7.5996],[8.5002,7.5907],[8.5384,7.5884],[8.5743,7.5974],[8.5968,7.6131],[8.6192,7.6333],[8.6372,7.6558],[8.6551,7.6872],[8.6596,7.7029],[8.6641,7.7119],[8.6664,7.7389],[8.6664,7.7636],[8.6596,7.7838],[8.6484,7.8107],[8.6327,7.8287],[8.608,7.8534],[8.5855,7.8669],[8.5586,7.8781],[8.5384,7.8848],[8.5159,7.8871],[8.4957,7.8848],[8.4732,7.8826],[8.4485,7.8691],[8.4283,7.8557],[8.4126,7.8444],[8.4036,7.8377],[8.3969,7.8287],[8.3924,7.8197],[8.3946,7.8107],[8.4014,7.795],[8.4059,7.786],[8.4126,7.7771],[8.4126,7.7681],[8.4036,7.7658],[8.3857,7.7681],[8.3722,7.7703],[8.3699,7.7636],[8.3699,7.7546],[8.3699,7.7434],[8.3722,7.7164]]]}},{"type":"Feature","properties":{"id":"benue/obi","name":"Obi","state":"Benue"},"geometry":{"type":"Polygon","coordinates":[[[8.1027,6.9888],[8.1049,6.9888],[8.1117,6.9888],[8.1229,6.9888],[8.1296,6.9865],[8.1498,6.9798],[8.1678,6.9753],[8.188,6.9708],[8.206,6.9686],[8.215,6.9663],[8.2374,6.9618],[8.2554,6.9574],[8.2644,6.9529],[8.2868,6.9439],[8.3138,6.9394],[8.334,6.9394],[8.343,6.9416],[8.3565,6.9461],[8.3654,6.9506],[8.3789,6.9686],[8.3834,6.9798],[8.3879,6.9865],[8.3946,6.9955],[8.4014,7.0068],[8.4059,7.0157],[8.4059,7.027],[8.4081,7.0517],[8.4104,7.0651],[8.3991,7.0719],[8.3857,7.0809],[8.3632,7.0943],[8.3475,7.1033],[8.334,7.1101],[8.3138,7.1168],[8.2981,7.1235],[8.2846,7.1348],[8.2756,7.1437],[8.2756,7.146],[8.2689,7.1437],[8.2509,7.1258],[8.2464,7.119],[8.2374,7.1033],[8.2329,7.0921],[8.224,7.0741],[8.2217,7.0674],[8.215,7.0562],[8.2082,7.0494],[8.1925,7.0382],[8.1656,7.0292],[8.1521,7.027],[8.1431,7.0225],[8.1341,7.0202],[8.1094,7.018],[8.1027,7.018],[8.1004,7.0135],[8.1004,7.009],[8.1004,7.0023],[8.1027,6.9888]]]}},{"type":"Feature","properties":{"id":"benue/ogbadibo","name":"Ogbadibo","state":"Benue"},"geometry":{"type":"Polygon","coordinates":[[[7.539,7.0202],[7.5412,7.009],[7.5502,6.991],[7.5525,6.9843],[7.557,6.9776],[7.5592,6.9708],[7.5637,6.9529],[7.5704,6.9394],[7.5772,6.9326],[7.5996,6.9259],[7.6198,6.9192],[7.6356,6.9035],[7.6468,6.8855],[7.658,6.8675],[7.6737,6.8563],[7.6917,6.8518],[7.7209,6.863],[7.7344,6.863],[7.7501,6.8787],[7.7636,6.881],[7.7771,6.8765],[7.7748,6.8855],[7.7748,6.8967],[7.7726,6.9124],[7.7748,6.9214],[7.7771,6.9304],[7.786,6.9416],[7.7905,6.9551],[7.786,6.9618],[7.7793,6.9708],[7.7658,6.9821],[7.7591,6.9865],[7.7479,6.9933],[7.7434,7.0],[7.7501,7.009],[7.7568,7.0135],[7.7703,7.027],[7.7793,7.0404],[7.7793,7.0607],[7.7793,7.0741],[7.7748,7.0854],[7.7681,7.1011],[7.7613,7.119],[7.7479,7.128],[7.7232,7.1482],[7.7029,7.164],[7.6962,7.164],[7.676,7.155],[7.658,7.146],[7.6378,7.1325],[7.6288,7.1258],[7.6221,7.1123],[7.6176,7.1078],[7.6109,7.1011],[7.6019,7.0899],[7.5996,7.0786],[7.6041,7.0539],[7.6064,7.0404],[7.6109,7.0315],[7.6109,7.027],[7.6109,7.0225],[7.6086,7.018],[7.6019,7.0157],[7.5929,7.018],[7.5817,7.027],[7.5435,7.0404],[7.53,7.0315],[7.539,7.0202]]]}},{"type":"Feature","properties":{"id":"benue/ohimini","name":"Ohimini","state":"Benue"},"geometry":{"type":"Polygon","coordinates":[[[7.8175,7.2111],[7.8332,7.2021],[7.8444,7.1954],[7.9073,7.1662],[7.9343,7.1482],[7.9432,7.1415],[7.9769,7.1213],[7.9837,7.1146],[7.9859,7.119],[7.9926,7.1258],[8.0039,7.1325],[8.0218,7.1415],[8.0353,7.1482],[8.0465,7.1505],[8.0578,7.1595],[8.0825,7.1707],[8.087,7.1752],[8.1004,7.1887],[8.1049,7.1999],[8.1117,7.2111],[8.1117,7.2179],[8.1094,7.2336],[8.1117,7.2471],[8.1072,7.265],[8.1004,7.2762],[8.0892,7.2807],[8.078,7.2762],[8.051,7.283],[8.0465,7.283],[8.0376,7.2875],[8.0173,7.3032],[8.0039,7.3234],[8.0039,7.3279],[7.9949,7.3481],[7.9859,7.3616],[7.9747,7.3683],[7.9612,7.3728],[7.9522,7.3728],[7.9365,7.3683],[7.9208,7.3683],[7.9163,7.3728],[7.8983,7.3796],[7.8893,7.3818],[7.8781,7.384],[7.8669,7.3863],[7.8624,7.384],[7.8557,7.3728],[7.8489,7.3593],[7.8377,7.3346],[7.8265,7.3099],[7.8197,7.2875],[7.8062,7.2538],[7.7973,7.2336],[7.7928,7.2268],[7.8175,7.2111]]]}},{"type":"Feature","properties":{"id":"benue/oju","name":"Oju","state":"Benue"},"geometry":{"type":"Polygon","coordinates":[[[8.1049,6.9776],[8.1117,6.9551],[8.1139,6.9416],[8.1162,6.9192],[8.1184,6.9124],[8.1207,6.8967],[8.1229,6.881],[8.1319,6.8585],[8.1454,6.8473],[8.1611,6.8249],[8.1678,6.8204],[8.1858,6.8181],[8.2082,6.8114],[8.2262,6.8069],[8.2284,6.8001],[8.2352,6.8001],[8.2397,6.7934],[8.2487,6.7754],[8.2554,6.7665],[8.2621,6.7552],[8.2666,6.7418],[8.2621,6.7373],[8.2554,6.7373],[8.2509,6.735],[8.2621,6.7305],[8.2689,6.7283],[8.2734,6.7171],[8.2801,6.7148],[8.2846,6.7103],[8.2801,6.7058],[8.2779,6.6968],[8.2846,6.6924],[8.2936,6.6789],[8.3003,6.6789],[8.3048,6.6789],[8.3071,6.6766],[8.3138,6.6766],[8.3205,6.6789],[8.325,6.6789],[8.3295,6.6811],[8.3407,6.6834],[8.3542,6.6901],[8.3609,6.6924],[8.3677,6.6968],[8.3699,6.7013],[8.3744,6.7058],[8.3767,6.7126],[8.3834,6.7238],[8.3879,6.7328],[8.3924,6.7418],[8.3991,6.7463],[8.4036,6.7485],[8.4081,6.753],[8.4104,6.753],[8.4193,6.7575],[8.4283,6.7575],[8.4328,6.7575],[8.4351,6.7575],[8.4396,6.7575],[8.444,6.7552],[8.4485,6.7507],[8.4508,6.7485],[8.4575,6.7463],[8.4687,6.7463],[8.4777,6.7485],[8.489,6.753],[8.5024,6.7575],[8.5092,6.7597],[8.5159,6.7597],[8.5361,6.7597],[8.5451,6.7575],[8.5518,6.7597],[8.5586,6.762],[8.5631,6.762],[8.5698,6.7642],[8.5788,6.7642],[8.5945,6.771],[8.608,6.7754],[8.617,6.7777],[8.6215,6.7799],[8.6259,6.7867],[8.6304,6.7912],[8.6372,6.7979],[8.6394,6.8046],[8.6417,6.8181],[8.6394,6.8226],[8.6372,6.8249],[8.6304,6.8293],[8.6259,6.8316],[8.6192,6.8361],[8.6102,6.8428],[8.6035,6.8473],[8.6012,6.8496],[8.6012,6.854],[8.6012,6.8563],[8.6057,6.8585],[8.608,6.8585],[8.6057,6.8653],[8.599,6.872],[8.5945,6.89],[8.5945,6.8967],[8.5968,6.9012],[8.6012,6.9012],[8.6012,6.9102],[8.599,6.9124],[8.5923,6.9147],[8.572,6.9147],[8.5608,6.9237],[8.5384,6.9439],[8.5226,6.9641],[8.5137,6.9776],[8.4912,7.0],[8.48,7.009],[8.462,7.0247],[8.4485,7.0382],[8.4396,7.0472],[8.4306,7.0494],[8.4104,7.0651],[8.4081,7.0517],[8.4059,7.027],[8.4059,7.0157],[8.4014,7.0068],[8.3946,6.9955],[8.3879,6.9865],[8.3834,6.9798],[8.3789,6.9686],[8.3654,6.9506],[8.3565,6.9461],[8.343,6.9416],[8.334,6.9394],[8.3138,6.9394],[8.2868,6.9439],[8.2644,6.9529],[8.2554,6.9574],[8.2374,6.9618],[8.215,6.9663],[8.206,6.9686],[8.188,6.9708],[8.1678,6.9753],[8.1498,6.9798],[8.1296,6.9865],[8.1229,6.9888],[8.1117,6.9888],[8.1049,6.9888],[8.1027,6.9888],[8.1027,6.9865],[8.1049,6.9776]]]}},{"type":"Feature","properties":{"id":"benue/okpokwu","name":"Okpokwu","state":"Benue"},"geometry":{"type":"Polygon","coordinates":[[[7.7232,7.1482],[7.7479,7.128],[7.7613,7.119],[7.7681,7.1011],[7.7748,7.0854],[7.7793,7.0741],[7.7793,7.0607],[7.7793,7.0404],[7.7703,7.027],[7.7568,7.0135],[7.7501,7.009],[7.7434,7.0],[7.7479,6.9933],[7.7591,6.9865],[7.7658,6.9821],[7.7793,6.9708],[7.786,6.9618],[7.7905,6.9551],[7.786,6.9416],[7.7771,6.9304],[7.7748,6.9214],[7.7726,6.9124],[7.7748,6.8967],[7.7748,6.8855],[7.7771,6.8765],[7.786,6.872],[7.7995,6.872],[7.8175,6.8787],[7.8354,6.881],[7.8557,6.881],[7.8646,6.881],[7.8736,6.8698],[7.8759,6.863],[7.8826,6.8585],[7.8961,6.863],[7.9051,6.8675],[7.914,6.8675],[7.9275,6.872],[7.9298,6.8787],[7.9275,6.89],[7.9208,6.9035],[7.9096,6.9169],[7.8983,6.9371],[7.8961,6.9439],[7.8961,6.9551],[7.9006,6.9663],[7.9073,6.9798],[7.9185,6.991],[7.9343,7.009],[7.9455,7.0157],[7.9522,7.0157],[7.9657,7.0225],[7.9814,7.027],[7.9994,7.0292],[8.0173,7.027],[8.0353,7.027],[8.0488,7.0292],[8.0465,7.0337],[8.0398,7.0494],[8.0308,7.0584],[8.0241,7.0674],[8.0129,7.0876],[7.9971,7.1056],[7.9837,7.1146],[7.9769,7.1213],[7.9432,7.1415],[7.9343,7.1482],[7.9073,7.1662],[7.8444,7.1954],[7.8332,7.2021],[7.8175,7.2111],[7.7928,7.2268],[7.7905,7.2179],[7.7838,7.2044],[7.7771,7.1976],[7.7726,7.1932],[7.7389,7.1797],[7.7299,7.1729],[7.7232,7.1662],[7.7074,7.1662],[7.7029,7.164],[7.7232,7.1482]]]}},{"type":"Feature","properties":{"id":"benue/oturkpo","name":"Oturkpo","state":"Benue"},"geometry":{"type":"Polygon","coordinates":[[[7.8669,7.4043],[7.8646,7.393],[7.8624,7.384],[7.8669,7.3863],[7.8781,7.384],[7.8893,7.3818],[7.8983,7.3796],[7.9163,7.3728],[7.9208,7.3683],[7.9365,7.3683],[7.9522,7.3728],[7.9612,7.3728],[7.9747,7.3683],[7.9859,7.3616],[7.9949,7.3481],[8.0039,7.3279],[8.0039,7.3234],[8.0173,7.3032],[8.0376,7.2875],[8.0465,7.283],[8.051,7.283],[8.078,7.2762],[8.0892,7.2807],[8.1004,7.2762],[8.1072,7.265],[8.1117,7.2471],[8.1094,7.2336],[8.1117,7.2179],[8.1117,7.2111],[8.1049,7.1999],[8.1004,7.1887],[8.087,7.1752],[8.0825,7.1707],[8.0578,7.1595],[8.0465,7.1505],[8.0353,7.1482],[8.0218,7.1415],[8.0039,7.1325],[7.9926,7.1258],[7.9859,7.119],[7.9837,7.1146],[7.9971,7.1056],[8.0129,7.0876],[8.0241,7.0674],[8.0308,7.0584],[8.0398,7.0494],[8.0465,7.0337],[8.0488,7.0292],[8.0555,7.0225],[8.069,7.0157],[8.0825,7.0135],[8.0937,7.0135],[8.1027,7.018],[8.1094,7.018],[8.1341,7.0202],[8.1431,7.0225],[8.1521,7.027],[8.1656,7.0292],[8.1925,7.0382],[8.2082,7.0494],[8.215,7.0562],[8.2217,7.0674],[8.224,7.0741],[8.2329,7.0921],[8.2374,7.1033],[8.2464,7.119],[8.2509,7.1258],[8.2689,7.1437],[8.2756,7.146],[8.2711,7.155],[8.2689,7.164],[8.2644,7.1774],[8.2554,7.1976],[8.2487,7.2089],[8.2352,7.2268],[8.2262,7.2358],[8.1993,7.2583],[8.1903,7.2718],[8.1813,7.2807],[8.1723,7.292],[8.1656,7.3144],[8.1588,7.3324],[8.1454,7.3548],[8.1341,7.3751],[8.1319,7.3818],[8.1274,7.393],[8.1229,7.3998],[8.1184,7.42],[8.1162,7.4335],[8.1117,7.4514],[8.1117,7.4582],[8.1049,7.4739],[8.0959,7.5053],[8.0915,7.521],[8.087,7.5435],[8.0825,7.5615],[8.0802,7.5794],[8.0802,7.5907],[8.0825,7.6064],[8.0802,7.6288],[8.0802,7.6446],[8.069,7.6378],[8.0488,7.6266],[8.0263,7.6064],[8.0084,7.5907],[7.9904,7.5794],[7.9679,7.5637],[7.9387,7.539],[7.9185,7.521],[7.9073,7.5098],[7.9028,7.5053],[7.8938,7.4829],[7.8871,7.4626],[7.8848,7.4559],[7.8691,7.4222],[7.8601,7.4132],[7.8669,7.4043]]]}},{"type":"Feature","properties":{"id":"benue/tarka","name":"Tarka","state":"Benue"},"geometry":{"type":"Polygon","coordinates":[[[8.745,7.6603],[8.7472,7.6513],[8.7517,7.6288],[8.754,7.6109],[8.7584,7.6086],[8.7652,7.6019],[8.7674,7.5951],[8.7697,7.5704],[8.7697,7.5502],[8.7742,7.5412],[8.7876,7.5188],[8.8079,7.4986],[8.8146,7.4963],[8.8258,7.5053],[8.8348,7.5076],[8.8573,7.5031],[8.8752,7.5031],[8.8865,7.5008],[8.8865,7.5076],[8.8842,7.5255],[8.8887,7.5525],[8.8887,7.5637],[8.8887,7.5727],[8.8909,7.5862],[8.8932,7.6041],[8.8932,7.6176],[8.9022,7.658],[8.9089,7.6805],[8.9157,7.6895],[8.9224,7.7029],[8.9269,7.7142],[8.9134,7.7142],[8.8977,7.7164],[8.882,7.7209],[8.8528,7.7232],[8.8281,7.7299],[8.8079,7.7321],[8.7989,7.7344],[8.7899,7.7344],[8.7787,7.7344],[8.7652,7.7232],[8.7517,7.7142],[8.7472,7.7052],[8.745,7.694],[8.745,7.6917],[8.745,7.6895],[8.7427,7.676],[8.745,7.6603]]]}},{"type":"Feature","properties":{"id":"benue/ukum","name":"Ukum","state":"Benue"},"geometry":{"type":"Polygon","coordinates":[[[9.3783,7.6558],[9.3895,7.6311],[9.4052,7.6086],[9.4187,7.5862],[9.4524,7.557],[9.4681,7.5502],[9.4816,7.5368],[9.4973,7.5076],[9.5085,7.4941],[9.5287,7.4649],[9.5422,7.4447],[9.5647,7.3998],[9.5759,7.384],[9.5849,7.3751],[9.5939,7.3751],[9.6006,7.3773],[9.6231,7.393],[9.6837,7.4424],[9.7039,7.4671],[9.7196,7.4873],[9.7354,7.5188],[9.7556,7.5435],[9.796,7.5907],[9.8162,7.5974],[9.8095,7.6064],[9.7982,7.6154],[9.7466,7.6558],[9.7017,7.7097],[9.6702,7.7636],[9.6433,7.7995],[9.6006,7.8287],[9.5624,7.8377],[9.4995,7.8422],[9.3873,7.8444],[9.3783,7.8444],[9.3783,7.8332],[9.3738,7.7995],[9.3715,7.7591],[9.3693,7.7119],[9.3693,7.6805],[9.3783,7.6558]]]}},{"type":"Feature","properties":{"id":"benue/ushongo","name":"Ushongo","state":"Benue"},"geometry":{"type":"Polygon","coordinates":[[[8.7584,7.1303],[8.7719,7.1146],[8.7809,7.1011],[8.7966,7.0854],[8.8034,7.0809],[8.8348,7.0584],[8.8528,7.0472],[8.8775,7.0337],[8.882,7.0292],[8.9157,7.0337],[8.9291,7.036],[8.9359,7.036],[8.9628,7.0337],[8.9785,7.0337],[9.0032,7.036],[9.0594,7.036],[9.0863,7.036],[9.1223,7.0315],[9.1447,7.0225],[9.1627,7.0068],[9.1784,6.9776],[9.1784,6.9506],[9.1784,6.9304],[9.2098,6.9304],[9.2323,6.9326],[9.2525,6.9371],[9.266,6.9461],[9.2884,6.9618],[9.2974,6.9708],[9.3131,6.9843],[9.3266,7.0023],[9.3401,7.0135],[9.3558,7.0292],[9.3895,7.0607],[9.403,7.0786],[9.4165,7.0966],[9.4232,7.1011],[9.4097,7.1078],[9.3962,7.1146],[9.3805,7.1168],[9.3693,7.1213],[9.3648,7.1258],[9.3401,7.146],[9.3311,7.155],[9.3199,7.164],[9.3042,7.1774],[9.3019,7.1752],[9.2884,7.164],[9.2637,7.1437],[9.2525,7.128],[9.2345,7.1213],[9.2143,7.1123],[9.1919,7.1078],[9.1627,7.1078],[9.1402,7.1078],[9.1245,7.1146],[9.1043,7.119],[9.0931,7.1258],[9.0661,7.1482],[9.0504,7.1662],[9.0414,7.1797],[9.0414,7.1819],[9.0145,7.2201],[8.9987,7.2403],[8.992,7.2493],[8.9808,7.2583],[8.9785,7.265],[8.9493,7.2785],[8.9426,7.2785],[8.9201,7.2807],[8.9022,7.274],[8.873,7.2515],[8.8393,7.2201],[8.8303,7.2111],[8.8168,7.2066],[8.8011,7.1932],[8.7966,7.1842],[8.7899,7.1774],[8.7764,7.1662],[8.7719,7.1595],[8.7697,7.1527],[8.7629,7.1482],[8.7584,7.1482],[8.754,7.146],[8.7495,7.146],[8.7495,7.1393],[8.7584,7.1303]]]}},{"type":"Feature","properties":{"id":"benue/vandeikya","name":"Vandeikya","state":"Benue"},"geometry":{"type":"Polygon","coordinates":[[[8.8954,7.0068],[8.9044,6.9978],[8.9179,6.9821],[8.9269,6.9686],[8.9336,6.9506],[8.9471,6.9237],[8.9516,6.9035],[8.9471,6.89],[8.9426,6.8675],[8.9404,6.8451],[8.9404,6.8249],[8.9404,6.8136],[8.9448,6.8091],[8.9516,6.8046],[8.9695,6.7934],[8.974,6.7889],[8.9763,6.7867],[8.9785,6.7844],[8.992,6.7687],[8.992,6.7665],[8.9943,6.7597],[8.9943,6.7552],[8.9943,6.7507],[8.9898,6.744],[8.983,6.7238],[8.9808,6.7215],[8.974,6.7126],[8.9695,6.7036],[8.9673,6.6968],[8.9695,6.6946],[8.9695,6.6924],[8.9763,6.6924],[8.9875,6.6924],[8.992,6.6924],[8.9987,6.6834],[9.0055,6.6766],[9.0122,6.6699],[9.019,6.6632],[9.0234,6.6564],[9.0279,6.6497],[9.0347,6.6474],[9.0481,6.6429],[9.0594,6.6429],[9.0706,6.6429],[9.0773,6.6452],[9.0841,6.6497],[9.0998,6.6564],[9.1065,6.6609],[9.1178,6.6676],[9.1223,6.6721],[9.129,6.6766],[9.1312,6.7171],[9.138,6.744],[9.1402,6.762],[9.1425,6.7754],[9.147,6.8001],[9.147,6.8226],[9.1537,6.8428],[9.1604,6.8675],[9.1649,6.8832],[9.1762,6.9124],[9.1784,6.9282],[9.1784,6.9304],[9.1784,6.9506],[9.1784,6.9776],[9.1627,7.0068],[9.1447,7.0225],[9.1223,7.0315],[9.0863,7.036],[9.0594,7.036],[9.0032,7.036],[8.9785,7.0337],[8.9628,7.0337],[8.9359,7.036],[8.9291,7.036],[8.9157,7.0337],[8.882,7.0292],[8.8954,7.0068]]]}}]}