{"type":"FeatureCollection","features":[{"type":"Feature","properties":{"id":"cross-river/abi","name":"Abi","state":"Cross River"},"geometry":{"type":"Polygon","coordinates":[[[7.9432,5.8053],[7.95,5.7918],[7.9634,5.7761],[7.9702,5.7693],[7.9724,5.7649],[7.9792,5.7671],[7.9814,5.7693],[7.9859,5.7716],[7.9904,5.7738],[7.9971,5.7828],[8.0061,5.794],[8.0084,5.7985],[8.0084,5.8008],[8.0129,5.803],[8.0151,5.8053],[8.0196,5.8098],[8.0218,5.8098],[8.0286,5.8098],[8.0376,5.8075],[8.0443,5.8053],[8.0488,5.803],[8.0533,5.8075],[8.0623,5.8188],[8.0668,5.8232],[8.069,5.8255],[8.0757,5.839],[8.078,5.8479],[8.0757,5.8592],[8.0757,5.8659],[8.0757,5.8816],[8.0757,5.8861],[8.0757,5.8906],[8.0825,5.8974],[8.0915,5.9086],[8.0959,5.9153],[8.1027,5.9265],[8.1049,5.9288],[8.1094,5.9355],[8.1139,5.9378],[8.1117,5.94],[8.1094,5.9445],[8.1072,5.949],[8.1049,5.958],[8.1004,5.9692],[8.0892,5.9894],[8.0802,5.9984],[8.0735,6.0029],[8.069,6.0052],[8.06,6.0074],[8.0555,6.0074],[8.051,6.0052],[8.0443,6.0052],[8.0286,6.0007],[8.0151,5.9939],[8.0084,5.9917],[8.0016,5.9872],[7.9926,5.9849],[7.9859,5.9827],[7.9814,5.976],[7.9792,5.9692],[7.9792,5.9647],[7.9814,5.9602],[7.9859,5.9535],[7.9882,5.949],[7.9904,5.9423],[7.9837,5.94],[7.9814,5.9355],[7.9814,5.931],[7.9814,5.9265],[7.9859,5.9221],[7.9926,5.9153],[7.9994,5.9131],[8.0039,5.9086],[8.0061,5.9041],[8.0039,5.8996],[7.9994,5.8996],[7.9949,5.8974],[7.9904,5.8861],[7.9882,5.8839],[7.9814,5.8816],[7.9747,5.8771],[7.9702,5.8704],[7.9702,5.8637],[7.9679,5.8569],[7.9634,5.8457],[7.959,5.8412],[7.9567,5.8435],[7.9522,5.8412],[7.9455,5.839],[7.9387,5.8345],[7.9343,5.8255],[7.9343,5.8232],[7.9343,5.8188],[7.9432,5.8053]]]}},{"type":"Feature","properties":{"id":"cross-river/akamkpa","name":"Akamkpa","state":"Cross River"},"geometry":{"type":"Polygon","coordinates":[[[8.1431,5.2775],[8.1454,5.2753],[8.1543,5.2663],[8.1588,5.2596],[8.1656,5.2551],[8.1746,5.2506],[8.179,5.2483],[8.1903,5.2438],[8.2015,5.2393],[8.215,5.2304],[8.2217,5.2281],[8.2397,5.2191],[8.2554,5.2124],[8.2711,5.2079],[8.2801,5.2034],[8.2868,5.2012],[8.3003,5.2012],[8.316,5.1922],[8.3228,5.1877],[8.3407,5.1765],[8.3565,5.1675],[8.3632,5.163],[8.3677,5.1585],[8.3767,5.145],[8.3834,5.1383],[8.3857,5.1338],[8.3857,5.1293],[8.3879,5.1248],[8.4014,5.1136],[8.4081,5.1136],[8.4238,5.1113],[8.4283,5.1091],[8.4283,5.1046],[8.4283,5.0979],[8.4306,5.0889],[8.4328,5.0844],[8.4373,5.0754],[8.444,5.0709],[8.4508,5.0664],[8.4598,5.0642],[8.4665,5.0597],[8.471,5.053],[8.4732,5.0485],[8.4755,5.044],[8.48,5.026],[8.4845,5.017],[8.489,5.0058],[8.4934,4.9991],[8.5002,4.9923],[8.5182,4.9811],[8.5226,4.9788],[8.5294,4.9788],[8.5339,4.9811],[8.5451,4.9833],[8.5518,4.9878],[8.5586,4.9901],[8.5631,4.9901],[8.5676,4.9878],[8.5765,4.9856],[8.5878,4.9878],[8.608,4.9901],[8.6259,4.9901],[8.6439,4.9901],[8.6641,4.9923],[8.6933,4.9923],[8.6956,4.9946],[8.6933,4.9968],[8.6911,4.9968],[8.6888,4.9968],[8.6843,4.9991],[8.6843,5.0013],[8.6888,5.0058],[8.6911,5.0058],[8.6933,5.0058],[8.6933,5.008],[8.6956,5.008],[8.6956,5.0103],[8.6956,5.0125],[8.6956,5.0148],[8.6978,5.0148],[8.6978,5.017],[8.7001,5.017],[8.7068,5.0215],[8.709,5.0215],[8.709,5.026],[8.7113,5.0305],[8.7113,5.0327],[8.7135,5.0327],[8.7158,5.0327],[8.7158,5.0305],[8.718,5.0305],[8.718,5.035],[8.718,5.0372],[8.718,5.0395],[8.7203,5.0395],[8.7225,5.0417],[8.7248,5.0417],[8.7248,5.044],[8.7225,5.0485],[8.7203,5.0507],[8.7203,5.053],[8.7203,5.0552],[8.7203,5.0597],[8.7225,5.0597],[8.7225,5.0619],[8.7248,5.0642],[8.7248,5.0664],[8.727,5.0687],[8.727,5.0709],[8.727,5.0732],[8.727,5.0754],[8.7293,5.0777],[8.7315,5.0777],[8.7337,5.0777],[8.736,5.0821],[8.7382,5.0821],[8.7405,5.0844],[8.7427,5.0844],[8.745,5.0934],[8.745,5.0956],[8.745,5.0979],[8.7472,5.1001],[8.7495,5.1024],[8.7562,5.1046],[8.7607,5.1046],[8.7629,5.1046],[8.7674,5.1068],[8.7697,5.1068],[8.7742,5.1091],[8.7764,5.1091],[8.7809,5.1113],[8.7832,5.1136],[8.7854,5.1158],[8.7854,5.1181],[8.7854,5.1203],[8.7854,5.1226],[8.7876,5.1248],[8.7899,5.1248],[8.7921,5.1248],[8.7921,5.1271],[8.7944,5.1338],[8.7966,5.1383],[8.7966,5.1405],[8.7966,5.1428],[8.7989,5.145],[8.7989,5.1473],[8.8011,5.1473],[8.8011,5.1495],[8.8011,5.154],[8.8011,5.1563],[8.8034,5.1563],[8.8079,5.1607],[8.8079,5.163],[8.8101,5.1652],[8.8101,5.1675],[8.8146,5.1742],[8.8168,5.181],[8.8213,5.1854],[8.8191,5.1944],[8.8191,5.2012],[8.8168,5.2102],[8.8146,5.2191],[8.8146,5.2281],[8.8146,5.2326],[8.8123,5.2371],[8.8146,5.2438],[8.8146,5.2506],[8.8168,5.2596],[8.8168,5.2618],[8.8168,5.2663],[8.8168,5.2753],[8.8146,5.2843],[8.8191,5.291],[8.8213,5.2977],[8.8236,5.3045],[8.8258,5.3112],[8.8303,5.3179],[8.8303,5.3247],[8.8326,5.3269],[8.8326,5.3292],[8.8326,5.3314],[8.8326,5.3382],[8.8326,5.3449],[8.837,5.3853],[8.837,5.3876],[8.837,5.3898],[8.8393,5.3921],[8.8393,5.3943],[8.8393,5.3966],[8.8393,5.3988],[8.8393,5.401],[8.8393,5.4055],[8.8393,5.41],[8.837,5.4168],[8.837,5.4213],[8.8348,5.4257],[8.8348,5.428],[8.8348,5.4302],[8.8348,5.4325],[8.837,5.4325],[8.8393,5.4415],[8.8438,5.4482],[8.8438,5.4527],[8.8438,5.4549],[8.846,5.4594],[8.8483,5.4617],[8.8528,5.4639],[8.8573,5.4662],[8.864,5.4729],[8.8662,5.4729],[8.8662,5.4752],[8.8685,5.4774],[8.8707,5.4841],[8.8707,5.4886],[8.8707,5.4909],[8.873,5.4954],[8.8752,5.4976],[8.8775,5.5021],[8.8842,5.5088],[8.8865,5.5111],[8.8865,5.5133],[8.8887,5.5133],[8.8887,5.5156],[8.8909,5.5178],[8.8932,5.5178],[8.8954,5.5223],[8.8977,5.5223],[8.8977,5.5246],[8.8977,5.5268],[8.8999,5.5313],[8.9044,5.538],[8.9089,5.547],[8.9112,5.5493],[8.9134,5.5515],[8.9134,5.5538],[8.9112,5.5538],[8.9112,5.556],[8.9134,5.5605],[8.9157,5.5605],[8.9201,5.5627],[8.9224,5.565],[8.9201,5.5672],[8.9201,5.5695],[8.9179,5.5695],[8.9157,5.574],[8.9157,5.5785],[8.9157,5.5807],[8.9157,5.5852],[8.9157,5.5874],[8.9134,5.5919],[8.9134,5.5942],[8.9112,5.5964],[8.9112,5.5987],[8.9112,5.6009],[8.9112,5.6032],[8.9089,5.6077],[8.9089,5.6099],[8.9067,5.6099],[8.9067,5.6121],[8.9067,5.6144],[8.9044,5.6166],[8.9044,5.6211],[8.8999,5.6256],[8.8865,5.6324],[8.8865,5.6346],[8.8865,5.6368],[8.8842,5.6391],[8.8797,5.6436],[8.8775,5.6458],[8.8775,5.6481],[8.8752,5.6481],[8.873,5.6481],[8.8707,5.6481],[8.8707,5.6503],[8.8685,5.6526],[8.8662,5.6571],[8.864,5.6593],[8.8618,5.6616],[8.8618,5.6593],[8.8595,5.6593],[8.8595,5.6616],[8.855,5.666],[8.8505,5.6728],[8.846,5.6773],[8.8438,5.6795],[8.8415,5.6795],[8.8393,5.6795],[8.8393,5.6818],[8.837,5.684],[8.837,5.6863],[8.837,5.6907],[8.837,5.693],[8.8213,5.693],[8.8079,5.693],[8.7809,5.6975],[8.7742,5.6975],[8.7495,5.702],[8.718,5.7087],[8.6956,5.7132],[8.6843,5.7154],[8.6754,5.7154],[8.6462,5.7222],[8.6237,5.7289],[8.6125,5.7312],[8.6102,5.7312],[8.5945,5.7334],[8.5788,5.7379],[8.5653,5.7379],[8.5541,5.7402],[8.5339,5.7446],[8.5204,5.7446],[8.5114,5.7446],[8.5002,5.7469],[8.4912,5.7514],[8.4867,5.7536],[8.48,5.7626],[8.4755,5.7693],[8.4553,5.7873],[8.444,5.7985],[8.4396,5.803],[8.4351,5.803],[8.4328,5.803],[8.4261,5.8008],[8.4126,5.794],[8.4036,5.7873],[8.3789,5.7671],[8.3677,5.7604],[8.3587,5.7559],[8.3542,5.7536],[8.3407,5.7446],[8.3385,5.7424],[8.3318,5.7379],[8.3273,5.7334],[8.2981,5.7132],[8.2913,5.7065],[8.2823,5.6997],[8.2644,5.6885],[8.2487,5.6795],[8.2419,5.675],[8.2329,5.6705],[8.2262,5.666],[8.2127,5.6638],[8.1948,5.6616],[8.1903,5.6616],[8.1746,5.6616],[8.1678,5.6616],[8.1566,5.6616],[8.1566,5.6571],[8.1566,5.6526],[8.1566,5.6481],[8.1611,5.6368],[8.1678,5.6189],[8.1701,5.6099],[8.179,5.5964],[8.1858,5.5852],[8.188,5.5785],[8.1903,5.5695],[8.1925,5.5605],[8.1948,5.5515],[8.2037,5.5335],[8.215,5.5111],[8.2195,5.5043],[8.2217,5.4976],[8.2262,5.4886],[8.2307,5.4796],[8.2352,5.4684],[8.2442,5.4504],[8.2509,5.4392],[8.2554,5.4325],[8.2599,5.4235],[8.2599,5.41],[8.2599,5.4033],[8.2576,5.3966],[8.2554,5.3943],[8.2464,5.3876],[8.2374,5.3831],[8.2329,5.3786],[8.2217,5.3674],[8.2172,5.3629],[8.206,5.3449],[8.2015,5.3382],[8.1948,5.3292],[8.1925,5.3224],[8.1903,5.3157],[8.188,5.309],[8.1813,5.3022],[8.1746,5.2955],[8.1543,5.2865],[8.1386,5.2865],[8.1386,5.2843],[8.1386,5.282],[8.1431,5.2775]]]}},{"type":"Feature","properties":{"id":"cross-river/akpabuyo","name":"Akpabuyo","state":"Cross River"},"geometry":{"type":"Polygon","coordinates":[[[8.3497,4.8868],[8.3677,4.8733],[8.3812,4.8621],[8.3857,4.8576],[8.3946,4.8576],[8.4036,4.8486],[8.4081,4.8396],[8.4104,4.8306],[8.4126,4.8261],[8.4126,4.8194],[8.4104,4.8149],[8.4104,4.8127],[8.4036,4.7924],[8.4014,4.7835],[8.3969,4.7767],[8.3991,4.7745],[8.4036,4.77],[8.3991,4.7655],[8.3946,4.761],[8.3879,4.7565],[8.3857,4.7543],[8.3879,4.7475],[8.3969,4.7363],[8.4014,4.7341],[8.4059,4.7318],[8.4081,4.7341],[8.4104,4.7363],[8.4148,4.7296],[8.4193,4.7273],[8.4283,4.7273],[8.4328,4.7296],[8.4351,4.7296],[8.4396,4.7363],[8.4418,4.7385],[8.4485,4.7363],[8.4508,4.7363],[8.4598,4.7475],[8.4598,4.7543],[8.4575,4.7565],[8.462,4.7565],[8.4643,4.7543],[8.4732,4.7408],[8.4777,4.7363],[8.4777,4.7341],[8.4755,4.7296],[8.4755,4.7273],[8.4687,4.7296],[8.4665,4.7251],[8.4598,4.7049],[8.4598,4.7004],[8.4732,4.6959],[8.4845,4.6914],[8.489,4.6914],[8.4934,4.6914],[8.4934,4.6936],[8.4979,4.6936],[8.5002,4.6936],[8.5092,4.6959],[8.5092,4.7071],[8.5204,4.7049],[8.5249,4.7071],[8.5294,4.7093],[8.5316,4.7093],[8.5316,4.7116],[8.5316,4.7138],[8.5316,4.7183],[8.5271,4.7228],[8.5271,4.7251],[8.5294,4.7273],[8.5271,4.7296],[8.5271,4.7318],[8.5271,4.7341],[8.5271,4.743],[8.5271,4.7475],[8.5271,4.752],[8.5294,4.7588],[8.5294,4.7632],[8.5316,4.7722],[8.5339,4.779],[8.5361,4.7857],[8.5384,4.7924],[8.5406,4.7947],[8.5406,4.7969],[8.5451,4.8037],[8.5541,4.8149],[8.5563,4.8149],[8.5563,4.8194],[8.5631,4.8306],[8.5653,4.8329],[8.5765,4.8396],[8.5945,4.8508],[8.608,4.8621],[8.6057,4.8643],[8.6057,4.8666],[8.6035,4.8688],[8.6035,4.871],[8.6035,4.8733],[8.6035,4.8755],[8.6035,4.8778],[8.6035,4.88],[8.6035,4.8823],[8.6035,4.8845],[8.6057,4.8845],[8.6057,4.8868],[8.608,4.889],[8.608,4.8913],[8.6125,4.8957],[8.617,4.9025],[8.6192,4.9047],[8.6215,4.907],[8.6237,4.907],[8.6237,4.9092],[8.6259,4.9092],[8.6282,4.9092],[8.6327,4.9092],[8.6372,4.9092],[8.6394,4.9092],[8.6417,4.9092],[8.6439,4.9092],[8.6462,4.9115],[8.6484,4.9137],[8.6507,4.9137],[8.6529,4.916],[8.6529,4.9182],[8.6529,4.9205],[8.6529,4.9227],[8.6529,4.9249],[8.6529,4.9272],[8.6529,4.9294],[8.6507,4.9317],[8.6507,4.9339],[8.6484,4.9339],[8.6484,4.9362],[8.6484,4.9384],[8.6484,4.9407],[8.6507,4.9474],[8.6529,4.9474],[8.6551,4.9452],[8.6574,4.9452],[8.6596,4.9452],[8.6619,4.9452],[8.6619,4.9474],[8.6686,4.9519],[8.6686,4.9541],[8.6686,4.9564],[8.6664,4.9586],[8.6664,4.9609],[8.6664,4.9631],[8.6664,4.9654],[8.6686,4.9654],[8.6709,4.9676],[8.6731,4.9699],[8.6754,4.9699],[8.6798,4.9721],[8.6798,4.9743],[8.6798,4.9766],[8.6798,4.9788],[8.6798,4.9811],[8.6821,4.9811],[8.6821,4.9833],[8.6843,4.9833],[8.6866,4.9856],[8.6911,4.9856],[8.6933,4.9856],[8.6956,4.9856],[8.6978,4.9856],[8.6978,4.9878],[8.6978,4.9901],[8.6978,4.9923],[8.6956,4.9923],[8.6956,4.9946],[8.6933,4.9923],[8.6641,4.9923],[8.6439,4.9901],[8.6259,4.9901],[8.608,4.9901],[8.5878,4.9878],[8.5765,4.9856],[8.5676,4.9878],[8.5631,4.9901],[8.5586,4.9901],[8.5518,4.9878],[8.5451,4.9833],[8.5339,4.9811],[8.5294,4.9788],[8.5226,4.9788],[8.5182,4.9811],[8.5002,4.9923],[8.4934,4.9991],[8.489,5.0058],[8.4845,5.017],[8.48,5.026],[8.4755,5.044],[8.4732,5.0485],[8.471,5.053],[8.4665,5.0597],[8.4598,5.0642],[8.4508,5.0664],[8.444,5.0709],[8.4373,5.0754],[8.4328,5.0844],[8.4306,5.0889],[8.4283,5.0979],[8.4283,5.1046],[8.4283,5.1091],[8.4238,5.1113],[8.4081,5.1136],[8.4014,5.0911],[8.4059,5.0889],[8.4104,5.0866],[8.4104,5.0844],[8.4104,5.0799],[8.4104,5.0754],[8.4036,5.0687],[8.3991,5.0619],[8.3924,5.0485],[8.3879,5.0395],[8.3834,5.026],[8.3812,5.0215],[8.3834,5.0103],[8.3857,5.008],[8.3946,4.9991],[8.3991,4.9968],[8.4036,4.9968],[8.4148,4.9968],[8.4216,4.9946],[8.4238,4.9878],[8.4261,4.9833],[8.4238,4.9811],[8.4171,4.9766],[8.4126,4.9743],[8.4081,4.9721],[8.4036,4.9699],[8.4014,4.9631],[8.4014,4.9586],[8.4014,4.9519],[8.3991,4.9429],[8.3991,4.9407],[8.3969,4.9384],[8.3924,4.9362],[8.3834,4.9384],[8.3767,4.9407],[8.3632,4.9452],[8.3565,4.9407],[8.3542,4.9272],[8.3542,4.9205],[8.352,4.9137],[8.3475,4.9047],[8.3475,4.9002],[8.3475,4.8957],[8.3497,4.8868]]]}},{"type":"Feature","properties":{"id":"cross-river/bakassi","name":"Bakassi","state":"Cross River"},"geometry":{"type":"Polygon","coordinates":[[[8.5631,4.8171],[8.5653,4.8171],[8.5676,4.8149],[8.5698,4.8104],[8.572,4.8059],[8.5765,4.8037],[8.581,4.8014],[8.59,4.8014],[8.5923,4.8037],[8.5968,4.8037],[8.599,4.8059],[8.6035,4.8082],[8.6057,4.8104],[8.6102,4.8127],[8.6125,4.8149],[8.617,4.8171],[8.6192,4.8194],[8.6237,4.8194],[8.6259,4.8216],[8.6282,4.8239],[8.6304,4.8239],[8.6304,4.8261],[8.6304,4.8284],[8.6304,4.8306],[8.6304,4.8329],[8.6282,4.8418],[8.6282,4.8441],[8.6259,4.8463],[8.6259,4.8486],[8.6215,4.8508],[8.6192,4.8531],[8.6192,4.8553],[8.617,4.8553],[8.6147,4.8576],[8.6125,4.8576],[8.6102,4.8598],[8.608,4.8621],[8.5945,4.8508],[8.5765,4.8396],[8.5653,4.8329],[8.5631,4.8306],[8.5563,4.8194],[8.5563,4.8171],[8.5631,4.8171]]]}},{"type":"Feature","properties":{"id":"cross-river/bekwara","name":"Bekwara","state":"Cross River"},"geometry":{"type":"Polygon","coordinates":[[[8.8168,6.7036],[8.8213,6.6924],[8.8258,6.6766],[8.8303,6.6632],[8.8326,6.6564],[8.8348,6.6542],[8.8393,6.6429],[8.8438,6.616],[8.8438,6.6093],[8.8438,6.6048],[8.8438,6.6003],[8.846,6.598],[8.8528,6.5935],[8.8685,6.5958],[8.8752,6.5935],[8.8842,6.5935],[8.8932,6.598],[8.9089,6.6048],[8.9157,6.6093],[8.9246,6.6138],[8.9336,6.616],[8.9404,6.6182],[8.9493,6.625],[8.9651,6.634],[8.9718,6.6429],[8.9718,6.6474],[8.9718,6.6564],[8.9763,6.6632],[8.983,6.6744],[8.992,6.6924],[8.9875,6.6924],[8.9763,6.6924],[8.9695,6.6924],[8.9695,6.6946],[8.9673,6.6968],[8.9695,6.7036],[8.974,6.7126],[8.9808,6.7215],[8.983,6.7238],[8.9898,6.744],[8.9943,6.7507],[8.9943,6.7552],[8.9943,6.7597],[8.992,6.7665],[8.992,6.7687],[8.9785,6.7844],[8.9763,6.7867],[8.974,6.7889],[8.9695,6.7934],[8.9516,6.8046],[8.9448,6.8091],[8.9404,6.8136],[8.9291,6.8204],[8.9269,6.8136],[8.9224,6.8091],[8.9157,6.8046],[8.9044,6.7867],[8.8909,6.771],[8.8887,6.7665],[8.882,6.7597],[8.8685,6.744],[8.855,6.7373],[8.8415,6.7283],[8.8303,6.7215],[8.8236,6.7171],[8.8146,6.7126],[8.8168,6.7036]]]}},{"type":"Feature","properties":{"id":"cross-river/biase","name":"Biase","state":"Cross River"},"geometry":{"type":"Polygon","coordinates":[[[7.8893,5.693],[7.8893,5.684],[7.8938,5.6818],[7.8961,5.6773],[7.9118,5.6616],[7.9163,5.6548],[7.9185,5.6503],[7.9163,5.6436],[7.914,5.6301],[7.9118,5.6099],[7.9096,5.5874],[7.9051,5.5717],[7.9051,5.5695],[7.9051,5.565],[7.9073,5.5605],[7.9073,5.5515],[7.9073,5.5358],[7.914,5.5201],[7.9275,5.5223],[7.9477,5.5223],[7.9657,5.5223],[7.9792,5.5246],[7.9994,5.5246],[8.0016,5.5223],[8.0061,5.5223],[8.0106,5.5201],[8.0196,5.5043],[8.0196,5.4976],[8.0173,5.4909],[8.0129,5.4841],[8.0151,5.4639],[8.0218,5.4482],[8.0241,5.4415],[8.0286,5.4347],[8.0376,5.428],[8.0421,5.4235],[8.0421,5.4078],[8.0398,5.3966],[8.0398,5.3898],[8.0353,5.3808],[8.0308,5.3696],[8.0286,5.3606],[8.0263,5.3516],[8.0263,5.3449],[8.0263,5.3292],[8.0263,5.3247],[8.0263,5.3202],[8.0263,5.3135],[8.0286,5.3112],[8.0308,5.3067],[8.0353,5.3045],[8.0465,5.3],[8.051,5.2977],[8.069,5.2932],[8.0847,5.2888],[8.0915,5.2865],[8.0982,5.282],[8.1072,5.2798],[8.1184,5.282],[8.1274,5.2843],[8.1386,5.2865],[8.1543,5.2865],[8.1746,5.2955],[8.1813,5.3022],[8.188,5.309],[8.1903,5.3157],[8.1925,5.3224],[8.1948,5.3292],[8.2015,5.3382],[8.206,5.3449],[8.2172,5.3629],[8.2217,5.3674],[8.2329,5.3786],[8.2374,5.3831],[8.2464,5.3876],[8.2554,5.3943],[8.2576,5.3966],[8.2599,5.4033],[8.2599,5.41],[8.2599,5.4235],[8.2554,5.4325],[8.2509,5.4392],[8.2442,5.4504],[8.2352,5.4684],[8.2307,5.4796],[8.2262,5.4886],[8.2217,5.4976],[8.2195,5.5043],[8.215,5.5111],[8.2037,5.5335],[8.1948,5.5515],[8.1925,5.5605],[8.1903,5.5695],[8.188,5.5785],[8.1858,5.5852],[8.179,5.5964],[8.1701,5.6099],[8.1678,5.6189],[8.1611,5.6368],[8.1566,5.6481],[8.1566,5.6526],[8.1566,5.6571],[8.1566,5.6616],[8.1498,5.6638],[8.1431,5.6683],[8.1386,5.6705],[8.1319,5.6773],[8.1296,5.684],[8.1296,5.6863],[8.1274,5.693],[8.1229,5.702],[8.1184,5.7065],[8.1162,5.7087],[8.1072,5.7177],[8.1004,5.7199],[8.0959,5.7244],[8.0915,5.7289],[8.0892,5.7334],[8.0825,5.7424],[8.078,5.7469],[8.0712,5.7581],[8.0645,5.7626],[8.06,5.7738],[8.0578,5.7851],[8.051,5.7963],[8.0488,5.8008],[8.0488,5.803],[8.0443,5.8053],[8.0376,5.8075],[8.0286,5.8098],[8.0218,5.8098],[8.0196,5.8098],[8.0151,5.8053],[8.0129,5.803],[8.0084,5.8008],[8.0084,5.7985],[8.0061,5.794],[7.9971,5.7828],[7.9904,5.7738],[7.9859,5.7716],[7.9814,5.7693],[7.9792,5.7671],[7.9724,5.7649],[7.9702,5.7693],[7.9657,5.7693],[7.959,5.7716],[7.9545,5.7738],[7.9522,5.7761],[7.9365,5.7693],[7.9208,5.7604],[7.9163,5.7536],[7.9163,5.7446],[7.914,5.7424],[7.914,5.7357],[7.9118,5.7244],[7.9073,5.7199],[7.9051,5.7154],[7.8938,5.7065],[7.8871,5.6997],[7.8871,5.6975],[7.8893,5.693]]]}},{"type":"Feature","properties":{"id":"cross-river/boki","name":"Boki","state":"Cross River"},"geometry":{"type":"Polygon","coordinates":[[[8.7158,6.3824],[8.7203,6.3735],[8.727,6.36],[8.7293,6.351],[8.7337,6.3465],[8.7382,6.3353],[8.7405,6.324],[8.7472,6.3016],[8.7562,6.2746],[8.7562,6.2612],[8.754,6.2454],[8.7517,6.2342],[8.7495,6.2275],[8.7472,6.2163],[8.745,6.2095],[8.745,6.2005],[8.745,6.1938],[8.7427,6.1893],[8.7382,6.1803],[8.7337,6.1713],[8.7315,6.1601],[8.7315,6.1534],[8.7382,6.1466],[8.7495,6.1421],[8.7584,6.1377],[8.7629,6.1377],[8.7719,6.1332],[8.7787,6.1287],[8.7944,6.1219],[8.7989,6.1152],[8.8056,6.1107],[8.8123,6.104],[8.8146,6.1017],[8.8168,6.0972],[8.8281,6.0748],[8.8326,6.068],[8.837,6.0658],[8.8393,6.0635],[8.8438,6.0613],[8.8483,6.0613],[8.8573,6.059],[8.8662,6.0568],[8.8752,6.0546],[8.8932,6.0433],[8.8999,6.0388],[8.9134,6.0299],[8.9201,6.0254],[8.9359,6.0141],[8.9516,6.0007],[8.9651,5.9894],[8.974,5.9804],[8.9808,5.9715],[8.983,5.9692],[8.9853,5.9625],[8.9898,5.9535],[8.9943,5.958],[9.001,5.9625],[9.0077,5.9692],[9.0145,5.976],[9.0212,5.9804],[9.0279,5.9872],[9.0347,5.9917],[9.0414,5.9984],[9.0481,6.0029],[9.0549,6.0096],[9.0616,6.0141],[9.0684,6.0209],[9.0751,6.0254],[9.0818,6.0321],[9.0886,6.0366],[9.0953,6.0433],[9.102,6.0478],[9.1065,6.0546],[9.1133,6.059],[9.12,6.0658],[9.1268,6.0703],[9.1335,6.077],[9.1402,6.0815],[9.147,6.0882],[9.1537,6.0927],[9.1582,6.1017],[9.1604,6.1062],[9.1604,6.1085],[9.1627,6.1152],[9.1672,6.1219],[9.1694,6.1309],[9.1762,6.1332],[9.1851,6.1377],[9.1919,6.1421],[9.1986,6.1466],[9.2054,6.1511],[9.2143,6.1556],[9.2211,6.1601],[9.2278,6.1646],[9.2345,6.1668],[9.2435,6.1713],[9.2503,6.1758],[9.257,6.1803],[9.2637,6.1848],[9.2682,6.1915],[9.2727,6.1983],[9.2772,6.2073],[9.2817,6.214],[9.284,6.2185],[9.284,6.2207],[9.2884,6.2275],[9.2929,6.2365],[9.2974,6.2432],[9.3019,6.2499],[9.3042,6.2567],[9.3087,6.2657],[9.3131,6.2702],[9.3199,6.2746],[9.3221,6.2769],[9.3221,6.2791],[9.3176,6.2881],[9.3154,6.2971],[9.3131,6.2993],[9.3087,6.3038],[9.3042,6.3106],[9.3019,6.3151],[9.3019,6.333],[9.3019,6.3375],[9.3019,6.3443],[9.3019,6.3532],[9.3019,6.3757],[9.2997,6.3892],[9.2997,6.3959],[9.3019,6.4026],[9.3019,6.4094],[9.2997,6.4139],[9.2952,6.4251],[9.2862,6.4431],[9.2795,6.4543],[9.275,6.4588],[9.2727,6.4633],[9.2637,6.47],[9.2525,6.4768],[9.2458,6.479],[9.239,6.4813],[9.2166,6.4835],[9.2121,6.4835],[9.2076,6.4835],[9.2031,6.4813],[9.2009,6.4768],[9.1941,6.4723],[9.1919,6.4678],[9.1784,6.4565],[9.1649,6.4498],[9.1604,6.4476],[9.1559,6.4453],[9.1515,6.4453],[9.1425,6.4431],[9.1312,6.4386],[9.12,6.4341],[9.0976,6.4296],[9.0908,6.4274],[9.0818,6.4274],[9.0729,6.4274],[9.0639,6.4274],[9.0369,6.4296],[9.0279,6.4341],[9.0234,6.4363],[9.0145,6.4453],[9.01,6.4521],[9.0032,6.4565],[8.992,6.461],[8.983,6.4633],[8.9763,6.4633],[8.9695,6.4655],[8.9628,6.4655],[8.9538,6.4678],[8.9404,6.4768],[8.9381,6.479],[8.9359,6.4835],[8.9336,6.488],[8.9224,6.4902],[8.9022,6.4902],[8.8932,6.4902],[8.8887,6.4902],[8.8797,6.4925],[8.8707,6.497],[8.864,6.4992],[8.855,6.5037],[8.8505,6.5082],[8.8438,6.5262],[8.8415,6.5284],[8.8393,6.5374],[8.8393,6.5419],[8.8393,6.5464],[8.837,6.5509],[8.837,6.5554],[8.8348,6.5621],[8.8281,6.5733],[8.8236,6.5756],[8.8191,6.5778],[8.8146,6.5778],[8.8079,6.5711],[8.8011,6.5643],[8.7876,6.5486],[8.7854,6.5464],[8.7787,6.5351],[8.7764,6.5217],[8.7764,6.5194],[8.7764,6.5149],[8.7764,6.5104],[8.7742,6.4947],[8.7742,6.488],[8.7719,6.4813],[8.7719,6.4745],[8.7697,6.4655],[8.7652,6.4588],[8.7629,6.4521],[8.7562,6.4453],[8.745,6.4386],[8.7405,6.4363],[8.736,6.4341],[8.7337,6.4296],[8.7293,6.4251],[8.7225,6.4094],[8.718,6.4004],[8.7135,6.3914],[8.7158,6.3824]]]}},{"type":"Feature","properties":{"id":"cross-river/calabar-south","name":"Calabar South","state":"Cross River"},"geometry":{"type":"Polygon","coordinates":[[[8.2666,4.871],[8.2711,4.8576],[8.2711,4.8463],[8.2734,4.8463],[8.2734,4.8508],[8.2734,4.8553],[8.2779,4.8486],[8.2779,4.8441],[8.3026,4.8441],[8.3228,4.8239],[8.3318,4.8037],[8.3452,4.7924],[8.3632,4.779],[8.3722,4.7745],[8.3969,4.7812],[8.4014,4.7835],[8.4036,4.7924],[8.4104,4.8127],[8.4104,4.8149],[8.4126,4.8194],[8.4126,4.8261],[8.4104,4.8306],[8.4081,4.8396],[8.4036,4.8486],[8.3946,4.8576],[8.3857,4.8576],[8.3812,4.8621],[8.3677,4.8733],[8.3497,4.8868],[8.3475,4.8957],[8.3475,4.9002],[8.3475,4.9047],[8.352,4.9137],[8.3542,4.9205],[8.3542,4.9272],[8.3565,4.9407],[8.3497,4.9407],[8.3362,4.9452],[8.3273,4.9474],[8.3115,4.9541],[8.3048,4.9586],[8.3003,4.9519],[8.2936,4.9474],[8.2891,4.9407],[8.2846,4.9317],[8.2801,4.9272],[8.2711,4.916],[8.2621,4.9047],[8.2599,4.8913],[8.2599,4.8845],[8.2666,4.871]]]}},{"type":"Feature","properties":{"id":"cross-river/calabar-municipal","name":"Calabar-Municipal","state":"Cross River"},"geometry":{"type":"Polygon","coordinates":[[[8.3048,4.9811],[8.3071,4.9766],[8.3115,4.9743],[8.3138,4.9699],[8.3115,4.9631],[8.3071,4.9609],[8.3048,4.9586],[8.3115,4.9541],[8.3273,4.9474],[8.3362,4.9452],[8.3497,4.9407],[8.3565,4.9407],[8.3632,4.9452],[8.3767,4.9407],[8.3834,4.9384],[8.3924,4.9362],[8.3969,4.9384],[8.3991,4.9407],[8.3991,4.9429],[8.4014,4.9519],[8.4014,4.9586],[8.4014,4.9631],[8.4036,4.9699],[8.4081,4.9721],[8.4126,4.9743],[8.4171,4.9766],[8.4238,4.9811],[8.4261,4.9833],[8.4238,4.9878],[8.4216,4.9946],[8.4148,4.9968],[8.4036,4.9968],[8.3991,4.9968],[8.3946,4.9991],[8.3857,5.008],[8.3834,5.0103],[8.3812,5.0215],[8.3834,5.026],[8.3879,5.0395],[8.3924,5.0485],[8.3991,5.0619],[8.4036,5.0687],[8.4104,5.0754],[8.4104,5.0799],[8.4104,5.0844],[8.4104,5.0866],[8.4059,5.0889],[8.4014,5.0911],[8.3901,5.0934],[8.3722,5.0911],[8.3609,5.0889],[8.352,5.0866],[8.3452,5.0844],[8.3385,5.0799],[8.334,5.0687],[8.3362,5.0619],[8.3385,5.0552],[8.3385,5.044],[8.3385,5.035],[8.3362,5.0327],[8.334,5.0282],[8.3273,5.026],[8.3205,5.026],[8.316,5.0238],[8.3115,5.0215],[8.3048,4.9991],[8.3026,4.9923],[8.3026,4.9901],[8.3026,4.9856],[8.3048,4.9811]]]}},{"type":"Feature","properties":{"id":"cross-river/etung","name":"Etung","state":"Cross River"},"geometry":{"type":"Polygon","coordinates":[[[8.6237,5.7289],[8.6462,5.7222],[8.6754,5.7154],[8.6843,5.7154],[8.6956,5.7132],[8.718,5.7087],[8.7495,5.702],[8.7742,5.6975],[8.7809,5.6975],[8.8079,5.693],[8.8213,5.693],[8.837,5.693],[8.837,5.6952],[8.8348,5.6975],[8.8326,5.6975],[8.8326,5.6997],[8.8326,5.7042],[8.8326,5.7065],[8.8348,5.7065],[8.8348,5.7042],[8.8348,5.702],[8.8393,5.6997],[8.8415,5.6997],[8.8438,5.6997],[8.8438,5.702],[8.8483,5.7042],[8.8505,5.7042],[8.855,5.7065],[8.855,5.7087],[8.855,5.711],[8.8528,5.7132],[8.8528,5.7177],[8.855,5.7199],[8.8573,5.7199],[8.8573,5.7177],[8.8595,5.7177],[8.8595,5.7199],[8.8618,5.7199],[8.8618,5.7222],[8.8618,5.7244],[8.8618,5.7267],[8.8618,5.7289],[8.8618,5.7312],[8.864,5.7357],[8.8662,5.7334],[8.8662,5.7312],[8.8685,5.7312],[8.8685,5.7357],[8.8685,5.7402],[8.8707,5.7424],[8.873,5.7424],[8.873,5.7446],[8.8752,5.7446],[8.8752,5.7469],[8.8752,5.7491],[8.8752,5.7514],[8.873,5.7514],[8.8707,5.7536],[8.8685,5.7581],[8.8685,5.7604],[8.8707,5.7626],[8.8707,5.7604],[8.873,5.7626],[8.873,5.7671],[8.873,5.7693],[8.8752,5.7693],[8.8775,5.7693],[8.8797,5.7693],[8.882,5.7693],[8.8842,5.7761],[8.8842,5.7783],[8.8842,5.7806],[8.882,5.7806],[8.882,5.7828],[8.882,5.7851],[8.882,5.7873],[8.8842,5.7918],[8.8842,5.794],[8.8842,5.7963],[8.882,5.7963],[8.8775,5.7985],[8.8775,5.8008],[8.8752,5.803],[8.873,5.803],[8.8707,5.803],[8.8707,5.8008],[8.8685,5.8008],[8.8685,5.7985],[8.8662,5.7985],[8.864,5.7985],[8.8618,5.7985],[8.8618,5.8008],[8.8595,5.803],[8.8573,5.803],[8.8573,5.8008],[8.855,5.8008],[8.8528,5.7985],[8.8505,5.7963],[8.8483,5.794],[8.8483,5.7963],[8.8483,5.7985],[8.8505,5.7985],[8.8505,5.8008],[8.8505,5.803],[8.8505,5.8053],[8.8483,5.812],[8.846,5.8143],[8.846,5.8165],[8.8438,5.8188],[8.8415,5.821],[8.8415,5.8232],[8.8415,5.8255],[8.8415,5.8277],[8.8438,5.8277],[8.846,5.8277],[8.8483,5.8277],[8.8505,5.8277],[8.8528,5.8277],[8.855,5.83],[8.8573,5.83],[8.8595,5.8322],[8.8595,5.8345],[8.8595,5.8367],[8.8595,5.839],[8.8595,5.8412],[8.8595,5.8435],[8.8595,5.8457],[8.8618,5.8457],[8.864,5.8457],[8.8685,5.8479],[8.8707,5.8502],[8.873,5.8524],[8.8752,5.8524],[8.8752,5.8547],[8.8775,5.8547],[8.8797,5.8547],[8.8797,5.8569],[8.882,5.8569],[8.882,5.8592],[8.8842,5.8592],[8.8865,5.8614],[8.8887,5.8614],[8.8909,5.8614],[8.8932,5.8592],[8.8954,5.8592],[8.8977,5.8592],[8.8999,5.8592],[8.8999,5.8614],[8.9022,5.8614],[8.9044,5.8614],[8.9044,5.8637],[8.9044,5.8659],[8.9044,5.8682],[8.9044,5.8704],[8.9044,5.8727],[8.9044,5.8749],[8.9067,5.8749],[8.9089,5.8794],[8.9089,5.8816],[8.9134,5.8884],[8.9134,5.8906],[8.9134,5.8929],[8.9134,5.8951],[8.9112,5.8974],[8.9112,5.8996],[8.9112,5.9018],[8.9134,5.9018],[8.9134,5.9041],[8.9157,5.9041],[8.9179,5.9041],[8.9201,5.9041],[8.9224,5.9041],[8.9246,5.9041],[8.9269,5.9041],[8.9291,5.9063],[8.9314,5.9086],[8.9336,5.9086],[8.9404,5.9131],[8.9426,5.9131],[8.9471,5.9176],[8.9538,5.9243],[8.9606,5.9288],[8.9673,5.9355],[8.974,5.94],[8.9808,5.9468],[8.983,5.949],[8.9875,5.9513],[8.9898,5.9535],[8.9853,5.9625],[8.983,5.9692],[8.9808,5.9715],[8.974,5.9804],[8.9651,5.9894],[8.9516,6.0007],[8.9359,6.0141],[8.9201,6.0254],[8.9134,6.0299],[8.8999,6.0388],[8.8932,6.0433],[8.8752,6.0546],[8.8662,6.0568],[8.8573,6.059],[8.8438,6.0546],[8.8393,6.0456],[8.8326,6.0343],[8.8258,6.0299],[8.8168,6.0164],[8.8123,6.0096],[8.8101,6.0029],[8.8056,5.9939],[8.7989,5.9849],[8.7899,5.9782],[8.7787,5.967],[8.7742,5.958],[8.7697,5.9513],[8.7629,5.9468],[8.7584,5.94],[8.754,5.9378],[8.7472,5.931],[8.7427,5.9265],[8.736,5.9243],[8.7315,5.9221],[8.7225,5.9176],[8.718,5.9131],[8.7158,5.9086],[8.7113,5.9018],[8.7113,5.8951],[8.7113,5.8839],[8.709,5.8749],[8.709,5.8682],[8.7023,5.8614],[8.7001,5.8569],[8.6933,5.8547],[8.6866,5.8502],[8.6798,5.8502],[8.6686,5.8502],[8.6641,5.8479],[8.6574,5.8457],[8.6507,5.8435],[8.6462,5.8412],[8.6394,5.8367],[8.6349,5.8277],[8.6259,5.8098],[8.6237,5.8053],[8.6237,5.7985],[8.6192,5.7873],[8.6147,5.7604],[8.6125,5.7357],[8.6125,5.7312],[8.6237,5.7289]]]}},{"type":"Feature","properties":{"id":"cross-river/ikom","name":"Ikom","state":"Cross River"},"geometry":{"type":"Polygon","coordinates":[[[8.4283,6.205],[8.4351,6.1983],[8.4418,6.1871],[8.4463,6.1781],[8.4485,6.1713],[8.4485,6.1668],[8.444,6.1624],[8.4418,6.1556],[8.444,6.1489],[8.4508,6.1511],[8.4575,6.1466],[8.4665,6.1377],[8.4665,6.1287],[8.4598,6.1197],[8.4553,6.1152],[8.453,6.1085],[8.4553,6.1062],[8.4575,6.0995],[8.4643,6.0972],[8.4732,6.095],[8.4822,6.0793],[8.4845,6.0725],[8.489,6.0613],[8.4934,6.0568],[8.5002,6.0523],[8.5092,6.0478],[8.5182,6.0433],[8.5204,6.0411],[8.5249,6.0388],[8.5384,6.0254],[8.5406,6.0231],[8.5429,6.0186],[8.5429,6.0119],[8.5406,6.0074],[8.5339,6.0007],[8.5294,5.9962],[8.5159,5.9849],[8.4957,5.967],[8.489,5.9625],[8.4845,5.9557],[8.4845,5.949],[8.489,5.9423],[8.4934,5.9355],[8.5002,5.9288],[8.5024,5.9243],[8.5047,5.9198],[8.5024,5.9153],[8.5002,5.9131],[8.4934,5.9108],[8.489,5.9086],[8.4755,5.9018],[8.471,5.8974],[8.4665,5.8951],[8.4643,5.8906],[8.4643,5.8727],[8.4643,5.8659],[8.4665,5.8502],[8.4687,5.8435],[8.4732,5.8367],[8.4822,5.812],[8.4867,5.7985],[8.4845,5.794],[8.4822,5.7896],[8.4822,5.7828],[8.4822,5.7783],[8.4822,5.7738],[8.4822,5.7671],[8.4822,5.7649],[8.48,5.7626],[8.4867,5.7536],[8.4912,5.7514],[8.5002,5.7469],[8.5114,5.7446],[8.5204,5.7446],[8.5339,5.7446],[8.5541,5.7402],[8.5653,5.7379],[8.5788,5.7379],[8.5945,5.7334],[8.6102,5.7312],[8.6125,5.7312],[8.6125,5.7357],[8.6147,5.7604],[8.6192,5.7873],[8.6237,5.7985],[8.6237,5.8053],[8.6259,5.8098],[8.6349,5.8277],[8.6394,5.8367],[8.6462,5.8412],[8.6507,5.8435],[8.6574,5.8457],[8.6641,5.8479],[8.6686,5.8502],[8.6798,5.8502],[8.6866,5.8502],[8.6933,5.8547],[8.7001,5.8569],[8.7023,5.8614],[8.709,5.8682],[8.709,5.8749],[8.7113,5.8839],[8.7113,5.8951],[8.7113,5.9018],[8.7158,5.9086],[8.718,5.9131],[8.7225,5.9176],[8.7315,5.9221],[8.736,5.9243],[8.7427,5.9265],[8.7472,5.931],[8.754,5.9378],[8.7584,5.94],[8.7629,5.9468],[8.7697,5.9513],[8.7742,5.958],[8.7787,5.967],[8.7899,5.9782],[8.7989,5.9849],[8.8056,5.9939],[8.8101,6.0029],[8.8123,6.0096],[8.8168,6.0164],[8.8258,6.0299],[8.8326,6.0343],[8.8393,6.0456],[8.8438,6.0546],[8.8573,6.059],[8.8483,6.0613],[8.8438,6.0613],[8.8393,6.0635],[8.837,6.0658],[8.8326,6.068],[8.8281,6.0748],[8.8168,6.0972],[8.8146,6.1017],[8.8123,6.104],[8.8056,6.1107],[8.7989,6.1152],[8.7944,6.1219],[8.7787,6.1287],[8.7719,6.1332],[8.7629,6.1377],[8.7584,6.1377],[8.7495,6.1421],[8.7382,6.1466],[8.7315,6.1534],[8.7315,6.1601],[8.7337,6.1713],[8.7382,6.1803],[8.7427,6.1893],[8.745,6.1938],[8.745,6.2005],[8.745,6.2095],[8.7472,6.2163],[8.7495,6.2275],[8.7517,6.2342],[8.754,6.2454],[8.7562,6.2612],[8.7562,6.2746],[8.7472,6.3016],[8.7405,6.324],[8.7382,6.3353],[8.7337,6.3465],[8.7293,6.351],[8.727,6.36],[8.7203,6.3735],[8.7158,6.3824],[8.7135,6.3914],[8.7113,6.3824],[8.7023,6.3757],[8.6956,6.369],[8.6776,6.36],[8.6619,6.3555],[8.6529,6.3532],[8.6439,6.3532],[8.6349,6.351],[8.6282,6.3488],[8.6147,6.3443],[8.6102,6.3443],[8.5968,6.342],[8.5878,6.3443],[8.5765,6.3443],[8.572,6.3465],[8.5631,6.351],[8.5541,6.3577],[8.5429,6.3622],[8.5316,6.3645],[8.5249,6.3645],[8.5069,6.3622],[8.5024,6.3622],[8.5047,6.3555],[8.5069,6.3532],[8.5114,6.3532],[8.5137,6.3532],[8.5137,6.3465],[8.5069,6.342],[8.5047,6.342],[8.5024,6.3308],[8.5069,6.3285],[8.5114,6.3218],[8.5047,6.3218],[8.4979,6.324],[8.4934,6.3196],[8.4912,6.3173],[8.4912,6.3061],[8.4912,6.2949],[8.48,6.2859],[8.4732,6.2836],[8.4687,6.2814],[8.4598,6.2724],[8.4598,6.2701],[8.4598,6.2657],[8.4643,6.2634],[8.4665,6.2634],[8.4687,6.2634],[8.4732,6.2612],[8.4777,6.2589],[8.4777,6.2544],[8.4755,6.2522],[8.4687,6.2522],[8.4463,6.2522],[8.4418,6.2477],[8.444,6.241],[8.4463,6.2342],[8.444,6.2297],[8.4351,6.2297],[8.4306,6.223],[8.4261,6.2095],[8.4283,6.205]]]}},{"type":"Feature","properties":{"id":"cross-river/obanliku","name":"Obanliku","state":"Cross River"},"geometry":{"type":"Polygon","coordinates":[[[9.111,6.5149],[9.1178,6.4925],[9.12,6.4857],[9.1223,6.479],[9.1312,6.461],[9.1357,6.4521],[9.1425,6.4431],[9.1515,6.4453],[9.1559,6.4453],[9.1604,6.4476],[9.1649,6.4498],[9.1784,6.4565],[9.1919,6.4678],[9.1941,6.4723],[9.2009,6.4768],[9.2031,6.4813],[9.2076,6.4835],[9.2121,6.4835],[9.2166,6.4835],[9.239,6.4813],[9.2458,6.479],[9.2525,6.4768],[9.2637,6.47],[9.2727,6.4633],[9.275,6.4588],[9.2795,6.4543],[9.2862,6.4431],[9.2952,6.4251],[9.2997,6.4139],[9.3019,6.4094],[9.3019,6.4026],[9.2997,6.3959],[9.2997,6.3892],[9.3019,6.3757],[9.3019,6.3532],[9.3019,6.3443],[9.3019,6.3375],[9.3019,6.333],[9.3019,6.3151],[9.3042,6.3106],[9.3087,6.3038],[9.3131,6.2993],[9.3154,6.2971],[9.3176,6.2881],[9.3221,6.2791],[9.3244,6.2791],[9.3244,6.2814],[9.3244,6.2836],[9.3244,6.2859],[9.3266,6.2859],[9.3289,6.2859],[9.3311,6.2859],[9.3311,6.2881],[9.3334,6.2904],[9.3334,6.2926],[9.3356,6.2949],[9.3379,6.3016],[9.3379,6.3128],[9.3379,6.3151],[9.3379,6.3173],[9.3356,6.3196],[9.3379,6.3218],[9.3379,6.324],[9.3401,6.324],[9.3423,6.3263],[9.3423,6.3285],[9.3446,6.3308],[9.3446,6.333],[9.3446,6.3353],[9.3446,6.342],[9.3446,6.3465],[9.3423,6.351],[9.3446,6.351],[9.3446,6.3532],[9.3468,6.3532],[9.3513,6.3532],[9.3536,6.351],[9.3558,6.351],[9.3603,6.3488],[9.3603,6.3465],[9.3626,6.3465],[9.3648,6.3443],[9.3738,6.342],[9.376,6.342],[9.3828,6.3398],[9.3873,6.3353],[9.3918,6.333],[9.4007,6.3285],[9.4052,6.3263],[9.4097,6.324],[9.412,6.324],[9.4142,6.3218],[9.4165,6.3196],[9.4187,6.3196],[9.4209,6.3196],[9.4232,6.3196],[9.4254,6.3196],[9.4277,6.3173],[9.4299,6.3173],[9.4322,6.3173],[9.4344,6.3196],[9.4344,6.3218],[9.4344,6.324],[9.4344,6.3263],[9.4389,6.342],[9.4389,6.3443],[9.4412,6.3443],[9.4412,6.3465],[9.4412,6.3488],[9.4434,6.3555],[9.4434,6.36],[9.4434,6.3622],[9.4434,6.3645],[9.4434,6.3667],[9.4456,6.3712],[9.4456,6.3735],[9.4456,6.3779],[9.4456,6.3802],[9.4456,6.3824],[9.4479,6.3824],[9.4479,6.3847],[9.4501,6.3847],[9.4501,6.3869],[9.4524,6.3869],[9.4501,6.3892],[9.4501,6.3914],[9.4524,6.3982],[9.4524,6.4004],[9.4569,6.4094],[9.4569,6.4116],[9.4569,6.4139],[9.4569,6.4184],[9.4591,6.4229],[9.4591,6.4274],[9.4614,6.4274],[9.4591,6.4296],[9.4591,6.4318],[9.4569,6.4318],[9.4614,6.4408],[9.4636,6.4453],[9.4636,6.4476],[9.4636,6.4498],[9.4636,6.4543],[9.4659,6.4543],[9.4659,6.4588],[9.4681,6.4723],[9.4704,6.488],[9.4726,6.4902],[9.4726,6.4947],[9.4748,6.4992],[9.4748,6.5037],[9.4748,6.5104],[9.4726,6.5172],[9.4704,6.5239],[9.4681,6.5262],[9.4591,6.5329],[9.4501,6.5396],[9.4389,6.5509],[9.4322,6.5576],[9.4277,6.5643],[9.4232,6.5733],[9.4165,6.5823],[9.4142,6.5868],[9.403,6.6003],[9.3962,6.6048],[9.3918,6.6093],[9.367,6.6295],[9.3603,6.6362],[9.3513,6.6474],[9.3468,6.6564],[9.3423,6.6654],[9.3334,6.6744],[9.3244,6.6834],[9.3176,6.6946],[9.3131,6.7013],[9.3087,6.7081],[9.3064,6.7126],[9.3042,6.7171],[9.2997,6.7193],[9.2907,6.7215],[9.2862,6.7193],[9.2795,6.7193],[9.2705,6.7193],[9.266,6.7193],[9.2548,6.7171],[9.248,6.7148],[9.2278,6.7081],[9.2166,6.7058],[9.2098,6.7013],[9.1986,6.6968],[9.1919,6.6946],[9.1851,6.6924],[9.1762,6.6879],[9.1784,6.6856],[9.1806,6.6811],[9.1806,6.6766],[9.1829,6.6609],[9.1829,6.6519],[9.1806,6.6385],[9.1739,6.6272],[9.1717,6.6227],[9.1604,6.6115],[9.1515,6.6003],[9.138,6.5846],[9.1335,6.5778],[9.1268,6.5688],[9.1133,6.5464],[9.1088,6.5374],[9.1088,6.5329],[9.1088,6.5262],[9.111,6.5149]]]}},{"type":"Feature","properties":{"id":"cross-river/obubra","name":"Obubra","state":"Cross River"},"geometry":{"type":"Polygon","coordinates":[[[8.1746,5.9692],[8.179,5.9602],[8.188,5.949],[8.1925,5.9468],[8.197,5.9445],[8.2082,5.94],[8.2195,5.9355],[8.224,5.9355],[8.2307,5.931],[8.2329,5.9288],[8.2374,5.9243],[8.2397,5.9198],[8.2419,5.9176],[8.2419,5.9131],[8.2352,5.9041],[8.2329,5.9018],[8.2307,5.8996],[8.2284,5.8951],[8.2284,5.8906],[8.2307,5.8794],[8.2329,5.8771],[8.2397,5.8682],[8.2442,5.8659],[8.2532,5.8637],[8.2576,5.8659],[8.2599,5.8659],[8.2644,5.8682],[8.2666,5.8682],[8.2711,5.8637],[8.2756,5.8569],[8.2801,5.8502],[8.2846,5.8412],[8.2891,5.8345],[8.2936,5.821],[8.2958,5.8165],[8.3115,5.7873],[8.3183,5.7761],[8.3228,5.7649],[8.3295,5.7536],[8.3318,5.7514],[8.3385,5.7424],[8.3407,5.7446],[8.3542,5.7536],[8.3587,5.7559],[8.3677,5.7604],[8.3789,5.7671],[8.4036,5.7873],[8.4126,5.794],[8.4261,5.8008],[8.4328,5.803],[8.4351,5.803],[8.4396,5.803],[8.444,5.7985],[8.4553,5.7873],[8.4755,5.7693],[8.48,5.7626],[8.4822,5.7649],[8.4822,5.7671],[8.4822,5.7738],[8.4822,5.7783],[8.4822,5.7828],[8.4822,5.7896],[8.4845,5.794],[8.4867,5.7985],[8.4822,5.812],[8.4732,5.8367],[8.4687,5.8435],[8.4665,5.8502],[8.4643,5.8659],[8.4643,5.8727],[8.4643,5.8906],[8.4665,5.8951],[8.471,5.8974],[8.4755,5.9018],[8.489,5.9086],[8.4934,5.9108],[8.5002,5.9131],[8.5024,5.9153],[8.5047,5.9198],[8.5024,5.9243],[8.5002,5.9288],[8.4934,5.9355],[8.489,5.9423],[8.4845,5.949],[8.4845,5.9557],[8.489,5.9625],[8.4957,5.967],[8.5159,5.9849],[8.5294,5.9962],[8.5339,6.0007],[8.5406,6.0074],[8.5429,6.0119],[8.5429,6.0186],[8.5406,6.0231],[8.5384,6.0254],[8.5249,6.0388],[8.5204,6.0411],[8.5182,6.0433],[8.5092,6.0478],[8.5002,6.0523],[8.4934,6.0568],[8.489,6.0613],[8.4845,6.0725],[8.4822,6.0793],[8.4732,6.095],[8.4643,6.0972],[8.4575,6.0995],[8.4553,6.1062],[8.453,6.1085],[8.4553,6.1152],[8.4598,6.1197],[8.4665,6.1287],[8.4665,6.1377],[8.4575,6.1466],[8.4508,6.1511],[8.444,6.1489],[8.4418,6.1556],[8.444,6.1624],[8.4485,6.1668],[8.4485,6.1713],[8.4463,6.1781],[8.4418,6.1871],[8.4351,6.1983],[8.4283,6.205],[8.4261,6.2095],[8.4306,6.223],[8.4351,6.2297],[8.444,6.2297],[8.4463,6.2342],[8.444,6.241],[8.4418,6.2477],[8.4463,6.2522],[8.4687,6.2522],[8.4755,6.2522],[8.4777,6.2544],[8.4777,6.2589],[8.4732,6.2612],[8.4687,6.2634],[8.4665,6.2634],[8.4643,6.2634],[8.4598,6.2657],[8.4598,6.2701],[8.4598,6.2724],[8.4687,6.2814],[8.4732,6.2836],[8.4665,6.2859],[8.4598,6.2881],[8.4373,6.2881],[8.4306,6.2881],[8.4216,6.2859],[8.4171,6.2859],[8.4104,6.2814],[8.4171,6.2724],[8.4171,6.2612],[8.4104,6.2454],[8.4059,6.2365],[8.4036,6.2275],[8.4014,6.2163],[8.3924,6.2118],[8.3789,6.2028],[8.3722,6.196],[8.3632,6.1781],[8.3632,6.1758],[8.3587,6.1713],[8.3542,6.1668],[8.3385,6.1534],[8.3318,6.1354],[8.3205,6.1287],[8.3026,6.1017],[8.2981,6.0905],[8.2981,6.086],[8.2981,6.077],[8.2981,6.068],[8.2913,6.0546],[8.2891,6.0456],[8.2868,6.0299],[8.2868,6.0164],[8.2823,6.0052],[8.2734,5.9984],[8.2644,5.9962],[8.2576,5.9984],[8.2532,6.0052],[8.2532,6.0119],[8.2487,6.0164],[8.2442,6.0186],[8.2374,6.0141],[8.2307,6.0119],[8.2217,6.0141],[8.215,6.0119],[8.2037,6.0052],[8.1948,5.9917],[8.179,5.9782],[8.1723,5.9737],[8.1746,5.9692]]]}},{"type":"Feature","properties":{"id":"cross-river/obudu","name":"Obudu","state":"Cross River"},"geometry":{"type":"Polygon","coordinates":[[[8.9359,6.4835],[8.9381,6.479],[8.9404,6.4768],[8.9538,6.4678],[8.9628,6.4655],[8.9695,6.4655],[8.9763,6.4633],[8.983,6.4633],[8.992,6.461],[9.0032,6.4565],[9.01,6.4521],[9.0145,6.4453],[9.0234,6.4363],[9.0279,6.4341],[9.0369,6.4296],[9.0639,6.4274],[9.0729,6.4274],[9.0818,6.4274],[9.0908,6.4274],[9.0976,6.4296],[9.12,6.4341],[9.1312,6.4386],[9.1425,6.4431],[9.1357,6.4521],[9.1312,6.461],[9.1223,6.479],[9.12,6.4857],[9.1178,6.4925],[9.111,6.5149],[9.1088,6.5262],[9.1088,6.5329],[9.1088,6.5374],[9.1133,6.5464],[9.1268,6.5688],[9.1335,6.5778],[9.138,6.5846],[9.1515,6.6003],[9.1604,6.6115],[9.1717,6.6227],[9.1739,6.6272],[9.1806,6.6385],[9.1829,6.6519],[9.1829,6.6609],[9.1806,6.6766],[9.1806,6.6811],[9.1784,6.6856],[9.1762,6.6879],[9.1717,6.6879],[9.1537,6.6834],[9.1492,6.6834],[9.1357,6.6789],[9.129,6.6766],[9.1223,6.6721],[9.1178,6.6676],[9.1065,6.6609],[9.0998,6.6564],[9.0841,6.6497],[9.0773,6.6452],[9.0706,6.6429],[9.0594,6.6429],[9.0481,6.6429],[9.0347,6.6474],[9.0279,6.6497],[9.0234,6.6564],[9.019,6.6632],[9.0122,6.6699],[9.0055,6.6766],[8.9987,6.6834],[8.992,6.6924],[8.983,6.6744],[8.9763,6.6632],[8.9718,6.6564],[8.9718,6.6474],[8.9718,6.6429],[8.974,6.6385],[8.9808,6.634],[8.9875,6.6295],[8.992,6.625],[8.9965,6.6115],[8.9965,6.6093],[8.9987,6.6003],[8.9987,6.5935],[8.9943,6.5733],[8.992,6.5688],[8.9808,6.5441],[8.9785,6.5396],[8.9673,6.5217],[8.9561,6.5082],[8.9516,6.5015],[8.9448,6.4947],[8.9336,6.488],[8.9359,6.4835]]]}},{"type":"Feature","properties":{"id":"cross-river/odukpani","name":"Odukpani","state":"Cross River"},"geometry":{"type":"Polygon","coordinates":[[[7.8422,5.3359],[7.8444,5.3337],[7.8489,5.3292],[7.8534,5.3247],[7.8557,5.3224],[7.8579,5.3202],[7.8579,5.3179],[7.8601,5.3179],[7.8624,5.3157],[7.8646,5.3135],[7.8669,5.3157],[7.8691,5.3157],[7.8714,5.3179],[7.8759,5.3179],[7.8826,5.3179],[7.8893,5.3179],[7.8916,5.3157],[7.9006,5.3135],[7.9051,5.309],[7.9096,5.3067],[7.9118,5.3045],[7.923,5.2932],[7.9253,5.291],[7.9298,5.2843],[7.9343,5.2775],[7.9343,5.273],[7.9365,5.2708],[7.9365,5.2663],[7.9365,5.2618],[7.9365,5.2596],[7.9387,5.2551],[7.941,5.2506],[7.9432,5.2461],[7.9477,5.2416],[7.9545,5.2393],[7.9612,5.2371],[7.9657,5.2304],[7.9679,5.2259],[7.9702,5.2214],[7.9724,5.2124],[7.9769,5.2079],[7.9837,5.2057],[7.9926,5.2057],[8.0039,5.2191],[8.0061,5.2259],[8.0106,5.2371],[8.0173,5.2461],[8.0263,5.2483],[8.0353,5.2438],[8.0555,5.2169],[8.0623,5.2057],[8.0645,5.1989],[8.0668,5.181],[8.0668,5.172],[8.0645,5.1675],[8.0623,5.1585],[8.0645,5.145],[8.069,5.136],[8.0757,5.1316],[8.0825,5.1271],[8.0959,5.1158],[8.0982,5.1068],[8.1004,5.0821],[8.1004,5.0619],[8.0982,5.044],[8.1004,5.0327],[8.1027,5.0238],[8.1162,5.0035],[8.1229,4.9946],[8.1251,4.9811],[8.1274,4.9699],[8.1498,4.9384],[8.1521,4.9384],[8.1723,4.9339],[8.1768,4.9294],[8.197,4.9137],[8.2082,4.9092],[8.215,4.898],[8.2195,4.8823],[8.224,4.8733],[8.2307,4.8598],[8.2397,4.8531],[8.2464,4.8531],[8.2621,4.8396],[8.2621,4.8374],[8.2644,4.8351],[8.2711,4.8418],[8.2734,4.8463],[8.2711,4.8463],[8.2711,4.8576],[8.2666,4.871],[8.2599,4.8845],[8.2599,4.8913],[8.2621,4.9047],[8.2711,4.916],[8.2801,4.9272],[8.2846,4.9317],[8.2891,4.9407],[8.2936,4.9474],[8.3003,4.9519],[8.3048,4.9586],[8.3071,4.9609],[8.3115,4.9631],[8.3138,4.9699],[8.3115,4.9743],[8.3071,4.9766],[8.3048,4.9811],[8.3026,4.9856],[8.3026,4.9901],[8.3026,4.9923],[8.3048,4.9991],[8.3115,5.0215],[8.316,5.0238],[8.3205,5.026],[8.3273,5.026],[8.334,5.0282],[8.3362,5.0327],[8.3385,5.035],[8.3385,5.044],[8.3385,5.0552],[8.3362,5.0619],[8.334,5.0687],[8.3385,5.0799],[8.3452,5.0844],[8.352,5.0866],[8.3609,5.0889],[8.3722,5.0911],[8.3901,5.0934],[8.4014,5.0911],[8.4081,5.1136],[8.4014,5.1136],[8.3879,5.1248],[8.3857,5.1293],[8.3857,5.1338],[8.3834,5.1383],[8.3767,5.145],[8.3677,5.1585],[8.3632,5.163],[8.3565,5.1675],[8.3407,5.1765],[8.3228,5.1877],[8.316,5.1922],[8.3003,5.2012],[8.2868,5.2012],[8.2801,5.2034],[8.2711,5.2079],[8.2554,5.2124],[8.2397,5.2191],[8.2217,5.2281],[8.215,5.2304],[8.2015,5.2393],[8.1903,5.2438],[8.179,5.2483],[8.1746,5.2506],[8.1656,5.2551],[8.1588,5.2596],[8.1543,5.2663],[8.1454,5.2753],[8.1431,5.2775],[8.1386,5.282],[8.1386,5.2843],[8.1386,5.2865],[8.1274,5.2843],[8.1184,5.282],[8.1072,5.2798],[8.0982,5.282],[8.0915,5.2865],[8.0847,5.2888],[8.069,5.2932],[8.051,5.2977],[8.0465,5.3],[8.0353,5.3045],[8.0308,5.3067],[8.0286,5.3112],[8.0263,5.3135],[8.0263,5.3202],[8.0263,5.3247],[8.0263,5.3292],[8.0263,5.3449],[8.0263,5.3516],[8.0286,5.3606],[8.0308,5.3696],[8.0353,5.3808],[8.0398,5.3898],[8.0398,5.3966],[8.0421,5.4078],[8.0421,5.4235],[8.0376,5.428],[8.0286,5.4347],[8.0241,5.4415],[8.0218,5.4482],[8.0151,5.4639],[8.0129,5.4841],[8.0173,5.4909],[8.0196,5.4976],[8.0196,5.5043],[8.0106,5.5201],[8.0061,5.5223],[8.0016,5.5223],[7.9994,5.5246],[7.9792,5.5246],[7.9657,5.5223],[7.9477,5.5223],[7.9275,5.5223],[7.914,5.5201],[7.9208,5.5088],[7.923,5.4999],[7.932,5.4774],[7.9343,5.4684],[7.9387,5.4617],[7.9432,5.4572],[7.95,5.4482],[7.9545,5.4415],[7.9567,5.437],[7.959,5.4325],[7.9634,5.4168],[7.9724,5.3988],[7.9792,5.3898],[7.9837,5.3763],[7.9859,5.3696],[7.9882,5.3629],[7.9859,5.3606],[7.9859,5.3584],[7.9837,5.3561],[7.9769,5.3539],[7.9724,5.3539],[7.9634,5.3561],[7.941,5.3584],[7.9343,5.3584],[7.9208,5.3606],[7.9028,5.3629],[7.8893,5.3651],[7.8804,5.3674],[7.8804,5.3629],[7.8848,5.3584],[7.8916,5.3516],[7.8961,5.3494],[7.9006,5.3449],[7.9028,5.3427],[7.9051,5.3404],[7.9028,5.3382],[7.9006,5.3359],[7.8983,5.3337],[7.8961,5.3337],[7.8826,5.3359],[7.8736,5.3404],[7.8714,5.3404],[7.8691,5.3427],[7.8557,5.3449],[7.8489,5.3449],[7.8467,5.3427],[7.8422,5.3404],[7.8399,5.3382],[7.8422,5.3359]]]}},{"type":"Feature","properties":{"id":"cross-river/ogoja","name":"Ogoja","state":"Cross River"},"geometry":{"type":"Polygon","coordinates":[[[8.4755,6.4363],[8.4777,6.4318],[8.48,6.4274],[8.4845,6.4251],[8.4867,6.4229],[8.489,6.4161],[8.4934,6.4071],[8.4957,6.4026],[8.4957,6.3959],[8.4957,6.3914],[8.4957,6.3847],[8.5002,6.369],[8.5024,6.3622],[8.5069,6.3622],[8.5249,6.3645],[8.5316,6.3645],[8.5429,6.3622],[8.5541,6.3577],[8.5631,6.351],[8.572,6.3465],[8.5765,6.3443],[8.5878,6.3443],[8.5968,6.342],[8.6102,6.3443],[8.6147,6.3443],[8.6282,6.3488],[8.6349,6.351],[8.6439,6.3532],[8.6529,6.3532],[8.6619,6.3555],[8.6776,6.36],[8.6956,6.369],[8.7023,6.3757],[8.7113,6.3824],[8.7135,6.3914],[8.718,6.4004],[8.7225,6.4094],[8.7293,6.4251],[8.7337,6.4296],[8.736,6.4341],[8.7405,6.4363],[8.745,6.4386],[8.7562,6.4453],[8.7629,6.4521],[8.7652,6.4588],[8.7697,6.4655],[8.7719,6.4745],[8.7719,6.4813],[8.7742,6.488],[8.7742,6.4947],[8.7764,6.5104],[8.7764,6.5149],[8.7764,6.5194],[8.7764,6.5217],[8.7787,6.5351],[8.7854,6.5464],[8.7876,6.5486],[8.8011,6.5643],[8.8079,6.5711],[8.8146,6.5778],[8.8191,6.5778],[8.8236,6.5756],[8.8281,6.5733],[8.8348,6.5621],[8.837,6.5554],[8.837,6.5509],[8.8393,6.5464],[8.8393,6.5419],[8.8393,6.5374],[8.8415,6.5284],[8.8438,6.5262],[8.8505,6.5082],[8.855,6.5037],[8.864,6.4992],[8.8707,6.497],[8.8797,6.4925],[8.8887,6.4902],[8.8932,6.4902],[8.9022,6.4902],[8.9224,6.4902],[8.9336,6.488],[8.9448,6.4947],[8.9516,6.5015],[8.9561,6.5082],[8.9673,6.5217],[8.9785,6.5396],[8.9808,6.5441],[8.992,6.5688],[8.9943,6.5733],[8.9987,6.5935],[8.9987,6.6003],[8.9965,6.6093],[8.9965,6.6115],[8.992,6.625],[8.9875,6.6295],[8.9808,6.634],[8.974,6.6385],[8.9718,6.6429],[8.9651,6.634],[8.9493,6.625],[8.9404,6.6182],[8.9336,6.616],[8.9246,6.6138],[8.9157,6.6093],[8.9089,6.6048],[8.8932,6.598],[8.8842,6.5935],[8.8752,6.5935],[8.8685,6.5958],[8.8528,6.5935],[8.846,6.598],[8.8438,6.6003],[8.8438,6.6048],[8.8438,6.6093],[8.8438,6.616],[8.8393,6.6429],[8.8348,6.6542],[8.8326,6.6564],[8.8303,6.6632],[8.8258,6.6766],[8.8213,6.6924],[8.8168,6.7036],[8.8146,6.7126],[8.8079,6.7036],[8.7944,6.6968],[8.7876,6.6946],[8.7787,6.6924],[8.7652,6.6834],[8.7607,6.6789],[8.7562,6.6744],[8.7517,6.6676],[8.7495,6.6632],[8.7382,6.6497],[8.7225,6.6362],[8.709,6.6227],[8.7068,6.6205],[8.6978,6.6138],[8.6911,6.607],[8.6866,6.6025],[8.6821,6.6025],[8.6731,6.598],[8.6641,6.5913],[8.6417,6.5688],[8.6327,6.5576],[8.6259,6.5509],[8.6215,6.5464],[8.6125,6.5374],[8.608,6.5351],[8.6012,6.5307],[8.5968,6.5284],[8.5855,6.5262],[8.581,6.5262],[8.5743,6.5262],[8.5563,6.5284],[8.5518,6.5284],[8.5361,6.5284],[8.5316,6.5284],[8.5271,6.5239],[8.5226,6.5172],[8.5226,6.5127],[8.5226,6.5082],[8.5249,6.5015],[8.5271,6.497],[8.5316,6.4925],[8.5361,6.4835],[8.5406,6.4745],[8.5429,6.47],[8.5451,6.4633],[8.5451,6.4565],[8.5406,6.4498],[8.5294,6.4498],[8.5114,6.4543],[8.5002,6.4588],[8.4957,6.461],[8.4912,6.461],[8.4845,6.4588],[8.4777,6.4543],[8.4732,6.4498],[8.471,6.4453],[8.4755,6.4363]]]}},{"type":"Feature","properties":{"id":"cross-river/yakurr","name":"Yakurr","state":"Cross River"},"geometry":{"type":"Polygon","coordinates":[[[8.051,5.7963],[8.0578,5.7851],[8.06,5.7738],[8.0645,5.7626],[8.0712,5.7581],[8.078,5.7469],[8.0825,5.7424],[8.0892,5.7334],[8.0915,5.7289],[8.0959,5.7244],[8.1004,5.7199],[8.1072,5.7177],[8.1162,5.7087],[8.1184,5.7065],[8.1229,5.702],[8.1274,5.693],[8.1296,5.6863],[8.1296,5.684],[8.1319,5.6773],[8.1386,5.6705],[8.1431,5.6683],[8.1498,5.6638],[8.1566,5.6616],[8.1678,5.6616],[8.1746,5.6616],[8.1903,5.6616],[8.1948,5.6616],[8.2127,5.6638],[8.2262,5.666],[8.2329,5.6705],[8.2419,5.675],[8.2487,5.6795],[8.2644,5.6885],[8.2823,5.6997],[8.2913,5.7065],[8.2981,5.7132],[8.3273,5.7334],[8.3318,5.7379],[8.3385,5.7424],[8.3318,5.7514],[8.3295,5.7536],[8.3228,5.7649],[8.3183,5.7761],[8.3115,5.7873],[8.2958,5.8165],[8.2936,5.821],[8.2891,5.8345],[8.2846,5.8412],[8.2801,5.8502],[8.2756,5.8569],[8.2711,5.8637],[8.2666,5.8682],[8.2644,5.8682],[8.2599,5.8659],[8.2576,5.8659],[8.2532,5.8637],[8.2442,5.8659],[8.2397,5.8682],[8.2329,5.8771],[8.2307,5.8794],[8.2284,5.8906],[8.2284,5.8951],[8.2307,5.8996],[8.2329,5.9018],[8.2352,5.9041],[8.2419,5.9131],[8.2419,5.9176],[8.2397,5.9198],[8.2374,5.9243],[8.2329,5.9288],[8.2307,5.931],[8.224,5.9355],[8.2195,5.9355],[8.2082,5.94],[8.197,5.9445],[8.1925,5.9468],[8.188,5.949],[8.179,5.9602],[8.1746,5.9692],[8.1723,5.9737],[8.1678,5.9692],[8.1521,5.967],[8.1476,5.9647],[8.1364,5.9557],[8.1229,5.9445],[8.1139,5.9378],[8.1094,5.9355],[8.1049,5.9288],[8.1027,5.9265],[8.0959,5.9153],[8.0915,5.9086],[8.0825,5.8974],[8.0757,5.8906],[8.0757,5.8861],[8.0757,5.8816],[8.0757,5.8659],[8.0757,5.8592],[8.078,5.8479],[8.0757,5.839],[8.069,5.8255],[8.0668,5.8232],[8.0623,5.8188],[8.0533,5.8075],[8.0488,5.8008],[8.051,5.7963]]]}},{"type":"Feature","properties":{"id":"cross-river/yala","name":"Yala","state":"Cross River"},"geometry":{"type":"Polygon","coordinates":[[[8.3026,6.6699],[8.3071,6.6609],[8.3048,6.6497],[8.3093,6.6385],[8.316,6.634],[8.3228,6.634],[8.325,6.625],[8.325,6.6205],[8.3205,6.6138],[8.3138,6.6115],[8.3138,6.607],[8.3228,6.5958],[8.3407,6.5756],[8.3475,6.5756],[8.352,6.5733],[8.3587,6.5643],[8.3632,6.5621],[8.3722,6.5599],[8.3722,6.5486],[8.3744,6.5464],[8.3789,6.5486],[8.3879,6.5509],[8.3924,6.5509],[8.3969,6.5396],[8.3946,6.5307],[8.3901,6.5262],[8.3901,6.5239],[8.3969,6.5194],[8.4104,6.5172],[8.4148,6.5194],[8.4193,6.5149],[8.4193,6.5104],[8.4216,6.506],[8.4126,6.5015],[8.4059,6.4857],[8.4081,6.4768],[8.4238,6.4768],[8.4238,6.4655],[8.4306,6.4588],[8.4396,6.4476],[8.4351,6.4431],[8.4328,6.4386],[8.4328,6.4341],[8.4418,6.4318],[8.453,6.4296],[8.4575,6.4274],[8.4575,6.4184],[8.4553,6.4094],[8.453,6.4049],[8.4485,6.4049],[8.444,6.4026],[8.4485,6.3914],[8.444,6.3847],[8.4306,6.3802],[8.4126,6.3779],[8.4081,6.3757],[8.4036,6.3667],[8.3991,6.3532],[8.3969,6.3443],[8.3969,6.3308],[8.3924,6.3061],[8.3946,6.2971],[8.4059,6.2859],[8.4104,6.2814],[8.4171,6.2859],[8.4216,6.2859],[8.4306,6.2881],[8.4373,6.2881],[8.4598,6.2881],[8.4665,6.2859],[8.4732,6.2836],[8.48,6.2859],[8.4912,6.2949],[8.4912,6.3061],[8.4912,6.3173],[8.4934,6.3196],[8.4979,6.324],[8.5047,6.3218],[8.5114,6.3218],[8.5069,6.3285],[8.5024,6.3308],[8.5047,6.342],[8.5069,6.342],[8.5137,6.3465],[8.5137,6.3532],[8.5114,6.3532],[8.5069,6.3532],[8.5047,6.3555],[8.5024,6.3622],[8.5002,6.369],[8.4957,6.3847],[8.4957,6.3914],[8.4957,6.3959],[8.4957,6.4026],[8.4934,6.4071],[8.489,6.4161],[8.4867,6.4229],[8.4845,6.4251],[8.48,6.4274],[8.4777,6.4318],[8.4755,6.4363],[8.471,6.4453],[8.4732,6.4498],[8.4777,6.4543],[8.4845,6.4588],[8.4912,6.461],[8.4957,6.461],[8.5002,6.4588],[8.5114,6.4543],[8.5294,6.4498],[8.5406,6.4498],[8.5451,6.4565],[8.5451,6.4633],[8.5429,6.47],[8.5406,6.4745],[8.5361,6.4835],[8.5316,6.4925],[8.5271,6.497],[8.5249,6.5015],[8.5226,6.5082],[8.5226,6.5127],[8.5226,6.5172],[8.5271,6.5239],[8.5316,6.5284],[8.5361,6.5284],[8.5518,6.5284],[8.5563,6.5284],[8.5743,6.5262],[8.581,6.5262],[8.5855,6.5262],[8.5968,6.5284],[8.6012,6.5307],[8.608,6.5351],[8.6125,6.5374],[8.6215,6.5464],[8.6259,6.5509],[8.6327,6.5576],[8.6417,6.5688],[8.6641,6.5913],[8.6731,6.598],[8.6821,6.6025],[8.6866,6.6025],[8.6911,6.607],[8.6978,6.6138],[8.7068,6.6205],[8.709,6.6227],[8.7225,6.6362],[8.7382,6.6497],[8.7495,6.6632],[8.7517,6.6676],[8.7562,6.6744],[8.7607,6.6789],[8.7652,6.6834],[8.7787,6.6924],[8.7876,6.6946],[8.7944,6.6968],[8.8079,6.7036],[8.8146,6.7126],[8.8236,6.7171],[8.8303,6.7215],[8.8415,6.7283],[8.855,6.7373],[8.8685,6.744],[8.882,6.7597],[8.8887,6.7665],[8.8909,6.771],[8.9044,6.7867],[8.9157,6.8046],[8.9224,6.8091],[8.9269,6.8136],[8.9291,6.8204],[8.9269,6.8226],[8.9224,6.8249],[8.9134,6.8316],[8.9089,6.8338],[8.9022,6.8361],[8.8977,6.8383],[8.8865,6.8428],[8.8797,6.8496],[8.864,6.8563],[8.8573,6.8608],[8.8483,6.8653],[8.8393,6.8698],[8.8123,6.8765],[8.7989,6.881],[8.7809,6.8855],[8.7764,6.8877],[8.7607,6.8922],[8.7472,6.8922],[8.727,6.8945],[8.7203,6.8967],[8.7045,6.8967],[8.6866,6.8832],[8.6754,6.8743],[8.6686,6.8698],[8.6641,6.8675],[8.6619,6.8675],[8.6574,6.8653],[8.6507,6.8653],[8.6462,6.863],[8.6372,6.863],[8.6192,6.8608],[8.608,6.8585],[8.6057,6.8585],[8.6012,6.8563],[8.6012,6.854],[8.6012,6.8496],[8.6035,6.8473],[8.6102,6.8428],[8.6192,6.8361],[8.6259,6.8316],[8.6304,6.8293],[8.6372,6.8249],[8.6394,6.8226],[8.6417,6.8181],[8.6394,6.8046],[8.6372,6.7979],[8.6304,6.7912],[8.6259,6.7867],[8.6215,6.7799],[8.617,6.7777],[8.608,6.7754],[8.5945,6.771],[8.5788,6.7642],[8.5698,6.7642],[8.5631,6.762],[8.5586,6.762],[8.5518,6.7597],[8.5451,6.7575],[8.5361,6.7597],[8.5159,6.7597],[8.5092,6.7597],[8.5024,6.7575],[8.489,6.753],[8.4777,6.7485],[8.4687,6.7463],[8.4575,6.7463],[8.4508,6.7485],[8.4485,6.7507],[8.444,6.7552],[8.4396,6.7575],[8.4351,6.7575],[8.4328,6.7575],[8.4283,6.7575],[8.4193,6.7575],[8.4104,6.753],[8.4081,6.753],[8.4036,6.7485],[8.3991,6.7463],[8.3924,6.7418],[8.3879,6.7328],[8.3834,6.7238],[8.3767,6.7126],[8.3744,6.7058],[8.3699,6.7013],[8.3677,6.6968],[8.3609,6.6924],[8.3542,6.6901],[8.3407,6.6834],[8.3295,6.6811],[8.325,6.6789],[8.3205,6.6789],[8.3138,6.6766],[8.3071,6.6766],[8.3048,6.6789],[8.3003,6.6789],[8.2936,6.6789],[8.3026,6.6699]]]}}]}