{"type":"FeatureCollection","features":[{"type":"Feature","properties":{"id":"delta/aniocha-north","name":"Aniocha North","state":"Delta"},"geometry":{"type":"Polygon","coordinates":[[[6.3645,6.3757],[6.369,6.3667],[6.3735,6.3577],[6.3779,6.3465],[6.3869,6.3218],[6.3914,6.3106],[6.3892,6.2949],[6.3847,6.2836],[6.3779,6.2746],[6.3735,6.2657],[6.3712,6.2544],[6.3757,6.2387],[6.3892,6.241],[6.3982,6.2432],[6.4206,6.2477],[6.4476,6.2589],[6.4633,6.2679],[6.4768,6.2769],[6.4857,6.2814],[6.4992,6.2904],[6.506,6.2993],[6.5172,6.3038],[6.5351,6.3061],[6.5486,6.2993],[6.5576,6.2926],[6.5666,6.2904],[6.5823,6.2904],[6.5733,6.3106],[6.5666,6.3173],[6.5666,6.3285],[6.5688,6.342],[6.5733,6.3532],[6.5733,6.369],[6.5756,6.3937],[6.5756,6.4026],[6.5801,6.4139],[6.5778,6.4251],[6.5733,6.4363],[6.5711,6.4521],[6.5711,6.461],[6.5711,6.47],[6.5711,6.4813],[6.5733,6.4925],[6.5756,6.4947],[6.5643,6.4947],[6.5509,6.4925],[6.5396,6.4925],[6.5262,6.488],[6.5104,6.4768],[6.5015,6.4633],[6.4925,6.4565],[6.4813,6.4476],[6.4655,6.4408],[6.4498,6.4274],[6.4453,6.4251],[6.4408,6.4206],[6.4363,6.4161],[6.4341,6.4116],[6.4318,6.4071],[6.4229,6.4026],[6.4161,6.3982],[6.4094,6.3959],[6.4071,6.3937],[6.3914,6.3892],[6.3802,6.3847],[6.3712,6.3824],[6.3622,6.3847],[6.3645,6.3757]]]}},{"type":"Feature","properties":{"id":"delta/aniocha-south","name":"Aniocha South","state":"Delta"},"geometry":{"type":"Polygon","coordinates":[[[6.3285,6.0096],[6.3375,5.9984],[6.3465,5.9917],[6.36,5.9894],[6.3667,5.9984],[6.3735,6.0186],[6.3824,6.0299],[6.3937,6.0254],[6.4004,6.0096],[6.4026,5.9984],[6.4116,5.9872],[6.4296,5.9849],[6.4453,5.9849],[6.4565,5.9872],[6.479,5.9849],[6.488,5.9917],[6.5037,5.9917],[6.5172,5.9917],[6.5284,5.9962],[6.5374,5.9962],[6.5509,5.9962],[6.5666,5.9962],[6.5688,6.0052],[6.5711,6.0186],[6.5733,6.0276],[6.5711,6.0388],[6.5688,6.0478],[6.5643,6.059],[6.5666,6.068],[6.5733,6.077],[6.5823,6.0793],[6.5935,6.0793],[6.6048,6.077],[6.6295,6.0748],[6.6385,6.086],[6.6474,6.0972],[6.6452,6.1017],[6.6407,6.1085],[6.6317,6.1174],[6.6205,6.1242],[6.6115,6.1377],[6.6093,6.1466],[6.6093,6.1556],[6.607,6.1646],[6.6093,6.1938],[6.616,6.2005],[6.625,6.2118],[6.6295,6.223],[6.634,6.2365],[6.6272,6.2454],[6.616,6.2567],[6.607,6.2634],[6.6025,6.2724],[6.5935,6.2836],[6.5823,6.2904],[6.5666,6.2904],[6.5576,6.2926],[6.5486,6.2993],[6.5351,6.3061],[6.5172,6.3038],[6.506,6.2993],[6.4992,6.2904],[6.4857,6.2814],[6.4768,6.2769],[6.4633,6.2679],[6.4476,6.2589],[6.4206,6.2477],[6.3982,6.2432],[6.3892,6.241],[6.3757,6.2387],[6.3802,6.2275],[6.3824,6.214],[6.3847,6.205],[6.3892,6.196],[6.3847,6.1848],[6.3779,6.1758],[6.3532,6.1579],[6.3443,6.1556],[6.3443,6.1466],[6.3443,6.1354],[6.3465,6.1264],[6.3488,6.1152],[6.3443,6.104],[6.3353,6.0927],[6.333,6.0815],[6.3263,6.0568],[6.3263,6.0433],[6.324,6.0321],[6.3196,6.0186],[6.3285,6.0096]]]}},{"type":"Feature","properties":{"id":"delta/bomadi","name":"Bomadi","state":"Delta"},"geometry":{"type":"MultiPolygon","coordinates":[[[[5.8457,5.2843],[5.8502,5.2843],[5.8457,5.2977],[5.8232,5.2865],[5.8457,5.2843]]],[[[5.7738,5.1967],[5.7851,5.1877],[5.7873,5.1855],[5.794,5.1854],[5.7985,5.1899],[5.794,5.1989],[5.7918,5.2034],[5.794,5.2079],[5.7985,5.2079],[5.803,5.2079],[5.83,5.2124],[5.839,5.2191],[5.8479,5.2281],[5.8502,5.2393],[5.8502,5.2483],[5.8502,5.2641],[5.839,5.2618],[5.8255,5.2528],[5.8143,5.2506],[5.803,5.2416],[5.7918,5.2371],[5.7806,5.2304],[5.7716,5.2236],[5.7671,5.2146],[5.7671,5.2034],[5.7738,5.1967]]],[[[5.7424,5.2685],[5.7446,5.2708],[5.7491,5.2753],[5.7559,5.2775],[5.7604,5.2798],[5.7806,5.291],[5.7851,5.291],[5.7896,5.2932],[5.7963,5.2932],[5.8008,5.291],[5.803,5.291],[5.8075,5.291],[5.8255,5.3067],[5.8098,5.3112],[5.803,5.3179],[5.8075,5.3337],[5.8098,5.3359],[5.8053,5.3359],[5.8008,5.3337],[5.7873,5.3224],[5.7738,5.3112],[5.7649,5.3022],[5.7514,5.291],[5.7469,5.2865],[5.7424,5.282],[5.7424,5.2775],[5.7402,5.273],[5.7424,5.2685]]],[[[5.8771,5.1271],[5.8794,5.1136],[5.8816,5.1091],[5.8816,5.1024],[5.8861,5.1001],[5.8974,5.1046],[5.9086,5.1046],[5.9153,5.1091],[5.9153,5.1181],[5.9153,5.1316],[5.9176,5.1338],[5.9221,5.136],[5.9265,5.1405],[5.9265,5.154],[5.9288,5.1607],[5.9333,5.1652],[5.9468,5.1652],[5.9602,5.1563],[5.9647,5.1495],[5.9715,5.1405],[5.976,5.1383],[5.9804,5.1316],[5.9849,5.1383],[5.9872,5.145],[5.9872,5.1518],[5.9872,5.154],[5.9849,5.1585],[5.9737,5.1585],[5.9737,5.1697],[5.9692,5.181],[5.9647,5.1899],[5.9535,5.1899],[5.9468,5.1832],[5.9355,5.172],[5.9265,5.1765],[5.9063,5.1944],[5.8974,5.1967],[5.8884,5.1944],[5.8816,5.1922],[5.8771,5.1899],[5.8794,5.1854],[5.8794,5.181],[5.8794,5.1765],[5.8794,5.1652],[5.8749,5.145],[5.8771,5.1271]]]]}},{"type":"Feature","properties":{"id":"delta/burutu","name":"Burutu","state":"Delta"},"geometry":{"type":"MultiPolygon","coordinates":[[[[5.2281,5.4504],[5.2393,5.4392],[5.2596,5.428],[5.3179,5.4033],[5.3539,5.3898],[5.3786,5.3898],[5.3876,5.3898],[5.3921,5.3898],[5.4302,5.3853],[5.4729,5.3988],[5.4819,5.4145],[5.4707,5.4168],[5.4594,5.4145],[5.446,5.4123],[5.4347,5.4123],[5.4235,5.4123],[5.3966,5.4145],[5.3853,5.4213],[5.3561,5.437],[5.3404,5.446],[5.3247,5.4549],[5.3045,5.4594],[5.2888,5.4594],[5.2753,5.4594],[5.2618,5.4572],[5.2483,5.4549],[5.2349,5.4572],[5.2304,5.4572],[5.2214,5.4549],[5.2281,5.4504]]],[[[5.3314,5.3],[5.3337,5.291],[5.3449,5.2304],[5.3516,5.1832],[5.3516,5.172],[5.3516,5.1697],[5.3516,5.1675],[5.3539,5.1675],[5.3606,5.1585],[5.3718,5.145],[5.3876,5.1383],[5.3966,5.1428],[5.4123,5.1495],[5.4213,5.1518],[5.4325,5.1518],[5.4437,5.1473],[5.4482,5.1383],[5.4482,5.1338],[5.4572,5.1271],[5.4639,5.1248],[5.4684,5.1203],[5.4684,5.1068],[5.4729,5.0979],[5.4707,5.0934],[5.4752,5.0934],[5.4931,5.0911],[5.5021,5.0934],[5.5111,5.0889],[5.5178,5.0799],[5.5246,5.0687],[5.5335,5.0619],[5.5448,5.0574],[5.5515,5.0552],[5.5695,5.0552],[5.5852,5.0552],[5.5852,5.0485],[5.5919,5.044],[5.5987,5.0417],[5.6121,5.0395],[5.6189,5.035],[5.6256,5.026],[5.6324,5.0193],[5.6481,5.0125],[5.6571,5.0125],[5.6616,5.0125],[5.6638,5.0148],[5.6638,5.0193],[5.6638,5.0238],[5.666,5.0282],[5.675,5.0305],[5.6818,5.0282],[5.6907,5.0238],[5.702,5.0238],[5.711,5.0238],[5.7199,5.0305],[5.7244,5.0417],[5.7289,5.0507],[5.7312,5.0552],[5.7357,5.0574],[5.7424,5.0552],[5.7491,5.053],[5.7514,5.053],[5.7581,5.0619],[5.7649,5.0642],[5.7693,5.0642],[5.7738,5.0619],[5.7806,5.0642],[5.7873,5.0732],[5.7896,5.0777],[5.7896,5.0844],[5.7918,5.0866],[5.8053,5.0844],[5.8143,5.0821],[5.8255,5.0777],[5.83,5.0799],[5.8345,5.0821],[5.8412,5.0821],[5.8412,5.0799],[5.839,5.0754],[5.839,5.0709],[5.8412,5.0687],[5.8479,5.0664],[5.8524,5.0709],[5.8524,5.0754],[5.8569,5.0777],[5.8637,5.0754],[5.8659,5.0687],[5.8682,5.0687],[5.8704,5.0709],[5.8749,5.0866],[5.8771,5.1001],[5.8771,5.1046],[5.8816,5.1091],[5.8794,5.1136],[5.8771,5.1271],[5.8749,5.145],[5.8794,5.1652],[5.8794,5.1765],[5.8794,5.181],[5.8794,5.1854],[5.8771,5.1899],[5.8704,5.1877],[5.8592,5.1832],[5.8524,5.1787],[5.8502,5.1787],[5.8412,5.1742],[5.8367,5.1742],[5.8322,5.1787],[5.83,5.1854],[5.83,5.1877],[5.8277,5.1899],[5.8232,5.1944],[5.8188,5.1944],[5.8098,5.1944],[5.8053,5.1944],[5.803,5.1944],[5.7985,5.1899],[5.794,5.1854],[5.7873,5.1855],[5.7851,5.1877],[5.7738,5.1967],[5.7671,5.2034],[5.7671,5.2146],[5.7716,5.2236],[5.7806,5.2304],[5.7918,5.2371],[5.803,5.2416],[5.8143,5.2506],[5.8255,5.2528],[5.839,5.2618],[5.8502,5.2641],[5.8524,5.273],[5.8524,5.2753],[5.8502,5.2843],[5.8457,5.2843],[5.8232,5.2865],[5.821,5.2865],[5.8165,5.2865],[5.812,5.2843],[5.8075,5.282],[5.8008,5.2798],[5.7963,5.2753],[5.7783,5.2685],[5.7604,5.2618],[5.7536,5.2573],[5.7491,5.2551],[5.7424,5.2551],[5.7379,5.2551],[5.7379,5.2573],[5.7379,5.2618],[5.7379,5.2641],[5.7424,5.2685],[5.7402,5.273],[5.7424,5.2775],[5.7424,5.282],[5.7469,5.2865],[5.7514,5.291],[5.7649,5.3022],[5.7738,5.3112],[5.7873,5.3224],[5.8008,5.3337],[5.8053,5.3359],[5.8098,5.3359],[5.8143,5.3404],[5.8277,5.3404],[5.839,5.3404],[5.8479,5.3382],[5.8614,5.3382],[5.8727,5.3382],[5.8839,5.3359],[5.9063,5.3404],[5.9131,5.3404],[5.9153,5.3471],[5.9153,5.3561],[5.9153,5.3718],[5.9131,5.3786],[5.9108,5.3786],[5.9041,5.3696],[5.8951,5.3651],[5.8816,5.3629],[5.8614,5.3651],[5.8502,5.3674],[5.839,5.3629],[5.821,5.3539],[5.8098,5.3561],[5.8008,5.3539],[5.7918,5.3471],[5.7783,5.3449],[5.7626,5.3382],[5.7581,5.3292],[5.7491,5.3247],[5.7402,5.3292],[5.7312,5.3337],[5.7289,5.3427],[5.7312,5.3584],[5.7289,5.3696],[5.7267,5.3808],[5.7222,5.3898],[5.7154,5.3943],[5.7132,5.3966],[5.711,5.401],[5.7087,5.4033],[5.7087,5.4123],[5.6997,5.4168],[5.6885,5.4123],[5.6818,5.4033],[5.6728,5.3943],[5.6571,5.3921],[5.6458,5.3876],[5.6346,5.3853],[5.6234,5.3853],[5.6077,5.3831],[5.5964,5.3808],[5.5807,5.3853],[5.565,5.3898],[5.547,5.3943],[5.5403,5.3988],[5.5313,5.4055],[5.5268,5.4078],[5.5201,5.4055],[5.5133,5.3988],[5.4662,5.3718],[5.4325,5.3651],[5.3898,5.3629],[5.3853,5.3629],[5.3786,5.3629],[5.3516,5.3606],[5.3337,5.3651],[5.3269,5.3674],[5.3224,5.3674],[5.3202,5.3539],[5.3314,5.3]]]]}},{"type":"Feature","properties":{"id":"delta/ethiope-east","name":"Ethiope East","state":"Delta"},"geometry":{"type":"MultiPolygon","coordinates":[[[[6.0523,5.7559],[6.0658,5.7491],[6.0793,5.7469],[6.0927,5.7446],[6.104,5.7446],[6.1264,5.7402],[6.1377,5.7379],[6.1466,5.7379],[6.1624,5.7402],[6.1534,5.7491],[6.1444,5.7671],[6.1399,5.7761],[6.1264,5.812],[6.1242,5.8232],[6.1219,5.839],[6.1129,5.8232],[6.1085,5.8143],[6.1017,5.803],[6.0927,5.794],[6.077,5.7851],[6.0613,5.7761],[6.0501,5.7693],[6.0523,5.7559]]],[[[5.8592,5.6907],[5.8704,5.6863],[5.8794,5.6818],[5.8906,5.6728],[5.8996,5.6616],[5.9108,5.6436],[5.9176,5.6301],[5.9086,5.6121],[5.9153,5.6054],[5.9243,5.5964],[5.931,5.5852],[5.9378,5.5762],[5.9513,5.5695],[5.958,5.5627],[5.9715,5.5582],[5.9804,5.5627],[5.9849,5.5717],[5.9917,5.5807],[6.0052,5.5852],[6.0186,5.5897],[6.0276,5.5942],[6.0411,5.6032],[6.0501,5.6121],[6.059,5.6211],[6.059,5.6324],[6.0568,5.6458],[6.0546,5.6593],[6.0456,5.675],[6.0411,5.6863],[6.0411,5.6975],[6.0388,5.6997],[6.0366,5.7042],[6.0321,5.7065],[6.0254,5.7132],[6.0209,5.7222],[6.0074,5.7379],[6.0007,5.7446],[5.9917,5.7536],[5.9827,5.7491],[5.9692,5.7491],[5.958,5.7514],[5.94,5.7469],[5.9243,5.7491],[5.9176,5.7581],[5.9063,5.7693],[5.8906,5.7626],[5.8884,5.7536],[5.8794,5.7514],[5.8682,5.7469],[5.8637,5.7379],[5.8592,5.7267],[5.8592,5.7154],[5.8547,5.7065],[5.8502,5.6975],[5.8592,5.6907]]]]}},{"type":"Feature","properties":{"id":"delta/ethiope-west","name":"Ethiope West","state":"Delta"},"geometry":{"type":"Polygon","coordinates":[[[5.5717,5.949],[5.5762,5.94],[5.5829,5.9288],[5.5919,5.9221],[5.6009,5.9176],[5.6121,5.9176],[5.6166,5.9221],[5.6211,5.9288],[5.6211,5.94],[5.6324,5.949],[5.6413,5.9513],[5.6481,5.9468],[5.6548,5.9378],[5.6638,5.9243],[5.6818,5.9063],[5.693,5.9018],[5.702,5.8996],[5.711,5.8974],[5.7222,5.9018],[5.7267,5.9041],[5.7267,5.8951],[5.7222,5.8884],[5.7177,5.8704],[5.7244,5.8659],[5.7334,5.8659],[5.7424,5.8704],[5.7469,5.8682],[5.7536,5.8592],[5.7649,5.8592],[5.7738,5.8547],[5.7783,5.8412],[5.7693,5.8345],[5.7783,5.8188],[5.7851,5.8098],[5.7896,5.812],[5.7918,5.812],[5.7963,5.8053],[5.7963,5.8008],[5.7963,5.7963],[5.7963,5.7918],[5.8008,5.7873],[5.803,5.7873],[5.8053,5.7896],[5.8075,5.7918],[5.812,5.7896],[5.812,5.7851],[5.812,5.7828],[5.8143,5.7783],[5.821,5.7738],[5.8232,5.7716],[5.8277,5.7738],[5.8277,5.7761],[5.8277,5.7806],[5.8277,5.7828],[5.83,5.7828],[5.8412,5.7851],[5.8412,5.7873],[5.8412,5.7918],[5.8435,5.7918],[5.8637,5.7851],[5.8659,5.7828],[5.8682,5.7806],[5.8704,5.7806],[5.8727,5.7828],[5.8839,5.7896],[5.8906,5.7963],[5.8951,5.7985],[5.8974,5.803],[5.9018,5.812],[5.9063,5.8255],[5.9063,5.8435],[5.9108,5.8524],[5.9221,5.8771],[5.8322,5.94],[5.8345,5.9513],[5.83,5.9602],[5.8232,5.967],[5.812,5.9849],[5.794,5.9804],[5.7649,5.9984],[5.7559,6.0029],[5.7446,6.0096],[5.6997,6.0343],[5.675,6.0478],[5.6683,6.0523],[5.6683,6.0501],[5.6571,6.0321],[5.6368,6.0299],[5.6256,6.0299],[5.6166,6.0254],[5.6054,6.0231],[5.5942,6.0186],[5.5829,6.0119],[5.5785,6.0029],[5.5717,5.9917],[5.5717,5.9782],[5.5695,5.967],[5.565,5.958],[5.5717,5.949]]]}},{"type":"Feature","properties":{"id":"delta/ika-north-east","name":"Ika North East","state":"Delta"},"geometry":{"type":"Polygon","coordinates":[[[6.1624,6.1713],[6.1736,6.1736],[6.1938,6.1691],[6.196,6.1579],[6.2028,6.1466],[6.2095,6.1377],[6.2185,6.1287],[6.2207,6.1197],[6.2297,6.1129],[6.2432,6.0972],[6.2544,6.0905],[6.2657,6.095],[6.2791,6.1062],[6.2904,6.1107],[6.3016,6.1129],[6.3173,6.1174],[6.3285,6.1197],[6.3375,6.1219],[6.3465,6.1264],[6.3443,6.1354],[6.3443,6.1466],[6.3443,6.1556],[6.3532,6.1579],[6.3779,6.1758],[6.3847,6.1848],[6.3892,6.196],[6.3847,6.205],[6.3824,6.214],[6.3802,6.2275],[6.3757,6.2387],[6.3712,6.2544],[6.3735,6.2657],[6.3779,6.2746],[6.3847,6.2836],[6.3892,6.2949],[6.3914,6.3106],[6.3869,6.3218],[6.3779,6.3465],[6.3735,6.3577],[6.369,6.3667],[6.3645,6.3757],[6.3622,6.3847],[6.3577,6.3847],[6.342,6.3779],[6.3353,6.3779],[6.324,6.3735],[6.3196,6.3712],[6.3128,6.3667],[6.2993,6.3645],[6.2904,6.3622],[6.2814,6.3577],[6.2612,6.333],[6.2544,6.3196],[6.2477,6.3128],[6.2544,6.3061],[6.2612,6.2993],[6.2746,6.2904],[6.2814,6.2836],[6.2836,6.2724],[6.2814,6.2589],[6.2679,6.2387],[6.2589,6.2297],[6.2499,6.223],[6.2477,6.2342],[6.2454,6.2454],[6.241,6.2544],[6.2297,6.2477],[6.2185,6.2432],[6.2095,6.241],[6.1915,6.241],[6.1848,6.2297],[6.1826,6.2185],[6.1758,6.2118],[6.1691,6.205],[6.1534,6.1803],[6.1624,6.1713]]]}},{"type":"Feature","properties":{"id":"delta/ika-south","name":"Ika South","state":"Delta"},"geometry":{"type":"Polygon","coordinates":[[[6.0838,6.2634],[6.095,6.2544],[6.1129,6.241],[6.1152,6.2185],[6.1152,6.2095],[6.1152,6.2005],[6.1219,6.1803],[6.1264,6.1646],[6.1354,6.1354],[6.1421,6.1242],[6.1489,6.1152],[6.1579,6.104],[6.1646,6.095],[6.1691,6.0815],[6.1758,6.0748],[6.1938,6.0568],[6.2005,6.0501],[6.2095,6.0456],[6.223,6.0388],[6.232,6.0343],[6.241,6.0254],[6.2567,6.0164],[6.2701,6.0164],[6.2836,6.0186],[6.2926,6.0186],[6.2993,6.0119],[6.3106,6.0096],[6.3196,6.0186],[6.324,6.0321],[6.3263,6.0433],[6.3263,6.0568],[6.333,6.0815],[6.3353,6.0927],[6.3443,6.104],[6.3488,6.1152],[6.3465,6.1264],[6.3375,6.1219],[6.3285,6.1197],[6.3173,6.1174],[6.3016,6.1129],[6.2904,6.1107],[6.2791,6.1062],[6.2657,6.095],[6.2544,6.0905],[6.2432,6.0972],[6.2297,6.1129],[6.2207,6.1197],[6.2185,6.1287],[6.2095,6.1377],[6.2028,6.1466],[6.196,6.1579],[6.1938,6.1691],[6.1736,6.1736],[6.1624,6.1713],[6.1534,6.1803],[6.1691,6.205],[6.1758,6.2118],[6.1826,6.2185],[6.1848,6.2297],[6.1915,6.241],[6.2095,6.241],[6.2185,6.2432],[6.2297,6.2477],[6.241,6.2544],[6.2454,6.2454],[6.2477,6.2342],[6.2499,6.223],[6.2589,6.2297],[6.2679,6.2387],[6.2814,6.2589],[6.2836,6.2724],[6.2814,6.2836],[6.2746,6.2904],[6.2612,6.2993],[6.2544,6.3061],[6.2477,6.3128],[6.2365,6.3038],[6.223,6.2904],[6.2118,6.2791],[6.1983,6.2836],[6.1938,6.2993],[6.1893,6.3106],[6.1803,6.3218],[6.1668,6.3308],[6.1399,6.3488],[6.1264,6.3555],[6.1174,6.351],[6.1129,6.3488],[6.1017,6.3353],[6.095,6.3285],[6.0882,6.3173],[6.086,6.3038],[6.086,6.2881],[6.077,6.2791],[6.0838,6.2634]]]}},{"type":"Feature","properties":{"id":"delta/isoko-north","name":"Isoko North","state":"Delta"},"geometry":{"type":"MultiPolygon","coordinates":[[[[6.2567,5.446],[6.2634,5.4392],[6.2701,5.4325],[6.2724,5.4302],[6.2791,5.4235],[6.2836,5.4213],[6.2881,5.4168],[6.2904,5.4145],[6.2949,5.4145],[6.3016,5.4123],[6.3061,5.4123],[6.3083,5.4168],[6.3106,5.4213],[6.3128,5.428],[6.3151,5.4302],[6.3128,5.437],[6.3128,5.4392],[6.3083,5.446],[6.2971,5.4572],[6.2904,5.4594],[6.2859,5.4639],[6.2791,5.4662],[6.2746,5.4662],[6.2701,5.4662],[6.2679,5.4662],[6.2634,5.4662],[6.2612,5.4639],[6.2567,5.4617],[6.2567,5.4594],[6.2522,5.4549],[6.2522,5.4504],[6.2567,5.446]]],[[[6.0613,5.4392],[6.0703,5.428],[6.0815,5.4168],[6.0882,5.4033],[6.095,5.41],[6.1062,5.4213],[6.1152,5.4325],[6.1264,5.4415],[6.1332,5.4527],[6.1377,5.4617],[6.1421,5.4729],[6.1511,5.4841],[6.1624,5.4931],[6.1713,5.5021],[6.1803,5.5156],[6.1893,5.5358],[6.1938,5.5448],[6.2005,5.538],[6.2095,5.5291],[6.2185,5.5223],[6.2365,5.5088],[6.2454,5.5088],[6.2544,5.5156],[6.2657,5.5246],[6.2769,5.5335],[6.2814,5.5425],[6.2859,5.5515],[6.3106,5.5403],[6.3218,5.5358],[6.3308,5.5313],[6.3308,5.5268],[6.3263,5.5178],[6.3218,5.5088],[6.3196,5.4976],[6.3196,5.4931],[6.3218,5.4819],[6.3353,5.4684],[6.3398,5.4572],[6.3443,5.4504],[6.3465,5.4482],[6.3667,5.437],[6.3735,5.4437],[6.3824,5.4415],[6.3869,5.4392],[6.3914,5.437],[6.4094,5.4302],[6.4229,5.428],[6.4318,5.428],[6.4453,5.4302],[6.4521,5.437],[6.4543,5.4437],[6.4565,5.4504],[6.4543,5.4549],[6.4453,5.4617],[6.4296,5.4639],[6.4251,5.4639],[6.4161,5.4617],[6.4004,5.4617],[6.3892,5.4617],[6.3869,5.4617],[6.3847,5.4662],[6.3847,5.4886],[6.3847,5.4999],[6.3824,5.5133],[6.3779,5.5268],[6.3735,5.5403],[6.3645,5.5672],[6.3555,5.5852],[6.3488,5.5942],[6.3353,5.6211],[6.3285,5.6279],[6.3263,5.6368],[6.3128,5.6324],[6.3038,5.6301],[6.2769,5.6234],[6.2657,5.6211],[6.2477,5.6189],[6.2365,5.6189],[6.2207,5.6189],[6.2118,5.6211],[6.1938,5.6144],[6.1826,5.6032],[6.1736,5.5987],[6.1624,5.5942],[6.1466,5.5942],[6.1354,5.5964],[6.1242,5.5919],[6.1152,5.5852],[6.1129,5.5762],[6.1152,5.5605],[6.1174,5.547],[6.1107,5.538],[6.1017,5.5313],[6.086,5.5268],[6.077,5.5201],[6.0725,5.5133],[6.0703,5.5043],[6.0635,5.4909],[6.0568,5.4819],[6.0568,5.4684],[6.0568,5.4527],[6.0613,5.4392]]]]}},{"type":"Feature","properties":{"id":"delta/isoko-south","name":"Isoko South","state":"Delta"},"geometry":{"type":"Polygon","coordinates":[[[6.0927,5.3786],[6.0972,5.3651],[6.095,5.3539],[6.0927,5.3337],[6.095,5.3202],[6.0995,5.3112],[6.1062,5.2977],[6.1174,5.282],[6.1264,5.2708],[6.1354,5.2573],[6.1444,5.2483],[6.1511,5.2393],[6.1624,5.2349],[6.1758,5.2349],[6.1871,5.2304],[6.1915,5.2371],[6.196,5.2461],[6.2028,5.2506],[6.2073,5.2528],[6.2185,5.2506],[6.2207,5.2416],[6.2207,5.2393],[6.2342,5.2371],[6.2387,5.2349],[6.2589,5.2281],[6.2724,5.2281],[6.2791,5.2281],[6.2904,5.2349],[6.2926,5.2393],[6.2926,5.2461],[6.2904,5.2506],[6.2881,5.2596],[6.2859,5.2618],[6.2836,5.2663],[6.2836,5.2708],[6.2836,5.2753],[6.2859,5.2798],[6.2859,5.282],[6.2881,5.2843],[6.2971,5.2955],[6.2993,5.3],[6.3038,5.3],[6.3061,5.3022],[6.3151,5.3045],[6.3285,5.3112],[6.3308,5.3135],[6.333,5.3179],[6.3398,5.3202],[6.3353,5.3382],[6.333,5.3516],[6.3308,5.3606],[6.3285,5.3651],[6.3285,5.3763],[6.3285,5.3808],[6.3308,5.3876],[6.3375,5.401],[6.342,5.4123],[6.3465,5.4145],[6.3577,5.4347],[6.3555,5.4392],[6.351,5.4437],[6.3465,5.4482],[6.3443,5.4504],[6.3398,5.4572],[6.3353,5.4684],[6.3218,5.4819],[6.3196,5.4931],[6.3196,5.4976],[6.3218,5.5088],[6.3263,5.5178],[6.3308,5.5268],[6.3308,5.5313],[6.3218,5.5358],[6.3106,5.5403],[6.2859,5.5515],[6.2814,5.5425],[6.2769,5.5335],[6.2657,5.5246],[6.2544,5.5156],[6.2454,5.5088],[6.2365,5.5088],[6.2185,5.5223],[6.2095,5.5291],[6.2005,5.538],[6.1938,5.5448],[6.1893,5.5358],[6.1803,5.5156],[6.1713,5.5021],[6.1624,5.4931],[6.1511,5.4841],[6.1421,5.4729],[6.1377,5.4617],[6.1332,5.4527],[6.1264,5.4415],[6.1152,5.4325],[6.1062,5.4213],[6.095,5.41],[6.0882,5.4033],[6.0882,5.3943],[6.0927,5.3786]],[[6.2522,5.4504],[6.2567,5.446],[6.2634,5.4392],[6.2701,5.4325],[6.2724,5.4302],[6.2791,5.4235],[6.2836,5.4213],[6.2881,5.4168],[6.2904,5.4145],[6.2949,5.4145],[6.3016,5.4123],[6.3061,5.4123],[6.3083,5.4168],[6.3106,5.4213],[6.3128,5.428],[6.3151,5.4302],[6.3128,5.437],[6.3128,5.4392],[6.3083,5.446],[6.2971,5.4572],[6.2904,5.4594],[6.2859,5.4639],[6.2791,5.4662],[6.2746,5.4662],[6.2701,5.4662],[6.2679,5.4662],[6.2634,5.4662],[6.2612,5.4639],[6.2567,5.4617],[6.2567,5.4594],[6.2522,5.4549],[6.2522,5.4504]]]}},{"type":"Feature","properties":{"id":"delta/ndokwa-east","name":"Ndokwa East","state":"Delta"},"geometry":{"type":"Polygon","coordinates":[[[6.3285,5.6279],[6.3353,5.6211],[6.3488,5.5942],[6.3555,5.5852],[6.3645,5.5672],[6.3735,5.5403],[6.3779,5.5268],[6.3824,5.5133],[6.3847,5.4999],[6.3847,5.4886],[6.3847,5.4662],[6.3869,5.4617],[6.3892,5.4617],[6.4004,5.4617],[6.4161,5.4617],[6.4251,5.4639],[6.4296,5.4639],[6.4453,5.4617],[6.4543,5.4549],[6.4565,5.4504],[6.4543,5.4437],[6.4521,5.437],[6.4453,5.4302],[6.4318,5.428],[6.4229,5.428],[6.4094,5.4302],[6.3914,5.437],[6.3869,5.4392],[6.3824,5.4415],[6.3735,5.4437],[6.3667,5.437],[6.3465,5.4482],[6.351,5.4437],[6.3555,5.4392],[6.3577,5.4347],[6.3465,5.4145],[6.342,5.4123],[6.3375,5.401],[6.3308,5.3876],[6.3285,5.3808],[6.3285,5.3763],[6.3285,5.3651],[6.3308,5.3606],[6.333,5.3516],[6.3353,5.3382],[6.3398,5.3202],[6.3465,5.3202],[6.3622,5.3135],[6.3802,5.309],[6.3937,5.3067],[6.4094,5.3045],[6.4251,5.3112],[6.4341,5.3224],[6.4498,5.3269],[6.4723,5.3224],[6.4902,5.3247],[6.4925,5.3269],[6.5037,5.3382],[6.5015,5.3516],[6.497,5.3696],[6.4857,5.3786],[6.4768,5.4033],[6.4835,5.4213],[6.4947,5.4257],[6.4992,5.4257],[6.5127,5.428],[6.5239,5.4392],[6.5351,5.4594],[6.5374,5.4707],[6.5374,5.4774],[6.5374,5.4909],[6.5329,5.5088],[6.5307,5.5313],[6.5419,5.5493],[6.5554,5.5515],[6.5688,5.5538],[6.5846,5.5627],[6.5913,5.574],[6.5935,5.5807],[6.5958,5.5874],[6.6003,5.5964],[6.6025,5.6077],[6.6048,5.6144],[6.6093,5.6211],[6.6138,5.6256],[6.6182,5.6324],[6.6205,5.6436],[6.6182,5.6503],[6.6115,5.6593],[6.6093,5.666],[6.607,5.6705],[6.607,5.6795],[6.6138,5.6907],[6.6138,5.702],[6.6182,5.7177],[6.634,5.7289],[6.6429,5.7469],[6.6542,5.7716],[6.6542,5.7783],[6.6519,5.7985],[6.6497,5.8165],[6.6587,5.8412],[6.6609,5.8569],[6.6744,5.8749],[6.6789,5.8884],[6.6879,5.8974],[6.6968,5.9131],[6.7036,5.9265],[6.7081,5.94],[6.7126,5.9557],[6.7148,5.9692],[6.7171,5.9804],[6.7193,5.9917],[6.7058,5.9962],[6.6991,6.0029],[6.6834,6.0052],[6.6721,6.0029],[6.6587,6.0052],[6.6429,6.0074],[6.6317,6.0141],[6.625,6.0052],[6.6182,5.9962],[6.607,5.9939],[6.5958,5.9939],[6.5823,5.9939],[6.5666,5.9962],[6.5509,5.9962],[6.5374,5.9962],[6.5284,5.9962],[6.5172,5.9917],[6.5037,5.9917],[6.488,5.9917],[6.479,5.9849],[6.4745,5.9715],[6.47,5.9602],[6.4633,5.9445],[6.4588,5.9333],[6.4543,5.9243],[6.4476,5.9131],[6.4431,5.8996],[6.4498,5.8884],[6.461,5.8816],[6.4723,5.8771],[6.4768,5.8704],[6.4768,5.8614],[6.4723,5.8502],[6.4678,5.839],[6.461,5.8322],[6.4543,5.821],[6.4431,5.812],[6.4386,5.803],[6.4363,5.7918],[6.4363,5.7761],[6.4386,5.7671],[6.4363,5.7536],[6.4386,5.7424],[6.4498,5.7267],[6.461,5.7222],[6.4723,5.7154],[6.4745,5.702],[6.47,5.6907],[6.461,5.6863],[6.4498,5.6863],[6.4341,5.684],[6.4296,5.6773],[6.4274,5.6705],[6.4184,5.666],[6.4049,5.6683],[6.3914,5.666],[6.3757,5.6571],[6.3645,5.6481],[6.3532,5.6413],[6.3398,5.6413],[6.3263,5.6368],[6.3285,5.6279]]]}},{"type":"Feature","properties":{"id":"delta/ndokwa-west","name":"Ndokwa West","state":"Delta"},"geometry":{"type":"Polygon","coordinates":[[[6.1691,5.7222],[6.1736,5.7065],[6.1736,5.6952],[6.1781,5.6773],[6.1803,5.666],[6.1848,5.6548],[6.1915,5.6436],[6.2028,5.6324],[6.2118,5.6211],[6.2207,5.6189],[6.2365,5.6189],[6.2477,5.6189],[6.2657,5.6211],[6.2769,5.6234],[6.3038,5.6301],[6.3128,5.6324],[6.3263,5.6368],[6.3398,5.6413],[6.3532,5.6413],[6.3645,5.6481],[6.3757,5.6571],[6.3914,5.666],[6.4049,5.6683],[6.4184,5.666],[6.4274,5.6705],[6.4296,5.6773],[6.4341,5.684],[6.4498,5.6863],[6.461,5.6863],[6.47,5.6907],[6.4745,5.702],[6.4723,5.7154],[6.461,5.7222],[6.4498,5.7267],[6.4386,5.7424],[6.4363,5.7536],[6.4386,5.7671],[6.4363,5.7761],[6.4363,5.7918],[6.4386,5.803],[6.4431,5.812],[6.4543,5.821],[6.461,5.8322],[6.4678,5.839],[6.4723,5.8502],[6.4768,5.8614],[6.4768,5.8704],[6.4723,5.8771],[6.461,5.8816],[6.4498,5.8884],[6.4431,5.8996],[6.4476,5.9131],[6.4543,5.9243],[6.4588,5.9333],[6.4633,5.9445],[6.47,5.9602],[6.4745,5.9715],[6.479,5.9849],[6.4565,5.9872],[6.4453,5.9849],[6.4296,5.9849],[6.4116,5.9872],[6.4026,5.9984],[6.4004,6.0096],[6.3937,6.0254],[6.3824,6.0299],[6.3735,6.0186],[6.3667,5.9984],[6.36,5.9894],[6.3465,5.9917],[6.3375,5.9984],[6.3285,6.0096],[6.3196,6.0186],[6.3106,6.0096],[6.2993,6.0119],[6.2926,6.0186],[6.2836,6.0186],[6.2701,6.0164],[6.2567,6.0164],[6.2499,5.9939],[6.2454,5.9715],[6.2432,5.967],[6.2477,5.967],[6.2567,5.9647],[6.2634,5.9625],[6.2701,5.9602],[6.2971,5.9423],[6.3106,5.931],[6.3218,5.9221],[6.3285,5.9131],[6.333,5.9063],[6.3375,5.8996],[6.3488,5.8816],[6.3622,5.8592],[6.3645,5.8524],[6.369,5.8457],[6.3735,5.83],[6.3757,5.821],[6.3779,5.8143],[6.3757,5.8008],[6.3577,5.7963],[6.3488,5.794],[6.3353,5.7896],[6.3285,5.7873],[6.3218,5.7851],[6.3128,5.7806],[6.3038,5.7761],[6.2993,5.7716],[6.2881,5.7716],[6.2746,5.7761],[6.2657,5.7783],[6.2612,5.7761],[6.2477,5.7738],[6.2432,5.7738],[6.2365,5.7738],[6.223,5.7716],[6.2185,5.7738],[6.2118,5.7761],[6.2073,5.7806],[6.2028,5.7828],[6.1983,5.7851],[6.1983,5.7783],[6.1983,5.7738],[6.1983,5.7671],[6.1983,5.7536],[6.1938,5.7424],[6.1915,5.7402],[6.1871,5.7379],[6.1803,5.7334],[6.1691,5.7267],[6.1668,5.7267],[6.1691,5.7222]]]}},{"type":"Feature","properties":{"id":"delta/okpe","name":"Okpe","state":"Delta"},"geometry":{"type":"Polygon","coordinates":[[[5.6593,5.693],[5.666,5.684],[5.675,5.675],[5.6863,5.6683],[5.693,5.6616],[5.6975,5.6481],[5.6795,5.6503],[5.6705,5.6368],[5.6616,5.6234],[5.6548,5.6144],[5.6638,5.6099],[5.675,5.6032],[5.6818,5.5964],[5.693,5.5897],[5.702,5.5829],[5.7065,5.5829],[5.7581,5.6189],[5.7693,5.6234],[5.7783,5.6234],[5.7851,5.6211],[5.7918,5.6144],[5.7963,5.6054],[5.8143,5.5919],[5.8188,5.5897],[5.8232,5.5874],[5.8345,5.5874],[5.8367,5.5874],[5.8457,5.5874],[5.8524,5.5964],[5.8614,5.5964],[5.8659,5.5964],[5.8749,5.5987],[5.8794,5.6009],[5.8861,5.6054],[5.8996,5.6099],[5.9063,5.6077],[5.9086,5.6121],[5.9176,5.6301],[5.9108,5.6436],[5.8996,5.6616],[5.8906,5.6728],[5.8794,5.6818],[5.8704,5.6863],[5.8592,5.6907],[5.8502,5.6975],[5.8547,5.7065],[5.8592,5.7154],[5.8592,5.7267],[5.8637,5.7379],[5.8682,5.7469],[5.8794,5.7514],[5.8884,5.7536],[5.8906,5.7626],[5.9063,5.7693],[5.9063,5.7806],[5.9018,5.794],[5.8951,5.7985],[5.8906,5.7963],[5.8839,5.7896],[5.8727,5.7828],[5.8704,5.7806],[5.8682,5.7806],[5.8659,5.7828],[5.8637,5.7851],[5.8435,5.7918],[5.8412,5.7918],[5.8412,5.7873],[5.8412,5.7851],[5.83,5.7828],[5.8277,5.7828],[5.8277,5.7806],[5.8277,5.7761],[5.8277,5.7738],[5.8232,5.7716],[5.821,5.7738],[5.8143,5.7783],[5.812,5.7828],[5.812,5.7851],[5.812,5.7896],[5.8075,5.7918],[5.8053,5.7896],[5.803,5.7873],[5.8008,5.7873],[5.7963,5.7918],[5.7963,5.7963],[5.7963,5.8008],[5.7963,5.8053],[5.7918,5.812],[5.7896,5.812],[5.7851,5.8098],[5.7783,5.8188],[5.7649,5.794],[5.7581,5.7828],[5.7514,5.7716],[5.7469,5.7649],[5.7424,5.7559],[5.7334,5.7402],[5.7244,5.7312],[5.7177,5.7222],[5.6997,5.7177],[5.6728,5.711],[5.6616,5.711],[5.6481,5.7042],[5.6593,5.693]]]}},{"type":"Feature","properties":{"id":"delta/oshimili-north","name":"Oshimili North","state":"Delta"},"geometry":{"type":"Polygon","coordinates":[[[6.5733,6.3106],[6.5823,6.2904],[6.5935,6.2836],[6.6025,6.2724],[6.607,6.2634],[6.616,6.2567],[6.6272,6.2454],[6.634,6.2365],[6.6295,6.223],[6.625,6.2118],[6.616,6.2005],[6.6093,6.1938],[6.607,6.1646],[6.6093,6.1556],[6.6093,6.1466],[6.6115,6.1377],[6.6205,6.1242],[6.6317,6.1174],[6.6407,6.1085],[6.6452,6.1017],[6.6542,6.1062],[6.6564,6.1062],[6.6699,6.1085],[6.6879,6.1085],[6.6924,6.1107],[6.6991,6.1197],[6.7126,6.1534],[6.7148,6.1556],[6.7103,6.1624],[6.7058,6.1646],[6.7036,6.1668],[6.6991,6.1713],[6.6946,6.1781],[6.6901,6.1826],[6.6879,6.1893],[6.7058,6.2612],[6.726,6.2657],[6.7238,6.2746],[6.7193,6.2993],[6.7193,6.3128],[6.7171,6.324],[6.7126,6.3532],[6.7081,6.369],[6.6991,6.3824],[6.6968,6.3937],[6.6946,6.4071],[6.6924,6.4184],[6.6879,6.4318],[6.6811,6.4565],[6.6744,6.4678],[6.6721,6.4857],[6.6699,6.5015],[6.6609,6.4992],[6.6564,6.497],[6.6497,6.4902],[6.6452,6.488],[6.6317,6.4902],[6.6227,6.4947],[6.6093,6.4992],[6.5868,6.497],[6.5756,6.4947],[6.5733,6.4925],[6.5711,6.4813],[6.5711,6.47],[6.5711,6.461],[6.5711,6.4521],[6.5733,6.4363],[6.5778,6.4251],[6.5801,6.4139],[6.5756,6.4026],[6.5756,6.3937],[6.5733,6.369],[6.5733,6.3532],[6.5688,6.342],[6.5666,6.3285],[6.5666,6.3173],[6.5733,6.3106]]]}},{"type":"Feature","properties":{"id":"delta/oshimili-south","name":"Oshimili South","state":"Delta"},"geometry":{"type":"Polygon","coordinates":[[[6.5688,6.0478],[6.5711,6.0388],[6.5733,6.0276],[6.5711,6.0186],[6.5688,6.0052],[6.5666,5.9962],[6.5823,5.9939],[6.5958,5.9939],[6.607,5.9939],[6.6182,5.9962],[6.625,6.0052],[6.6317,6.0141],[6.6429,6.0074],[6.6587,6.0052],[6.6721,6.0029],[6.6834,6.0052],[6.6991,6.0029],[6.7058,5.9962],[6.7193,5.9917],[6.7238,6.0119],[6.726,6.0299],[6.726,6.0456],[6.7171,6.0613],[6.7103,6.077],[6.7126,6.086],[6.7215,6.0972],[6.7373,6.1062],[6.7485,6.1129],[6.7552,6.1197],[6.7552,6.1242],[6.7552,6.1264],[6.7575,6.1354],[6.7597,6.1489],[6.7642,6.1556],[6.7665,6.1579],[6.7687,6.1691],[6.7665,6.1826],[6.762,6.1848],[6.753,6.1938],[6.7418,6.2095],[6.735,6.2252],[6.7305,6.2387],[6.726,6.2589],[6.726,6.2657],[6.7058,6.2612],[6.6879,6.1893],[6.6901,6.1826],[6.6946,6.1781],[6.6991,6.1713],[6.7036,6.1668],[6.7058,6.1646],[6.7103,6.1624],[6.7148,6.1556],[6.7126,6.1534],[6.6991,6.1197],[6.6924,6.1107],[6.6879,6.1085],[6.6699,6.1085],[6.6564,6.1062],[6.6542,6.1062],[6.6452,6.1017],[6.6474,6.0972],[6.6385,6.086],[6.6295,6.0748],[6.6048,6.077],[6.5935,6.0793],[6.5823,6.0793],[6.5733,6.077],[6.5666,6.068],[6.5643,6.059],[6.5688,6.0478]]]}},{"type":"Feature","properties":{"id":"delta/patani","name":"Patani","state":"Delta"},"geometry":{"type":"Polygon","coordinates":[[[5.9849,5.1248],[6.0007,5.1068],[6.0052,5.1046],[6.0186,5.0979],[6.0276,5.0956],[6.0433,5.0956],[6.0546,5.0979],[6.0613,5.1024],[6.0635,5.1113],[6.0635,5.1226],[6.0658,5.1338],[6.0703,5.1405],[6.086,5.1518],[6.0972,5.1495],[6.1085,5.1428],[6.1197,5.1338],[6.1287,5.1293],[6.1444,5.1338],[6.1511,5.1405],[6.1556,5.1518],[6.1668,5.1607],[6.1781,5.1607],[6.1915,5.1585],[6.2005,5.1697],[6.2028,5.1787],[6.2005,5.1899],[6.1983,5.2034],[6.196,5.2102],[6.1938,5.2169],[6.196,5.2236],[6.2028,5.2326],[6.214,5.2393],[6.2207,5.2393],[6.2207,5.2416],[6.2185,5.2506],[6.2073,5.2528],[6.2028,5.2506],[6.196,5.2461],[6.1915,5.2371],[6.1871,5.2304],[6.1758,5.2349],[6.1624,5.2349],[6.1556,5.2259],[6.1444,5.2236],[6.1354,5.2214],[6.1242,5.2191],[6.1129,5.2146],[6.1017,5.2146],[6.0905,5.2124],[6.0793,5.2102],[6.0703,5.2079],[6.0635,5.2057],[6.0501,5.1989],[6.0299,5.1922],[6.0209,5.1922],[6.0119,5.1899],[6.0029,5.1899],[5.9894,5.1854],[5.9894,5.1832],[5.9849,5.1697],[5.9849,5.1585],[5.9872,5.154],[5.9872,5.1518],[5.9872,5.145],[5.9849,5.1383],[5.9804,5.1316],[5.9849,5.1248]]]}},{"type":"Feature","properties":{"id":"delta/sapele","name":"Sapele","state":"Delta"},"geometry":{"type":"Polygon","coordinates":[[[5.5223,5.9198],[5.5313,5.9108],[5.538,5.8996],[5.5493,5.8996],[5.556,5.8951],[5.5627,5.8884],[5.565,5.8771],[5.556,5.8704],[5.565,5.8614],[5.565,5.8524],[5.5515,5.8524],[5.5493,5.8479],[5.547,5.8457],[5.547,5.8367],[5.5493,5.8322],[5.5515,5.83],[5.556,5.8277],[5.5582,5.8255],[5.565,5.8165],[5.5672,5.8075],[5.5695,5.803],[5.5695,5.7985],[5.5762,5.7896],[5.5785,5.7851],[5.5874,5.7806],[5.5964,5.7761],[5.5987,5.7761],[5.6032,5.7783],[5.6144,5.7806],[5.6166,5.7716],[5.6144,5.7581],[5.6099,5.7469],[5.6121,5.7379],[5.6234,5.7267],[5.6301,5.7177],[5.6391,5.7087],[5.6481,5.7042],[5.6616,5.711],[5.6728,5.711],[5.6997,5.7177],[5.7177,5.7222],[5.7244,5.7312],[5.7334,5.7402],[5.7424,5.7559],[5.7469,5.7649],[5.7514,5.7716],[5.7581,5.7828],[5.7649,5.794],[5.7783,5.8188],[5.7693,5.8345],[5.7783,5.8412],[5.7738,5.8547],[5.7649,5.8592],[5.7536,5.8592],[5.7469,5.8682],[5.7424,5.8704],[5.7334,5.8659],[5.7244,5.8659],[5.7177,5.8704],[5.7222,5.8884],[5.7267,5.8951],[5.7267,5.9041],[5.7222,5.9018],[5.711,5.8974],[5.702,5.8996],[5.693,5.9018],[5.6818,5.9063],[5.6638,5.9243],[5.6548,5.9378],[5.6481,5.9468],[5.6413,5.9513],[5.6324,5.949],[5.6211,5.94],[5.6211,5.9288],[5.6166,5.9221],[5.6121,5.9176],[5.6009,5.9176],[5.5919,5.9221],[5.5829,5.9288],[5.5762,5.94],[5.5717,5.949],[5.565,5.958],[5.5582,5.9513],[5.5493,5.9423],[5.5425,5.9378],[5.5291,5.9355],[5.5178,5.9355],[5.5156,5.9265],[5.5223,5.9198]]]}},{"type":"Feature","properties":{"id":"delta/udu","name":"Udu","state":"Delta"},"geometry":{"type":"Polygon","coordinates":[[[5.7581,5.4841],[5.7581,5.4752],[5.7738,5.4684],[5.7828,5.4662],[5.7896,5.4594],[5.7896,5.4415],[5.803,5.4302],[5.8098,5.4235],[5.8143,5.4145],[5.8277,5.41],[5.8412,5.4078],[5.8547,5.4145],[5.8659,5.4213],[5.8727,5.4302],[5.8816,5.4437],[5.8861,5.4549],[5.8906,5.4639],[5.8906,5.4729],[5.8906,5.4841],[5.8794,5.4864],[5.8682,5.4931],[5.8614,5.4999],[5.8592,5.5133],[5.8502,5.5268],[5.8435,5.5335],[5.8367,5.5403],[5.8345,5.5425],[5.8255,5.5403],[5.8188,5.5403],[5.8143,5.538],[5.8075,5.5403],[5.803,5.5425],[5.8008,5.5448],[5.7963,5.547],[5.794,5.5493],[5.7873,5.5493],[5.7851,5.547],[5.7851,5.5403],[5.7851,5.538],[5.7985,5.5246],[5.8053,5.5178],[5.8075,5.5156],[5.8075,5.5111],[5.8098,5.5088],[5.8098,5.5066],[5.8075,5.5043],[5.8053,5.5043],[5.803,5.5043],[5.7963,5.5066],[5.794,5.5088],[5.7896,5.5111],[5.7851,5.5156],[5.7783,5.5201],[5.7828,5.5133],[5.7851,5.4931],[5.7761,5.4886],[5.7671,5.4931],[5.7559,5.4931],[5.7581,5.4841]]]}},{"type":"Feature","properties":{"id":"delta/ughelli-north","name":"Ughelli North","state":"Delta"},"geometry":{"type":"Polygon","coordinates":[[[5.8502,5.5807],[5.8524,5.5785],[5.8524,5.5762],[5.8524,5.5672],[5.8524,5.5605],[5.8502,5.556],[5.8524,5.556],[5.8637,5.5538],[5.8749,5.5538],[5.8839,5.5538],[5.8929,5.5515],[5.9063,5.5493],[5.9176,5.547],[5.9333,5.538],[5.9176,5.5246],[5.9063,5.5156],[5.9086,5.5043],[5.9198,5.5021],[5.9355,5.5043],[5.9513,5.5066],[5.9782,5.5043],[5.9849,5.4954],[5.9715,5.4841],[5.9894,5.4796],[5.9984,5.4752],[5.9962,5.4617],[5.9872,5.4392],[5.9804,5.4302],[5.9849,5.4213],[5.9894,5.4078],[5.9939,5.3966],[6.0052,5.3921],[6.0141,5.3786],[6.0186,5.3674],[6.0209,5.3584],[6.0231,5.3471],[6.0254,5.3359],[6.0276,5.3269],[6.0254,5.3157],[6.0186,5.3],[6.0096,5.2865],[6.0052,5.2663],[6.0052,5.2596],[6.0074,5.2461],[6.0141,5.2349],[6.0276,5.2214],[6.0433,5.2124],[6.0523,5.2102],[6.0546,5.2102],[6.0703,5.2079],[6.0793,5.2102],[6.0905,5.2124],[6.1017,5.2146],[6.1129,5.2146],[6.1242,5.2191],[6.1354,5.2214],[6.1444,5.2236],[6.1556,5.2259],[6.1624,5.2349],[6.1511,5.2393],[6.1444,5.2483],[6.1354,5.2573],[6.1264,5.2708],[6.1174,5.282],[6.1062,5.2977],[6.0995,5.3112],[6.095,5.3202],[6.0927,5.3337],[6.095,5.3539],[6.0972,5.3651],[6.0927,5.3786],[6.0882,5.3943],[6.0882,5.4033],[6.0815,5.4168],[6.0703,5.428],[6.0613,5.4392],[6.0568,5.4527],[6.0568,5.4684],[6.0568,5.4819],[6.0635,5.4909],[6.0703,5.5043],[6.0725,5.5133],[6.077,5.5201],[6.086,5.5268],[6.1017,5.5313],[6.1107,5.538],[6.1174,5.547],[6.1152,5.5605],[6.1129,5.5762],[6.1152,5.5852],[6.1242,5.5919],[6.1354,5.5964],[6.1466,5.5942],[6.1624,5.5942],[6.1736,5.5987],[6.1826,5.6032],[6.1938,5.6144],[6.2118,5.6211],[6.2028,5.6324],[6.1915,5.6436],[6.1848,5.6548],[6.1803,5.666],[6.1781,5.6773],[6.1736,5.6952],[6.1736,5.7065],[6.1691,5.7222],[6.1668,5.7267],[6.1624,5.7402],[6.1466,5.7379],[6.1377,5.7379],[6.1264,5.7402],[6.104,5.7446],[6.0927,5.7446],[6.0793,5.7469],[6.0658,5.7491],[6.0523,5.7559],[6.0501,5.7693],[6.0388,5.7649],[6.0321,5.7649],[6.0254,5.7649],[6.0209,5.7649],[6.0164,5.7649],[6.0052,5.7604],[5.9917,5.7536],[6.0007,5.7446],[6.0074,5.7379],[6.0209,5.7222],[6.0254,5.7132],[6.0321,5.7065],[6.0366,5.7042],[6.0388,5.6997],[6.0411,5.6975],[6.0411,5.6863],[6.0456,5.675],[6.0546,5.6593],[6.0568,5.6458],[6.059,5.6324],[6.059,5.6211],[6.0501,5.6121],[6.0411,5.6032],[6.0276,5.5942],[6.0186,5.5897],[6.0052,5.5852],[5.9917,5.5807],[5.9849,5.5717],[5.9804,5.5627],[5.9715,5.5582],[5.958,5.5627],[5.9513,5.5695],[5.9378,5.5762],[5.931,5.5852],[5.9243,5.5964],[5.9153,5.6054],[5.9086,5.6121],[5.9063,5.6077],[5.8996,5.6099],[5.8861,5.6054],[5.8794,5.6009],[5.8749,5.5987],[5.8659,5.5964],[5.8614,5.5964],[5.8524,5.5964],[5.8457,5.5874],[5.8502,5.5807]]]}},{"type":"Feature","properties":{"id":"delta/ughelli-south","name":"Ughelli South","state":"Delta"},"geometry":{"type":"Polygon","coordinates":[[[5.7132,5.3966],[5.7154,5.3943],[5.7222,5.3898],[5.7267,5.3808],[5.7289,5.3696],[5.7312,5.3584],[5.7289,5.3427],[5.7312,5.3337],[5.7402,5.3292],[5.7491,5.3247],[5.7581,5.3292],[5.7626,5.3382],[5.7783,5.3449],[5.7918,5.3471],[5.8008,5.3539],[5.8098,5.3561],[5.821,5.3539],[5.839,5.3629],[5.8502,5.3674],[5.8614,5.3651],[5.8816,5.3629],[5.8951,5.3651],[5.9041,5.3696],[5.9108,5.3786],[5.9131,5.3786],[5.9153,5.3718],[5.9153,5.3561],[5.9153,5.3471],[5.9131,5.3404],[5.9063,5.3404],[5.8839,5.3359],[5.8727,5.3382],[5.8614,5.3382],[5.8479,5.3382],[5.839,5.3404],[5.8277,5.3404],[5.8143,5.3404],[5.8098,5.3359],[5.8075,5.3337],[5.803,5.3179],[5.8098,5.3112],[5.8255,5.3067],[5.8075,5.291],[5.803,5.291],[5.8008,5.291],[5.7963,5.2932],[5.7896,5.2932],[5.7851,5.291],[5.7806,5.291],[5.7604,5.2798],[5.7559,5.2775],[5.7491,5.2753],[5.7446,5.2708],[5.7424,5.2685],[5.7379,5.2641],[5.7379,5.2618],[5.7379,5.2573],[5.7379,5.2551],[5.7424,5.2551],[5.7491,5.2551],[5.7536,5.2573],[5.7604,5.2618],[5.7783,5.2685],[5.7963,5.2753],[5.8008,5.2798],[5.8075,5.282],[5.812,5.2843],[5.8165,5.2865],[5.821,5.2865],[5.8232,5.2865],[5.8457,5.2977],[5.8502,5.2843],[5.8524,5.2753],[5.8524,5.273],[5.8502,5.2641],[5.8502,5.2483],[5.8502,5.2393],[5.8479,5.2281],[5.839,5.2191],[5.83,5.2124],[5.803,5.2079],[5.7985,5.2079],[5.794,5.2079],[5.7918,5.2034],[5.794,5.1989],[5.7985,5.1899],[5.803,5.1944],[5.8053,5.1944],[5.8098,5.1944],[5.8188,5.1944],[5.8232,5.1944],[5.8277,5.1899],[5.83,5.1877],[5.83,5.1854],[5.8322,5.1787],[5.8367,5.1742],[5.8412,5.1742],[5.8502,5.1787],[5.8524,5.1787],[5.8592,5.1832],[5.8704,5.1877],[5.8771,5.1899],[5.8816,5.1922],[5.8884,5.1944],[5.8974,5.1967],[5.9063,5.1944],[5.9265,5.1765],[5.9355,5.172],[5.9468,5.1832],[5.9535,5.1899],[5.9647,5.1899],[5.9692,5.181],[5.9737,5.1697],[5.9737,5.1585],[5.9849,5.1585],[5.9849,5.1697],[5.9894,5.1832],[5.9894,5.1854],[6.0029,5.1899],[6.0119,5.1899],[6.0209,5.1922],[6.0299,5.1922],[6.0501,5.1989],[6.0635,5.2057],[6.0703,5.2079],[6.0546,5.2102],[6.0523,5.2102],[6.0433,5.2124],[6.0276,5.2214],[6.0141,5.2349],[6.0074,5.2461],[6.0052,5.2596],[6.0052,5.2663],[6.0096,5.2865],[6.0186,5.3],[6.0254,5.3157],[6.0276,5.3269],[6.0254,5.3359],[6.0231,5.3471],[6.0209,5.3584],[6.0186,5.3674],[6.0141,5.3786],[6.0052,5.3921],[5.9939,5.3966],[5.9894,5.4078],[5.9849,5.4213],[5.9804,5.4302],[5.9872,5.4392],[5.9962,5.4617],[5.9984,5.4752],[5.9894,5.4796],[5.9715,5.4841],[5.9849,5.4954],[5.9782,5.5043],[5.9513,5.5066],[5.9355,5.5043],[5.9198,5.5021],[5.9086,5.5043],[5.9063,5.5156],[5.9176,5.5246],[5.9333,5.538],[5.9176,5.547],[5.9063,5.5493],[5.8929,5.5515],[5.8839,5.5538],[5.8749,5.5538],[5.8637,5.5538],[5.8524,5.556],[5.8502,5.556],[5.8457,5.556],[5.8412,5.5582],[5.8345,5.5582],[5.8255,5.5493],[5.8232,5.547],[5.821,5.5425],[5.8188,5.5403],[5.8255,5.5403],[5.8345,5.5425],[5.8367,5.5403],[5.8435,5.5335],[5.8502,5.5268],[5.8592,5.5133],[5.8614,5.4999],[5.8682,5.4931],[5.8794,5.4864],[5.8906,5.4841],[5.8906,5.4729],[5.8906,5.4639],[5.8861,5.4549],[5.8816,5.4437],[5.8727,5.4302],[5.8659,5.4213],[5.8547,5.4145],[5.8412,5.4078],[5.8277,5.41],[5.8143,5.4145],[5.8098,5.4235],[5.803,5.4302],[5.7896,5.4415],[5.7716,5.4302],[5.7536,5.4213],[5.7424,5.4168],[5.7334,5.4123],[5.7199,5.4078],[5.7154,5.4078],[5.7132,5.4055],[5.711,5.401],[5.7132,5.3966]]]}},{"type":"Feature","properties":{"id":"delta/ukwuani","name":"Ukwuani","state":"Delta"},"geometry":{"type":"Polygon","coordinates":[[[6.1242,5.8232],[6.1264,5.812],[6.1399,5.7761],[6.1444,5.7671],[6.1534,5.7491],[6.1624,5.7402],[6.1668,5.7267],[6.1691,5.7267],[6.1803,5.7334],[6.1871,5.7379],[6.1915,5.7402],[6.1938,5.7424],[6.1983,5.7536],[6.1983,5.7671],[6.1983,5.7738],[6.1983,5.7783],[6.1983,5.7851],[6.2028,5.7828],[6.2073,5.7806],[6.2118,5.7761],[6.2185,5.7738],[6.223,5.7716],[6.2365,5.7738],[6.2432,5.7738],[6.2477,5.7738],[6.2612,5.7761],[6.2657,5.7783],[6.2746,5.7761],[6.2881,5.7716],[6.2993,5.7716],[6.3038,5.7761],[6.3128,5.7806],[6.3218,5.7851],[6.3285,5.7873],[6.3353,5.7896],[6.3488,5.794],[6.3577,5.7963],[6.3757,5.8008],[6.3779,5.8143],[6.3757,5.821],[6.3735,5.83],[6.369,5.8457],[6.3645,5.8524],[6.3622,5.8592],[6.3488,5.8816],[6.3375,5.8996],[6.333,5.9063],[6.3285,5.9131],[6.3218,5.9221],[6.3106,5.931],[6.2971,5.9423],[6.2701,5.9602],[6.2634,5.9625],[6.2567,5.9647],[6.2477,5.967],[6.2432,5.967],[6.2342,5.949],[6.2297,5.9355],[6.2185,5.9176],[6.2073,5.9063],[6.2028,5.8996],[6.2005,5.8974],[6.1983,5.8951],[6.1915,5.8906],[6.1803,5.8816],[6.1691,5.8727],[6.1601,5.8659],[6.1511,5.8569],[6.1421,5.8524],[6.1332,5.8457],[6.1219,5.839],[6.1242,5.8232]]]}},{"type":"Feature","properties":{"id":"delta/uvwie","name":"Uvwie","state":"Delta"},"geometry":{"type":"Polygon","coordinates":[[[5.711,5.5807],[5.7199,5.574],[5.7312,5.565],[5.7424,5.5605],[5.7514,5.5538],[5.7604,5.5448],[5.7649,5.5358],[5.7716,5.5291],[5.7783,5.5223],[5.7783,5.5201],[5.7851,5.5156],[5.7896,5.5111],[5.794,5.5088],[5.7963,5.5066],[5.803,5.5043],[5.8053,5.5043],[5.8075,5.5043],[5.8098,5.5066],[5.8098,5.5088],[5.8075,5.5111],[5.8075,5.5156],[5.8053,5.5178],[5.7985,5.5246],[5.7851,5.538],[5.7851,5.5403],[5.7851,5.547],[5.7873,5.5493],[5.794,5.5493],[5.7963,5.547],[5.8008,5.5448],[5.803,5.5425],[5.8075,5.5403],[5.8143,5.538],[5.8188,5.5403],[5.821,5.5425],[5.8232,5.547],[5.8255,5.5493],[5.8345,5.5582],[5.8412,5.5582],[5.8457,5.556],[5.8502,5.556],[5.8524,5.5605],[5.8524,5.5672],[5.8524,5.5762],[5.8524,5.5785],[5.8502,5.5807],[5.8457,5.5874],[5.8367,5.5874],[5.8345,5.5874],[5.8232,5.5874],[5.8188,5.5897],[5.8143,5.5919],[5.7963,5.6054],[5.7918,5.6144],[5.7851,5.6211],[5.7783,5.6234],[5.7693,5.6234],[5.7581,5.6189],[5.7065,5.5829],[5.711,5.5807]]]}},{"type":"Feature","properties":{"id":"delta/warri-north","name":"Warri North","state":"Delta"},"geometry":{"type":"Polygon","coordinates":[[[4.9766,5.8884],[4.9991,5.8569],[5.0013,5.8569],[5.0103,5.8457],[5.053,5.7828],[5.0799,5.7469],[5.0844,5.7402],[5.0844,5.7267],[5.0844,5.7177],[5.0844,5.7154],[5.0844,5.7132],[5.0844,5.7087],[5.0844,5.702],[5.0889,5.693],[5.0889,5.6885],[5.1113,5.6907],[5.2191,5.6975],[5.2438,5.6952],[5.2483,5.711],[5.2596,5.7154],[5.2708,5.7177],[5.282,5.7154],[5.3045,5.7065],[5.3247,5.7154],[5.3247,5.7222],[5.3292,5.7312],[5.3427,5.7424],[5.3404,5.7536],[5.3359,5.7649],[5.3382,5.7738],[5.3359,5.7896],[5.3561,5.8053],[5.3674,5.803],[5.3718,5.8143],[5.3831,5.8232],[5.3921,5.8277],[5.401,5.8255],[5.4145,5.8232],[5.4168,5.8345],[5.4235,5.8277],[5.4302,5.83],[5.4437,5.8255],[5.4549,5.83],[5.4617,5.8188],[5.4796,5.83],[5.4931,5.83],[5.4954,5.8322],[5.4999,5.8435],[5.5021,5.8524],[5.5021,5.8637],[5.5156,5.8704],[5.5201,5.8614],[5.5201,5.8502],[5.5335,5.8547],[5.5425,5.8547],[5.5515,5.8524],[5.565,5.8524],[5.565,5.8614],[5.556,5.8704],[5.565,5.8771],[5.5627,5.8884],[5.556,5.8951],[5.5493,5.8996],[5.538,5.8996],[5.5313,5.9108],[5.5223,5.9198],[5.5156,5.9265],[5.5178,5.9355],[5.5291,5.9355],[5.5425,5.9378],[5.5493,5.9423],[5.5582,5.9513],[5.565,5.958],[5.5695,5.967],[5.5717,5.9782],[5.5717,5.9917],[5.5605,5.9894],[5.547,5.9849],[5.5358,5.9894],[5.5313,6.0052],[5.5291,6.0119],[5.5246,6.0119],[5.5201,6.0164],[5.5156,6.0209],[5.5178,6.0276],[5.5133,6.0343],[5.5066,6.0366],[5.4999,6.0366],[5.4976,6.0433],[5.4954,6.0411],[5.4909,6.0388],[5.4909,6.0343],[5.4886,6.0299],[5.4841,6.0276],[5.4796,6.0276],[5.4729,6.0276],[5.4594,6.0231],[5.4527,6.0343],[5.4415,6.0411],[5.437,6.0366],[5.4325,6.0343],[5.428,6.0299],[5.428,6.0231],[5.4302,6.0186],[5.4325,6.0141],[5.4302,6.0096],[5.4257,6.0052],[5.4145,6.0074],[5.4168,6.0096],[5.4123,6.0209],[5.3988,6.0209],[5.3921,6.0186],[5.3786,6.0186],[5.3651,6.0186],[5.3561,6.0164],[5.3427,6.0164],[5.3382,6.0186],[5.3337,6.0209],[5.3269,6.0186],[5.3224,6.0052],[5.3269,5.9894],[5.3269,5.9827],[5.3359,5.9849],[5.3404,5.9827],[5.3449,5.976],[5.3584,5.9692],[5.3494,5.9602],[5.3337,5.949],[5.3157,5.9355],[5.3045,5.9198],[5.291,5.9131],[5.2753,5.9086],[5.2708,5.9198],[5.2685,5.94],[5.2641,5.9423],[5.2551,5.949],[5.2528,5.958],[5.2483,5.9692],[5.2483,5.9872],[5.2551,6.0141],[5.2596,6.0254],[5.2641,6.0433],[5.2685,6.0523],[5.2708,6.0546],[5.2573,6.0658],[5.2461,6.0635],[5.2393,6.0635],[5.2326,6.0658],[5.2326,6.0725],[5.2326,6.0815],[5.2326,6.0882],[5.2304,6.1017],[5.2349,6.1129],[5.2304,6.1197],[5.2214,6.1309],[5.2169,6.1354],[5.2191,6.1421],[5.2236,6.1444],[5.2236,6.1489],[5.2102,6.1534],[5.2057,6.1511],[5.2057,6.1466],[5.2034,6.1444],[5.1989,6.1466],[5.1899,6.1511],[5.1832,6.1534],[5.181,6.1579],[5.1787,6.1601],[5.1697,6.1646],[5.1652,6.1601],[5.1652,6.1556],[5.1652,6.1466],[5.1607,6.1421],[5.154,6.1444],[5.145,6.1421],[5.1428,6.1444],[5.1428,6.1511],[5.1405,6.1556],[5.1383,6.1601],[5.1338,6.1646],[5.136,6.1691],[5.1271,6.1646],[5.1181,6.1489],[5.1001,6.1242],[5.0889,6.1017],[5.0754,6.077],[5.0619,6.0501],[5.053,6.0276],[5.0417,6.0052],[5.0395,6.0007],[5.0305,5.9827],[5.026,5.9715],[5.0193,5.9535],[5.017,5.949],[5.0125,5.9423],[4.9833,5.8996],[4.9721,5.8951],[4.9766,5.8884]]]}},{"type":"Feature","properties":{"id":"delta/warri-south","name":"Warri South","state":"Delta"},"geometry":{"type":"Polygon","coordinates":[[[5.4976,5.803],[5.5088,5.7985],[5.5178,5.8008],[5.5246,5.794],[5.5201,5.7851],[5.5246,5.7761],[5.538,5.7738],[5.5448,5.7649],[5.5493,5.7559],[5.5403,5.7514],[5.5291,5.7581],[5.5201,5.7626],[5.5088,5.7604],[5.5066,5.7514],[5.5111,5.7402],[5.5223,5.7177],[5.5291,5.7065],[5.5335,5.6975],[5.5291,5.6885],[5.5268,5.6728],[5.5246,5.6616],[5.5201,5.6526],[5.5111,5.6481],[5.4999,5.6391],[5.4909,5.6346],[5.4931,5.6279],[5.4976,5.6234],[5.5021,5.6211],[5.5043,5.6166],[5.5066,5.6077],[5.5088,5.5987],[5.5156,5.5919],[5.5246,5.5852],[5.5335,5.5762],[5.5425,5.5695],[5.5448,5.5582],[5.5493,5.5493],[5.5582,5.5403],[5.5672,5.5358],[5.5762,5.5268],[5.5785,5.5201],[5.5807,5.5223],[5.6009,5.5178],[5.6077,5.5223],[5.6121,5.5313],[5.6121,5.5335],[5.6121,5.538],[5.6121,5.5425],[5.6166,5.5425],[5.6211,5.5425],[5.6256,5.5403],[5.6301,5.538],[5.6346,5.5335],[5.6279,5.5313],[5.6054,5.5178],[5.5987,5.5133],[5.5942,5.5088],[5.5852,5.5066],[5.5695,5.5043],[5.565,5.4999],[5.5627,5.4796],[5.574,5.4729],[5.5829,5.4796],[5.5919,5.4841],[5.6054,5.4841],[5.6144,5.4819],[5.6234,5.4886],[5.6368,5.4909],[5.6503,5.4864],[5.6593,5.4909],[5.6728,5.4864],[5.6795,5.4796],[5.6907,5.4729],[5.702,5.4684],[5.7132,5.4729],[5.7222,5.4819],[5.7312,5.4886],[5.7446,5.4909],[5.7559,5.4931],[5.7671,5.4931],[5.7761,5.4886],[5.7851,5.4931],[5.7828,5.5133],[5.7783,5.5201],[5.7783,5.5223],[5.7716,5.5291],[5.7649,5.5358],[5.7604,5.5448],[5.7514,5.5538],[5.7424,5.5605],[5.7312,5.565],[5.7199,5.574],[5.711,5.5807],[5.7065,5.5829],[5.702,5.5829],[5.693,5.5897],[5.6818,5.5964],[5.675,5.6032],[5.6638,5.6099],[5.6548,5.6144],[5.6616,5.6234],[5.6705,5.6368],[5.6795,5.6503],[5.6975,5.6481],[5.693,5.6616],[5.6863,5.6683],[5.675,5.675],[5.666,5.684],[5.6593,5.693],[5.6481,5.7042],[5.6391,5.7087],[5.6301,5.7177],[5.6234,5.7267],[5.6121,5.7379],[5.6099,5.7469],[5.6144,5.7581],[5.6166,5.7716],[5.6144,5.7806],[5.6032,5.7783],[5.5987,5.7761],[5.5964,5.7761],[5.5874,5.7806],[5.5785,5.7851],[5.5762,5.7896],[5.5695,5.7985],[5.5695,5.803],[5.5672,5.8075],[5.565,5.8165],[5.5582,5.8255],[5.556,5.8277],[5.5515,5.83],[5.5493,5.8322],[5.547,5.8367],[5.547,5.8457],[5.5493,5.8479],[5.5515,5.8524],[5.5425,5.8547],[5.5335,5.8547],[5.5201,5.8502],[5.5201,5.8614],[5.5156,5.8704],[5.5021,5.8637],[5.5021,5.8524],[5.4999,5.8435],[5.4954,5.8322],[5.4931,5.83],[5.4909,5.8255],[5.4864,5.8165],[5.4864,5.8053],[5.4976,5.803]]]}},{"type":"Feature","properties":{"id":"delta/warri-south-west","name":"Warri South West","state":"Delta"},"geometry":{"type":"MultiPolygon","coordinates":[[[[5.5156,5.4257],[5.5246,5.4168],[5.5268,5.4078],[5.5313,5.4055],[5.5403,5.3988],[5.547,5.3943],[5.565,5.3898],[5.5807,5.3853],[5.5964,5.3808],[5.6077,5.3831],[5.6234,5.3853],[5.6346,5.3853],[5.6458,5.3876],[5.6571,5.3921],[5.6728,5.3943],[5.6818,5.4033],[5.6885,5.4123],[5.6997,5.4168],[5.7087,5.4123],[5.7087,5.4033],[5.711,5.401],[5.7132,5.4055],[5.7154,5.4078],[5.7199,5.4078],[5.7334,5.4123],[5.7424,5.4168],[5.7536,5.4213],[5.7716,5.4302],[5.7896,5.4415],[5.7896,5.4594],[5.7828,5.4662],[5.7738,5.4684],[5.7581,5.4752],[5.7581,5.4841],[5.7559,5.4931],[5.7446,5.4909],[5.7312,5.4886],[5.7222,5.4819],[5.7132,5.4729],[5.702,5.4684],[5.6907,5.4729],[5.6795,5.4796],[5.6728,5.4864],[5.6593,5.4909],[5.6503,5.4864],[5.6368,5.4909],[5.6234,5.4886],[5.6144,5.4819],[5.6054,5.4841],[5.5919,5.4841],[5.5829,5.4796],[5.574,5.4729],[5.5627,5.4796],[5.565,5.4999],[5.5695,5.5043],[5.5538,5.5066],[5.5313,5.5043],[5.5201,5.5021],[5.5088,5.4684],[5.5066,5.4437],[5.5156,5.4257]]],[[[5.1765,5.5111],[5.2079,5.4684],[5.2214,5.4549],[5.2304,5.4572],[5.2349,5.4572],[5.2483,5.4549],[5.2618,5.4572],[5.2753,5.4594],[5.2888,5.4594],[5.3045,5.4594],[5.3247,5.4549],[5.3404,5.446],[5.3561,5.437],[5.3853,5.4213],[5.3966,5.4145],[5.4235,5.4123],[5.4347,5.4123],[5.446,5.4123],[5.4594,5.4145],[5.4707,5.4168],[5.4819,5.4145],[5.4909,5.4325],[5.4954,5.4572],[5.4999,5.4796],[5.5088,5.4999],[5.5246,5.5133],[5.5403,5.5178],[5.556,5.5178],[5.5672,5.5156],[5.5785,5.5201],[5.5762,5.5268],[5.5672,5.5358],[5.5582,5.5403],[5.5493,5.5493],[5.5448,5.5582],[5.5425,5.5695],[5.5335,5.5762],[5.5246,5.5852],[5.5156,5.5919],[5.5111,5.5964],[5.5088,5.5987],[5.4954,5.6077],[5.4796,5.6211],[5.4662,5.6301],[5.4347,5.6346],[5.4168,5.6391],[5.4078,5.6368],[5.401,5.6301],[5.4033,5.6121],[5.3966,5.5964],[5.3966,5.5942],[5.3943,5.5874],[5.3876,5.5852],[5.3763,5.5874],[5.3494,5.5852],[5.3269,5.5874],[5.3202,5.5897],[5.2865,5.6009],[5.2461,5.6032],[5.2326,5.6009],[5.2304,5.6032],[5.2259,5.6009],[5.2191,5.6009],[5.2169,5.6009],[5.2146,5.6009],[5.2102,5.5987],[5.2079,5.5987],[5.1989,5.5852],[5.1967,5.5807],[5.181,5.5717],[5.1787,5.5695],[5.1765,5.565],[5.1697,5.5582],[5.1607,5.547],[5.1563,5.538],[5.1765,5.5111]]],[[[5.1068,5.6616],[5.1248,5.6301],[5.1428,5.6032],[5.1563,5.5964],[5.172,5.5874],[5.181,5.5874],[5.1854,5.5919],[5.1922,5.5964],[5.2057,5.6054],[5.2281,5.6189],[5.2461,5.6211],[5.3022,5.6144],[5.3516,5.5964],[5.3741,5.5987],[5.3876,5.6077],[5.3988,5.6368],[5.4123,5.6481],[5.4347,5.6526],[5.446,5.6548],[5.4864,5.6301],[5.4931,5.6279],[5.4909,5.6346],[5.4999,5.6391],[5.5111,5.6481],[5.5201,5.6526],[5.5246,5.6616],[5.5268,5.6728],[5.5291,5.6885],[5.5335,5.6975],[5.5291,5.7065],[5.5223,5.7177],[5.5111,5.7402],[5.5066,5.7514],[5.5088,5.7604],[5.5201,5.7626],[5.5291,5.7581],[5.5403,5.7514],[5.5493,5.7559],[5.5448,5.7649],[5.538,5.7738],[5.5246,5.7761],[5.5201,5.7851],[5.5246,5.794],[5.5178,5.8008],[5.5088,5.7985],[5.4976,5.803],[5.4864,5.8053],[5.4864,5.8165],[5.4909,5.8255],[5.4931,5.83],[5.4796,5.83],[5.4617,5.8188],[5.4549,5.83],[5.4437,5.8255],[5.4302,5.83],[5.4235,5.8277],[5.4168,5.8345],[5.4145,5.8232],[5.401,5.8255],[5.3921,5.8277],[5.3831,5.8232],[5.3718,5.8143],[5.3674,5.803],[5.3561,5.8053],[5.3359,5.7896],[5.3382,5.7738],[5.3359,5.7649],[5.3404,5.7536],[5.3427,5.7424],[5.3292,5.7312],[5.3247,5.7222],[5.3247,5.7154],[5.3045,5.7065],[5.282,5.7154],[5.2708,5.7177],[5.2596,5.7154],[5.2483,5.711],[5.2438,5.6952],[5.2191,5.6975],[5.1113,5.6907],[5.0889,5.6885],[5.1068,5.6616]]]]}}]}