{"type":"FeatureCollection","features":[{"type":"Feature","properties":{"id":"ebonyi/abakaliki","name":"Abakaliki","state":"Ebonyi"},"geometry":{"type":"Polygon","coordinates":[[[8.0421,6.1893],[8.0533,6.1848],[8.0623,6.1848],[8.0735,6.1826],[8.0892,6.1758],[8.1049,6.1713],[8.1274,6.1736],[8.1364,6.1803],[8.1431,6.1826],[8.1521,6.1848],[8.1566,6.1826],[8.1678,6.1781],[8.1835,6.1803],[8.2015,6.1826],[8.2127,6.1893],[8.2284,6.1983],[8.2464,6.205],[8.2599,6.2073],[8.2734,6.2073],[8.2846,6.214],[8.2958,6.223],[8.3048,6.2275],[8.316,6.2275],[8.3205,6.2252],[8.325,6.2185],[8.3273,6.2118],[8.3295,6.1983],[8.3295,6.1893],[8.3362,6.1848],[8.343,6.1826],[8.3475,6.1826],[8.3565,6.1803],[8.3632,6.1758],[8.3632,6.1781],[8.3722,6.196],[8.3789,6.2028],[8.3924,6.2118],[8.4014,6.2163],[8.4036,6.2275],[8.4059,6.2365],[8.4104,6.2454],[8.4171,6.2612],[8.4171,6.2724],[8.4104,6.2814],[8.4059,6.2859],[8.3946,6.2971],[8.3924,6.3061],[8.3969,6.3308],[8.3969,6.3443],[8.3901,6.3443],[8.3789,6.3375],[8.3767,6.3308],[8.3677,6.3285],[8.3587,6.3285],[8.3452,6.3308],[8.3385,6.3308],[8.3295,6.333],[8.3183,6.3308],[8.2891,6.3285],[8.2711,6.3263],[8.2621,6.3218],[8.2532,6.3196],[8.2374,6.3173],[8.2262,6.3128],[8.215,6.3106],[8.2015,6.3106],[8.1925,6.3106],[8.1835,6.3151],[8.1723,6.333],[8.1701,6.3398],[8.1701,6.3532],[8.1566,6.351],[8.1476,6.3465],[8.1431,6.3375],[8.1341,6.3218],[8.1251,6.3196],[8.1117,6.3218],[8.1004,6.3263],[8.0937,6.3285],[8.0825,6.3375],[8.0757,6.3375],[8.0645,6.3353],[8.0578,6.3285],[8.0488,6.3196],[8.0533,6.3128],[8.0578,6.3038],[8.0578,6.2971],[8.0578,6.2724],[8.0578,6.2657],[8.0533,6.2522],[8.0443,6.2297],[8.0421,6.2207],[8.0376,6.2163],[8.0376,6.2118],[8.0376,6.1983],[8.0421,6.1893]]]}},{"type":"Feature","properties":{"id":"ebonyi/afikpo-north","name":"Afikpo North","state":"Ebonyi"},"geometry":{"type":"Polygon","coordinates":[[[7.8669,5.8861],[7.8691,5.8794],[7.8691,5.8749],[7.8691,5.8614],[7.8714,5.8479],[7.8759,5.839],[7.8781,5.83],[7.8826,5.8075],[7.8826,5.7985],[7.8848,5.7873],[7.8871,5.7806],[7.8893,5.7716],[7.8916,5.7671],[7.9051,5.7491],[7.9096,5.7469],[7.9163,5.7446],[7.9163,5.7536],[7.9208,5.7604],[7.9365,5.7693],[7.9522,5.7761],[7.9545,5.7738],[7.959,5.7716],[7.9657,5.7693],[7.9702,5.7693],[7.9634,5.7761],[7.95,5.7918],[7.9432,5.8053],[7.9343,5.8188],[7.9343,5.8232],[7.9343,5.8255],[7.9387,5.8345],[7.9455,5.839],[7.9522,5.8412],[7.9567,5.8435],[7.959,5.8412],[7.9634,5.8457],[7.9679,5.8569],[7.9702,5.8637],[7.9702,5.8704],[7.9747,5.8771],[7.9814,5.8816],[7.9882,5.8839],[7.9904,5.8861],[7.9949,5.8974],[7.9994,5.8996],[8.0039,5.8996],[8.0061,5.9041],[8.0039,5.9086],[7.9994,5.9131],[7.9926,5.9153],[7.9859,5.9221],[7.9814,5.9265],[7.9814,5.931],[7.9814,5.9355],[7.9837,5.94],[7.9904,5.9423],[7.9882,5.949],[7.9859,5.9535],[7.9814,5.9602],[7.9792,5.9647],[7.9792,5.9692],[7.9747,5.9715],[7.9657,5.9782],[7.9545,5.9715],[7.9365,5.9647],[7.9298,5.967],[7.9253,5.9737],[7.9208,5.9625],[7.9051,5.9625],[7.8961,5.9625],[7.8781,5.9602],[7.8736,5.9557],[7.8691,5.9513],[7.8669,5.9445],[7.8646,5.9355],[7.8624,5.9265],[7.8624,5.9041],[7.8624,5.8929],[7.8669,5.8861]]]}},{"type":"Feature","properties":{"id":"ebonyi/afikpo-south","name":"Afikpo South","state":"Ebonyi"},"geometry":{"type":"Polygon","coordinates":[[[7.7142,5.8188],[7.7299,5.8165],[7.7568,5.812],[7.7636,5.8143],[7.786,5.8053],[7.7928,5.7918],[7.795,5.7783],[7.7973,5.7626],[7.804,5.7446],[7.8152,5.7357],[7.8197,5.7289],[7.831,5.7222],[7.8399,5.711],[7.8624,5.6975],[7.8714,5.693],[7.8871,5.6885],[7.8893,5.684],[7.8893,5.693],[7.8871,5.6975],[7.8871,5.6997],[7.8938,5.7065],[7.9051,5.7154],[7.9073,5.7199],[7.9118,5.7244],[7.914,5.7357],[7.914,5.7424],[7.9163,5.7446],[7.9096,5.7469],[7.9051,5.7491],[7.8916,5.7671],[7.8893,5.7716],[7.8871,5.7806],[7.8848,5.7873],[7.8826,5.7985],[7.8826,5.8075],[7.8781,5.83],[7.8759,5.839],[7.8714,5.8479],[7.8691,5.8614],[7.8691,5.8749],[7.8691,5.8794],[7.8669,5.8861],[7.8624,5.8929],[7.8624,5.9041],[7.8624,5.9265],[7.8646,5.9355],[7.8669,5.9445],[7.8691,5.9513],[7.8624,5.9513],[7.8557,5.9535],[7.8467,5.958],[7.8354,5.9625],[7.8265,5.967],[7.8197,5.9692],[7.8152,5.9647],[7.8152,5.9625],[7.8175,5.958],[7.8107,5.9468],[7.8062,5.949],[7.8018,5.949],[7.795,5.9557],[7.7883,5.9557],[7.7838,5.9535],[7.7726,5.94],[7.7636,5.9378],[7.7591,5.931],[7.7479,5.9265],[7.7411,5.9221],[7.7389,5.9198],[7.7366,5.9108],[7.7321,5.9063],[7.7187,5.8884],[7.7097,5.8749],[7.7074,5.8614],[7.7007,5.8457],[7.6985,5.839],[7.6917,5.83],[7.685,5.8232],[7.7142,5.8188]]]}},{"type":"Feature","properties":{"id":"ebonyi/ebonyi","name":"Ebonyi","state":"Ebonyi"},"geometry":{"type":"Polygon","coordinates":[[[8.0353,6.3308],[8.0488,6.3196],[8.0578,6.3285],[8.0645,6.3353],[8.0757,6.3375],[8.0825,6.3375],[8.0937,6.3285],[8.1004,6.3263],[8.1117,6.3218],[8.1251,6.3196],[8.1341,6.3218],[8.1431,6.3375],[8.1476,6.3465],[8.1566,6.351],[8.1701,6.3532],[8.1701,6.3577],[8.1701,6.369],[8.1701,6.3757],[8.1701,6.3914],[8.1701,6.4026],[8.1656,6.4229],[8.1611,6.4274],[8.1588,6.4341],[8.1566,6.4431],[8.1588,6.4476],[8.1611,6.4588],[8.1611,6.4678],[8.1611,6.4768],[8.1588,6.4813],[8.1588,6.4857],[8.1611,6.4947],[8.1633,6.5015],[8.1633,6.5104],[8.1633,6.5194],[8.1633,6.5262],[8.1656,6.5307],[8.1678,6.5374],[8.1701,6.5419],[8.1746,6.5554],[8.1746,6.5621],[8.1746,6.5688],[8.1723,6.5823],[8.1723,6.589],[8.1768,6.5958],[8.1768,6.6093],[8.1746,6.616],[8.1746,6.6227],[8.1746,6.6272],[8.1746,6.6429],[8.1746,6.6519],[8.1746,6.6654],[8.1746,6.6721],[8.1746,6.6811],[8.1723,6.6924],[8.1723,6.6991],[8.1723,6.7058],[8.1701,6.7103],[8.1656,6.7171],[8.1588,6.7238],[8.1521,6.7418],[8.1498,6.7463],[8.1476,6.744],[8.1454,6.735],[8.1454,6.726],[8.1364,6.7171],[8.1274,6.7126],[8.1117,6.7103],[8.0982,6.7081],[8.0959,6.7081],[8.0892,6.7126],[8.0802,6.7126],[8.0802,6.7103],[8.0825,6.6924],[8.087,6.6654],[8.0892,6.6519],[8.0937,6.6407],[8.0982,6.634],[8.0959,6.6227],[8.0982,6.6115],[8.1004,6.6048],[8.1004,6.5913],[8.1049,6.5621],[8.1027,6.5464],[8.1004,6.5374],[8.0982,6.5284],[8.0892,6.5194],[8.0847,6.5082],[8.0757,6.4947],[8.0757,6.4857],[8.0712,6.4745],[8.0623,6.4565],[8.0578,6.4408],[8.0533,6.4296],[8.0488,6.4206],[8.0465,6.4071],[8.0443,6.3937],[8.0398,6.3779],[8.0331,6.3667],[8.0286,6.3555],[8.0263,6.3443],[8.0263,6.3398],[8.0353,6.3308]]]}},{"type":"Feature","properties":{"id":"ebonyi/ezza-north","name":"Ezza North","state":"Ebonyi"},"geometry":{"type":"Polygon","coordinates":[[[7.8916,6.1871],[7.8983,6.1871],[7.9073,6.1871],[7.9163,6.1803],[7.9208,6.1758],[7.923,6.1713],[7.9275,6.1668],[7.932,6.1646],[7.9387,6.1668],[7.9455,6.1668],[7.9477,6.1624],[7.9477,6.1579],[7.9477,6.1511],[7.95,6.1466],[7.9545,6.1444],[7.9657,6.1444],[7.9724,6.1489],[7.9769,6.1534],[7.9814,6.1601],[7.9837,6.1758],[7.9814,6.1826],[7.9814,6.1893],[7.9971,6.2005],[8.0129,6.2095],[8.0308,6.2118],[8.0376,6.2118],[8.0376,6.2163],[8.0421,6.2207],[8.0443,6.2297],[8.0533,6.2522],[8.0578,6.2657],[8.0578,6.2724],[8.0578,6.2971],[8.0578,6.3038],[8.0533,6.3128],[8.0488,6.3196],[8.0353,6.3308],[8.0263,6.3398],[8.0196,6.3443],[8.0106,6.3532],[8.0061,6.36],[7.9994,6.369],[7.9837,6.3735],[7.9679,6.3757],[7.9545,6.3712],[7.9477,6.3667],[7.941,6.3622],[7.9343,6.3622],[7.932,6.3532],[7.9275,6.351],[7.9253,6.3443],[7.9253,6.3398],[7.9253,6.333],[7.9253,6.324],[7.9253,6.3173],[7.9253,6.3106],[7.923,6.3038],[7.9185,6.2881],[7.914,6.2836],[7.914,6.2791],[7.9118,6.2679],[7.9118,6.2612],[7.9073,6.2432],[7.9051,6.2387],[7.8916,6.2252],[7.8826,6.2185],[7.8871,6.2073],[7.8871,6.196],[7.8848,6.1893],[7.8826,6.1848],[7.8916,6.1871]]]}},{"type":"Feature","properties":{"id":"ebonyi/ezza-south","name":"Ezza South","state":"Ebonyi"},"geometry":{"type":"Polygon","coordinates":[[[7.8848,6.1624],[7.8938,6.1534],[7.9028,6.1399],[7.9073,6.1354],[7.9073,6.1219],[7.9051,6.1017],[7.9051,6.095],[7.9051,6.086],[7.9051,6.0703],[7.9051,6.0613],[7.9096,6.0501],[7.9208,6.0433],[7.932,6.0456],[7.95,6.0568],[7.9679,6.0613],[7.9837,6.0658],[7.9926,6.0613],[8.0016,6.0501],[8.0106,6.0388],[8.0129,6.0366],[8.0151,6.0433],[8.0196,6.0501],[8.0263,6.0523],[8.0353,6.0546],[8.051,6.059],[8.0623,6.0658],[8.0712,6.077],[8.0735,6.0815],[8.0712,6.086],[8.0623,6.0927],[8.0578,6.095],[8.0533,6.1017],[8.0533,6.1062],[8.06,6.1085],[8.0735,6.1085],[8.0825,6.1062],[8.0959,6.1062],[8.1049,6.1062],[8.1184,6.1107],[8.1296,6.1197],[8.1409,6.1309],[8.1476,6.1466],[8.1521,6.1556],[8.1566,6.1646],[8.1566,6.1713],[8.1566,6.1826],[8.1521,6.1848],[8.1431,6.1826],[8.1364,6.1803],[8.1274,6.1736],[8.1049,6.1713],[8.0892,6.1758],[8.0735,6.1826],[8.0623,6.1848],[8.0533,6.1848],[8.0421,6.1893],[8.0376,6.1983],[8.0376,6.2118],[8.0308,6.2118],[8.0129,6.2095],[7.9971,6.2005],[7.9814,6.1893],[7.9814,6.1826],[7.9837,6.1758],[7.9814,6.1601],[7.9769,6.1534],[7.9724,6.1489],[7.9657,6.1444],[7.9545,6.1444],[7.95,6.1466],[7.9477,6.1511],[7.9477,6.1579],[7.9477,6.1624],[7.9455,6.1668],[7.9387,6.1668],[7.932,6.1646],[7.9275,6.1668],[7.923,6.1713],[7.9208,6.1758],[7.9163,6.1803],[7.9073,6.1871],[7.8983,6.1871],[7.8916,6.1871],[7.8826,6.1848],[7.8781,6.1758],[7.8781,6.1668],[7.8848,6.1624]]]}},{"type":"Feature","properties":{"id":"ebonyi/ikwo","name":"Ikwo","state":"Ebonyi"},"geometry":{"type":"Polygon","coordinates":[[[8.0173,6.0321],[8.0398,6.0186],[8.0555,6.0074],[8.06,6.0074],[8.069,6.0052],[8.0735,6.0029],[8.0802,5.9984],[8.0892,5.9894],[8.1004,5.9692],[8.1049,5.958],[8.1072,5.949],[8.1094,5.9445],[8.1117,5.94],[8.1139,5.9378],[8.1229,5.9445],[8.1364,5.9557],[8.1476,5.9647],[8.1521,5.967],[8.1678,5.9692],[8.1723,5.9737],[8.179,5.9782],[8.1948,5.9917],[8.2037,6.0052],[8.215,6.0119],[8.2217,6.0141],[8.2307,6.0119],[8.2374,6.0141],[8.2442,6.0186],[8.2487,6.0164],[8.2532,6.0119],[8.2532,6.0052],[8.2576,5.9984],[8.2644,5.9962],[8.2734,5.9984],[8.2823,6.0052],[8.2868,6.0164],[8.2868,6.0299],[8.2891,6.0456],[8.2913,6.0546],[8.2981,6.068],[8.2981,6.077],[8.2981,6.086],[8.2981,6.0905],[8.3026,6.1017],[8.3205,6.1287],[8.3318,6.1354],[8.3385,6.1534],[8.3542,6.1668],[8.3587,6.1713],[8.3632,6.1758],[8.3565,6.1803],[8.3475,6.1826],[8.343,6.1826],[8.3362,6.1848],[8.3295,6.1893],[8.3295,6.1983],[8.3273,6.2118],[8.325,6.2185],[8.3205,6.2252],[8.316,6.2275],[8.3048,6.2275],[8.2958,6.223],[8.2846,6.214],[8.2734,6.2073],[8.2599,6.2073],[8.2464,6.205],[8.2284,6.1983],[8.2127,6.1893],[8.2015,6.1826],[8.1835,6.1803],[8.1678,6.1781],[8.1566,6.1826],[8.1566,6.1713],[8.1566,6.1646],[8.1521,6.1556],[8.1476,6.1466],[8.1409,6.1309],[8.1296,6.1197],[8.1184,6.1107],[8.1049,6.1062],[8.0959,6.1062],[8.0825,6.1062],[8.0735,6.1085],[8.06,6.1085],[8.0533,6.1062],[8.0533,6.1017],[8.0578,6.095],[8.0623,6.0927],[8.0712,6.086],[8.0735,6.0815],[8.0712,6.077],[8.0623,6.0658],[8.051,6.059],[8.0353,6.0546],[8.0263,6.0523],[8.0196,6.0501],[8.0151,6.0433],[8.0129,6.0366],[8.0173,6.0321]]]}},{"type":"Feature","properties":{"id":"ebonyi/ishielu","name":"Ishielu","state":"Ebonyi"},"geometry":{"type":"Polygon","coordinates":[[[7.7007,6.6115],[7.7029,6.607],[7.7164,6.5846],[7.7299,6.5599],[7.7479,6.4723],[7.7501,6.4476],[7.7501,6.4229],[7.7523,6.3847],[7.7389,6.3532],[7.7209,6.3308],[7.7074,6.2993],[7.7097,6.2769],[7.7209,6.2499],[7.7254,6.2432],[7.7344,6.2454],[7.7591,6.2499],[7.7681,6.2522],[7.7973,6.2522],[7.813,6.2477],[7.8197,6.2432],[7.8287,6.2365],[7.8332,6.2297],[7.8422,6.2252],[7.8557,6.223],[7.8714,6.223],[7.8826,6.2185],[7.8916,6.2252],[7.9051,6.2387],[7.9073,6.2432],[7.9118,6.2612],[7.9118,6.2679],[7.914,6.2791],[7.914,6.2836],[7.9185,6.2881],[7.923,6.3038],[7.9253,6.3106],[7.9253,6.3173],[7.9253,6.324],[7.9253,6.333],[7.9253,6.3398],[7.9253,6.3443],[7.9275,6.351],[7.932,6.3532],[7.9343,6.3622],[7.9343,6.3645],[7.9343,6.3757],[7.932,6.3847],[7.9343,6.4004],[7.9387,6.4184],[7.9387,6.4318],[7.9365,6.4543],[7.9343,6.4655],[7.932,6.47],[7.9253,6.4813],[7.923,6.4902],[7.923,6.5037],[7.9253,6.5127],[7.9253,6.5194],[7.9298,6.5329],[7.923,6.5374],[7.9096,6.5419],[7.8871,6.5531],[7.8691,6.5688],[7.8557,6.5801],[7.8534,6.589],[7.8467,6.6048],[7.8444,6.6093],[7.8377,6.6138],[7.8332,6.6205],[7.8332,6.6272],[7.831,6.6385],[7.822,6.6385],[7.8062,6.634],[7.8018,6.6317],[7.7748,6.634],[7.7479,6.634],[7.7232,6.634],[7.7052,6.6362],[7.6985,6.6317],[7.7007,6.6115]]]}},{"type":"Feature","properties":{"id":"ebonyi/ivo","name":"Ivo","state":"Ebonyi"},"geometry":{"type":"Polygon","coordinates":[[[7.5457,5.8457],[7.5525,5.8435],[7.566,5.8435],[7.5839,5.8367],[7.6041,5.83],[7.6176,5.8277],[7.6311,5.8255],[7.658,5.8232],[7.685,5.8232],[7.6917,5.83],[7.6985,5.839],[7.7007,5.8457],[7.7074,5.8614],[7.7097,5.8749],[7.7187,5.8884],[7.7321,5.9063],[7.7366,5.9108],[7.7389,5.9198],[7.7366,5.9243],[7.7209,5.931],[7.7164,5.9288],[7.7097,5.9221],[7.6962,5.9243],[7.6917,5.9243],[7.6782,5.9288],[7.6648,5.931],[7.6356,5.9423],[7.5884,5.9625],[7.5727,5.9692],[7.5592,5.9849],[7.548,5.9939],[7.5525,5.9804],[7.5525,5.9535],[7.5502,5.9423],[7.539,5.9063],[7.5412,5.8906],[7.539,5.8749],[7.539,5.8592],[7.539,5.8502],[7.5457,5.8457]]]}},{"type":"Feature","properties":{"id":"ebonyi/izzi","name":"Izzi","state":"Ebonyi"},"geometry":{"type":"Polygon","coordinates":[[[8.1521,6.7418],[8.1588,6.7238],[8.1656,6.7171],[8.1701,6.7103],[8.1723,6.7058],[8.1723,6.6991],[8.1723,6.6924],[8.1746,6.6811],[8.1746,6.6721],[8.1746,6.6654],[8.1746,6.6519],[8.1746,6.6429],[8.1746,6.6272],[8.1746,6.6227],[8.1746,6.616],[8.1768,6.6093],[8.1768,6.5958],[8.1723,6.589],[8.1723,6.5823],[8.1746,6.5688],[8.1746,6.5621],[8.1746,6.5554],[8.1701,6.5419],[8.1678,6.5374],[8.1656,6.5307],[8.1633,6.5262],[8.1633,6.5194],[8.1633,6.5104],[8.1633,6.5015],[8.1611,6.4947],[8.1588,6.4857],[8.1588,6.4813],[8.1611,6.4768],[8.1611,6.4678],[8.1611,6.4588],[8.1588,6.4476],[8.1566,6.4431],[8.1588,6.4341],[8.1611,6.4274],[8.1656,6.4229],[8.1701,6.4026],[8.1701,6.3914],[8.1701,6.3757],[8.1701,6.369],[8.1701,6.3577],[8.1701,6.3532],[8.1701,6.3398],[8.1723,6.333],[8.1835,6.3151],[8.1925,6.3106],[8.2015,6.3106],[8.215,6.3106],[8.2262,6.3128],[8.2374,6.3173],[8.2532,6.3196],[8.2621,6.3218],[8.2711,6.3263],[8.2891,6.3285],[8.3183,6.3308],[8.3295,6.333],[8.3385,6.3308],[8.3452,6.3308],[8.3587,6.3285],[8.3677,6.3285],[8.3767,6.3308],[8.3789,6.3375],[8.3901,6.3443],[8.3969,6.3443],[8.3991,6.3532],[8.4036,6.3667],[8.4081,6.3757],[8.4126,6.3779],[8.4306,6.3802],[8.444,6.3847],[8.4485,6.3914],[8.444,6.4026],[8.4485,6.4049],[8.453,6.4049],[8.4553,6.4094],[8.4575,6.4184],[8.4575,6.4274],[8.453,6.4296],[8.4418,6.4318],[8.4328,6.4341],[8.4328,6.4386],[8.4351,6.4431],[8.4396,6.4476],[8.4306,6.4588],[8.4238,6.4655],[8.4238,6.4768],[8.4081,6.4768],[8.4059,6.4857],[8.4126,6.5015],[8.4216,6.506],[8.4193,6.5104],[8.4193,6.5149],[8.4148,6.5194],[8.4104,6.5172],[8.3969,6.5194],[8.3901,6.5239],[8.3901,6.5262],[8.3946,6.5307],[8.3969,6.5396],[8.3924,6.5509],[8.3879,6.5509],[8.3789,6.5486],[8.3744,6.5464],[8.3722,6.5486],[8.3722,6.5599],[8.3632,6.5621],[8.3587,6.5643],[8.352,6.5733],[8.3475,6.5756],[8.3407,6.5756],[8.3228,6.5958],[8.3138,6.607],[8.3138,6.6115],[8.3205,6.6138],[8.325,6.6205],[8.325,6.625],[8.3228,6.634],[8.316,6.634],[8.3093,6.6385],[8.3048,6.6497],[8.3071,6.6609],[8.3026,6.6699],[8.2936,6.6789],[8.2846,6.6924],[8.2779,6.6968],[8.2801,6.7058],[8.2846,6.7103],[8.2801,6.7148],[8.2734,6.7171],[8.2689,6.7283],[8.2621,6.7305],[8.2509,6.735],[8.2554,6.7373],[8.2621,6.7373],[8.2666,6.7418],[8.2621,6.7552],[8.2554,6.7665],[8.2487,6.7754],[8.2397,6.7934],[8.2352,6.8001],[8.2284,6.8001],[8.2262,6.7889],[8.2195,6.7777],[8.2127,6.7754],[8.1993,6.7777],[8.1925,6.7777],[8.1723,6.7732],[8.1656,6.7665],[8.1521,6.7552],[8.1498,6.7463],[8.1521,6.7418]]]}},{"type":"Feature","properties":{"id":"ebonyi/ohaozara","name":"Ohaozara","state":"Ebonyi"},"geometry":{"type":"Polygon","coordinates":[[[7.667,6.0299],[7.676,6.0096],[7.6962,5.9894],[7.7119,5.9715],[7.7142,5.9468],[7.7052,5.9288],[7.6917,5.9243],[7.6962,5.9243],[7.7097,5.9221],[7.7164,5.9288],[7.7209,5.931],[7.7366,5.9243],[7.7389,5.9198],[7.7411,5.9221],[7.7479,5.9265],[7.7591,5.931],[7.7636,5.9378],[7.7726,5.94],[7.7838,5.9535],[7.7883,5.9557],[7.795,5.9557],[7.8018,5.949],[7.8062,5.949],[7.8107,5.9468],[7.8175,5.958],[7.8152,5.9625],[7.8152,5.9647],[7.8197,5.9692],[7.8265,5.967],[7.8354,5.9625],[7.8467,5.958],[7.8557,5.9535],[7.8624,5.9513],[7.8691,5.9513],[7.8736,5.9557],[7.8781,5.9602],[7.8961,5.9625],[7.9051,5.9625],[7.9208,5.9625],[7.9253,5.9737],[7.9208,5.9872],[7.9118,6.0007],[7.9028,6.0074],[7.8916,6.0209],[7.8781,6.0343],[7.8624,6.0433],[7.8489,6.0478],[7.8422,6.0501],[7.831,6.0568],[7.8197,6.0613],[7.8018,6.068],[7.7815,6.0703],[7.7613,6.077],[7.7456,6.0793],[7.7254,6.0815],[7.7142,6.0838],[7.6985,6.0748],[7.6872,6.0703],[7.6693,6.0635],[7.6693,6.0613],[7.6648,6.0501],[7.667,6.0299]]]}},{"type":"Feature","properties":{"id":"ebonyi/ohaukwu","name":"Ohaukwu","state":"Ebonyi"},"geometry":{"type":"Polygon","coordinates":[[[7.9253,6.4813],[7.932,6.47],[7.9343,6.4655],[7.9365,6.4543],[7.9387,6.4318],[7.9387,6.4184],[7.9343,6.4004],[7.932,6.3847],[7.9343,6.3757],[7.9343,6.3645],[7.9343,6.3622],[7.941,6.3622],[7.9477,6.3667],[7.9545,6.3712],[7.9679,6.3757],[7.9837,6.3735],[7.9994,6.369],[8.0061,6.36],[8.0106,6.3532],[8.0196,6.3443],[8.0263,6.3398],[8.0263,6.3443],[8.0286,6.3555],[8.0331,6.3667],[8.0398,6.3779],[8.0443,6.3937],[8.0465,6.4071],[8.0488,6.4206],[8.0533,6.4296],[8.0578,6.4408],[8.0623,6.4565],[8.0712,6.4745],[8.0757,6.4857],[8.0757,6.4947],[8.0847,6.5082],[8.0892,6.5194],[8.0982,6.5284],[8.1004,6.5374],[8.1027,6.5464],[8.1049,6.5621],[8.1004,6.5913],[8.1004,6.6048],[8.0982,6.6115],[8.0959,6.6227],[8.0982,6.634],[8.0937,6.6407],[8.0892,6.6519],[8.087,6.6654],[8.0825,6.6924],[8.0802,6.7103],[8.0802,6.7126],[8.0757,6.7148],[8.0645,6.7126],[8.051,6.7103],[8.0353,6.7126],[8.0263,6.7148],[8.0084,6.7148],[7.9994,6.7126],[7.9949,6.7036],[7.9882,6.6879],[7.9859,6.6699],[7.9882,6.6609],[7.9882,6.6497],[7.9882,6.634],[7.9882,6.6182],[7.9882,6.6115],[7.9769,6.5823],[7.9702,6.5688],[7.9657,6.5576],[7.9634,6.5441],[7.95,6.5329],[7.932,6.5307],[7.9298,6.5329],[7.9253,6.5194],[7.9253,6.5127],[7.923,6.5037],[7.923,6.4902],[7.9253,6.4813]]]}},{"type":"Feature","properties":{"id":"ebonyi/onicha","name":"Onicha","state":"Ebonyi"},"geometry":{"type":"Polygon","coordinates":[[[7.7254,6.0815],[7.7456,6.0793],[7.7613,6.077],[7.7815,6.0703],[7.8018,6.068],[7.8197,6.0613],[7.831,6.0568],[7.8422,6.0501],[7.8489,6.0478],[7.8624,6.0433],[7.8781,6.0343],[7.8916,6.0209],[7.9028,6.0074],[7.9118,6.0007],[7.9208,5.9872],[7.9253,5.9737],[7.9298,5.967],[7.9365,5.9647],[7.9545,5.9715],[7.9657,5.9782],[7.9747,5.9715],[7.9792,5.9692],[7.9814,5.976],[7.9859,5.9827],[7.9926,5.9849],[8.0016,5.9872],[8.0084,5.9917],[8.0151,5.9939],[8.0286,6.0007],[8.0443,6.0052],[8.051,6.0052],[8.0555,6.0074],[8.0398,6.0186],[8.0173,6.0321],[8.0129,6.0366],[8.0106,6.0388],[8.0016,6.0501],[7.9926,6.0613],[7.9837,6.0658],[7.9679,6.0613],[7.95,6.0568],[7.932,6.0456],[7.9208,6.0433],[7.9096,6.0501],[7.9051,6.0613],[7.9051,6.0703],[7.9051,6.086],[7.9051,6.095],[7.9051,6.1017],[7.9073,6.1219],[7.9073,6.1354],[7.9028,6.1399],[7.8938,6.1534],[7.8848,6.1624],[7.8781,6.1668],[7.8781,6.1758],[7.8826,6.1848],[7.8848,6.1893],[7.8871,6.196],[7.8871,6.2073],[7.8826,6.2185],[7.8714,6.223],[7.8557,6.223],[7.8422,6.2252],[7.8332,6.2297],[7.8287,6.2365],[7.8197,6.2432],[7.813,6.2477],[7.7973,6.2522],[7.7681,6.2522],[7.7591,6.2499],[7.7344,6.2454],[7.7254,6.2432],[7.7321,6.2275],[7.7366,6.2028],[7.7389,6.1713],[7.7254,6.1152],[7.7142,6.0838],[7.7254,6.0815]]]}}]}