{"type":"FeatureCollection","features":[{"type":"Feature","properties":{"id":"edo/akoko-edo","name":"Akoko-Edo","state":"Edo"},"geometry":{"type":"Polygon","coordinates":[[[5.9153,7.2718],[5.9265,7.2628],[5.931,7.2605],[5.94,7.256],[5.949,7.2538],[5.9625,7.2493],[5.967,7.2471],[5.9715,7.2448],[5.976,7.2381],[5.9804,7.2336],[5.9872,7.2268],[5.9917,7.2246],[5.9984,7.2268],[6.0029,7.2291],[6.0119,7.2291],[6.0186,7.2313],[6.0209,7.2381],[6.0254,7.2403],[6.0343,7.2403],[6.0456,7.2426],[6.0546,7.2448],[6.0635,7.2471],[6.0658,7.2471],[6.0748,7.2403],[6.0815,7.2336],[6.0882,7.2201],[6.1017,7.2021],[6.1062,7.1999],[6.1152,7.1954],[6.1242,7.1909],[6.1309,7.1909],[6.1377,7.1887],[6.1444,7.1864],[6.1489,7.1842],[6.1534,7.1797],[6.1624,7.1685],[6.1646,7.1617],[6.1668,7.1527],[6.1691,7.1437],[6.1758,7.1235],[6.1803,7.1123],[6.1848,7.1123],[6.1983,7.119],[6.2118,7.1348],[6.2252,7.155],[6.2297,7.164],[6.2387,7.1797],[6.2454,7.1909],[6.2499,7.1976],[6.2544,7.2021],[6.2567,7.2066],[6.2612,7.2156],[6.2612,7.2268],[6.2657,7.2538],[6.2679,7.2695],[6.2679,7.283],[6.2701,7.3189],[6.2701,7.3324],[6.2679,7.3391],[6.2657,7.3459],[6.2657,7.3526],[6.2679,7.3593],[6.2701,7.3616],[6.2769,7.3616],[6.2814,7.3593],[6.2859,7.3593],[6.2904,7.3593],[6.2949,7.3616],[6.3038,7.3549],[6.3106,7.3504],[6.3151,7.3459],[6.324,7.3369],[6.3375,7.3279],[6.3398,7.3257],[6.3443,7.3279],[6.3488,7.3324],[6.3645,7.3504],[6.369,7.3526],[6.3712,7.3593],[6.3757,7.3638],[6.3779,7.3683],[6.3824,7.3728],[6.3869,7.3773],[6.3937,7.3796],[6.4139,7.3885],[6.4184,7.3908],[6.4274,7.3998],[6.4318,7.402],[6.4274,7.411],[6.4274,7.4155],[6.4229,7.4177],[6.3779,7.3975],[6.3577,7.4132],[6.2993,7.4963],[6.2949,7.4986],[6.2904,7.4986],[6.2836,7.4986],[6.2769,7.4963],[6.2746,7.4918],[6.2724,7.4896],[6.2724,7.4873],[6.2701,7.4851],[6.2679,7.4829],[6.2634,7.4806],[6.2589,7.4784],[6.2522,7.4784],[6.2454,7.4761],[6.2387,7.4761],[6.2342,7.4739],[6.2275,7.4716],[6.2252,7.4694],[6.223,7.4649],[6.2207,7.4604],[6.2185,7.4559],[6.2095,7.4492],[6.2005,7.4469],[6.1893,7.4402],[6.1871,7.4379],[6.1871,7.4357],[6.1871,7.4335],[6.1826,7.429],[6.1803,7.429],[6.1758,7.4335],[6.1736,7.4379],[6.1736,7.4402],[6.1713,7.4447],[6.1624,7.4469],[6.1601,7.4469],[6.1534,7.4492],[6.1421,7.4492],[6.1377,7.4469],[6.1287,7.4469],[6.1197,7.4469],[6.1129,7.4492],[6.1107,7.4559],[6.1107,7.4582],[6.1085,7.4626],[6.1085,7.4851],[6.1085,7.4896],[6.1107,7.4941],[6.1129,7.4963],[6.1152,7.4986],[6.1174,7.5008],[6.1219,7.5031],[6.1287,7.5053],[6.1309,7.5076],[6.1466,7.5165],[6.1511,7.5188],[6.1534,7.5233],[6.1579,7.5278],[6.1601,7.53],[6.1624,7.5345],[6.1646,7.539],[6.1668,7.5457],[6.1668,7.548],[6.1646,7.5502],[6.1534,7.5502],[6.1489,7.5502],[6.1421,7.5502],[6.1377,7.5502],[6.1332,7.5525],[6.1332,7.557],[6.1309,7.5637],[6.1287,7.5682],[6.1264,7.5749],[6.1219,7.5839],[6.1197,7.5907],[6.0995,7.5884],[6.0478,7.5794],[6.0433,7.5772],[6.0366,7.5727],[6.0299,7.566],[6.0276,7.5615],[6.0254,7.5592],[6.0254,7.5547],[6.0231,7.548],[6.0164,7.539],[6.0119,7.5345],[6.0052,7.53],[6.0029,7.5278],[5.9939,7.5278],[5.9894,7.53],[5.9872,7.53],[5.9827,7.53],[5.9782,7.53],[5.976,7.53],[5.9715,7.5233],[5.9692,7.5188],[5.967,7.5165],[5.9647,7.5143],[5.9625,7.5121],[5.9602,7.5143],[5.9535,7.5143],[5.9535,7.5121],[5.9535,7.5076],[5.9513,7.5008],[5.949,7.4963],[5.949,7.4873],[5.9535,7.4829],[5.9557,7.4761],[5.958,7.4716],[5.9625,7.4604],[5.967,7.4604],[5.9715,7.4604],[5.976,7.4582],[5.9849,7.4559],[5.9872,7.4492],[5.9872,7.4469],[5.9872,7.4424],[5.9849,7.4402],[5.9804,7.4379],[5.9782,7.4357],[5.976,7.4312],[5.9737,7.429],[5.9692,7.4155],[5.9692,7.411],[5.9692,7.4087],[5.9737,7.3998],[5.9782,7.393],[5.9804,7.3908],[5.9782,7.3863],[5.976,7.3818],[5.976,7.3773],[5.976,7.3751],[5.976,7.3728],[5.9782,7.3683],[5.9804,7.3661],[5.9872,7.3638],[5.9872,7.3616],[5.9872,7.3549],[5.9804,7.3481],[5.9782,7.3481],[5.958,7.3436],[5.9513,7.3436],[5.9445,7.3436],[5.9378,7.3414],[5.9265,7.3391],[5.9198,7.3369],[5.9176,7.3346],[5.9153,7.3189],[5.9176,7.3167],[5.9176,7.3122],[5.9221,7.3054],[5.9243,7.3032],[5.9243,7.2987],[5.9243,7.2965],[5.9221,7.292],[5.9131,7.2807],[5.9086,7.2785],[5.9153,7.2718]]]}},{"type":"Feature","properties":{"id":"edo/egor","name":"Egor","state":"Edo"},"geometry":{"type":"Polygon","coordinates":[[[5.5268,6.3285],[5.5268,6.3218],[5.5291,6.3128],[5.5291,6.2971],[5.5291,6.2881],[5.5291,6.2769],[5.5358,6.2814],[5.5425,6.2836],[5.5515,6.2904],[5.5582,6.3016],[5.5605,6.3038],[5.5695,6.3151],[5.5717,6.3173],[5.5762,6.3218],[5.5807,6.3218],[5.5874,6.3285],[5.5897,6.333],[5.5919,6.3375],[5.5919,6.342],[5.5919,6.3465],[5.5964,6.3488],[5.6009,6.3532],[5.6054,6.3555],[5.6121,6.3555],[5.6166,6.3555],[5.6234,6.3555],[5.6279,6.3555],[5.6324,6.3555],[5.6368,6.3555],[5.6391,6.36],[5.6413,6.3645],[5.6436,6.3712],[5.6436,6.3802],[5.6436,6.3824],[5.6436,6.3892],[5.6436,6.3937],[5.6391,6.4094],[5.6413,6.4139],[5.6368,6.4116],[5.6324,6.4139],[5.6234,6.4116],[5.6077,6.4094],[5.5807,6.4026],[5.574,6.4004],[5.5672,6.3937],[5.5627,6.3869],[5.5627,6.3824],[5.5582,6.3712],[5.5448,6.3555],[5.5403,6.351],[5.5335,6.3465],[5.5268,6.342],[5.5268,6.3398],[5.5246,6.333],[5.5268,6.3285]]]}},{"type":"Feature","properties":{"id":"edo/esan-central","name":"Esan Central","state":"Edo"},"geometry":{"type":"Polygon","coordinates":[[[6.1399,6.5801],[6.1466,6.5756],[6.1601,6.5733],[6.1691,6.5756],[6.1826,6.5778],[6.1938,6.5846],[6.2073,6.5935],[6.2095,6.598],[6.2095,6.6048],[6.2185,6.6182],[6.2252,6.625],[6.232,6.6295],[6.2365,6.6317],[6.2454,6.6362],[6.2522,6.6407],[6.2634,6.6474],[6.2612,6.6564],[6.2612,6.6587],[6.2567,6.6676],[6.2567,6.6721],[6.2522,6.6766],[6.2499,6.6811],[6.2499,6.6856],[6.2477,6.6901],[6.2499,6.6924],[6.2499,6.6991],[6.2477,6.7036],[6.2454,6.7081],[6.241,6.7193],[6.2387,6.7283],[6.2387,6.735],[6.241,6.7395],[6.2454,6.744],[6.2522,6.7463],[6.2589,6.7485],[6.2746,6.753],[6.2859,6.7552],[6.2971,6.7575],[6.3038,6.7575],[6.324,6.7575],[6.3353,6.7552],[6.3465,6.7552],[6.3577,6.7575],[6.3667,6.7597],[6.3757,6.7642],[6.3779,6.7665],[6.3802,6.7867],[6.3779,6.8069],[6.3802,6.8136],[6.369,6.8159],[6.3308,6.8204],[6.3038,6.8293],[6.2926,6.8159],[6.2881,6.8091],[6.2859,6.8046],[6.2814,6.8001],[6.2724,6.7912],[6.2657,6.7957],[6.2634,6.8046],[6.2634,6.8114],[6.2612,6.8159],[6.2567,6.8271],[6.2499,6.8361],[6.2477,6.8293],[6.241,6.8204],[6.2365,6.8159],[6.2252,6.8046],[6.2163,6.7979],[6.2095,6.7889],[6.2095,6.7822],[6.2118,6.7777],[6.214,6.771],[6.2163,6.762],[6.214,6.7575],[6.2095,6.7507],[6.205,6.744],[6.2005,6.7395],[6.196,6.7373],[6.1848,6.7283],[6.1781,6.7238],[6.1736,6.7193],[6.1713,6.7126],[6.1691,6.7058],[6.1713,6.6968],[6.1713,6.6901],[6.1758,6.6834],[6.1781,6.6789],[6.1826,6.6721],[6.1848,6.6609],[6.1938,6.6497],[6.1938,6.6407],[6.1915,6.6317],[6.1758,6.616],[6.1646,6.6048],[6.1489,6.5958],[6.1399,6.5913],[6.1354,6.589],[6.1354,6.5823],[6.1399,6.5801]]]}},{"type":"Feature","properties":{"id":"edo/esan-north-east","name":"Esan North East","state":"Edo"},"geometry":{"type":"Polygon","coordinates":[[[6.241,6.7193],[6.2454,6.7081],[6.2477,6.7036],[6.2499,6.6991],[6.2499,6.6924],[6.2477,6.6901],[6.2499,6.6856],[6.2499,6.6811],[6.2522,6.6766],[6.2567,6.6721],[6.2567,6.6676],[6.2612,6.6587],[6.2612,6.6564],[6.2634,6.6474],[6.2701,6.6519],[6.2746,6.6564],[6.2814,6.6609],[6.2859,6.6632],[6.3016,6.6676],[6.3106,6.6676],[6.3218,6.6654],[6.3285,6.6632],[6.3398,6.6654],[6.3375,6.6676],[6.342,6.6699],[6.3465,6.6744],[6.3532,6.6811],[6.3645,6.6968],[6.3735,6.7036],[6.3824,6.7081],[6.3982,6.7126],[6.4071,6.7148],[6.4206,6.7148],[6.4296,6.7148],[6.4341,6.7193],[6.4341,6.7305],[6.4318,6.7373],[6.4296,6.7418],[6.4296,6.753],[6.4296,6.7597],[6.4318,6.7754],[6.4565,6.7822],[6.4633,6.7822],[6.4723,6.7844],[6.4835,6.7867],[6.497,6.7889],[6.5082,6.7912],[6.5172,6.7934],[6.5262,6.7934],[6.5307,6.7934],[6.5307,6.8001],[6.5284,6.8046],[6.5262,6.8181],[6.5239,6.8249],[6.5239,6.8293],[6.5217,6.8338],[6.5217,6.8406],[6.5239,6.8473],[6.5262,6.854],[6.5284,6.8563],[6.5262,6.863],[6.5217,6.8832],[6.5172,6.89],[6.506,6.9057],[6.5015,6.9079],[6.497,6.9124],[6.4925,6.9169],[6.488,6.9214],[6.4835,6.9259],[6.4723,6.9124],[6.4655,6.9035],[6.461,6.8967],[6.4453,6.8765],[6.4296,6.854],[6.4251,6.8428],[6.4161,6.8338],[6.4071,6.8204],[6.3982,6.8114],[6.3914,6.8114],[6.3824,6.8136],[6.3802,6.8136],[6.3779,6.8069],[6.3802,6.7867],[6.3779,6.7665],[6.3757,6.7642],[6.3667,6.7597],[6.3577,6.7575],[6.3465,6.7552],[6.3353,6.7552],[6.324,6.7575],[6.3038,6.7575],[6.2971,6.7575],[6.2859,6.7552],[6.2746,6.753],[6.2589,6.7485],[6.2522,6.7463],[6.2454,6.744],[6.241,6.7395],[6.2387,6.735],[6.2387,6.7283],[6.241,6.7193]]]}},{"type":"Feature","properties":{"id":"edo/esan-south-east","name":"Esan South East","state":"Edo"},"geometry":{"type":"Polygon","coordinates":[[[6.2701,6.5149],[6.2724,6.506],[6.2791,6.4992],[6.2836,6.4902],[6.2926,6.4813],[6.2971,6.479],[6.2949,6.4633],[6.2881,6.4476],[6.2859,6.4408],[6.2836,6.4363],[6.2814,6.4318],[6.2859,6.4251],[6.2971,6.4206],[6.3038,6.4184],[6.3061,6.4139],[6.2993,6.3937],[6.2949,6.3892],[6.2926,6.3824],[6.2881,6.3779],[6.2859,6.3757],[6.2836,6.3667],[6.2814,6.36],[6.2904,6.3622],[6.2993,6.3645],[6.3128,6.3667],[6.3196,6.3712],[6.324,6.3735],[6.3353,6.3779],[6.342,6.3779],[6.3577,6.3847],[6.3622,6.3847],[6.3712,6.3824],[6.3802,6.3847],[6.3914,6.3892],[6.4071,6.3937],[6.4094,6.3959],[6.4161,6.3982],[6.4229,6.4026],[6.4318,6.4071],[6.4341,6.4116],[6.4363,6.4161],[6.4408,6.4206],[6.4453,6.4251],[6.4498,6.4274],[6.4655,6.4408],[6.4813,6.4476],[6.4925,6.4565],[6.5015,6.4633],[6.5104,6.4768],[6.5262,6.488],[6.5396,6.4925],[6.5509,6.4925],[6.5643,6.4947],[6.5756,6.4947],[6.5868,6.497],[6.6093,6.4992],[6.6227,6.4947],[6.6317,6.4902],[6.6452,6.488],[6.6497,6.4902],[6.6564,6.497],[6.6609,6.4992],[6.6699,6.5015],[6.6654,6.5329],[6.6609,6.5531],[6.6609,6.5733],[6.6609,6.6093],[6.6519,6.634],[6.6272,6.6744],[6.6182,6.7058],[6.6205,6.7215],[6.6272,6.7305],[6.6272,6.7485],[6.6317,6.7687],[6.6272,6.7822],[6.6227,6.7912],[6.6227,6.7934],[6.616,6.7912],[6.607,6.7912],[6.5935,6.7912],[6.5823,6.7912],[6.5599,6.7912],[6.5396,6.7934],[6.5307,6.7934],[6.5262,6.7934],[6.5172,6.7934],[6.5082,6.7912],[6.497,6.7889],[6.4835,6.7867],[6.4723,6.7844],[6.4633,6.7822],[6.4565,6.7822],[6.4318,6.7754],[6.4296,6.7597],[6.4296,6.753],[6.4296,6.7418],[6.4318,6.7373],[6.4341,6.7305],[6.4341,6.7193],[6.4296,6.7148],[6.4206,6.7148],[6.4071,6.7148],[6.3982,6.7126],[6.3824,6.7081],[6.3735,6.7036],[6.3645,6.6968],[6.3532,6.6811],[6.3465,6.6744],[6.342,6.6699],[6.3375,6.6676],[6.3398,6.6654],[6.3398,6.6587],[6.3443,6.6542],[6.3465,6.6452],[6.3488,6.6407],[6.3488,6.6362],[6.351,6.6272],[6.3465,6.6205],[6.342,6.6115],[6.3375,6.6025],[6.3353,6.5913],[6.3285,6.5846],[6.324,6.5801],[6.3196,6.5778],[6.3016,6.5756],[6.2949,6.5733],[6.2881,6.5643],[6.2859,6.5599],[6.2814,6.5509],[6.2791,6.5441],[6.2746,6.5396],[6.2679,6.5329],[6.2612,6.5262],[6.2701,6.5149]]]}},{"type":"Feature","properties":{"id":"edo/esan-west","name":"Esan West","state":"Edo"},"geometry":{"type":"Polygon","coordinates":[[[6.0186,6.7687],[6.0231,6.7575],[6.0343,6.7463],[6.0433,6.7373],[6.0478,6.7305],[6.0523,6.726],[6.0613,6.7171],[6.0703,6.7058],[6.0793,6.6924],[6.086,6.6789],[6.0882,6.6766],[6.0882,6.6699],[6.0882,6.6587],[6.0882,6.6474],[6.0882,6.6407],[6.086,6.634],[6.0882,6.6205],[6.086,6.6138],[6.0838,6.6048],[6.0815,6.598],[6.0793,6.5846],[6.0748,6.5778],[6.0725,6.5733],[6.0725,6.5554],[6.0725,6.5486],[6.0793,6.5307],[6.0838,6.5217],[6.0882,6.5127],[6.0905,6.5037],[6.0972,6.4857],[6.0995,6.4813],[6.104,6.4768],[6.1085,6.479],[6.1197,6.4835],[6.1287,6.488],[6.1624,6.497],[6.1758,6.4947],[6.1915,6.4947],[6.1983,6.497],[6.2073,6.4992],[6.2118,6.5037],[6.214,6.5127],[6.2163,6.5262],[6.214,6.5441],[6.2118,6.5599],[6.2095,6.5733],[6.2073,6.5846],[6.2073,6.5935],[6.1938,6.5846],[6.1826,6.5778],[6.1691,6.5756],[6.1601,6.5733],[6.1466,6.5756],[6.1399,6.5801],[6.1354,6.5823],[6.1354,6.589],[6.1399,6.5913],[6.1489,6.5958],[6.1646,6.6048],[6.1758,6.616],[6.1915,6.6317],[6.1938,6.6407],[6.1938,6.6497],[6.1848,6.6609],[6.1826,6.6721],[6.1781,6.6789],[6.1758,6.6834],[6.1713,6.6901],[6.1713,6.6968],[6.1691,6.7058],[6.1713,6.7126],[6.1736,6.7193],[6.1781,6.7238],[6.1848,6.7283],[6.196,6.7373],[6.2005,6.7395],[6.205,6.744],[6.2095,6.7507],[6.214,6.7575],[6.2163,6.762],[6.214,6.771],[6.2118,6.7777],[6.2095,6.7822],[6.2095,6.7889],[6.2163,6.7979],[6.2252,6.8046],[6.2365,6.8159],[6.241,6.8204],[6.2477,6.8293],[6.2499,6.8361],[6.2477,6.8361],[6.241,6.8428],[6.2342,6.8406],[6.2297,6.8361],[6.214,6.8316],[6.196,6.8271],[6.1803,6.8249],[6.1713,6.8249],[6.1668,6.8249],[6.1579,6.8249],[6.1511,6.8249],[6.1421,6.8249],[6.1242,6.8204],[6.1129,6.8181],[6.1085,6.8136],[6.1017,6.8114],[6.0972,6.8091],[6.086,6.8001],[6.068,6.7867],[6.0568,6.7799],[6.0501,6.7777],[6.0456,6.7754],[6.0343,6.7732],[6.0231,6.771],[6.0141,6.7732],[6.0186,6.7687]]]}},{"type":"Feature","properties":{"id":"edo/etsako-central","name":"Etsako Central","state":"Edo"},"geometry":{"type":"Polygon","coordinates":[[[6.369,6.9529],[6.3712,6.9461],[6.3757,6.9394],[6.3779,6.9371],[6.3937,6.9394],[6.3982,6.9394],[6.4094,6.9461],[6.4161,6.9506],[6.4251,6.9551],[6.4318,6.9551],[6.4476,6.9574],[6.4543,6.9551],[6.4588,6.9506],[6.4723,6.9416],[6.4813,6.9349],[6.4857,6.9326],[6.488,6.9282],[6.488,6.9259],[6.488,6.9214],[6.4925,6.9169],[6.497,6.9124],[6.5015,6.9079],[6.506,6.9057],[6.5172,6.89],[6.5217,6.8832],[6.5262,6.863],[6.5284,6.8563],[6.5262,6.854],[6.5239,6.8473],[6.5217,6.8406],[6.5217,6.8338],[6.5239,6.8293],[6.5239,6.8249],[6.5262,6.8181],[6.5284,6.8046],[6.5307,6.8001],[6.5307,6.7934],[6.5396,6.7934],[6.5599,6.7912],[6.5823,6.7912],[6.5935,6.7912],[6.607,6.7912],[6.616,6.7912],[6.6227,6.7934],[6.6205,6.8001],[6.616,6.8091],[6.6138,6.8159],[6.6115,6.8226],[6.6138,6.8316],[6.6227,6.8406],[6.634,6.8653],[6.6452,6.8855],[6.6519,6.9079],[6.6721,6.9349],[6.6789,6.9686],[6.6789,6.9731],[6.6609,6.9798],[6.6564,6.9821],[6.6429,6.9843],[6.6295,6.9843],[6.6227,6.9843],[6.616,6.9865],[6.6115,6.9865],[6.6025,6.9888],[6.5913,6.991],[6.5778,6.9955],[6.5621,7.0023],[6.5576,7.0045],[6.5441,7.0112],[6.5329,7.018],[6.5284,7.0247],[6.5284,7.0292],[6.5284,7.0404],[6.5351,7.0629],[6.5374,7.0719],[6.5374,7.0809],[6.5351,7.1011],[6.5329,7.1101],[6.5194,7.128],[6.5172,7.1325],[6.5104,7.1393],[6.5082,7.146],[6.506,7.1505],[6.4992,7.1527],[6.4925,7.155],[6.4857,7.155],[6.4745,7.1572],[6.4678,7.1595],[6.461,7.1617],[6.4408,7.1662],[6.4318,7.164],[6.4251,7.164],[6.4139,7.1662],[6.4139,7.1617],[6.4161,7.155],[6.4184,7.1415],[6.4229,7.1325],[6.4229,7.128],[6.4206,7.1078],[6.4206,7.1011],[6.4184,7.0966],[6.4139,7.0899],[6.4071,7.0854],[6.4004,7.0786],[6.3892,7.0719],[6.3779,7.0629],[6.3735,7.0562],[6.3824,7.0517],[6.3937,7.0404],[6.3959,7.0382],[6.3982,7.0337],[6.4004,7.027],[6.4004,7.0225],[6.4004,7.0157],[6.3982,7.0112],[6.3937,7.0045],[6.3892,7.0],[6.3824,6.9933],[6.3779,6.991],[6.3735,6.9865],[6.3667,6.9776],[6.3667,6.9686],[6.3667,6.9574],[6.369,6.9529]]]}},{"type":"Feature","properties":{"id":"edo/etsako-east","name":"Etsako East","state":"Edo"},"geometry":{"type":"Polygon","coordinates":[[[6.2634,7.2021],[6.2724,7.1976],[6.2836,7.1932],[6.2926,7.1932],[6.3106,7.1909],[6.3285,7.1887],[6.3375,7.1864],[6.3465,7.1842],[6.351,7.1842],[6.3577,7.1842],[6.3667,7.1797],[6.3757,7.1797],[6.3892,7.1774],[6.3937,7.1729],[6.4026,7.1707],[6.4139,7.1662],[6.4251,7.164],[6.4318,7.164],[6.4408,7.1662],[6.461,7.1617],[6.4678,7.1595],[6.4745,7.1572],[6.4857,7.155],[6.4925,7.155],[6.4992,7.1527],[6.506,7.1505],[6.5082,7.146],[6.5104,7.1393],[6.5172,7.1325],[6.5194,7.128],[6.5329,7.1101],[6.5351,7.1011],[6.5374,7.0809],[6.5374,7.0719],[6.5351,7.0629],[6.5284,7.0404],[6.5284,7.0292],[6.5284,7.0247],[6.5329,7.018],[6.5441,7.0112],[6.5576,7.0045],[6.5621,7.0023],[6.5778,6.9955],[6.5913,6.991],[6.6025,6.9888],[6.6115,6.9865],[6.616,6.9865],[6.6227,6.9843],[6.6295,6.9843],[6.6429,6.9843],[6.6564,6.9821],[6.6609,6.9798],[6.6789,6.9731],[6.6789,6.9933],[6.6766,7.009],[6.6766,7.0337],[6.6834,7.0517],[6.6901,7.0674],[6.7126,7.1056],[6.7148,7.1213],[6.7148,7.1235],[6.7148,7.1348],[6.7126,7.1482],[6.7081,7.1595],[6.7036,7.1707],[6.7013,7.1774],[6.6968,7.2044],[6.6924,7.2179],[6.6901,7.2201],[6.6856,7.2246],[6.6744,7.2336],[6.6699,7.2403],[6.6385,7.2942],[6.6317,7.292],[6.5688,7.2762],[6.5554,7.274],[6.5441,7.274],[6.5307,7.2718],[6.5262,7.2718],[6.5149,7.2673],[6.5104,7.2673],[6.5082,7.2695],[6.5082,7.274],[6.5082,7.2762],[6.506,7.2807],[6.5037,7.2852],[6.5015,7.2875],[6.4992,7.292],[6.4992,7.3054],[6.4992,7.3234],[6.4947,7.3346],[6.4857,7.3414],[6.4813,7.3481],[6.4768,7.3526],[6.4768,7.3549],[6.4723,7.3616],[6.47,7.3638],[6.4678,7.3661],[6.4633,7.3638],[6.4588,7.3616],[6.4543,7.3571],[6.4498,7.3549],[6.4431,7.3571],[6.4386,7.3571],[6.4363,7.3593],[6.4341,7.3683],[6.4341,7.3728],[6.4341,7.3773],[6.4318,7.3796],[6.4274,7.3818],[6.4229,7.3863],[6.4229,7.3885],[6.4318,7.3975],[6.4318,7.402],[6.4274,7.3998],[6.4184,7.3908],[6.4139,7.3885],[6.3937,7.3796],[6.3869,7.3773],[6.3824,7.3728],[6.3779,7.3683],[6.3757,7.3638],[6.3712,7.3593],[6.369,7.3526],[6.3645,7.3504],[6.3488,7.3324],[6.3443,7.3279],[6.3398,7.3257],[6.3375,7.3279],[6.324,7.3369],[6.3151,7.3459],[6.3106,7.3504],[6.3038,7.3549],[6.2949,7.3616],[6.2904,7.3593],[6.2859,7.3593],[6.2814,7.3593],[6.2769,7.3616],[6.2701,7.3616],[6.2679,7.3593],[6.2657,7.3526],[6.2657,7.3459],[6.2679,7.3391],[6.2701,7.3324],[6.2701,7.3189],[6.2679,7.283],[6.2679,7.2695],[6.2657,7.2538],[6.2612,7.2268],[6.2612,7.2156],[6.2567,7.2066],[6.2634,7.2021]]]}},{"type":"Feature","properties":{"id":"edo/etsako-west","name":"Etsako West","state":"Edo"},"geometry":{"type":"Polygon","coordinates":[[[6.1713,6.8249],[6.1803,6.8249],[6.196,6.8271],[6.214,6.8316],[6.2297,6.8361],[6.2342,6.8406],[6.241,6.8428],[6.2477,6.8361],[6.2499,6.8361],[6.2567,6.8271],[6.2612,6.8159],[6.2634,6.8114],[6.2634,6.8046],[6.2657,6.7957],[6.2724,6.7912],[6.2814,6.8001],[6.2859,6.8046],[6.2881,6.8091],[6.2926,6.8159],[6.3038,6.8293],[6.3308,6.8204],[6.369,6.8159],[6.3802,6.8136],[6.3824,6.8136],[6.3914,6.8114],[6.3982,6.8114],[6.4071,6.8204],[6.4161,6.8338],[6.4251,6.8428],[6.4296,6.854],[6.4453,6.8765],[6.461,6.8967],[6.4655,6.9035],[6.4723,6.9124],[6.4835,6.9259],[6.488,6.9214],[6.488,6.9259],[6.488,6.9282],[6.4857,6.9326],[6.4813,6.9349],[6.4723,6.9416],[6.4588,6.9506],[6.4543,6.9551],[6.4476,6.9574],[6.4318,6.9551],[6.4251,6.9551],[6.4161,6.9506],[6.4094,6.9461],[6.3982,6.9394],[6.3937,6.9394],[6.3779,6.9371],[6.3757,6.9394],[6.3712,6.9461],[6.369,6.9529],[6.3667,6.9574],[6.3667,6.9686],[6.3667,6.9776],[6.3735,6.9865],[6.3779,6.991],[6.3824,6.9933],[6.3892,7.0],[6.3937,7.0045],[6.3982,7.0112],[6.4004,7.0157],[6.4004,7.0225],[6.4004,7.027],[6.3982,7.0337],[6.3959,7.0382],[6.3937,7.0404],[6.3824,7.0517],[6.3735,7.0562],[6.3779,7.0629],[6.3892,7.0719],[6.4004,7.0786],[6.4071,7.0854],[6.4139,7.0899],[6.4184,7.0966],[6.4206,7.1011],[6.4206,7.1078],[6.4229,7.128],[6.4229,7.1325],[6.4184,7.1415],[6.4161,7.155],[6.4139,7.1617],[6.4139,7.1662],[6.4026,7.1707],[6.3937,7.1729],[6.3892,7.1774],[6.3757,7.1797],[6.3667,7.1797],[6.3577,7.1842],[6.351,7.1842],[6.3465,7.1842],[6.3375,7.1864],[6.3285,7.1887],[6.3106,7.1909],[6.2926,7.1932],[6.2836,7.1932],[6.2724,7.1976],[6.2634,7.2021],[6.2567,7.2066],[6.2544,7.2021],[6.2499,7.1976],[6.2454,7.1909],[6.2387,7.1797],[6.2297,7.164],[6.2252,7.155],[6.2118,7.1348],[6.1983,7.119],[6.1848,7.1123],[6.1803,7.1123],[6.1848,7.0988],[6.1938,7.0899],[6.1983,7.0854],[6.2028,7.0786],[6.2073,7.0696],[6.214,7.0584],[6.2185,7.0427],[6.2185,7.0382],[6.2185,7.0135],[6.2163,6.9888],[6.2163,6.9461],[6.214,6.9394],[6.2073,6.9237],[6.1983,6.9057],[6.1938,6.8967],[6.1871,6.8855],[6.1781,6.8653],[6.1781,6.8608],[6.1736,6.8473],[6.1691,6.8316],[6.1668,6.8249],[6.1713,6.8249]]]}},{"type":"Feature","properties":{"id":"edo/igueben","name":"Igueben","state":"Edo"},"geometry":{"type":"Polygon","coordinates":[[[6.1085,6.4655],[6.1107,6.4588],[6.1264,6.4296],[6.1287,6.4184],[6.1309,6.4116],[6.1309,6.4049],[6.1377,6.4094],[6.1511,6.4161],[6.1579,6.4184],[6.1691,6.4184],[6.1736,6.4184],[6.1803,6.4184],[6.1893,6.4184],[6.196,6.4184],[6.2028,6.4206],[6.2163,6.4206],[6.2252,6.4184],[6.2342,6.4049],[6.2454,6.3892],[6.2634,6.369],[6.2701,6.3622],[6.2769,6.3577],[6.2791,6.3577],[6.2814,6.36],[6.2836,6.3667],[6.2859,6.3757],[6.2881,6.3779],[6.2926,6.3824],[6.2949,6.3892],[6.2993,6.3937],[6.3061,6.4139],[6.3038,6.4184],[6.2971,6.4206],[6.2859,6.4251],[6.2814,6.4318],[6.2836,6.4363],[6.2859,6.4408],[6.2881,6.4476],[6.2949,6.4633],[6.2971,6.479],[6.2926,6.4813],[6.2836,6.4902],[6.2791,6.4992],[6.2724,6.506],[6.2701,6.5149],[6.2612,6.5262],[6.2679,6.5329],[6.2746,6.5396],[6.2791,6.5441],[6.2814,6.5509],[6.2859,6.5599],[6.2881,6.5643],[6.2949,6.5733],[6.3016,6.5756],[6.3196,6.5778],[6.324,6.5801],[6.3285,6.5846],[6.3353,6.5913],[6.3375,6.6025],[6.342,6.6115],[6.3465,6.6205],[6.351,6.6272],[6.3488,6.6362],[6.3488,6.6407],[6.3465,6.6452],[6.3443,6.6542],[6.3398,6.6587],[6.3398,6.6654],[6.3285,6.6632],[6.3218,6.6654],[6.3106,6.6676],[6.3016,6.6676],[6.2859,6.6632],[6.2814,6.6609],[6.2746,6.6564],[6.2701,6.6519],[6.2634,6.6474],[6.2522,6.6407],[6.2454,6.6362],[6.2365,6.6317],[6.232,6.6295],[6.2252,6.625],[6.2185,6.6182],[6.2095,6.6048],[6.2095,6.598],[6.2073,6.5935],[6.2073,6.5846],[6.2095,6.5733],[6.2118,6.5599],[6.214,6.5441],[6.2163,6.5262],[6.214,6.5127],[6.2118,6.5037],[6.2073,6.4992],[6.1983,6.497],[6.1915,6.4947],[6.1758,6.4947],[6.1624,6.497],[6.1287,6.488],[6.1197,6.4835],[6.1085,6.479],[6.104,6.4768],[6.104,6.4723],[6.1085,6.4655]]]}},{"type":"Feature","properties":{"id":"edo/ikpoba-okha","name":"Ikpoba-Okha","state":"Edo"},"geometry":{"type":"Polygon","coordinates":[[[5.4527,6.0343],[5.4594,6.0231],[5.4729,6.0276],[5.4796,6.0276],[5.4841,6.0276],[5.4886,6.0299],[5.4909,6.0343],[5.4909,6.0388],[5.4954,6.0411],[5.4976,6.0433],[5.4999,6.0366],[5.5066,6.0366],[5.5133,6.0343],[5.5178,6.0276],[5.5156,6.0209],[5.5201,6.0164],[5.5246,6.0119],[5.5291,6.0119],[5.5313,6.0052],[5.5358,5.9894],[5.547,5.9849],[5.5605,5.9894],[5.5717,5.9917],[5.5785,6.0029],[5.5829,6.0119],[5.5942,6.0186],[5.6054,6.0231],[5.6166,6.0254],[5.6256,6.0299],[5.6368,6.0299],[5.6571,6.0321],[5.6683,6.0501],[5.6683,6.0523],[5.675,6.0478],[5.6997,6.0343],[5.7446,6.0096],[5.7559,6.0029],[5.7649,5.9984],[5.7626,6.0096],[5.7581,6.0164],[5.7559,6.0231],[5.7491,6.0411],[5.7424,6.0546],[5.7379,6.0635],[5.7379,6.0703],[5.7334,6.0793],[5.7267,6.095],[5.7334,6.1085],[5.7424,6.1287],[5.7446,6.1354],[5.7446,6.1399],[5.7446,6.1466],[5.7469,6.1511],[5.7536,6.1601],[5.7559,6.1691],[5.7559,6.1803],[5.7536,6.196],[5.7693,6.2163],[5.7851,6.2252],[5.794,6.2252],[5.8008,6.2275],[5.8165,6.2297],[5.8188,6.232],[5.8232,6.2365],[5.8255,6.2499],[5.8277,6.2522],[5.8232,6.2567],[5.8165,6.2657],[5.812,6.2724],[5.8098,6.2769],[5.803,6.2836],[5.7963,6.2904],[5.7918,6.2926],[5.7806,6.3038],[5.7626,6.3151],[5.7559,6.3173],[5.7424,6.3218],[5.7379,6.3218],[5.7357,6.3218],[5.7289,6.324],[5.7199,6.3308],[5.7177,6.3353],[5.7177,6.3398],[5.7132,6.3532],[5.711,6.3577],[5.711,6.3645],[5.7087,6.3667],[5.7042,6.3802],[5.702,6.3914],[5.6863,6.4071],[5.6818,6.4094],[5.6683,6.4139],[5.6526,6.4161],[5.6458,6.4184],[5.6413,6.4139],[5.6391,6.4094],[5.6436,6.3937],[5.6436,6.3892],[5.6436,6.3824],[5.6436,6.3802],[5.6436,6.3712],[5.6481,6.3622],[5.6481,6.36],[5.6481,6.3555],[5.6413,6.3488],[5.6368,6.3443],[5.6301,6.3218],[5.6279,6.3083],[5.6279,6.2904],[5.6279,6.2814],[5.6324,6.2702],[5.6324,6.2589],[5.6301,6.2432],[5.6279,6.2365],[5.6211,6.2252],[5.6189,6.223],[5.6077,6.2185],[5.6009,6.2185],[5.5897,6.2185],[5.5829,6.2163],[5.5785,6.214],[5.5762,6.2118],[5.5717,6.2073],[5.5672,6.2028],[5.565,6.1938],[5.5605,6.1826],[5.5582,6.1781],[5.5538,6.1691],[5.547,6.1624],[5.5425,6.1489],[5.5403,6.1421],[5.538,6.1377],[5.5358,6.1287],[5.5313,6.1219],[5.5268,6.1152],[5.5223,6.1062],[5.5201,6.0995],[5.5156,6.095],[5.5111,6.0905],[5.5066,6.0905],[5.5043,6.0927],[5.4976,6.0972],[5.4931,6.0972],[5.4841,6.0972],[5.4796,6.095],[5.4707,6.0972],[5.4617,6.0995],[5.4594,6.0927],[5.4482,6.059],[5.446,6.0478],[5.4415,6.0411],[5.4527,6.0343]]]}},{"type":"Feature","properties":{"id":"edo/oredo","name":"Oredo","state":"Edo"},"geometry":{"type":"Polygon","coordinates":[[[5.4707,6.0972],[5.4796,6.095],[5.4841,6.0972],[5.4931,6.0972],[5.4976,6.0972],[5.5043,6.0927],[5.5066,6.0905],[5.5111,6.0905],[5.5156,6.095],[5.5201,6.0995],[5.5223,6.1062],[5.5268,6.1152],[5.5313,6.1219],[5.5358,6.1287],[5.538,6.1377],[5.5403,6.1421],[5.5425,6.1489],[5.547,6.1624],[5.5538,6.1691],[5.5582,6.1781],[5.5605,6.1826],[5.565,6.1938],[5.5672,6.2028],[5.5717,6.2073],[5.5762,6.2118],[5.5785,6.214],[5.5829,6.2163],[5.5897,6.2185],[5.6009,6.2185],[5.6077,6.2185],[5.6189,6.223],[5.6211,6.2252],[5.6279,6.2365],[5.6301,6.2432],[5.6324,6.2589],[5.6324,6.2702],[5.6279,6.2814],[5.6279,6.2904],[5.6279,6.3083],[5.6301,6.3218],[5.6368,6.3443],[5.6413,6.3488],[5.6481,6.3555],[5.6481,6.36],[5.6481,6.3622],[5.6436,6.3712],[5.6413,6.3645],[5.6391,6.36],[5.6368,6.3555],[5.6324,6.3555],[5.6279,6.3555],[5.6234,6.3555],[5.6166,6.3555],[5.6121,6.3555],[5.6054,6.3555],[5.6009,6.3532],[5.5964,6.3488],[5.5919,6.3465],[5.5919,6.342],[5.5919,6.3375],[5.5897,6.333],[5.5874,6.3285],[5.5807,6.3218],[5.5762,6.3218],[5.5717,6.3173],[5.5695,6.3151],[5.5605,6.3038],[5.5582,6.3016],[5.5515,6.2904],[5.5425,6.2836],[5.5358,6.2814],[5.5291,6.2769],[5.5291,6.2746],[5.5268,6.2702],[5.5201,6.2589],[5.5066,6.241],[5.4999,6.2275],[5.4909,6.2118],[5.4886,6.2028],[5.4864,6.196],[5.4796,6.1803],[5.4774,6.1691],[5.4774,6.1601],[5.4707,6.1332],[5.4662,6.1152],[5.4639,6.1085],[5.4617,6.0995],[5.4707,6.0972]]]}},{"type":"Feature","properties":{"id":"edo/orhionmwon","name":"Orhionmwon","state":"Edo"},"geometry":{"type":"Polygon","coordinates":[[[5.7334,6.0793],[5.7379,6.0703],[5.7379,6.0635],[5.7424,6.0546],[5.7491,6.0411],[5.7559,6.0231],[5.7581,6.0164],[5.7626,6.0096],[5.7649,5.9984],[5.794,5.9804],[5.812,5.9849],[5.8232,5.967],[5.83,5.9602],[5.8345,5.9513],[5.8322,5.94],[5.9221,5.8771],[5.9108,5.8524],[5.9063,5.8435],[5.9063,5.8255],[5.9018,5.812],[5.8974,5.803],[5.8951,5.7985],[5.9018,5.794],[5.9063,5.7806],[5.9063,5.7693],[5.9176,5.7581],[5.9243,5.7491],[5.94,5.7469],[5.958,5.7514],[5.9692,5.7491],[5.9827,5.7491],[5.9917,5.7536],[6.0052,5.7604],[6.0164,5.7649],[6.0209,5.7649],[6.0254,5.7649],[6.0321,5.7649],[6.0388,5.7649],[6.0501,5.7693],[6.0613,5.7761],[6.077,5.7851],[6.0927,5.794],[6.1017,5.803],[6.1085,5.8143],[6.1129,5.8232],[6.1219,5.839],[6.1332,5.8457],[6.1421,5.8524],[6.1511,5.8569],[6.1601,5.8659],[6.1691,5.8727],[6.1803,5.8816],[6.1915,5.8906],[6.1983,5.8951],[6.2005,5.8974],[6.2028,5.8996],[6.2073,5.9063],[6.2185,5.9176],[6.2297,5.9355],[6.2342,5.949],[6.2432,5.967],[6.2454,5.9715],[6.2499,5.9939],[6.2567,6.0164],[6.241,6.0254],[6.232,6.0343],[6.223,6.0388],[6.2095,6.0456],[6.2005,6.0501],[6.1938,6.0568],[6.1758,6.0748],[6.1691,6.0815],[6.1646,6.095],[6.1579,6.104],[6.1489,6.1152],[6.1421,6.1242],[6.1354,6.1354],[6.1264,6.1646],[6.1219,6.1803],[6.1152,6.2005],[6.1152,6.2095],[6.1152,6.2185],[6.1129,6.241],[6.095,6.2544],[6.0838,6.2634],[6.077,6.2791],[6.086,6.2881],[6.086,6.3038],[6.0882,6.3173],[6.095,6.3285],[6.1017,6.3353],[6.1129,6.3488],[6.1174,6.351],[6.1264,6.3555],[6.1399,6.3488],[6.1668,6.3308],[6.1803,6.3218],[6.1893,6.3106],[6.1938,6.2993],[6.1983,6.2836],[6.2118,6.2791],[6.223,6.2904],[6.2365,6.3038],[6.2477,6.3128],[6.2544,6.3196],[6.2612,6.333],[6.2814,6.3577],[6.2904,6.3622],[6.2814,6.36],[6.2791,6.3577],[6.2769,6.3577],[6.2701,6.3622],[6.2634,6.369],[6.2454,6.3892],[6.2342,6.4049],[6.2252,6.4184],[6.2163,6.4206],[6.2028,6.4206],[6.196,6.4184],[6.1893,6.4184],[6.1803,6.4184],[6.1736,6.4184],[6.1691,6.4184],[6.1579,6.4184],[6.1511,6.4161],[6.1377,6.4094],[6.1309,6.4049],[6.1309,6.3982],[6.1242,6.3847],[6.1129,6.3712],[6.1017,6.36],[6.0838,6.342],[6.077,6.3375],[6.0725,6.333],[6.0658,6.333],[6.0568,6.3308],[6.0501,6.3285],[6.0411,6.3285],[6.0343,6.3285],[6.0096,6.3196],[6.0029,6.3128],[5.9984,6.3038],[5.9872,6.2926],[5.976,6.2814],[5.967,6.2701],[5.9647,6.2679],[5.9513,6.2522],[5.9378,6.2522],[5.9131,6.2499],[5.8906,6.2522],[5.8727,6.2522],[5.8524,6.2544],[5.8479,6.2567],[5.839,6.2589],[5.8322,6.2589],[5.8277,6.2522],[5.8255,6.2499],[5.8232,6.2365],[5.8188,6.232],[5.8165,6.2297],[5.8008,6.2275],[5.794,6.2252],[5.7851,6.2252],[5.7693,6.2163],[5.7536,6.196],[5.7559,6.1803],[5.7559,6.1691],[5.7536,6.1601],[5.7469,6.1511],[5.7446,6.1466],[5.7446,6.1399],[5.7446,6.1354],[5.7424,6.1287],[5.7334,6.1085],[5.7267,6.095],[5.7334,6.0793]]]}},{"type":"Feature","properties":{"id":"edo/ovia-north-east","name":"Ovia North East","state":"Edo"},"geometry":{"type":"Polygon","coordinates":[[[5.2528,5.958],[5.2551,5.949],[5.2641,5.9423],[5.2685,5.94],[5.2708,5.9198],[5.2753,5.9086],[5.291,5.9131],[5.3045,5.9198],[5.3157,5.9355],[5.3337,5.949],[5.3494,5.9602],[5.3584,5.9692],[5.3449,5.976],[5.3404,5.9827],[5.3359,5.9849],[5.3269,5.9827],[5.3269,5.9894],[5.3224,6.0052],[5.3269,6.0186],[5.3337,6.0209],[5.3382,6.0186],[5.3427,6.0164],[5.3561,6.0164],[5.3651,6.0186],[5.3786,6.0186],[5.3921,6.0186],[5.3988,6.0209],[5.4123,6.0209],[5.4168,6.0096],[5.4145,6.0074],[5.4257,6.0052],[5.4302,6.0096],[5.4325,6.0141],[5.4302,6.0186],[5.428,6.0231],[5.428,6.0299],[5.4325,6.0343],[5.437,6.0366],[5.4415,6.0411],[5.446,6.0478],[5.4482,6.059],[5.4594,6.0927],[5.4617,6.0995],[5.4639,6.1085],[5.4662,6.1152],[5.4707,6.1332],[5.4774,6.1601],[5.4774,6.1691],[5.4796,6.1803],[5.4864,6.196],[5.4886,6.2028],[5.4909,6.2118],[5.4999,6.2275],[5.5066,6.241],[5.5201,6.2589],[5.5268,6.2702],[5.5291,6.2746],[5.5291,6.2769],[5.5291,6.2881],[5.5291,6.2971],[5.5291,6.3128],[5.5268,6.3218],[5.5268,6.3285],[5.5246,6.333],[5.5268,6.3398],[5.5268,6.342],[5.5335,6.3465],[5.5403,6.351],[5.5448,6.3555],[5.5582,6.3712],[5.5627,6.3824],[5.5627,6.3869],[5.5672,6.3937],[5.574,6.4004],[5.5807,6.4026],[5.6077,6.4094],[5.6234,6.4116],[5.6324,6.4139],[5.6368,6.4116],[5.6413,6.4139],[5.6458,6.4184],[5.6436,6.4251],[5.6413,6.4296],[5.6391,6.4318],[5.6391,6.4386],[5.6413,6.4453],[5.6436,6.4543],[5.6548,6.4655],[5.6616,6.4745],[5.6795,6.4925],[5.6863,6.4992],[5.7087,6.5172],[5.7267,6.5329],[5.7357,6.5396],[5.7604,6.5554],[5.7671,6.5621],[5.7716,6.5688],[5.7783,6.5778],[5.7873,6.589],[5.794,6.598],[5.7985,6.607],[5.8008,6.616],[5.803,6.6272],[5.8053,6.6385],[5.8143,6.6587],[5.8188,6.6676],[5.821,6.6766],[5.8232,6.6834],[5.8277,6.6901],[5.8322,6.6991],[5.8322,6.7058],[5.8367,6.7148],[5.839,6.7215],[5.8435,6.726],[5.8502,6.744],[5.8524,6.7665],[5.8592,6.7754],[5.8637,6.7799],[5.8704,6.7979],[5.8592,6.8001],[5.8479,6.8024],[5.83,6.8046],[5.8165,6.8091],[5.8008,6.8114],[5.7963,6.8114],[5.7918,6.8091],[5.7918,6.8069],[5.7873,6.8024],[5.7783,6.7912],[5.7738,6.7889],[5.7581,6.7822],[5.7514,6.7822],[5.7424,6.7777],[5.7267,6.7687],[5.7199,6.762],[5.7154,6.7575],[5.711,6.753],[5.702,6.735],[5.6683,6.7283],[5.6593,6.7305],[5.6548,6.735],[5.6503,6.7395],[5.6413,6.7463],[5.6368,6.7463],[5.6301,6.7463],[5.6189,6.7418],[5.6054,6.7283],[5.5964,6.7215],[5.5897,6.7148],[5.5852,6.7103],[5.5829,6.7036],[5.5762,6.7036],[5.574,6.7058],[5.565,6.7215],[5.5627,6.7305],[5.5605,6.753],[5.5627,6.762],[5.5605,6.7732],[5.5605,6.7777],[5.556,6.7867],[5.5493,6.7979],[5.5448,6.8046],[5.5425,6.8136],[5.5425,6.8159],[5.5425,6.8249],[5.547,6.8293],[5.5493,6.8338],[5.5538,6.8361],[5.5582,6.8361],[5.5627,6.8383],[5.5672,6.8406],[5.5717,6.8451],[5.5717,6.854],[5.5695,6.8698],[5.565,6.8765],[5.5627,6.8787],[5.556,6.8832],[5.538,6.8855],[5.4594,6.8855],[5.4617,6.8765],[5.4549,6.8563],[5.4482,6.8428],[5.4437,6.8338],[5.437,6.8159],[5.4302,6.7979],[5.4257,6.7844],[5.4235,6.7732],[5.4168,6.762],[5.4123,6.7597],[5.4055,6.753],[5.3988,6.7507],[5.3943,6.744],[5.3876,6.7328],[5.3831,6.7215],[5.3808,6.7171],[5.3831,6.7036],[5.3876,6.6968],[5.3921,6.6901],[5.3966,6.6811],[5.4033,6.6766],[5.41,6.6654],[5.4123,6.6564],[5.4145,6.6474],[5.419,6.6362],[5.4213,6.6317],[5.4235,6.6227],[5.428,6.607],[5.4302,6.5935],[5.4325,6.589],[5.437,6.5846],[5.4415,6.5801],[5.4482,6.5801],[5.4527,6.5778],[5.4594,6.5733],[5.4639,6.5711],[5.4662,6.5711],[5.4707,6.5621],[5.4729,6.5576],[5.4774,6.5486],[5.4819,6.5441],[5.4864,6.5396],[5.4931,6.5351],[5.4954,6.5307],[5.4909,6.5127],[5.4864,6.5127],[5.4819,6.5127],[5.4796,6.5037],[5.4752,6.4947],[5.4707,6.4835],[5.4662,6.4745],[5.4662,6.47],[5.4662,6.4678],[5.4684,6.461],[5.4662,6.4565],[5.4639,6.4543],[5.4594,6.4521],[5.4527,6.4408],[5.4504,6.4363],[5.446,6.4251],[5.4415,6.4139],[5.437,6.4004],[5.4415,6.3892],[5.446,6.3667],[5.4504,6.3555],[5.4549,6.3532],[5.4639,6.3488],[5.4684,6.3465],[5.4707,6.333],[5.4707,6.3308],[5.4707,6.3218],[5.4662,6.3061],[5.4594,6.2971],[5.4549,6.2926],[5.4504,6.2836],[5.4347,6.2769],[5.4302,6.2791],[5.4302,6.2814],[5.428,6.2814],[5.4213,6.2836],[5.4168,6.2859],[5.41,6.2859],[5.401,6.2836],[5.3988,6.2814],[5.3966,6.2769],[5.3921,6.2724],[5.3898,6.2679],[5.3831,6.2634],[5.3718,6.2567],[5.3584,6.2454],[5.3516,6.241],[5.3494,6.2342],[5.3516,6.2297],[5.3561,6.2185],[5.3584,6.214],[5.3629,6.2073],[5.3629,6.205],[5.3674,6.2028],[5.3674,6.2005],[5.3696,6.1983],[5.3674,6.1938],[5.3674,6.1893],[5.3606,6.1781],[5.3516,6.1646],[5.3449,6.1579],[5.3404,6.1556],[5.3314,6.1489],[5.3314,6.1444],[5.3269,6.1421],[5.3202,6.1444],[5.3135,6.1466],[5.3067,6.1444],[5.2955,6.1444],[5.2865,6.1444],[5.282,6.1399],[5.282,6.1332],[5.282,6.1264],[5.282,6.1219],[5.282,6.1197],[5.282,6.1152],[5.2798,6.1085],[5.2775,6.1062],[5.2708,6.0995],[5.2685,6.086],[5.273,6.0815],[5.282,6.0793],[5.291,6.077],[5.291,6.0725],[5.291,6.0658],[5.2865,6.0613],[5.2775,6.059],[5.273,6.0568],[5.2708,6.0546],[5.2685,6.0523],[5.2641,6.0433],[5.2596,6.0254],[5.2551,6.0141],[5.2483,5.9872],[5.2483,5.9692],[5.2528,5.958]]]}},{"type":"Feature","properties":{"id":"edo/ovia-south-west","name":"Ovia South West","state":"Edo"},"geometry":{"type":"Polygon","coordinates":[[[5.0148,6.2926],[5.0215,6.2859],[5.0305,6.2791],[5.035,6.2791],[5.0372,6.2769],[5.0417,6.2746],[5.0485,6.2657],[5.0485,6.2612],[5.0507,6.2522],[5.053,6.2477],[5.0574,6.2477],[5.0597,6.2477],[5.0642,6.2477],[5.0732,6.2387],[5.0732,6.2342],[5.0754,6.2275],[5.0777,6.2207],[5.0866,6.2073],[5.0889,6.2005],[5.0934,6.1983],[5.0956,6.196],[5.1136,6.2005],[5.1158,6.205],[5.1181,6.2073],[5.1203,6.2073],[5.1226,6.205],[5.1271,6.196],[5.136,6.1826],[5.1338,6.1713],[5.136,6.1691],[5.1338,6.1646],[5.1383,6.1601],[5.1405,6.1556],[5.1428,6.1511],[5.1428,6.1444],[5.145,6.1421],[5.154,6.1444],[5.1607,6.1421],[5.1652,6.1466],[5.1652,6.1556],[5.1652,6.1601],[5.1697,6.1646],[5.1787,6.1601],[5.181,6.1579],[5.1832,6.1534],[5.1899,6.1511],[5.1989,6.1466],[5.2034,6.1444],[5.2057,6.1466],[5.2057,6.1511],[5.2102,6.1534],[5.2236,6.1489],[5.2236,6.1444],[5.2191,6.1421],[5.2169,6.1354],[5.2214,6.1309],[5.2304,6.1197],[5.2349,6.1129],[5.2304,6.1017],[5.2326,6.0882],[5.2326,6.0815],[5.2326,6.0725],[5.2326,6.0658],[5.2393,6.0635],[5.2461,6.0635],[5.2573,6.0658],[5.2708,6.0546],[5.273,6.0568],[5.2775,6.059],[5.2865,6.0613],[5.291,6.0658],[5.291,6.0725],[5.291,6.077],[5.282,6.0793],[5.273,6.0815],[5.2685,6.086],[5.2708,6.0995],[5.2775,6.1062],[5.2798,6.1085],[5.282,6.1152],[5.282,6.1197],[5.282,6.1219],[5.282,6.1264],[5.282,6.1332],[5.282,6.1399],[5.2865,6.1444],[5.2955,6.1444],[5.3067,6.1444],[5.3135,6.1466],[5.3202,6.1444],[5.3269,6.1421],[5.3314,6.1444],[5.3314,6.1489],[5.3404,6.1556],[5.3449,6.1579],[5.3516,6.1646],[5.3606,6.1781],[5.3674,6.1893],[5.3674,6.1938],[5.3696,6.1983],[5.3674,6.2005],[5.3674,6.2028],[5.3629,6.205],[5.3629,6.2073],[5.3584,6.214],[5.3561,6.2185],[5.3516,6.2297],[5.3494,6.2342],[5.3516,6.241],[5.3584,6.2454],[5.3718,6.2567],[5.3831,6.2634],[5.3898,6.2679],[5.3921,6.2724],[5.3966,6.2769],[5.3988,6.2814],[5.401,6.2836],[5.41,6.2859],[5.4168,6.2859],[5.4213,6.2836],[5.428,6.2814],[5.4302,6.2814],[5.4302,6.2791],[5.4347,6.2769],[5.4504,6.2836],[5.4549,6.2926],[5.4594,6.2971],[5.4662,6.3061],[5.4707,6.3218],[5.4707,6.3308],[5.4707,6.333],[5.4684,6.3465],[5.4639,6.3488],[5.4549,6.3532],[5.4504,6.3555],[5.446,6.3667],[5.4415,6.3892],[5.437,6.4004],[5.4415,6.4139],[5.446,6.4251],[5.4504,6.4363],[5.4527,6.4408],[5.4594,6.4521],[5.4639,6.4543],[5.4662,6.4565],[5.4684,6.461],[5.4662,6.4678],[5.4662,6.47],[5.4662,6.4745],[5.4707,6.4835],[5.4752,6.4947],[5.4796,6.5037],[5.4819,6.5127],[5.4864,6.5127],[5.4909,6.5127],[5.4954,6.5307],[5.4931,6.5351],[5.4864,6.5396],[5.4819,6.5441],[5.4774,6.5486],[5.4729,6.5576],[5.4707,6.5621],[5.4662,6.5711],[5.4639,6.5711],[5.4594,6.5733],[5.4527,6.5778],[5.4482,6.5801],[5.4415,6.5801],[5.437,6.5846],[5.4325,6.589],[5.4302,6.5935],[5.428,6.607],[5.4235,6.6227],[5.4213,6.6317],[5.419,6.6362],[5.4145,6.6474],[5.4123,6.6564],[5.41,6.6654],[5.4033,6.6766],[5.3966,6.6811],[5.3921,6.6901],[5.3876,6.6968],[5.3831,6.7036],[5.3808,6.7171],[5.3831,6.7215],[5.3876,6.7328],[5.3943,6.744],[5.3988,6.7507],[5.4055,6.753],[5.4123,6.7597],[5.4168,6.762],[5.4235,6.7732],[5.4257,6.7844],[5.4302,6.7979],[5.437,6.8159],[5.4437,6.8338],[5.4482,6.8428],[5.4549,6.8563],[5.4617,6.8765],[5.4594,6.8855],[5.273,6.89],[5.2551,6.8832],[5.2438,6.8653],[5.2371,6.8518],[5.2326,6.8473],[5.2259,6.8383],[5.2236,6.8361],[5.2191,6.8271],[5.2079,6.8091],[5.2079,6.8046],[5.2034,6.7934],[5.2034,6.7822],[5.2012,6.7799],[5.1967,6.7732],[5.1854,6.7687],[5.172,6.762],[5.1675,6.7575],[5.1518,6.7463],[5.1405,6.7305],[5.1383,6.726],[5.136,6.7193],[5.1316,6.7126],[5.1271,6.7013],[5.1226,6.6991],[5.1226,6.6946],[5.1203,6.6901],[5.1181,6.6834],[5.1158,6.6766],[5.1136,6.6699],[5.1113,6.6564],[5.1113,6.6385],[5.1113,6.6295],[5.1136,6.6272],[5.1136,6.6205],[5.1271,6.5935],[5.1338,6.5823],[5.136,6.5778],[5.1383,6.5756],[5.1405,6.5733],[5.1473,6.5688],[5.154,6.5688],[5.163,6.5621],[5.1652,6.5554],[5.163,6.5464],[5.1607,6.5396],[5.154,6.5284],[5.154,6.5149],[5.1518,6.5037],[5.154,6.5015],[5.154,6.497],[5.1518,6.4947],[5.1405,6.479],[5.1226,6.4633],[5.1136,6.4543],[5.1068,6.4453],[5.1024,6.4431],[5.1024,6.4386],[5.1068,6.4184],[5.1091,6.4161],[5.1091,6.4139],[5.1091,6.4116],[5.1046,6.4026],[5.0979,6.3982],[5.0911,6.3914],[5.0844,6.3847],[5.0754,6.3779],[5.0709,6.3757],[5.0664,6.3757],[5.0619,6.3779],[5.0574,6.3824],[5.053,6.3847],[5.0485,6.3824],[5.0485,6.3779],[5.0485,6.3757],[5.0462,6.3712],[5.044,6.3667],[5.0395,6.3645],[5.0327,6.3645],[5.0282,6.3645],[5.0282,6.36],[5.0282,6.3577],[5.0282,6.3443],[5.0282,6.342],[5.0327,6.3375],[5.035,6.333],[5.035,6.3285],[5.0305,6.324],[5.0215,6.3196],[5.0193,6.3151],[5.0148,6.3083],[5.0125,6.3016],[5.0125,6.2993],[5.0148,6.2926]]]}},{"type":"Feature","properties":{"id":"edo/owan-east","name":"Owan East","state":"Edo"},"geometry":{"type":"Polygon","coordinates":[[[5.8435,7.1101],[5.8457,7.1078],[5.8479,7.1056],[5.8502,7.1033],[5.8524,7.0988],[5.8547,7.0966],[5.8524,7.0943],[5.8614,7.0876],[5.8682,7.0831],[5.8771,7.0831],[5.8906,7.0831],[5.9063,7.0809],[5.9153,7.0786],[5.9288,7.0741],[5.9423,7.0696],[5.949,7.0651],[5.9557,7.0629],[5.9625,7.0584],[5.9692,7.0562],[5.9804,7.0494],[5.9849,7.0472],[5.9917,7.036],[5.9917,7.027],[5.9849,7.0157],[5.976,6.9978],[5.9692,6.9798],[5.9737,6.9484],[5.9782,6.9416],[5.9872,6.9282],[5.9917,6.9237],[5.9962,6.9169],[6.0007,6.9079],[6.0029,6.8945],[6.0052,6.881],[6.0074,6.8743],[6.0141,6.8585],[6.0164,6.854],[6.0186,6.8473],[6.0231,6.8518],[6.0366,6.854],[6.0411,6.854],[6.0456,6.8496],[6.0456,6.8338],[6.0456,6.8316],[6.0433,6.8181],[6.0433,6.8091],[6.0478,6.7799],[6.0456,6.7754],[6.0501,6.7777],[6.0568,6.7799],[6.068,6.7867],[6.086,6.8001],[6.0972,6.8091],[6.1017,6.8114],[6.1085,6.8136],[6.1129,6.8181],[6.1242,6.8204],[6.1421,6.8249],[6.1511,6.8249],[6.1579,6.8249],[6.1668,6.8249],[6.1691,6.8316],[6.1736,6.8473],[6.1781,6.8608],[6.1781,6.8653],[6.1871,6.8855],[6.1938,6.8967],[6.1983,6.9057],[6.2073,6.9237],[6.214,6.9394],[6.2163,6.9461],[6.2163,6.9888],[6.2185,7.0135],[6.2185,7.0382],[6.2185,7.0427],[6.214,7.0584],[6.2073,7.0696],[6.2028,7.0786],[6.1983,7.0854],[6.1938,7.0899],[6.1848,7.0988],[6.1803,7.1123],[6.1758,7.1235],[6.1691,7.1437],[6.1668,7.1527],[6.1646,7.1617],[6.1624,7.1685],[6.1534,7.1797],[6.1489,7.1842],[6.1444,7.1864],[6.1377,7.1887],[6.1309,7.1909],[6.1242,7.1909],[6.1152,7.1954],[6.1062,7.1999],[6.1017,7.2021],[6.0882,7.2201],[6.0815,7.2336],[6.0748,7.2403],[6.0658,7.2471],[6.0635,7.2471],[6.0546,7.2448],[6.0456,7.2426],[6.0343,7.2403],[6.0254,7.2403],[6.0209,7.2381],[6.0186,7.2313],[6.0119,7.2291],[6.0029,7.2291],[5.9984,7.2268],[5.9917,7.2246],[5.9872,7.2268],[5.9804,7.2336],[5.976,7.2381],[5.9715,7.2448],[5.967,7.2471],[5.9625,7.2493],[5.949,7.2538],[5.94,7.256],[5.931,7.2605],[5.9265,7.2628],[5.9153,7.2718],[5.9086,7.2785],[5.9063,7.2718],[5.8996,7.2605],[5.8974,7.2493],[5.8974,7.2313],[5.9018,7.2246],[5.9041,7.2201],[5.9041,7.2179],[5.8996,7.2134],[5.8951,7.2111],[5.8884,7.2044],[5.8839,7.1999],[5.8839,7.1932],[5.8906,7.1887],[5.8929,7.1864],[5.8929,7.1819],[5.8906,7.1819],[5.8861,7.1797],[5.8816,7.1752],[5.8794,7.1729],[5.8771,7.1707],[5.8727,7.1617],[5.8682,7.1415],[5.8659,7.137],[5.8659,7.1325],[5.8637,7.128],[5.8614,7.1258],[5.8547,7.1235],[5.8457,7.1213],[5.8435,7.1213],[5.8435,7.119],[5.8412,7.1168],[5.8435,7.1101]]]}},{"type":"Feature","properties":{"id":"edo/owan-west","name":"Owan West","state":"Edo"},"geometry":{"type":"Polygon","coordinates":[[[5.7581,6.7822],[5.7738,6.7889],[5.7783,6.7912],[5.7873,6.8024],[5.7918,6.8069],[5.7918,6.8091],[5.7963,6.8114],[5.8008,6.8114],[5.8165,6.8091],[5.83,6.8046],[5.8479,6.8024],[5.8592,6.8001],[5.8704,6.7979],[5.8839,6.7957],[5.9018,6.7934],[5.9243,6.7912],[5.931,6.7912],[5.9513,6.7889],[5.958,6.7889],[5.9737,6.7844],[5.9827,6.7799],[5.9917,6.7822],[6.0029,6.7777],[6.0141,6.7732],[6.0231,6.771],[6.0343,6.7732],[6.0456,6.7754],[6.0478,6.7799],[6.0433,6.8091],[6.0433,6.8181],[6.0456,6.8316],[6.0456,6.8338],[6.0456,6.8496],[6.0411,6.854],[6.0366,6.854],[6.0231,6.8518],[6.0186,6.8473],[6.0164,6.854],[6.0141,6.8585],[6.0074,6.8743],[6.0052,6.881],[6.0029,6.8945],[6.0007,6.9079],[5.9962,6.9169],[5.9917,6.9237],[5.9872,6.9282],[5.9782,6.9416],[5.9737,6.9484],[5.9692,6.9798],[5.976,6.9978],[5.9849,7.0157],[5.9917,7.027],[5.9917,7.036],[5.9849,7.0472],[5.9804,7.0494],[5.9692,7.0562],[5.9625,7.0584],[5.9557,7.0629],[5.949,7.0651],[5.9423,7.0696],[5.9288,7.0741],[5.9153,7.0786],[5.9063,7.0809],[5.8906,7.0831],[5.8771,7.0831],[5.8682,7.0831],[5.8614,7.0876],[5.8524,7.0943],[5.8502,7.0921],[5.8345,7.0854],[5.83,7.0809],[5.8232,7.0809],[5.8165,7.0719],[5.8143,7.0674],[5.812,7.0584],[5.8098,7.0517],[5.8053,7.0494],[5.803,7.0449],[5.7963,7.0247],[5.794,7.0157],[5.794,7.0045],[5.7896,6.9888],[5.7851,6.9686],[5.7896,6.9618],[5.794,6.9439],[5.7985,6.9326],[5.7985,6.9282],[5.8008,6.9214],[5.7985,6.9192],[5.7985,6.9147],[5.794,6.9057],[5.7896,6.9012],[5.7873,6.8945],[5.7873,6.8787],[5.7851,6.8698],[5.7783,6.8585],[5.7738,6.854],[5.7716,6.8473],[5.7693,6.8406],[5.7716,6.8338],[5.7738,6.8316],[5.7761,6.8226],[5.7783,6.8181],[5.7716,6.7957],[5.7671,6.7912],[5.7581,6.7844],[5.7514,6.7822],[5.7581,6.7822]]]}},{"type":"Feature","properties":{"id":"edo/uhunmwonde","name":"Uhunmwonde","state":"Edo"},"geometry":{"type":"Polygon","coordinates":[[[5.6413,6.4296],[5.6436,6.4251],[5.6458,6.4184],[5.6526,6.4161],[5.6683,6.4139],[5.6818,6.4094],[5.6863,6.4071],[5.702,6.3914],[5.7042,6.3802],[5.7087,6.3667],[5.711,6.3645],[5.711,6.3577],[5.7132,6.3532],[5.7177,6.3398],[5.7177,6.3353],[5.7199,6.3308],[5.7289,6.324],[5.7357,6.3218],[5.7379,6.3218],[5.7424,6.3218],[5.7559,6.3173],[5.7626,6.3151],[5.7806,6.3038],[5.7918,6.2926],[5.7963,6.2904],[5.803,6.2836],[5.8098,6.2769],[5.812,6.2724],[5.8165,6.2657],[5.8232,6.2567],[5.8277,6.2522],[5.8322,6.2589],[5.839,6.2589],[5.8479,6.2567],[5.8524,6.2544],[5.8727,6.2522],[5.8906,6.2522],[5.9131,6.2499],[5.9378,6.2522],[5.9513,6.2522],[5.9647,6.2679],[5.967,6.2701],[5.976,6.2814],[5.9872,6.2926],[5.9984,6.3038],[6.0029,6.3128],[6.0096,6.3196],[6.0343,6.3285],[6.0411,6.3285],[6.0501,6.3285],[6.0568,6.3308],[6.0658,6.333],[6.0725,6.333],[6.077,6.3375],[6.0838,6.342],[6.1017,6.36],[6.1129,6.3712],[6.1242,6.3847],[6.1309,6.3982],[6.1309,6.4049],[6.1309,6.4116],[6.1287,6.4184],[6.1264,6.4296],[6.1107,6.4588],[6.1085,6.4655],[6.104,6.4723],[6.104,6.4768],[6.0995,6.4813],[6.0972,6.4857],[6.0905,6.5037],[6.0882,6.5127],[6.0838,6.5217],[6.0793,6.5307],[6.0725,6.5486],[6.0725,6.5554],[6.0725,6.5733],[6.0748,6.5778],[6.0793,6.5846],[6.0815,6.598],[6.0838,6.6048],[6.086,6.6138],[6.0882,6.6205],[6.086,6.634],[6.0882,6.6407],[6.0882,6.6474],[6.0882,6.6587],[6.0882,6.6699],[6.0882,6.6766],[6.086,6.6789],[6.0793,6.6924],[6.0703,6.7058],[6.0613,6.7171],[6.0523,6.726],[6.0478,6.7305],[6.0433,6.7373],[6.0343,6.7463],[6.0231,6.7575],[6.0186,6.7687],[6.0141,6.7732],[6.0029,6.7777],[5.9917,6.7822],[5.9827,6.7799],[5.9737,6.7844],[5.958,6.7889],[5.9513,6.7889],[5.931,6.7912],[5.9243,6.7912],[5.9018,6.7934],[5.8839,6.7957],[5.8704,6.7979],[5.8637,6.7799],[5.8592,6.7754],[5.8524,6.7665],[5.8502,6.744],[5.8435,6.726],[5.839,6.7215],[5.8367,6.7148],[5.8322,6.7058],[5.8322,6.6991],[5.8277,6.6901],[5.8232,6.6834],[5.821,6.6766],[5.8188,6.6676],[5.8143,6.6587],[5.8053,6.6385],[5.803,6.6272],[5.8008,6.616],[5.7985,6.607],[5.794,6.598],[5.7873,6.589],[5.7783,6.5778],[5.7716,6.5688],[5.7671,6.5621],[5.7604,6.5554],[5.7357,6.5396],[5.7267,6.5329],[5.7087,6.5172],[5.6863,6.4992],[5.6795,6.4925],[5.6616,6.4745],[5.6548,6.4655],[5.6436,6.4543],[5.6413,6.4453],[5.6391,6.4386],[5.6391,6.4318],[5.6413,6.4296]]]}}]}