{"type":"FeatureCollection","features":[{"type":"Feature","properties":{"id":"ekiti/ado-ekiti","name":"Ado Ekiti","state":"Ekiti"},"geometry":{"type":"Polygon","coordinates":[[[5.1136,7.6086],[5.1226,7.6041],[5.1383,7.6064],[5.1518,7.6064],[5.1697,7.6064],[5.181,7.5996],[5.1877,7.5951],[5.1899,7.5951],[5.2079,7.5794],[5.2191,7.5704],[5.2416,7.5547],[5.2551,7.5502],[5.2708,7.5457],[5.2865,7.5457],[5.309,7.5435],[5.3135,7.5435],[5.3292,7.5412],[5.3471,7.5412],[5.3606,7.5368],[5.3629,7.5368],[5.3629,7.5502],[5.3718,7.5615],[5.3876,7.5772],[5.3966,7.5907],[5.3988,7.5974],[5.3988,7.6041],[5.3943,7.6086],[5.3853,7.6109],[5.3741,7.6154],[5.3651,7.6198],[5.3606,7.6243],[5.3629,7.6356],[5.3674,7.6446],[5.3763,7.6648],[5.3786,7.667],[5.3741,7.667],[5.3651,7.6715],[5.3539,7.6715],[5.3314,7.6715],[5.3135,7.6737],[5.282,7.6737],[5.2663,7.6737],[5.2393,7.6715],[5.2236,7.667],[5.2079,7.6603],[5.1922,7.6513],[5.1877,7.6446],[5.181,7.6356],[5.172,7.6333],[5.163,7.6311],[5.1518,7.6311],[5.145,7.6288],[5.1383,7.6243],[5.1338,7.6243],[5.1226,7.6243],[5.1068,7.6221],[5.1068,7.6176],[5.1136,7.6086]]]}},{"type":"Feature","properties":{"id":"ekiti/aiyekire","name":"Aiyekire","state":"Ekiti"},"geometry":{"type":"Polygon","coordinates":[[[5.3651,7.6198],[5.3741,7.6154],[5.3853,7.6109],[5.3943,7.6086],[5.3988,7.6041],[5.3988,7.5974],[5.3966,7.5907],[5.3876,7.5772],[5.3718,7.5615],[5.3629,7.5502],[5.3629,7.5368],[5.3808,7.5368],[5.4055,7.5368],[5.437,7.5412],[5.4662,7.5435],[5.4931,7.548],[5.5223,7.5502],[5.5448,7.5525],[5.5538,7.5547],[5.5605,7.5547],[5.5717,7.557],[5.5807,7.5457],[5.5897,7.5345],[5.6009,7.5255],[5.6121,7.5188],[5.6144,7.5278],[5.6121,7.5368],[5.6144,7.5412],[5.6166,7.5547],[5.6189,7.5637],[5.6211,7.5704],[5.6256,7.5817],[5.6391,7.6041],[5.6436,7.6131],[5.6391,7.6154],[5.6301,7.6243],[5.6166,7.6356],[5.6032,7.6535],[5.5874,7.6715],[5.5717,7.685],[5.5538,7.6917],[5.5493,7.6895],[5.5425,7.6827],[5.5156,7.667],[5.4999,7.6603],[5.4796,7.6558],[5.4572,7.658],[5.4482,7.6625],[5.4392,7.6693],[5.4325,7.6827],[5.4257,7.7007],[5.4235,7.7097],[5.4168,7.7164],[5.4123,7.7097],[5.4033,7.694],[5.3966,7.6805],[5.3853,7.6693],[5.3786,7.667],[5.3763,7.6648],[5.3674,7.6446],[5.3629,7.6356],[5.3606,7.6243],[5.3651,7.6198]]]}},{"type":"Feature","properties":{"id":"ekiti/efon-alayee","name":"Efon-Alayee","state":"Ekiti"},"geometry":{"type":"Polygon","coordinates":[[[4.8688,7.6154],[4.8823,7.6109],[4.8868,7.6041],[4.8935,7.5929],[4.9025,7.5772],[4.907,7.5637],[4.9092,7.5682],[4.9137,7.5727],[4.9182,7.5862],[4.9249,7.5951],[4.9317,7.5996],[4.9496,7.6086],[4.9654,7.6176],[4.9699,7.6221],[4.9721,7.6266],[4.9766,7.6333],[4.9788,7.6423],[4.9811,7.6535],[4.9833,7.6648],[4.9856,7.6895],[4.9878,7.7052],[4.9923,7.7232],[4.9968,7.7321],[4.9991,7.7479],[4.9991,7.7568],[4.9923,7.7703],[4.9766,7.7905],[4.9676,7.795],[4.9564,7.7973],[4.9474,7.7995],[4.9407,7.7973],[4.9227,7.7928],[4.916,7.7905],[4.9137,7.7838],[4.9092,7.7658],[4.9025,7.7501],[4.8957,7.7344],[4.8935,7.7299],[4.8913,7.7187],[4.8913,7.7142],[4.8913,7.7097],[4.889,7.6917],[4.88,7.667],[4.8733,7.6513],[4.8643,7.6221],[4.8688,7.6154]]]}},{"type":"Feature","properties":{"id":"ekiti/ekiti-east","name":"Ekiti East","state":"Ekiti"},"geometry":{"type":"Polygon","coordinates":[[[5.5717,7.685],[5.5874,7.6715],[5.6032,7.6535],[5.6166,7.6356],[5.6301,7.6243],[5.6391,7.6154],[5.6436,7.6131],[5.6458,7.6176],[5.6548,7.6288],[5.6593,7.6288],[5.6705,7.6266],[5.675,7.6243],[5.6818,7.6243],[5.6885,7.6333],[5.6907,7.6378],[5.6907,7.6423],[5.693,7.6513],[5.6952,7.6715],[5.6997,7.6827],[5.7154,7.7007],[5.7289,7.7097],[5.7424,7.7187],[5.7559,7.7276],[5.7671,7.7366],[5.7738,7.7479],[5.7918,7.7815],[5.7671,7.7883],[5.7559,7.795],[5.7469,7.804],[5.7402,7.813],[5.7379,7.822],[5.7289,7.8287],[5.711,7.831],[5.6885,7.8287],[5.6683,7.8287],[5.6593,7.8287],[5.6548,7.8197],[5.6503,7.8085],[5.6458,7.8018],[5.6413,7.7973],[5.6324,7.786],[5.6256,7.7703],[5.6211,7.7636],[5.6166,7.7546],[5.6121,7.7501],[5.6077,7.7479],[5.6032,7.7434],[5.5987,7.7411],[5.5897,7.7344],[5.5807,7.7299],[5.5807,7.7276],[5.5717,7.7164],[5.5672,7.7097],[5.5627,7.7029],[5.5538,7.6917],[5.5717,7.685]]]}},{"type":"Feature","properties":{"id":"ekiti/ekiti-south-west","name":"Ekiti South West","state":"Ekiti"},"geometry":{"type":"Polygon","coordinates":[[[4.9092,7.5547],[4.9182,7.53],[4.9205,7.5165],[4.9249,7.5053],[4.9384,7.4784],[4.9474,7.4537],[4.9519,7.4469],[4.9676,7.4379],[4.9766,7.4335],[4.9856,7.4267],[4.9878,7.42],[4.9968,7.4155],[5.0058,7.4132],[5.008,7.4177],[5.017,7.4312],[5.0238,7.4357],[5.0327,7.4447],[5.0485,7.4582],[5.053,7.4582],[5.0597,7.4582],[5.0642,7.4604],[5.0709,7.4604],[5.0777,7.4604],[5.0844,7.4559],[5.0866,7.4604],[5.0979,7.4761],[5.1046,7.4806],[5.1136,7.4873],[5.1181,7.4918],[5.1226,7.4963],[5.136,7.5098],[5.1518,7.53],[5.1652,7.5457],[5.1765,7.566],[5.1854,7.5839],[5.1877,7.5929],[5.1877,7.5951],[5.181,7.5996],[5.1697,7.6064],[5.1518,7.6064],[5.1383,7.6064],[5.1226,7.6041],[5.1136,7.6086],[5.1068,7.6176],[5.1068,7.6221],[5.1046,7.6266],[5.1024,7.6356],[5.1001,7.6401],[5.0979,7.6378],[5.0911,7.6311],[5.0754,7.6109],[5.0664,7.5929],[5.0619,7.5817],[5.0552,7.5727],[5.0462,7.5615],[5.035,7.548],[5.0193,7.5412],[4.9968,7.5412],[4.9811,7.5435],[4.9654,7.548],[4.9407,7.5547],[4.9249,7.5592],[4.9115,7.5637],[4.907,7.5637],[4.9092,7.5547]]]}},{"type":"Feature","properties":{"id":"ekiti/ekiti-west","name":"Ekiti West","state":"Ekiti"},"geometry":{"type":"Polygon","coordinates":[[[4.9115,7.5637],[4.9249,7.5592],[4.9407,7.5547],[4.9654,7.548],[4.9811,7.5435],[4.9968,7.5412],[5.0193,7.5412],[5.035,7.548],[5.0462,7.5615],[5.0552,7.5727],[5.0619,7.5817],[5.0664,7.5929],[5.0754,7.6109],[5.0911,7.6311],[5.0979,7.6378],[5.1001,7.6401],[5.1024,7.6423],[5.1046,7.658],[5.1068,7.6715],[5.1091,7.6827],[5.1136,7.694],[5.1113,7.6962],[5.1046,7.7052],[5.0934,7.7119],[5.0799,7.7187],[5.0597,7.7299],[5.053,7.7344],[5.0395,7.7456],[5.0193,7.7681],[4.9968,7.7928],[4.9856,7.8107],[4.9788,7.822],[4.9743,7.8444],[4.9743,7.8579],[4.9743,7.8646],[4.9654,7.8759],[4.9496,7.8893],[4.9407,7.8983],[4.9362,7.8893],[4.9317,7.8848],[4.9272,7.8804],[4.9249,7.8736],[4.9249,7.8691],[4.9227,7.8624],[4.9137,7.8512],[4.9115,7.8512],[4.9092,7.8422],[4.9092,7.8287],[4.916,7.822],[4.916,7.8107],[4.916,7.795],[4.916,7.7905],[4.9227,7.7928],[4.9407,7.7973],[4.9474,7.7995],[4.9564,7.7973],[4.9676,7.795],[4.9766,7.7905],[4.9923,7.7703],[4.9991,7.7568],[4.9991,7.7479],[4.9968,7.7321],[4.9923,7.7232],[4.9878,7.7052],[4.9856,7.6895],[4.9833,7.6648],[4.9811,7.6535],[4.9788,7.6423],[4.9766,7.6333],[4.9721,7.6266],[4.9699,7.6221],[4.9654,7.6176],[4.9496,7.6086],[4.9317,7.5996],[4.9249,7.5951],[4.9182,7.5862],[4.9137,7.5727],[4.9092,7.5682],[4.907,7.5637],[4.9115,7.5637]]]}},{"type":"Feature","properties":{"id":"ekiti/emure","name":"Emure","state":"Ekiti"},"geometry":{"type":"Polygon","coordinates":[[[5.4415,7.4267],[5.4437,7.4132],[5.4504,7.3998],[5.4549,7.3863],[5.4572,7.3683],[5.4572,7.3571],[5.4504,7.3459],[5.4504,7.3301],[5.4504,7.3144],[5.4527,7.3054],[5.4549,7.301],[5.4594,7.301],[5.4662,7.301],[5.4729,7.301],[5.4819,7.3054],[5.4909,7.3099],[5.4954,7.3122],[5.5043,7.3167],[5.5088,7.3189],[5.5223,7.3324],[5.5268,7.3391],[5.5313,7.3481],[5.5425,7.3683],[5.5515,7.3796],[5.556,7.3863],[5.5672,7.4043],[5.5762,7.4177],[5.5829,7.4267],[5.5874,7.4312],[5.5987,7.4492],[5.6009,7.4559],[5.6032,7.4671],[5.6077,7.4806],[5.6099,7.4851],[5.6121,7.4941],[5.6121,7.5076],[5.6121,7.5188],[5.6009,7.5255],[5.5897,7.5345],[5.5807,7.5457],[5.5717,7.557],[5.5605,7.5547],[5.5538,7.5547],[5.5493,7.548],[5.5448,7.5412],[5.5425,7.5323],[5.5313,7.5143],[5.5291,7.5121],[5.5156,7.4986],[5.4999,7.4896],[5.4886,7.4851],[5.4752,7.4806],[5.4707,7.4784],[5.4639,7.4739],[5.4527,7.4671],[5.446,7.4626],[5.4415,7.4537],[5.4392,7.4379],[5.4415,7.4267]]]}},{"type":"Feature","properties":{"id":"ekiti/ido-osi","name":"Ido-Osi","state":"Ekiti"},"geometry":{"type":"Polygon","coordinates":[[[5.1001,7.914],[5.1091,7.9073],[5.1181,7.8938],[5.1271,7.8804],[5.1383,7.8601],[5.1405,7.8467],[5.1405,7.8377],[5.1383,7.8242],[5.1383,7.813],[5.1405,7.786],[5.1405,7.7793],[5.1383,7.7726],[5.1405,7.7703],[5.145,7.7748],[5.1563,7.7748],[5.1765,7.7771],[5.1989,7.7793],[5.2214,7.7793],[5.2371,7.7793],[5.2596,7.7838],[5.2663,7.7905],[5.2641,7.795],[5.2573,7.8175],[5.2551,7.8354],[5.2551,7.8422],[5.2551,7.8557],[5.2573,7.8669],[5.2573,7.8804],[5.2573,7.8983],[5.2596,7.9051],[5.2506,7.9051],[5.2259,7.9073],[5.2079,7.9096],[5.1967,7.9118],[5.1787,7.9208],[5.1742,7.9275],[5.1675,7.932],[5.1652,7.9387],[5.1518,7.9455],[5.1383,7.95],[5.1293,7.9522],[5.1203,7.9477],[5.1113,7.9432],[5.0979,7.9298],[5.0934,7.923],[5.1001,7.914]]]}},{"type":"Feature","properties":{"id":"ekiti/ijero","name":"Ijero","state":"Ekiti"},"geometry":{"type":"Polygon","coordinates":[[[4.9496,7.8893],[4.9654,7.8759],[4.9743,7.8646],[4.9743,7.8579],[4.9743,7.8444],[4.9788,7.822],[4.9856,7.8107],[4.9968,7.7928],[5.0193,7.7681],[5.0395,7.7456],[5.053,7.7344],[5.0597,7.7299],[5.0799,7.7187],[5.0934,7.7119],[5.1046,7.7052],[5.1113,7.6962],[5.1136,7.694],[5.1158,7.7007],[5.1203,7.7119],[5.1248,7.7276],[5.136,7.7591],[5.1383,7.7726],[5.1405,7.7793],[5.1405,7.786],[5.1383,7.813],[5.1383,7.8242],[5.1405,7.8377],[5.1405,7.8467],[5.1383,7.8601],[5.1271,7.8804],[5.1181,7.8938],[5.1091,7.9073],[5.1001,7.914],[5.0934,7.923],[5.0866,7.932],[5.0799,7.9387],[5.0687,7.9522],[5.0574,7.9634],[5.0462,7.9724],[5.0372,7.9792],[5.0327,7.9814],[5.0305,7.9769],[5.017,7.9545],[5.008,7.95],[5.0013,7.9455],[4.9968,7.9387],[4.9901,7.932],[4.9788,7.923],[4.9676,7.9163],[4.9496,7.9028],[4.9429,7.9006],[4.9407,7.8983],[4.9496,7.8893]]]}},{"type":"Feature","properties":{"id":"ekiti/ikere","name":"Ikere","state":"Ekiti"},"geometry":{"type":"Polygon","coordinates":[[[5.0889,7.4559],[5.0956,7.4514],[5.1024,7.4492],[5.1271,7.4447],[5.1316,7.4447],[5.145,7.4424],[5.1607,7.4424],[5.1742,7.4424],[5.181,7.4424],[5.1877,7.4402],[5.1922,7.4379],[5.2012,7.4379],[5.2079,7.4357],[5.2191,7.4335],[5.2371,7.4335],[5.2461,7.4335],[5.2528,7.4357],[5.2596,7.4379],[5.2685,7.4379],[5.2798,7.4357],[5.2955,7.4357],[5.3,7.4379],[5.3067,7.4402],[5.3022,7.4537],[5.3,7.4582],[5.3045,7.4626],[5.309,7.4694],[5.309,7.4716],[5.3045,7.4761],[5.3,7.4806],[5.2977,7.4851],[5.2955,7.4896],[5.2955,7.5008],[5.2977,7.5053],[5.3,7.5121],[5.3045,7.521],[5.3067,7.53],[5.3112,7.5345],[5.3112,7.5368],[5.3135,7.5435],[5.309,7.5435],[5.2865,7.5457],[5.2708,7.5457],[5.2551,7.5502],[5.2416,7.5547],[5.2191,7.5704],[5.2079,7.5794],[5.1899,7.5951],[5.1877,7.5951],[5.1877,7.5929],[5.1854,7.5839],[5.1765,7.566],[5.1652,7.5457],[5.1518,7.53],[5.136,7.5098],[5.1226,7.4963],[5.1181,7.4918],[5.1136,7.4873],[5.1046,7.4806],[5.0979,7.4761],[5.0866,7.4604],[5.0844,7.4559],[5.0889,7.4559]]]}},{"type":"Feature","properties":{"id":"ekiti/ikole","name":"Ikole","state":"Ekiti"},"geometry":{"type":"Polygon","coordinates":[[[5.3741,8.0263],[5.3876,8.0196],[5.4033,8.0084],[5.419,7.9971],[5.437,7.9904],[5.4437,7.9859],[5.4504,7.9792],[5.4504,7.9747],[5.4437,7.9634],[5.4415,7.959],[5.437,7.9522],[5.437,7.9432],[5.437,7.932],[5.4302,7.9253],[5.4257,7.914],[5.4235,7.8961],[5.4213,7.8871],[5.419,7.8804],[5.4168,7.8714],[5.4168,7.8512],[5.4145,7.8377],[5.4123,7.8332],[5.4078,7.8242],[5.401,7.804],[5.3966,7.7838],[5.3966,7.7658],[5.3966,7.7501],[5.3921,7.7344],[5.3921,7.7321],[5.3876,7.7232],[5.3921,7.7232],[5.41,7.7187],[5.4168,7.7164],[5.4235,7.7097],[5.4257,7.7007],[5.4325,7.6827],[5.4392,7.6693],[5.4482,7.6625],[5.4572,7.658],[5.4796,7.6558],[5.4999,7.6603],[5.5156,7.667],[5.5425,7.6827],[5.5493,7.6895],[5.5538,7.6917],[5.5627,7.7029],[5.5672,7.7097],[5.5717,7.7164],[5.5807,7.7276],[5.5807,7.7299],[5.5897,7.7344],[5.5987,7.7411],[5.6032,7.7434],[5.6077,7.7479],[5.6121,7.7501],[5.6166,7.7546],[5.6211,7.7636],[5.6256,7.7703],[5.6324,7.786],[5.6413,7.7973],[5.6458,7.8018],[5.6503,7.8085],[5.6548,7.8197],[5.6593,7.8287],[5.6571,7.8287],[5.6436,7.8287],[5.6301,7.8354],[5.6234,7.8422],[5.6144,7.8646],[5.6121,7.8759],[5.6077,7.9118],[5.6032,7.9275],[5.6009,7.9432],[5.5987,7.9522],[5.5987,7.959],[5.6009,7.9634],[5.6099,7.9657],[5.6144,7.9612],[5.6279,7.9567],[5.6346,7.959],[5.6458,7.9634],[5.6481,7.9657],[5.6481,7.9747],[5.6481,7.9859],[5.6503,7.9904],[5.6571,7.9949],[5.6683,8.0016],[5.6683,8.0084],[5.6616,8.0151],[5.6571,8.0196],[5.6503,8.0241],[5.6481,8.0331],[5.6481,8.0421],[5.6436,8.0488],[5.6391,8.0533],[5.6436,8.06],[5.6458,8.06],[5.6548,8.0645],[5.6593,8.069],[5.6571,8.0757],[5.6481,8.0735],[5.6436,8.0735],[5.6391,8.0735],[5.6256,8.0735],[5.5987,8.0735],[5.5762,8.0712],[5.5717,8.069],[5.5582,8.0578],[5.5515,8.051],[5.538,8.0398],[5.5268,8.0308],[5.5156,8.0218],[5.5088,8.0173],[5.5066,8.0196],[5.5043,8.0241],[5.5043,8.0286],[5.5066,8.0465],[5.5133,8.0757],[5.5133,8.0847],[5.5156,8.1049],[5.5133,8.1117],[5.5066,8.1117],[5.4976,8.1117],[5.4752,8.1072],[5.4482,8.1049],[5.4213,8.1049],[5.3988,8.1027],[5.3876,8.1027],[5.3718,8.0959],[5.3651,8.0915],[5.3606,8.0825],[5.3584,8.0735],[5.3584,8.0623],[5.3606,8.0533],[5.3606,8.0443],[5.3606,8.0376],[5.3584,8.0353],[5.3741,8.0263]]]}},{"type":"Feature","properties":{"id":"ekiti/ilejemeji","name":"Ilejemeji","state":"Ekiti"},"geometry":{"type":"Polygon","coordinates":[[[5.1675,7.932],[5.1742,7.9275],[5.1787,7.9208],[5.1967,7.9118],[5.2079,7.9096],[5.2259,7.9073],[5.2506,7.9051],[5.2596,7.9051],[5.2596,7.9163],[5.2618,7.9275],[5.2663,7.9365],[5.273,7.9545],[5.2775,7.9724],[5.2798,7.9859],[5.2798,8.0016],[5.282,8.0084],[5.2685,8.0106],[5.2618,8.0129],[5.2573,8.0173],[5.2438,8.0196],[5.2416,8.0151],[5.2349,8.0061],[5.2304,7.9971],[5.2281,7.9882],[5.2214,7.9792],[5.2079,7.9724],[5.1922,7.9634],[5.181,7.9567],[5.172,7.9477],[5.1652,7.9387],[5.1675,7.932]]]}},{"type":"Feature","properties":{"id":"ekiti/irepodun-ifelodun","name":"Irepodun/Ifelodun","state":"Ekiti"},"geometry":{"type":"Polygon","coordinates":[[[5.1024,7.6356],[5.1046,7.6266],[5.1068,7.6221],[5.1226,7.6243],[5.1338,7.6243],[5.1383,7.6243],[5.145,7.6288],[5.1518,7.6311],[5.163,7.6311],[5.172,7.6333],[5.181,7.6356],[5.1877,7.6446],[5.1922,7.6513],[5.2079,7.6603],[5.2236,7.667],[5.2393,7.6715],[5.2663,7.6737],[5.282,7.6737],[5.3135,7.6737],[5.3314,7.6715],[5.3539,7.6715],[5.3651,7.6715],[5.3741,7.667],[5.3786,7.667],[5.3853,7.6693],[5.3966,7.6805],[5.4033,7.694],[5.4123,7.7097],[5.4168,7.7164],[5.41,7.7187],[5.3921,7.7232],[5.3876,7.7232],[5.3831,7.7254],[5.3718,7.7254],[5.3539,7.7321],[5.3202,7.7456],[5.3022,7.7568],[5.282,7.7703],[5.273,7.7793],[5.2663,7.7905],[5.2596,7.7838],[5.2371,7.7793],[5.2214,7.7793],[5.1989,7.7793],[5.1765,7.7771],[5.1563,7.7748],[5.145,7.7748],[5.1405,7.7703],[5.1383,7.7726],[5.136,7.7591],[5.1248,7.7276],[5.1203,7.7119],[5.1158,7.7007],[5.1136,7.694],[5.1091,7.6827],[5.1068,7.6715],[5.1046,7.658],[5.1024,7.6423],[5.1001,7.6401],[5.1024,7.6356]]]}},{"type":"Feature","properties":{"id":"ekiti/ise-orun","name":"Ise/Orun","state":"Ekiti"},"geometry":{"type":"Polygon","coordinates":[[[5.2977,7.4851],[5.3,7.4806],[5.3045,7.4761],[5.309,7.4716],[5.309,7.4694],[5.3045,7.4626],[5.3,7.4582],[5.3022,7.4537],[5.3067,7.4402],[5.309,7.4402],[5.3157,7.4424],[5.3202,7.4402],[5.3247,7.4312],[5.3269,7.4245],[5.3292,7.4177],[5.3337,7.4087],[5.3382,7.402],[5.3404,7.3975],[5.3427,7.3908],[5.3449,7.3863],[5.3471,7.3818],[5.3494,7.3751],[5.3494,7.3683],[5.3539,7.3436],[5.3561,7.3346],[5.3561,7.3279],[5.3539,7.3212],[5.3539,7.3099],[5.3561,7.3054],[5.3561,7.301],[5.3584,7.2965],[5.3629,7.292],[5.3808,7.2852],[5.3876,7.283],[5.3988,7.2875],[5.4055,7.2897],[5.4123,7.2897],[5.4168,7.292],[5.4257,7.2942],[5.4504,7.2987],[5.4549,7.301],[5.4527,7.3054],[5.4504,7.3144],[5.4504,7.3301],[5.4504,7.3459],[5.4572,7.3571],[5.4572,7.3683],[5.4549,7.3863],[5.4504,7.3998],[5.4437,7.4132],[5.4415,7.4267],[5.4392,7.4379],[5.4415,7.4537],[5.446,7.4626],[5.4527,7.4671],[5.4639,7.4739],[5.4707,7.4784],[5.4752,7.4806],[5.4886,7.4851],[5.4999,7.4896],[5.5156,7.4986],[5.5291,7.5121],[5.5313,7.5143],[5.5425,7.5323],[5.5448,7.5412],[5.5493,7.548],[5.5538,7.5547],[5.5448,7.5525],[5.5223,7.5502],[5.4931,7.548],[5.4662,7.5435],[5.437,7.5412],[5.4055,7.5368],[5.3808,7.5368],[5.3629,7.5368],[5.3606,7.5368],[5.3471,7.5412],[5.3292,7.5412],[5.3135,7.5435],[5.3112,7.5368],[5.3112,7.5345],[5.3067,7.53],[5.3045,7.521],[5.3,7.5121],[5.2977,7.5053],[5.2955,7.5008],[5.2955,7.4896],[5.2977,7.4851]]]}},{"type":"Feature","properties":{"id":"ekiti/moba","name":"Moba","state":"Ekiti"},"geometry":{"type":"Polygon","coordinates":[[[5.0372,7.9792],[5.0462,7.9724],[5.0574,7.9634],[5.0687,7.9522],[5.0799,7.9387],[5.0866,7.932],[5.0934,7.923],[5.0979,7.9298],[5.1113,7.9432],[5.1203,7.9477],[5.1293,7.9522],[5.1383,7.95],[5.1518,7.9455],[5.1652,7.9387],[5.172,7.9477],[5.181,7.9567],[5.1922,7.9634],[5.2079,7.9724],[5.2214,7.9792],[5.2281,7.9882],[5.2304,7.9971],[5.2349,8.0061],[5.2416,8.0151],[5.2438,8.0196],[5.2304,8.0218],[5.2191,8.0218],[5.2034,8.0173],[5.1967,8.0173],[5.1922,8.0218],[5.1877,8.0286],[5.181,8.0353],[5.1765,8.0398],[5.1652,8.0465],[5.163,8.0488],[5.1563,8.0533],[5.1495,8.0555],[5.1428,8.0623],[5.1271,8.0623],[5.1181,8.0623],[5.1136,8.0578],[5.1046,8.0465],[5.0866,8.0286],[5.0844,8.0241],[5.0754,8.0241],[5.0732,8.0308],[5.0619,8.0376],[5.0574,8.0398],[5.0574,8.0308],[5.053,8.0241],[5.0395,8.0106],[5.035,8.0061],[5.0327,7.9971],[5.0327,7.9904],[5.0327,7.9814],[5.0372,7.9792]]]}},{"type":"Feature","properties":{"id":"ekiti/oye","name":"Oye","state":"Ekiti"},"geometry":{"type":"Polygon","coordinates":[[[5.2573,7.8175],[5.2641,7.795],[5.2663,7.7905],[5.273,7.7793],[5.282,7.7703],[5.3022,7.7568],[5.3202,7.7456],[5.3539,7.7321],[5.3718,7.7254],[5.3831,7.7254],[5.3876,7.7232],[5.3921,7.7321],[5.3921,7.7344],[5.3966,7.7501],[5.3966,7.7658],[5.3966,7.7838],[5.401,7.804],[5.4078,7.8242],[5.4123,7.8332],[5.4145,7.8377],[5.4168,7.8512],[5.4168,7.8714],[5.419,7.8804],[5.4213,7.8871],[5.4235,7.8961],[5.4257,7.914],[5.4302,7.9253],[5.437,7.932],[5.437,7.9432],[5.437,7.9522],[5.4415,7.959],[5.4437,7.9634],[5.4504,7.9747],[5.4504,7.9792],[5.4437,7.9859],[5.437,7.9904],[5.419,7.9971],[5.4033,8.0084],[5.3876,8.0196],[5.3741,8.0263],[5.3584,8.0353],[5.3584,8.0331],[5.3516,8.0263],[5.3449,8.0196],[5.3404,8.0151],[5.3314,8.0106],[5.3179,8.0084],[5.2977,8.0084],[5.282,8.0084],[5.2798,8.0016],[5.2798,7.9859],[5.2775,7.9724],[5.273,7.9545],[5.2663,7.9365],[5.2618,7.9275],[5.2596,7.9163],[5.2596,7.9051],[5.2573,7.8983],[5.2573,7.8804],[5.2573,7.8669],[5.2551,7.8557],[5.2551,7.8422],[5.2551,7.8354],[5.2573,7.8175]]]}}]}