{"type":"FeatureCollection","features":[{"type":"Feature","properties":{"id":"enugu/aninri","name":"Aninri","state":"Enugu"},"geometry":{"type":"Polygon","coordinates":[[[7.5121,6.1466],[7.5165,6.1377],[7.5233,6.1219],[7.5278,6.0972],[7.5278,6.0838],[7.5323,6.0658],[7.5323,6.0501],[7.5255,6.0366],[7.521,6.0209],[7.5323,6.0119],[7.548,5.9939],[7.5592,5.9849],[7.5727,5.9692],[7.5884,5.9625],[7.6356,5.9423],[7.6648,5.931],[7.6782,5.9288],[7.6917,5.9243],[7.7052,5.9288],[7.7142,5.9468],[7.7119,5.9715],[7.6962,5.9894],[7.676,6.0096],[7.667,6.0299],[7.6648,6.0501],[7.6693,6.0613],[7.6603,6.0703],[7.6603,6.0793],[7.6535,6.0995],[7.649,6.1062],[7.6401,6.1332],[7.6311,6.1534],[7.6221,6.1579],[7.6041,6.1579],[7.5951,6.1556],[7.5839,6.1534],[7.5704,6.1556],[7.5592,6.1624],[7.5502,6.1691],[7.5457,6.1758],[7.5457,6.1871],[7.5368,6.1983],[7.5323,6.2095],[7.53,6.205],[7.5278,6.1915],[7.5233,6.1736],[7.5165,6.1601],[7.5098,6.1489],[7.5121,6.1466]]]}},{"type":"Feature","properties":{"id":"enugu/awgu","name":"Awgu","state":"Enugu"},"geometry":{"type":"Polygon","coordinates":[[[7.3728,6.1915],[7.3751,6.1803],[7.3796,6.1713],[7.3863,6.1579],[7.3908,6.1466],[7.393,6.1377],[7.393,6.1287],[7.3908,6.1219],[7.3863,6.1062],[7.3863,6.095],[7.3885,6.077],[7.3908,6.0703],[7.393,6.0568],[7.3908,6.0456],[7.384,6.0366],[7.3863,6.0366],[7.3953,6.0254],[7.4043,6.0119],[7.4155,6.0052],[7.4312,6.0052],[7.4514,6.0141],[7.4626,6.0141],[7.4761,6.0119],[7.4941,6.0164],[7.5098,6.0209],[7.521,6.0209],[7.5255,6.0366],[7.5323,6.0501],[7.5323,6.0658],[7.5278,6.0838],[7.5278,6.0972],[7.5233,6.1219],[7.5165,6.1377],[7.5121,6.1466],[7.5098,6.1489],[7.5165,6.1601],[7.5233,6.1736],[7.5278,6.1915],[7.53,6.205],[7.5323,6.2095],[7.5188,6.2252],[7.5121,6.232],[7.5031,6.2387],[7.4963,6.2522],[7.4851,6.2702],[7.4761,6.2814],[7.4649,6.2949],[7.4492,6.3263],[7.4447,6.3398],[7.4402,6.3353],[7.4312,6.3196],[7.4267,6.3106],[7.4222,6.2949],[7.4177,6.2814],[7.4065,6.2634],[7.3953,6.2544],[7.3908,6.2477],[7.3885,6.2387],[7.3863,6.2275],[7.3818,6.2163],[7.3773,6.2073],[7.3706,6.205],[7.3728,6.1915]]]}},{"type":"Feature","properties":{"id":"enugu/enugu-east","name":"Enugu East","state":"Enugu"},"geometry":{"type":"Polygon","coordinates":[[[7.4604,6.6115],[7.4604,6.6048],[7.4626,6.5823],[7.4626,6.5643],[7.4626,6.5374],[7.4604,6.5015],[7.4604,6.4813],[7.4626,6.4835],[7.4739,6.4857],[7.4806,6.4813],[7.4896,6.47],[7.4963,6.4655],[7.5121,6.4678],[7.5323,6.4655],[7.5637,6.4655],[7.5704,6.4655],[7.5772,6.4678],[7.5839,6.4678],[7.5974,6.4655],[7.6154,6.4565],[7.6266,6.4498],[7.6311,6.4476],[7.6311,6.4565],[7.6446,6.47],[7.6513,6.4857],[7.6558,6.5037],[7.658,6.5127],[7.6558,6.5239],[7.6513,6.5329],[7.649,6.5419],[7.6513,6.5531],[7.6513,6.5666],[7.649,6.5756],[7.649,6.5823],[7.6513,6.5913],[7.6535,6.6025],[7.6446,6.6093],[7.6266,6.6182],[7.5996,6.6429],[7.5839,6.6519],[7.5727,6.6542],[7.557,6.6497],[7.548,6.6407],[7.548,6.6362],[7.5457,6.6317],[7.5435,6.6317],[7.5412,6.6295],[7.5278,6.6272],[7.5143,6.6272],[7.4963,6.6272],[7.4829,6.625],[7.4716,6.6205],[7.4582,6.616],[7.4604,6.6115]]]}},{"type":"Feature","properties":{"id":"enugu/enugu-north","name":"Enugu North","state":"Enugu"},"geometry":{"type":"Polygon","coordinates":[[[7.4492,6.4341],[7.4514,6.4229],[7.4694,6.4229],[7.4829,6.4229],[7.5008,6.4251],[7.5188,6.4274],[7.5323,6.4274],[7.5435,6.4229],[7.5525,6.4161],[7.5682,6.4071],[7.5817,6.3959],[7.5839,6.3982],[7.6019,6.4071],[7.6198,6.4206],[7.6266,6.4341],[7.6311,6.4476],[7.6266,6.4498],[7.6154,6.4565],[7.5974,6.4655],[7.5839,6.4678],[7.5772,6.4678],[7.5704,6.4655],[7.5637,6.4655],[7.5323,6.4655],[7.5121,6.4678],[7.4963,6.4655],[7.4896,6.47],[7.4806,6.4813],[7.4739,6.4857],[7.4626,6.4835],[7.4604,6.4813],[7.4582,6.4768],[7.4537,6.4678],[7.4469,6.4498],[7.4492,6.4341]]]}},{"type":"Feature","properties":{"id":"enugu/enugu-south","name":"Enugu South","state":"Enugu"},"geometry":{"type":"Polygon","coordinates":[[[7.4469,6.4026],[7.4604,6.3914],[7.4649,6.3847],[7.4761,6.3802],[7.5008,6.3757],[7.5098,6.3757],[7.53,6.3712],[7.5457,6.3712],[7.5592,6.3757],[7.566,6.3869],[7.5749,6.3937],[7.5817,6.3959],[7.5682,6.4071],[7.5525,6.4161],[7.5435,6.4229],[7.5323,6.4274],[7.5188,6.4274],[7.5008,6.4251],[7.4829,6.4229],[7.4694,6.4229],[7.4514,6.4229],[7.4402,6.4094],[7.4469,6.4026]]]}},{"type":"Feature","properties":{"id":"enugu/ezeagu","name":"Ezeagu","state":"Enugu"},"geometry":{"type":"Polygon","coordinates":[[[7.0382,6.4408],[7.0651,6.4363],[7.0899,6.4296],[7.0966,6.4229],[7.1146,6.4004],[7.128,6.3869],[7.1348,6.3735],[7.1415,6.36],[7.1505,6.3353],[7.155,6.3218],[7.1595,6.3151],[7.1617,6.3038],[7.1662,6.2993],[7.1842,6.2836],[7.1954,6.2814],[7.2268,6.2769],[7.2426,6.2769],[7.2448,6.2746],[7.256,6.2814],[7.2673,6.2904],[7.2875,6.3038],[7.301,6.3151],[7.3369,6.333],[7.3571,6.3375],[7.3661,6.342],[7.3796,6.3532],[7.3863,6.3667],[7.3885,6.3824],[7.3863,6.3982],[7.3796,6.4116],[7.3661,6.4229],[7.3459,6.4386],[7.3324,6.4521],[7.3167,6.4655],[7.2875,6.4835],[7.2785,6.488],[7.2605,6.497],[7.2493,6.5037],[7.2403,6.5082],[7.2179,6.5104],[7.2134,6.5104],[7.1932,6.5172],[7.1797,6.5284],[7.164,6.5307],[7.1595,6.5374],[7.155,6.5531],[7.1505,6.5599],[7.1482,6.5531],[7.1348,6.5351],[7.1168,6.5037],[7.1078,6.4902],[7.0988,6.4835],[7.0831,6.4768],[7.0696,6.4745],[7.0562,6.4745],[7.0494,6.4745],[7.0449,6.4723],[7.036,6.4745],[7.0337,6.4678],[7.0337,6.4565],[7.0292,6.4476],[7.027,6.4431],[7.0382,6.4408]]]}},{"type":"Feature","properties":{"id":"enugu/igbo-etiti","name":"Igbo-Etiti","state":"Enugu"},"geometry":{"type":"Polygon","coordinates":[[[7.283,6.6856],[7.2852,6.6766],[7.2852,6.6699],[7.2987,6.6654],[7.3122,6.6609],[7.3234,6.6542],[7.3391,6.6429],[7.3504,6.6407],[7.3638,6.6362],[7.3773,6.6317],[7.384,6.6227],[7.393,6.616],[7.411,6.6115],[7.429,6.6115],[7.4492,6.6138],[7.4582,6.616],[7.4716,6.6205],[7.4829,6.625],[7.4963,6.6272],[7.5143,6.6272],[7.5278,6.6272],[7.5412,6.6295],[7.5435,6.6317],[7.5412,6.6407],[7.5368,6.6542],[7.5323,6.6632],[7.53,6.6721],[7.53,6.6811],[7.53,6.6856],[7.5278,6.6946],[7.521,6.7058],[7.5121,6.7238],[7.5098,6.7328],[7.5076,6.7418],[7.4986,6.7485],[7.4873,6.7507],[7.4784,6.753],[7.4694,6.762],[7.4649,6.771],[7.4559,6.771],[7.4424,6.7665],[7.429,6.7597],[7.411,6.7485],[7.3885,6.7395],[7.3773,6.735],[7.3616,6.7283],[7.3481,6.7215],[7.3324,6.7238],[7.3167,6.7238],[7.2987,6.7148],[7.2897,6.7081],[7.2807,6.7013],[7.2807,6.6924],[7.283,6.6856]]]}},{"type":"Feature","properties":{"id":"enugu/igbo-eze-north","name":"Igbo-Eze North","state":"Enugu"},"geometry":{"type":"Polygon","coordinates":[[[7.3683,7.036],[7.3706,7.0292],[7.3706,7.0225],[7.3728,7.009],[7.3818,6.9865],[7.3885,6.9663],[7.3953,6.9551],[7.3998,6.9439],[7.4065,6.9349],[7.4177,6.9304],[7.4379,6.9304],[7.4559,6.9282],[7.4716,6.9214],[7.4851,6.9169],[7.4918,6.9102],[7.4941,6.9124],[7.5053,6.9214],[7.5165,6.9304],[7.5233,6.9394],[7.5457,6.9551],[7.5592,6.9708],[7.557,6.9776],[7.5525,6.9843],[7.5502,6.991],[7.5412,7.009],[7.539,7.0202],[7.53,7.0315],[7.5255,7.036],[7.5165,7.0494],[7.5031,7.0696],[7.4918,7.0741],[7.4784,7.0899],[7.4694,7.0988],[7.4559,7.1033],[7.4447,7.0966],[7.429,7.0899],[7.4155,7.0899],[7.3975,7.0899],[7.3885,7.0831],[7.3885,7.0651],[7.384,7.0517],[7.3706,7.0404],[7.3661,7.0404],[7.3683,7.036]]]}},{"type":"Feature","properties":{"id":"enugu/igbo-eze-south","name":"Igbo-Eze South","state":"Enugu"},"geometry":{"type":"Polygon","coordinates":[[[7.3054,6.9371],[7.3122,6.9237],[7.3279,6.9124],[7.3593,6.9057],[7.3751,6.9035],[7.393,6.9012],[7.4087,6.899],[7.4267,6.8922],[7.4357,6.8877],[7.4469,6.8743],[7.4537,6.8653],[7.4626,6.8765],[7.4761,6.89],[7.4851,6.9012],[7.4918,6.9102],[7.4851,6.9169],[7.4716,6.9214],[7.4559,6.9282],[7.4379,6.9304],[7.4177,6.9304],[7.4065,6.9349],[7.3998,6.9439],[7.3953,6.9551],[7.3885,6.9663],[7.3818,6.9865],[7.3728,7.009],[7.3706,7.0225],[7.3706,7.0292],[7.3683,7.036],[7.3661,7.0404],[7.3549,7.0337],[7.3279,7.0247],[7.3122,7.0045],[7.3099,7.0045],[7.3122,7.0],[7.3144,6.9865],[7.3122,6.9776],[7.3032,6.9596],[7.3032,6.9484],[7.3054,6.9371]]]}},{"type":"Feature","properties":{"id":"enugu/isi-uzo","name":"Isi-Uzo","state":"Enugu"},"geometry":{"type":"Polygon","coordinates":[[[7.4694,6.762],[7.4784,6.753],[7.4873,6.7507],[7.4986,6.7485],[7.5076,6.7418],[7.5098,6.7328],[7.5121,6.7238],[7.521,6.7058],[7.5278,6.6946],[7.53,6.6856],[7.53,6.6811],[7.53,6.6721],[7.5323,6.6632],[7.5368,6.6542],[7.5412,6.6407],[7.5435,6.6317],[7.5457,6.6317],[7.548,6.6362],[7.548,6.6407],[7.557,6.6497],[7.5727,6.6542],[7.5839,6.6519],[7.5996,6.6429],[7.6266,6.6182],[7.6446,6.6093],[7.6535,6.6025],[7.6827,6.6025],[7.6895,6.6048],[7.7029,6.607],[7.7007,6.6115],[7.6985,6.6317],[7.7052,6.6362],[7.7232,6.634],[7.7479,6.634],[7.7748,6.634],[7.8018,6.6317],[7.8062,6.634],[7.804,6.6407],[7.8107,6.6497],[7.8152,6.6587],[7.822,6.6744],[7.831,6.6901],[7.8422,6.7148],[7.8557,6.7418],[7.8781,6.7597],[7.8893,6.7665],[7.9028,6.7822],[7.9006,6.7867],[7.8893,6.7844],[7.8871,6.7889],[7.8871,6.7934],[7.8871,6.8046],[7.8893,6.8226],[7.8893,6.8428],[7.8871,6.854],[7.8826,6.8585],[7.8759,6.863],[7.8736,6.8698],[7.8646,6.881],[7.8557,6.881],[7.8354,6.881],[7.8175,6.8787],[7.7995,6.872],[7.786,6.872],[7.7771,6.8765],[7.7636,6.881],[7.7501,6.8787],[7.7344,6.863],[7.7209,6.863],[7.6917,6.8518],[7.6917,6.8496],[7.6872,6.8406],[7.6693,6.8204],[7.6558,6.8159],[7.6401,6.8159],[7.6243,6.8159],[7.6019,6.8159],[7.5907,6.8114],[7.5884,6.8091],[7.5862,6.8046],[7.5817,6.7957],[7.5727,6.7867],[7.5615,6.7822],[7.5345,6.7799],[7.5165,6.7799],[7.4963,6.7799],[7.4784,6.7777],[7.4649,6.771],[7.4694,6.762]]]}},{"type":"Feature","properties":{"id":"enugu/nkanu-east","name":"Nkanu East","state":"Enugu"},"geometry":{"type":"Polygon","coordinates":[[[7.5188,6.2252],[7.5323,6.2095],[7.5368,6.1983],[7.5457,6.1871],[7.5457,6.1758],[7.5502,6.1691],[7.5592,6.1624],[7.5704,6.1556],[7.5839,6.1534],[7.5951,6.1556],[7.6041,6.1579],[7.6221,6.1579],[7.6311,6.1534],[7.6401,6.1332],[7.649,6.1062],[7.6535,6.0995],[7.6603,6.0793],[7.6603,6.0703],[7.6693,6.0635],[7.6872,6.0703],[7.6985,6.0748],[7.7142,6.0838],[7.7254,6.1152],[7.7389,6.1713],[7.7366,6.2028],[7.7321,6.2275],[7.7254,6.2432],[7.7209,6.2499],[7.7097,6.2769],[7.7074,6.2993],[7.7209,6.3308],[7.7389,6.3532],[7.7523,6.3847],[7.7501,6.4229],[7.7501,6.4476],[7.7479,6.4723],[7.7299,6.5599],[7.7164,6.5846],[7.7029,6.607],[7.6895,6.6048],[7.6827,6.6025],[7.6535,6.6025],[7.6513,6.5913],[7.649,6.5823],[7.649,6.5756],[7.6513,6.5666],[7.6513,6.5531],[7.649,6.5419],[7.6513,6.5329],[7.6558,6.5239],[7.658,6.5127],[7.6558,6.5037],[7.6513,6.4857],[7.6446,6.47],[7.6311,6.4565],[7.6311,6.4476],[7.6266,6.4341],[7.6198,6.4206],[7.6019,6.4071],[7.5839,6.3982],[7.5817,6.3959],[7.5862,6.3892],[7.6019,6.36],[7.6019,6.3532],[7.5996,6.3443],[7.5907,6.3263],[7.5884,6.3173],[7.5884,6.3038],[7.5907,6.2949],[7.5839,6.2702],[7.5749,6.2544],[7.5682,6.2454],[7.5615,6.2432],[7.5547,6.241],[7.5457,6.2432],[7.5345,6.2432],[7.5255,6.2387],[7.5121,6.232],[7.5188,6.2252]]]}},{"type":"Feature","properties":{"id":"enugu/nkanu-west","name":"Nkanu West","state":"Enugu"},"geometry":{"type":"Polygon","coordinates":[[[7.4357,6.3532],[7.4402,6.3443],[7.4447,6.3398],[7.4492,6.3263],[7.4649,6.2949],[7.4761,6.2814],[7.4851,6.2702],[7.4963,6.2522],[7.5031,6.2387],[7.5121,6.232],[7.5255,6.2387],[7.5345,6.2432],[7.5457,6.2432],[7.5547,6.241],[7.5615,6.2432],[7.5682,6.2454],[7.5749,6.2544],[7.5839,6.2702],[7.5907,6.2949],[7.5884,6.3038],[7.5884,6.3173],[7.5907,6.3263],[7.5996,6.3443],[7.6019,6.3532],[7.6019,6.36],[7.5862,6.3892],[7.5817,6.3959],[7.5749,6.3937],[7.566,6.3869],[7.5592,6.3757],[7.5457,6.3712],[7.53,6.3712],[7.5098,6.3757],[7.5008,6.3757],[7.4761,6.3802],[7.4649,6.3847],[7.4604,6.3914],[7.4469,6.4026],[7.4402,6.4094],[7.4379,6.4071],[7.4357,6.3982],[7.4335,6.3802],[7.4312,6.3622],[7.4357,6.3532]]]}},{"type":"Feature","properties":{"id":"enugu/nsukka","name":"Nsukka","state":"Enugu"},"geometry":{"type":"Polygon","coordinates":[[[7.2179,6.8922],[7.2426,6.8832],[7.2583,6.8743],[7.2807,6.8585],[7.2897,6.8496],[7.2987,6.8338],[7.301,6.8249],[7.2987,6.8069],[7.2965,6.7957],[7.2942,6.7777],[7.2987,6.7665],[7.3122,6.7552],[7.3189,6.7463],[7.3279,6.7328],[7.3324,6.7238],[7.3481,6.7215],[7.3616,6.7283],[7.3773,6.735],[7.3885,6.7395],[7.411,6.7485],[7.429,6.7597],[7.4424,6.7665],[7.4559,6.771],[7.4649,6.771],[7.4784,6.7777],[7.4963,6.7799],[7.5165,6.7799],[7.5345,6.7799],[7.5615,6.7822],[7.5727,6.7867],[7.5817,6.7957],[7.5862,6.8046],[7.5884,6.8091],[7.5862,6.8114],[7.5637,6.8204],[7.5525,6.8204],[7.5457,6.8226],[7.521,6.8338],[7.5076,6.8338],[7.4896,6.8361],[7.4739,6.8383],[7.4604,6.8451],[7.4537,6.863],[7.4537,6.8653],[7.4469,6.8743],[7.4357,6.8877],[7.4267,6.8922],[7.4087,6.899],[7.393,6.9012],[7.3751,6.9035],[7.3593,6.9057],[7.3279,6.9124],[7.3122,6.9237],[7.3054,6.9371],[7.3032,6.9484],[7.3032,6.9596],[7.3122,6.9776],[7.3144,6.9865],[7.3122,7.0],[7.3099,7.0045],[7.2942,6.9933],[7.2583,6.9798],[7.2403,6.9708],[7.2381,6.9574],[7.2381,6.9416],[7.2426,6.9282],[7.2358,6.9102],[7.2201,6.9057],[7.2089,6.9035],[7.2179,6.8922]]]}},{"type":"Feature","properties":{"id":"enugu/oji-river","name":"Oji-River","state":"Enugu"},"geometry":{"type":"Polygon","coordinates":[[[7.146,6.2746],[7.1482,6.2634],[7.146,6.2522],[7.146,6.2454],[7.1482,6.2432],[7.1505,6.232],[7.1572,6.2297],[7.1729,6.2342],[7.1887,6.2387],[7.1999,6.2342],[7.2044,6.2185],[7.2044,6.2095],[7.2089,6.2028],[7.2179,6.196],[7.2246,6.1915],[7.2246,6.1781],[7.2224,6.1579],[7.2246,6.1421],[7.2291,6.1287],[7.2403,6.1152],[7.2493,6.1085],[7.2538,6.104],[7.2605,6.0882],[7.2628,6.0703],[7.2695,6.0613],[7.274,6.0568],[7.2897,6.0478],[7.301,6.0456],[7.3099,6.0456],[7.3279,6.0433],[7.3391,6.0411],[7.3616,6.0411],[7.3773,6.0411],[7.384,6.0366],[7.3908,6.0456],[7.393,6.0568],[7.3908,6.0703],[7.3885,6.077],[7.3863,6.095],[7.3863,6.1062],[7.3908,6.1219],[7.393,6.1287],[7.393,6.1377],[7.3908,6.1466],[7.3863,6.1579],[7.3796,6.1713],[7.3751,6.1803],[7.3728,6.1915],[7.3706,6.205],[7.3683,6.2073],[7.3504,6.2095],[7.3391,6.205],[7.3279,6.1983],[7.3234,6.196],[7.3167,6.1983],[7.3167,6.205],[7.3122,6.2207],[7.3077,6.2297],[7.2987,6.2365],[7.2897,6.2454],[7.2785,6.2567],[7.2583,6.2679],[7.2448,6.2746],[7.2426,6.2769],[7.2268,6.2769],[7.1954,6.2814],[7.1842,6.2836],[7.1662,6.2993],[7.1595,6.3038],[7.1505,6.2971],[7.1415,6.2881],[7.146,6.2746]]]}},{"type":"Feature","properties":{"id":"enugu/udenu","name":"Udenu","state":"Enugu"},"geometry":{"type":"Polygon","coordinates":[[[7.4604,6.8451],[7.4739,6.8383],[7.4896,6.8361],[7.5076,6.8338],[7.521,6.8338],[7.5457,6.8226],[7.5525,6.8204],[7.5637,6.8204],[7.5862,6.8114],[7.5884,6.8091],[7.5907,6.8114],[7.6019,6.8159],[7.6243,6.8159],[7.6401,6.8159],[7.6558,6.8159],[7.6693,6.8204],[7.6872,6.8406],[7.6917,6.8496],[7.6917,6.8518],[7.6737,6.8563],[7.658,6.8675],[7.6468,6.8855],[7.6356,6.9035],[7.6198,6.9192],[7.5996,6.9259],[7.5772,6.9326],[7.5704,6.9394],[7.5637,6.9529],[7.5592,6.9708],[7.5457,6.9551],[7.5233,6.9394],[7.5165,6.9304],[7.5053,6.9214],[7.4941,6.9124],[7.4918,6.9102],[7.4851,6.9012],[7.4761,6.89],[7.4626,6.8765],[7.4537,6.8653],[7.4537,6.863],[7.4604,6.8451]]]}},{"type":"Feature","properties":{"id":"enugu/udi","name":"Udi","state":"Enugu"},"geometry":{"type":"Polygon","coordinates":[[[7.155,6.5531],[7.1595,6.5374],[7.164,6.5307],[7.1797,6.5284],[7.1932,6.5172],[7.2134,6.5104],[7.2179,6.5104],[7.2403,6.5082],[7.2493,6.5037],[7.2605,6.497],[7.2785,6.488],[7.2875,6.4835],[7.3167,6.4655],[7.3324,6.4521],[7.3459,6.4386],[7.3661,6.4229],[7.3796,6.4116],[7.3863,6.3982],[7.3885,6.3824],[7.3863,6.3667],[7.3796,6.3532],[7.3661,6.342],[7.3571,6.3375],[7.3369,6.333],[7.301,6.3151],[7.2875,6.3038],[7.2673,6.2904],[7.256,6.2814],[7.2448,6.2746],[7.2583,6.2679],[7.2785,6.2567],[7.2897,6.2454],[7.2987,6.2365],[7.3077,6.2297],[7.3122,6.2207],[7.3167,6.205],[7.3167,6.1983],[7.3234,6.196],[7.3279,6.1983],[7.3391,6.205],[7.3504,6.2095],[7.3683,6.2073],[7.3706,6.205],[7.3773,6.2073],[7.3818,6.2163],[7.3863,6.2275],[7.3885,6.2387],[7.3908,6.2477],[7.3953,6.2544],[7.4065,6.2634],[7.4177,6.2814],[7.4222,6.2949],[7.4267,6.3106],[7.4312,6.3196],[7.4402,6.3353],[7.4447,6.3398],[7.4402,6.3443],[7.4357,6.3532],[7.4312,6.3622],[7.4335,6.3802],[7.4357,6.3982],[7.4379,6.4071],[7.4402,6.4094],[7.4514,6.4229],[7.4492,6.4341],[7.4469,6.4498],[7.4537,6.4678],[7.4582,6.4768],[7.4604,6.4813],[7.4604,6.5015],[7.4626,6.5374],[7.4626,6.5643],[7.4626,6.5823],[7.4604,6.6048],[7.4604,6.6115],[7.4582,6.616],[7.4492,6.6138],[7.429,6.6115],[7.411,6.6115],[7.393,6.616],[7.384,6.6227],[7.3773,6.6317],[7.3638,6.6362],[7.3504,6.6407],[7.3391,6.6429],[7.3234,6.6542],[7.3122,6.6609],[7.2987,6.6654],[7.2852,6.6699],[7.2718,6.6699],[7.2448,6.6789],[7.2224,6.6766],[7.2111,6.6744],[7.1954,6.6632],[7.1909,6.6519],[7.1864,6.6385],[7.1752,6.6272],[7.164,6.616],[7.155,6.6025],[7.1527,6.5778],[7.1505,6.5599],[7.155,6.5531]]]}},{"type":"Feature","properties":{"id":"enugu/uzo-uwani","name":"Uzo-Uwani","state":"Enugu"},"geometry":{"type":"Polygon","coordinates":[[[6.9439,6.7058],[6.9574,6.7103],[6.9821,6.7126],[6.991,6.7126],[7.0068,6.7081],[7.0157,6.7058],[7.0315,6.6968],[7.0472,6.6879],[7.0517,6.6834],[7.0607,6.6834],[7.0696,6.6856],[7.0899,6.6766],[7.1011,6.6766],[7.128,6.6587],[7.1325,6.6519],[7.1325,6.6429],[7.128,6.6362],[7.1258,6.625],[7.1168,6.616],[7.1146,6.6025],[7.1101,6.5935],[7.0921,6.5756],[7.0876,6.5688],[7.0831,6.5621],[7.0786,6.5576],[7.0629,6.5554],[7.0562,6.5464],[7.0494,6.5284],[7.0472,6.5127],[7.0472,6.5015],[7.0494,6.4857],[7.0494,6.4745],[7.0562,6.4745],[7.0696,6.4745],[7.0831,6.4768],[7.0988,6.4835],[7.1078,6.4902],[7.1168,6.5037],[7.1348,6.5351],[7.1482,6.5531],[7.1505,6.5599],[7.1527,6.5778],[7.155,6.6025],[7.164,6.616],[7.1752,6.6272],[7.1864,6.6385],[7.1909,6.6519],[7.1954,6.6632],[7.2111,6.6744],[7.2224,6.6766],[7.2448,6.6789],[7.2718,6.6699],[7.2852,6.6699],[7.2852,6.6766],[7.283,6.6856],[7.2807,6.6924],[7.2807,6.7013],[7.2897,6.7081],[7.2987,6.7148],[7.3167,6.7238],[7.3324,6.7238],[7.3279,6.7328],[7.3189,6.7463],[7.3122,6.7552],[7.2987,6.7665],[7.2942,6.7777],[7.2965,6.7957],[7.2987,6.8069],[7.301,6.8249],[7.2987,6.8338],[7.2897,6.8496],[7.2807,6.8585],[7.2583,6.8743],[7.2426,6.8832],[7.2179,6.8922],[7.2089,6.9035],[7.1887,6.9012],[7.1752,6.8967],[7.1707,6.8832],[7.1572,6.8832],[7.1527,6.8765],[7.146,6.8653],[7.1348,6.854],[7.119,6.8473],[7.1123,6.8383],[7.1011,6.8293],[7.0921,6.8204],[7.0809,6.8001],[7.0741,6.7979],[7.0607,6.7957],[7.0562,6.7867],[7.0427,6.7822],[7.0292,6.7844],[7.0202,6.7889],[7.0045,6.7844],[6.991,6.7844],[6.9865,6.7889],[6.9843,6.7979],[6.9865,6.8136],[6.991,6.8226],[6.991,6.8338],[6.9865,6.8451],[6.9776,6.8496],[6.9641,6.8451],[6.9618,6.8406],[6.9529,6.8271],[6.9529,6.8091],[6.9484,6.7889],[6.9394,6.7732],[6.9326,6.7687],[6.9326,6.735],[6.9326,6.7215],[6.9326,6.7103],[6.9326,6.6991],[6.9439,6.7058]]]}}]}