{"type":"FeatureCollection","features":[{"type":"Feature","properties":{"id":"fct/abaji","name":"Abaji","state":"Federal Capital Territory"},"geometry":{"type":"Polygon","coordinates":[[[6.8271,8.4575],[6.9843,8.4598],[6.991,8.4598],[6.991,8.4643],[6.991,8.4755],[6.9955,8.4777],[7.0,8.4845],[7.0045,8.4912],[6.9978,8.5159],[6.9955,8.5182],[6.9865,8.5271],[6.9821,8.5294],[6.9731,8.5384],[6.9641,8.5429],[6.9484,8.5518],[6.9326,8.5608],[6.9192,8.5653],[6.9035,8.572],[6.8922,8.581],[6.881,8.5855],[6.8698,8.5833],[6.863,8.5788],[6.8563,8.5765],[6.8518,8.5765],[6.8518,8.5788],[6.8451,8.581],[6.8361,8.581],[6.8338,8.5833],[6.8338,8.5855],[6.8361,8.5945],[6.8338,8.599],[6.8249,8.6057],[6.8181,8.608],[6.8159,8.617],[6.8159,8.6215],[6.8136,8.6259],[6.8069,8.6259],[6.8024,8.6304],[6.8046,8.6349],[6.8114,8.6349],[6.8159,8.6394],[6.8114,8.6462],[6.8046,8.6462],[6.8024,8.6529],[6.8024,8.6641],[6.8001,8.6731],[6.8046,8.6754],[6.8069,8.6754],[6.8114,8.6776],[6.8226,8.6843],[6.8249,8.6866],[6.8271,8.6933],[6.8249,8.6978],[6.8181,8.6956],[6.8114,8.6911],[6.8091,8.6933],[6.8024,8.6978],[6.7979,8.7045],[6.8046,8.7113],[6.8091,8.7203],[6.8159,8.727],[6.8159,8.7337],[6.8024,8.7405],[6.7957,8.7382],[6.7934,8.745],[6.8001,8.7517],[6.8046,8.7562],[6.8091,8.754],[6.8136,8.754],[6.8204,8.7607],[6.8136,8.7674],[6.8001,8.7697],[6.7957,8.7764],[6.7979,8.7832],[6.8024,8.7876],[6.8091,8.7876],[6.8159,8.7921],[6.8181,8.8011],[6.8204,8.8123],[6.8226,8.8191],[6.8338,8.8236],[6.8383,8.8258],[6.8406,8.8326],[6.8451,8.8348],[6.8518,8.8348],[6.854,8.846],[6.8608,8.8483],[6.8698,8.8438],[6.872,8.846],[6.8743,8.8573],[6.8743,8.864],[6.872,8.873],[6.8743,8.8797],[6.881,8.8887],[6.8855,8.8932],[6.8877,8.8977],[6.8832,8.9022],[6.8855,8.9089],[6.8832,8.9134],[6.8877,8.9224],[6.8922,8.9269],[6.899,8.9359],[6.8967,8.9448],[6.899,8.9516],[6.9012,8.9538],[6.9012,8.9606],[6.899,8.9673],[6.8922,8.983],[6.8877,8.9898],[6.881,8.992],[6.881,8.9943],[6.8787,9.0055],[6.8765,9.019],[6.8743,9.0257],[6.8653,9.0414],[6.8675,9.0459],[6.8698,9.0481],[6.8743,9.0504],[6.8743,9.0549],[6.8743,9.0616],[6.8743,9.0661],[6.8787,9.0796],[6.881,9.0863],[6.8877,9.0931],[6.8877,9.0976],[6.89,9.1088],[6.8855,9.12],[6.89,9.1245],[6.8922,9.129],[6.89,9.1335],[6.881,9.1335],[6.8765,9.138],[6.8787,9.1492],[6.8787,9.1582],[6.8765,9.1627],[6.8765,9.1717],[6.881,9.1784],[6.8855,9.1851],[6.8877,9.1986],[6.8922,9.2054],[6.899,9.2054],[6.9057,9.1964],[6.9124,9.1964],[6.9461,9.2031],[6.9574,9.2031],[6.9641,9.2098],[6.9663,9.2166],[6.9618,9.2188],[6.9596,9.2233],[6.9641,9.2278],[6.9686,9.2323],[6.9731,9.2323],[6.9731,9.2301],[6.9798,9.2301],[6.9933,9.2368],[7.0068,9.2458],[7.0135,9.2435],[7.0247,9.248],[7.0292,9.257],[7.0157,9.2682],[6.7889,9.2705],[6.7867,9.1559],[6.7844,8.992],[6.7777,8.4575],[6.8271,8.4575]]]}},{"type":"Feature","properties":{"id":"fct/abuja-municipal","name":"Abuja Municipal","state":"Federal Capital Territory"},"geometry":{"type":"Polygon","coordinates":[[[7.1011,8.9381],[7.1146,8.9336],[7.1325,8.9246],[7.146,8.9157],[7.1617,8.9112],[7.1707,8.9089],[7.1887,8.8999],[7.1999,8.8954],[7.2179,8.8887],[7.2381,8.8752],[7.256,8.8618],[7.2695,8.855],[7.2942,8.8393],[7.3122,8.8326],[7.3324,8.8213],[7.3526,8.8191],[7.3706,8.8168],[7.4043,8.8168],[7.4087,8.8168],[7.4424,8.8123],[7.4537,8.8123],[7.4671,8.8079],[7.4784,8.8056],[7.4829,8.8034],[7.4784,8.7989],[7.4784,8.7944],[7.4806,8.7832],[7.4851,8.7719],[7.4896,8.7652],[7.4986,8.7607],[7.5098,8.7584],[7.5165,8.7584],[7.5233,8.7517],[7.5233,8.7472],[7.5165,8.7293],[7.5076,8.7158],[7.4986,8.7045],[7.4896,8.6911],[7.4829,8.6776],[7.4626,8.6641],[7.4514,8.6596],[7.4447,8.6574],[7.4379,8.6551],[7.4312,8.6462],[7.429,8.6394],[7.429,8.6327],[7.4335,8.6304],[7.4447,8.6327],[7.4559,8.6349],[7.4761,8.6327],[7.4784,8.6304],[7.4941,8.6507],[7.4963,8.6551],[7.5031,8.6686],[7.5412,8.7405],[7.566,8.7854],[7.5907,8.8348],[7.5951,8.8573],[7.5929,8.9246],[7.5884,9.129],[7.6041,9.1604],[7.5862,9.1604],[7.5839,9.1604],[7.53,9.1672],[7.4447,9.1672],[7.411,9.1649],[7.384,9.1649],[7.3683,9.1559],[7.3324,9.1604],[7.3054,9.1537],[7.2673,9.1537],[7.2493,9.1559],[7.2336,9.1335],[7.2201,9.1133],[7.2201,9.1088],[7.2179,9.102],[7.2134,9.0886],[7.2089,9.0796],[7.1909,9.0481],[7.1707,9.0324],[7.1685,9.0279],[7.155,9.0167],[7.1437,9.001],[7.1415,8.992],[7.1235,8.974],[7.1101,8.9606],[7.1011,8.9561],[7.0966,8.9448],[7.1011,8.9381]]]}},{"type":"Feature","properties":{"id":"fct/bwari","name":"Bwari","state":"Federal Capital Territory"},"geometry":{"type":"Polygon","coordinates":[[[7.2673,9.1537],[7.3054,9.1537],[7.3324,9.1604],[7.3683,9.1559],[7.384,9.1649],[7.411,9.1649],[7.4447,9.1672],[7.53,9.1672],[7.5839,9.1604],[7.5862,9.1604],[7.6041,9.1604],[7.667,9.3042],[7.7299,9.3311],[7.6715,9.412],[7.5907,9.4322],[7.5098,9.3603],[7.4963,9.3626],[7.4761,9.3715],[7.4626,9.3693],[7.4447,9.3693],[7.4177,9.367],[7.3975,9.3581],[7.393,9.3536],[7.3885,9.3491],[7.2493,9.1559],[7.2673,9.1537]]]}},{"type":"Feature","properties":{"id":"fct/gwagwalada","name":"Gwagwalada","state":"Federal Capital Territory"},"geometry":{"type":"Polygon","coordinates":[[[6.8743,9.0257],[6.8765,9.019],[6.8787,9.0055],[6.881,8.9943],[6.881,8.992],[6.8877,8.9898],[6.8922,8.983],[6.899,8.9673],[6.9012,8.9606],[6.9012,8.9538],[6.899,8.9516],[6.8967,8.9448],[6.899,8.9359],[6.8922,8.9269],[6.8877,8.9224],[6.8832,8.9134],[6.8855,8.9089],[7.1213,8.8999],[7.1168,8.9067],[7.1146,8.9201],[7.1146,8.9336],[7.1011,8.9381],[7.0966,8.9448],[7.1011,8.9561],[7.1101,8.9606],[7.1235,8.974],[7.1415,8.992],[7.1437,9.001],[7.155,9.0167],[7.1685,9.0279],[7.1707,9.0324],[7.1909,9.0481],[7.2089,9.0796],[7.2134,9.0886],[7.2179,9.102],[7.2201,9.1088],[7.2201,9.1133],[7.1685,9.1537],[7.0292,9.257],[7.0247,9.248],[7.0135,9.2435],[7.0068,9.2458],[6.9933,9.2368],[6.9798,9.2301],[6.9731,9.2301],[6.9731,9.2323],[6.9686,9.2323],[6.9641,9.2278],[6.9596,9.2233],[6.9618,9.2188],[6.9663,9.2166],[6.9641,9.2098],[6.9574,9.2031],[6.9461,9.2031],[6.9124,9.1964],[6.9057,9.1964],[6.899,9.2054],[6.8922,9.2054],[6.8877,9.1986],[6.8855,9.1851],[6.881,9.1784],[6.8765,9.1717],[6.8765,9.1627],[6.8787,9.1582],[6.8787,9.1492],[6.8765,9.138],[6.881,9.1335],[6.89,9.1335],[6.8922,9.129],[6.89,9.1245],[6.8855,9.12],[6.89,9.1088],[6.8877,9.0976],[6.8877,9.0931],[6.881,9.0863],[6.8787,9.0796],[6.8743,9.0661],[6.8743,9.0616],[6.8743,9.0549],[6.8743,9.0504],[6.8698,9.0481],[6.8675,9.0459],[6.8653,9.0414],[6.8743,9.0257]]]}},{"type":"Feature","properties":{"id":"fct/kuje","name":"Kuje","state":"Federal Capital Territory"},"geometry":{"type":"Polygon","coordinates":[[[6.9955,8.5182],[6.9978,8.5159],[7.0045,8.4912],[7.0,8.4845],[6.9955,8.4777],[6.991,8.4755],[6.991,8.4643],[6.991,8.4598],[7.0247,8.462],[7.0562,8.462],[7.0831,8.4643],[7.1168,8.4665],[7.164,8.4732],[7.2111,8.48],[7.2718,8.4934],[7.3122,8.5002],[7.3414,8.5114],[7.3683,8.5294],[7.3885,8.5451],[7.4177,8.5698],[7.4424,8.5923],[7.4784,8.6304],[7.4761,8.6327],[7.4559,8.6349],[7.4447,8.6327],[7.4335,8.6304],[7.429,8.6327],[7.429,8.6394],[7.4312,8.6462],[7.4379,8.6551],[7.4447,8.6574],[7.4514,8.6596],[7.4626,8.6641],[7.4829,8.6776],[7.4896,8.6911],[7.4986,8.7045],[7.5076,8.7158],[7.5165,8.7293],[7.5233,8.7472],[7.5233,8.7517],[7.5165,8.7584],[7.5098,8.7584],[7.4986,8.7607],[7.4896,8.7652],[7.4851,8.7719],[7.4806,8.7832],[7.4784,8.7944],[7.4784,8.7989],[7.4829,8.8034],[7.4784,8.8056],[7.4671,8.8079],[7.4537,8.8123],[7.4424,8.8123],[7.4087,8.8168],[7.4043,8.8168],[7.3706,8.8168],[7.3526,8.8191],[7.3324,8.8213],[7.3122,8.8326],[7.2942,8.8393],[7.2695,8.855],[7.256,8.8618],[7.2381,8.8752],[7.2179,8.8887],[7.1999,8.8954],[7.1887,8.8999],[7.1707,8.9089],[7.1617,8.9112],[7.146,8.9157],[7.1325,8.9246],[7.1146,8.9336],[7.1146,8.9201],[7.1168,8.9067],[7.1213,8.8999],[7.1235,8.8977],[7.1325,8.8842],[7.1505,8.8662],[7.1572,8.8618],[7.164,8.8595],[7.1774,8.8483],[7.1864,8.837],[7.1909,8.8236],[7.1887,8.8079],[7.1797,8.7966],[7.1752,8.7921],[7.155,8.7854],[7.137,8.7809],[7.128,8.7787],[7.1168,8.7674],[7.1056,8.754],[7.1033,8.7427],[7.0988,8.727],[7.1033,8.709],[7.1101,8.6933],[7.1168,8.6798],[7.1168,8.6664],[7.1123,8.6439],[7.1033,8.6282],[7.0764,8.617],[7.0629,8.6102],[7.0494,8.6012],[7.0382,8.5923],[7.0247,8.5833],[7.009,8.5653],[7.0023,8.5586],[6.9978,8.5518],[6.991,8.5429],[6.9865,8.5316],[6.9865,8.5271],[6.9955,8.5182]]]}},{"type":"Feature","properties":{"id":"fct/kwali","name":"Kwali","state":"Federal Capital Territory"},"geometry":{"type":"Polygon","coordinates":[[[6.7957,8.7382],[6.8024,8.7405],[6.8159,8.7337],[6.8159,8.727],[6.8091,8.7203],[6.8046,8.7113],[6.7979,8.7045],[6.8024,8.6978],[6.8091,8.6933],[6.8114,8.6911],[6.8181,8.6956],[6.8249,8.6978],[6.8271,8.6933],[6.8249,8.6866],[6.8226,8.6843],[6.8114,8.6776],[6.8069,8.6754],[6.8046,8.6754],[6.8001,8.6731],[6.8024,8.6641],[6.8024,8.6529],[6.8046,8.6462],[6.8114,8.6462],[6.8159,8.6394],[6.8114,8.6349],[6.8046,8.6349],[6.8024,8.6304],[6.8069,8.6259],[6.8136,8.6259],[6.8159,8.6215],[6.8159,8.617],[6.8181,8.608],[6.8249,8.6057],[6.8338,8.599],[6.8361,8.5945],[6.8338,8.5855],[6.8338,8.5833],[6.8361,8.581],[6.8451,8.581],[6.8518,8.5788],[6.8518,8.5765],[6.8563,8.5765],[6.863,8.5788],[6.8698,8.5833],[6.881,8.5855],[6.8922,8.581],[6.9035,8.572],[6.9192,8.5653],[6.9326,8.5608],[6.9484,8.5518],[6.9641,8.5429],[6.9731,8.5384],[6.9821,8.5294],[6.9865,8.5271],[6.9865,8.5316],[6.991,8.5429],[6.9978,8.5518],[7.0023,8.5586],[7.009,8.5653],[7.0247,8.5833],[7.0382,8.5923],[7.0494,8.6012],[7.0629,8.6102],[7.0764,8.617],[7.1033,8.6282],[7.1123,8.6439],[7.1168,8.6664],[7.1168,8.6798],[7.1101,8.6933],[7.1033,8.709],[7.0988,8.727],[7.1033,8.7427],[7.1056,8.754],[7.1168,8.7674],[7.128,8.7787],[7.137,8.7809],[7.155,8.7854],[7.1752,8.7921],[7.1797,8.7966],[7.1887,8.8079],[7.1909,8.8236],[7.1864,8.837],[7.1774,8.8483],[7.164,8.8595],[7.1572,8.8618],[7.1505,8.8662],[7.1325,8.8842],[7.1235,8.8977],[7.1213,8.8999],[6.8855,8.9089],[6.8832,8.9022],[6.8877,8.8977],[6.8855,8.8932],[6.881,8.8887],[6.8743,8.8797],[6.872,8.873],[6.8743,8.864],[6.8743,8.8573],[6.872,8.846],[6.8698,8.8438],[6.8608,8.8483],[6.854,8.846],[6.8518,8.8348],[6.8451,8.8348],[6.8406,8.8326],[6.8383,8.8258],[6.8338,8.8236],[6.8226,8.8191],[6.8204,8.8123],[6.8181,8.8011],[6.8159,8.7921],[6.8091,8.7876],[6.8024,8.7876],[6.7979,8.7832],[6.7957,8.7764],[6.8001,8.7697],[6.8136,8.7674],[6.8204,8.7607],[6.8136,8.754],[6.8091,8.754],[6.8046,8.7562],[6.8001,8.7517],[6.7934,8.745],[6.7957,8.7382]]]}}]}