{"type":"FeatureCollection","features":[{"type":"Feature","properties":{"id":"gombe/akko","name":"Akko","state":"Gombe"},"geometry":{"type":"Polygon","coordinates":[[[10.6898,10.0722],[10.6943,10.0655],[10.7145,10.052],[10.728,10.0408],[10.7392,10.034],[10.7504,10.0273],[10.7639,10.0206],[10.7751,10.0116],[10.7886,10.0071],[10.7953,10.0004],[10.8021,9.9914],[10.8111,9.9801],[10.8245,9.9689],[10.8403,9.9622],[10.8582,9.9554],[10.865,9.9509],[10.8762,9.9397],[10.9076,9.9195],[10.9278,9.9105],[10.9323,9.9015],[10.9391,9.8723],[10.9413,9.8499],[10.9436,9.8319],[10.9503,9.805],[10.9548,9.8072],[10.9615,9.8072],[10.9638,9.8095],[10.9795,9.814],[10.9907,9.814],[10.9975,9.814],[11.0064,9.814],[11.0132,9.814],[11.0199,9.8162],[11.0267,9.8229],[11.0334,9.8274],[11.0379,9.8319],[11.0446,9.8364],[11.0491,9.8499],[11.0514,9.8589],[11.0536,9.8723],[11.0559,9.8836],[11.0581,9.8903],[11.0626,9.8993],[11.0716,9.9195],[11.0761,9.9262],[11.0851,9.9375],[11.0963,9.9442],[11.1075,9.9465],[11.1187,9.9487],[11.1412,9.9509],[11.1659,9.9554],[11.1771,9.9577],[11.1861,9.9622],[11.1951,9.9667],[11.2041,9.9734],[11.2108,9.9801],[11.2243,9.9891],[11.2378,9.9936],[11.2557,9.9936],[11.2737,9.9846],[11.2782,9.9824],[11.2849,9.9756],[11.2917,9.9689],[11.2984,9.9712],[11.3074,9.9734],[11.3231,9.9801],[11.3321,9.9869],[11.3545,9.9914],[11.3748,9.9936],[11.3905,9.9936],[11.4017,9.9869],[11.4174,9.9779],[11.4466,9.9599],[11.4578,9.9487],[11.4803,9.942],[11.4893,9.9397],[11.5005,9.9397],[11.5073,9.9397],[11.5162,9.9397],[11.523,9.9375],[11.523,9.9487],[11.523,9.9644],[11.523,9.9734],[11.5275,9.9869],[11.5342,10.0071],[11.5387,10.0161],[11.5387,10.0206],[11.5297,10.0273],[11.5207,10.034],[11.5117,10.0385],[11.4938,10.043],[11.4713,10.043],[11.4556,10.0408],[11.4466,10.0385],[11.4309,10.0363],[11.4107,10.0385],[11.4039,10.0408],[11.395,10.043],[11.3725,10.0498],[11.3658,10.052],[11.3545,10.0565],[11.3478,10.0632],[11.3298,10.079],[11.3209,10.0879],[11.3164,10.0947],[11.3096,10.1037],[11.3051,10.1081],[11.2984,10.1149],[11.2939,10.1194],[11.2894,10.1261],[11.2827,10.1328],[11.2647,10.1553],[11.2557,10.162],[11.249,10.1688],[11.2265,10.1845],[11.2131,10.189],[11.2086,10.1935],[11.2018,10.2025],[11.1928,10.2204],[11.1906,10.2249],[11.1906,10.2317],[11.1906,10.2384],[11.1928,10.2429],[11.1973,10.2519],[11.1996,10.2564],[11.2041,10.2609],[11.2086,10.2653],[11.2108,10.2743],[11.2108,10.2833],[11.2086,10.2923],[11.2041,10.3013],[11.1996,10.3058],[11.1973,10.3125],[11.1951,10.3125],[11.1928,10.317],[11.1906,10.3192],[11.1906,10.3237],[11.1861,10.3327],[11.1794,10.3327],[11.1726,10.3282],[11.1681,10.326],[11.1659,10.3237],[11.1726,10.3215],[11.1816,10.3125],[11.1996,10.2901],[11.2018,10.2833],[11.2018,10.2766],[11.1973,10.2721],[11.1861,10.2609],[11.1794,10.2541],[11.1749,10.2496],[11.1726,10.2406],[11.1659,10.2384],[11.1569,10.2496],[11.1434,10.2631],[11.13,10.2743],[11.1255,10.2811],[11.1232,10.2856],[11.1232,10.2923],[11.121,10.2968],[11.121,10.3058],[11.1232,10.3103],[11.1232,10.3148],[11.1277,10.3237],[11.1187,10.3327],[11.1142,10.344],[11.1098,10.3507],[11.0985,10.3574],[11.0895,10.3574],[11.0738,10.3552],[11.0603,10.3574],[11.0469,10.3619],[11.0356,10.3642],[11.0267,10.3687],[11.0222,10.3754],[10.9907,10.3776],[10.9683,10.3799],[10.957,10.3799],[10.9391,10.3844],[10.9211,10.3934],[10.9099,10.3956],[10.8807,10.3978],[10.8695,10.3978],[10.856,10.3956],[10.847,10.3956],[10.838,10.3956],[10.8358,10.3956],[10.8335,10.3821],[10.8335,10.3642],[10.8335,10.3417],[10.829,10.317],[10.8268,10.2945],[10.8313,10.2811],[10.8448,10.2676],[10.8582,10.2362],[10.8515,10.2249],[10.8403,10.2159],[10.8358,10.2047],[10.8313,10.198],[10.8245,10.189],[10.8201,10.1823],[10.8178,10.1688],[10.8178,10.1576],[10.8178,10.1441],[10.8156,10.1284],[10.8111,10.1239],[10.8066,10.1149],[10.7976,10.1104],[10.7909,10.1104],[10.7796,10.1104],[10.7617,10.1126],[10.7504,10.1149],[10.719,10.1149],[10.701,10.1126],[10.692,10.0969],[10.6853,10.0812],[10.6898,10.0722]]]}},{"type":"Feature","properties":{"id":"gombe/balanga","name":"Balanga","state":"Gombe"},"geometry":{"type":"Polygon","coordinates":[[[11.3815,9.5467],[11.4062,9.5445],[11.4197,9.5467],[11.4287,9.549],[11.4331,9.5512],[11.4421,9.5602],[11.4421,9.5692],[11.4444,9.5759],[11.4534,9.5849],[11.4601,9.5939],[11.4691,9.5984],[11.4736,9.6006],[11.4848,9.6051],[11.5073,9.6073],[11.5275,9.6073],[11.5454,9.6051],[11.5634,9.6051],[11.5701,9.6073],[11.5791,9.6073],[11.5993,9.6096],[11.615,9.6163],[11.633,9.6253],[11.6442,9.632],[11.6555,9.6365],[11.66,9.6433],[11.6645,9.6478],[11.6712,9.6545],[11.6847,9.6635],[11.6892,9.6635],[11.6959,9.668],[11.7071,9.677],[11.7386,9.6994],[11.7453,9.7062],[11.7498,9.7084],[11.7565,9.7174],[11.7565,9.7196],[11.7588,9.7219],[11.7633,9.7264],[11.7678,9.7286],[11.7745,9.7331],[11.7857,9.7398],[11.797,9.7511],[11.8127,9.7601],[11.8284,9.769],[11.8351,9.7735],[11.8396,9.7758],[11.8509,9.787],[11.8576,9.7937],[11.8576,9.796],[11.8576,9.7982],[11.8553,9.814],[11.8531,9.8184],[11.8486,9.8274],[11.8396,9.8409],[11.8374,9.8544],[11.8351,9.8589],[11.8351,9.8679],[11.8396,9.8836],[11.8441,9.8903],[11.8464,9.897],[11.8509,9.9083],[11.8509,9.9105],[11.8553,9.9262],[11.8531,9.9532],[11.8531,9.9599],[11.8509,9.9667],[11.8509,9.9756],[11.8509,9.9801],[11.8509,9.9846],[11.8531,9.9959],[11.8553,10.0048],[11.8531,10.0093],[11.8486,10.0228],[11.8464,10.0273],[11.8441,10.0318],[11.8441,10.0363],[11.8441,10.0453],[11.8396,10.0453],[11.8329,10.0475],[11.8284,10.0542],[11.8261,10.052],[11.8172,10.0542],[11.8082,10.0565],[11.8014,10.061],[11.7925,10.0722],[11.7835,10.0767],[11.7678,10.0812],[11.7475,10.0857],[11.7341,10.0857],[11.7273,10.0857],[11.7161,10.0834],[11.7071,10.0834],[11.6981,10.0834],[11.6892,10.0857],[11.6847,10.0879],[11.6689,10.0857],[11.6577,10.0812],[11.6487,10.0812],[11.6398,10.0812],[11.633,10.079],[11.624,10.0767],[11.615,10.0722],[11.5993,10.0632],[11.5881,10.0565],[11.5814,10.0475],[11.5724,10.0385],[11.5656,10.034],[11.5454,10.0228],[11.5387,10.0206],[11.5387,10.0161],[11.5342,10.0071],[11.5275,9.9869],[11.523,9.9734],[11.523,9.9644],[11.523,9.9487],[11.523,9.9375],[11.523,9.924],[11.523,9.906],[11.5275,9.9015],[11.5364,9.8926],[11.5544,9.8768],[11.5656,9.8723],[11.5746,9.8634],[11.5769,9.8476],[11.5791,9.8229],[11.5791,9.8095],[11.5769,9.787],[11.5746,9.778],[11.5701,9.7645],[11.5679,9.7488],[11.5679,9.7398],[11.5567,9.7241],[11.5477,9.7196],[11.5364,9.7129],[11.5275,9.7084],[11.5207,9.7039],[11.505,9.6994],[11.4893,9.6972],[11.4668,9.6994],[11.4578,9.6994],[11.4556,9.6994],[11.4466,9.6972],[11.4354,9.6904],[11.4197,9.6702],[11.4129,9.6567],[11.4084,9.65],[11.4062,9.6455],[11.4017,9.632],[11.3995,9.6253],[11.3927,9.6118],[11.3927,9.6051],[11.3905,9.6029],[11.3882,9.5961],[11.3815,9.5849],[11.3792,9.5804],[11.377,9.5692],[11.3748,9.5647],[11.3748,9.5579],[11.3748,9.5534],[11.3748,9.5467],[11.3815,9.5467]]]}},{"type":"Feature","properties":{"id":"gombe/billiri","name":"Billiri","state":"Gombe"},"geometry":{"type":"Polygon","coordinates":[[[10.9503,9.7376],[10.9503,9.7264],[10.9503,9.7151],[10.9526,9.7129],[10.9683,9.7106],[10.9773,9.7084],[10.9885,9.7017],[11.0154,9.6904],[11.0244,9.6882],[11.0356,9.6859],[11.0626,9.677],[11.0716,9.677],[11.0895,9.6747],[11.0963,9.6747],[11.1053,9.677],[11.1142,9.6792],[11.121,9.6837],[11.1277,9.6882],[11.1345,9.6927],[11.1457,9.6972],[11.1726,9.7084],[11.1816,9.7106],[11.1973,9.7219],[11.2063,9.7264],[11.2086,9.7331],[11.2131,9.7398],[11.2153,9.7488],[11.2198,9.7556],[11.2265,9.7735],[11.231,9.7915],[11.2333,9.8005],[11.24,9.8229],[11.2423,9.8342],[11.2423,9.8454],[11.2423,9.8746],[11.2423,9.8993],[11.2445,9.9173],[11.2467,9.924],[11.249,9.9352],[11.2535,9.942],[11.258,9.9487],[11.2872,9.9667],[11.2917,9.9689],[11.2849,9.9756],[11.2782,9.9824],[11.2737,9.9846],[11.2557,9.9936],[11.2378,9.9936],[11.2243,9.9891],[11.2108,9.9801],[11.2041,9.9734],[11.1951,9.9667],[11.1861,9.9622],[11.1771,9.9577],[11.1659,9.9554],[11.1412,9.9509],[11.1187,9.9487],[11.1075,9.9465],[11.0963,9.9442],[11.0851,9.9375],[11.0761,9.9262],[11.0716,9.9195],[11.0626,9.8993],[11.0581,9.8903],[11.0559,9.8836],[11.0536,9.8723],[11.0514,9.8589],[11.0491,9.8499],[11.0446,9.8364],[11.0379,9.8319],[11.0334,9.8274],[11.0267,9.8229],[11.0199,9.8162],[11.0132,9.814],[11.0064,9.814],[10.9975,9.814],[10.9907,9.814],[10.9795,9.814],[10.9638,9.8095],[10.9615,9.8072],[10.9548,9.8072],[10.9503,9.805],[10.9503,9.796],[10.9503,9.7848],[10.9481,9.7511],[10.9503,9.7376]]]}},{"type":"Feature","properties":{"id":"gombe/dukku","name":"Dukku","state":"Gombe"},"geometry":{"type":"Polygon","coordinates":[[[10.4765,10.6718],[10.4787,10.6673],[10.4944,10.6584],[10.5101,10.6516],[10.5169,10.6494],[10.5259,10.6404],[10.5326,10.6292],[10.5393,10.6157],[10.5461,10.6022],[10.5506,10.5887],[10.5528,10.5753],[10.5595,10.5618],[10.5663,10.5506],[10.5775,10.5371],[10.5887,10.5281],[10.6179,10.5079],[10.6381,10.5012],[10.6606,10.5012],[10.692,10.4967],[10.7055,10.4944],[10.728,10.4854],[10.7504,10.4832],[10.7662,10.4787],[10.7796,10.4697],[10.7886,10.4652],[10.8066,10.4562],[10.8201,10.4405],[10.8335,10.4181],[10.8358,10.4001],[10.8358,10.3956],[10.838,10.3956],[10.847,10.3956],[10.856,10.3956],[10.8695,10.3978],[10.8807,10.3978],[10.9099,10.3956],[10.9211,10.3934],[10.9391,10.3844],[10.957,10.3799],[10.9683,10.3799],[10.9907,10.3776],[11.0222,10.3754],[11.0199,10.3799],[11.0199,10.3866],[11.0177,10.3956],[11.0087,10.4136],[11.0042,10.4248],[10.9975,10.436],[10.9907,10.4473],[10.984,10.454],[10.9795,10.463],[10.9683,10.4787],[10.9615,10.4944],[10.9548,10.5056],[10.9503,10.5146],[10.9413,10.5303],[10.9346,10.5416],[10.9301,10.5483],[10.9234,10.5865],[10.9234,10.5977],[10.9256,10.6067],[10.9323,10.6202],[10.9481,10.6381],[10.9593,10.6426],[10.9705,10.6494],[10.9952,10.6561],[11.0244,10.6628],[11.0401,10.6651],[11.0469,10.6651],[11.0783,10.6651],[11.0851,10.6628],[11.0918,10.6628],[11.0918,10.6718],[11.094,10.7055],[11.0985,10.7167],[11.0985,10.737],[11.0985,10.7504],[11.0985,10.7639],[11.1008,10.7931],[11.103,10.8066],[11.1053,10.8201],[11.1098,10.8335],[11.1142,10.8492],[11.1165,10.8582],[11.112,10.8695],[11.103,10.8964],[11.1008,10.9144],[11.1008,10.9211],[11.103,10.9323],[11.1075,10.9548],[11.112,10.9705],[11.121,10.9862],[11.13,11.0042],[11.1389,11.0312],[11.1367,11.0424],[11.1277,11.0536],[11.112,11.0671],[11.103,11.0716],[11.0873,11.0761],[11.0783,11.0783],[11.0693,11.0783],[11.0559,11.0806],[11.0469,11.0851],[11.0289,11.0985],[11.0154,11.1075],[10.9997,11.1232],[10.9885,11.1367],[10.9728,11.1547],[10.9638,11.1659],[10.957,11.1749],[10.9503,11.1816],[10.9368,11.1681],[10.9234,11.1592],[10.9054,11.1457],[10.8964,11.1322],[10.8739,11.1075],[10.8717,11.094],[10.8627,11.0806],[10.8515,11.0716],[10.8403,11.0716],[10.8313,11.0783],[10.8223,11.0873],[10.8088,11.1008],[10.8043,11.1053],[10.7931,11.1142],[10.7796,11.1187],[10.7684,11.1187],[10.7617,11.1165],[10.7325,11.0963],[10.7212,11.0873],[10.7123,11.0783],[10.701,11.0626],[10.6876,11.0401],[10.6786,11.0312],[10.6696,11.0199],[10.6584,11.0177],[10.6471,11.0177],[10.6404,11.0132],[10.6314,11.0042],[10.6179,10.9952],[10.6112,10.984],[10.6022,10.9615],[10.6157,10.9256],[10.6292,10.9144],[10.6381,10.8964],[10.6449,10.8784],[10.6426,10.8605],[10.6292,10.856],[10.6179,10.8582],[10.6112,10.8672],[10.6067,10.8762],[10.6,10.8852],[10.5932,10.8897],[10.5887,10.8919],[10.5865,10.8919],[10.5798,10.8897],[10.5753,10.8852],[10.5708,10.8717],[10.5685,10.8582],[10.564,10.8425],[10.5595,10.829],[10.5528,10.8066],[10.5506,10.7931],[10.5438,10.7819],[10.5348,10.7706],[10.5259,10.7639],[10.5236,10.7617],[10.5101,10.7392],[10.4967,10.7167],[10.4809,10.692],[10.4742,10.6786],[10.4765,10.6718]]]}},{"type":"Feature","properties":{"id":"gombe/funakaye","name":"Funakaye","state":"Gombe"},"geometry":{"type":"Polygon","coordinates":[[[11.0963,10.6628],[11.112,10.6673],[11.1232,10.6696],[11.1367,10.6718],[11.1457,10.6718],[11.1614,10.6651],[11.1726,10.6606],[11.1816,10.6561],[11.2108,10.6449],[11.231,10.6359],[11.24,10.6337],[11.2625,10.6269],[11.2894,10.6224],[11.3029,10.6224],[11.3096,10.6224],[11.3209,10.6224],[11.3388,10.6224],[11.3545,10.6224],[11.3658,10.6202],[11.4017,10.6179],[11.4129,10.6202],[11.4242,10.6224],[11.4354,10.6224],[11.4601,10.6269],[11.4713,10.6247],[11.4915,10.6224],[11.5073,10.6157],[11.514,10.6112],[11.5162,10.6179],[11.5207,10.6404],[11.5252,10.6606],[11.523,10.6606],[11.5207,10.6673],[11.5162,10.6831],[11.514,10.6943],[11.5162,10.7033],[11.5162,10.7212],[11.5162,10.7325],[11.5207,10.7459],[11.523,10.7504],[11.5275,10.7572],[11.5275,10.7729],[11.5297,10.7909],[11.5297,10.7998],[11.5342,10.8133],[11.5364,10.829],[11.5387,10.8403],[11.5387,10.8515],[11.5364,10.8627],[11.5342,10.8672],[11.532,10.8717],[11.5297,10.8762],[11.5275,10.8807],[11.5275,10.8874],[11.5275,10.8919],[11.5297,10.8942],[11.532,10.9031],[11.532,10.9189],[11.532,10.9234],[11.532,10.9301],[11.5297,10.9323],[11.5297,10.9346],[11.5297,10.9391],[11.5275,10.9413],[11.5162,10.9615],[11.514,10.9683],[11.496,10.9907],[11.4893,10.9952],[11.4825,11.002],[11.4758,11.0154],[11.4713,11.0222],[11.4578,11.0356],[11.4511,11.0424],[11.4489,11.0469],[11.4444,11.0514],[11.4399,11.0536],[11.4287,11.0626],[11.4152,11.0761],[11.4129,11.0806],[11.4017,11.0873],[11.3995,11.0895],[11.395,11.0918],[11.3905,11.0895],[11.3815,11.0783],[11.3748,11.0716],[11.377,11.0603],[11.3792,11.0469],[11.3792,11.0401],[11.3703,11.0334],[11.3613,11.0267],[11.3523,11.0222],[11.3411,11.0154],[11.3321,11.0087],[11.3276,10.9997],[11.3276,10.9862],[11.3343,10.9728],[11.3388,10.966],[11.3433,10.9436],[11.3456,10.9278],[11.3478,10.8987],[11.3478,10.8874],[11.3478,10.8739],[11.35,10.8627],[11.3545,10.838],[11.3568,10.8313],[11.3568,10.8223],[11.3545,10.8156],[11.3523,10.8066],[11.3478,10.8021],[11.3411,10.7953],[11.3276,10.7909],[11.3164,10.7886],[11.3096,10.7909],[11.2849,10.7931],[11.2714,10.7953],[11.2557,10.7998],[11.2467,10.7998],[11.2378,10.8021],[11.231,10.8021],[11.2175,10.8043],[11.2063,10.8133],[11.1816,10.8223],[11.1749,10.8268],[11.1681,10.829],[11.1592,10.8335],[11.1524,10.838],[11.1345,10.8515],[11.1232,10.856],[11.1165,10.8582],[11.1142,10.8492],[11.1098,10.8335],[11.1053,10.8201],[11.103,10.8066],[11.1008,10.7931],[11.0985,10.7639],[11.0985,10.7504],[11.0985,10.737],[11.0985,10.7167],[11.094,10.7055],[11.0918,10.6718],[11.0918,10.6628],[11.0963,10.6628]]]}},{"type":"Feature","properties":{"id":"gombe/gombe","name":"Gombe","state":"Gombe"},"geometry":{"type":"Polygon","coordinates":[[[11.1232,10.2923],[11.1232,10.2856],[11.1255,10.2811],[11.13,10.2743],[11.1434,10.2631],[11.1569,10.2496],[11.1659,10.2384],[11.1726,10.2406],[11.1749,10.2496],[11.1794,10.2541],[11.1861,10.2609],[11.1973,10.2721],[11.2018,10.2766],[11.2018,10.2833],[11.1996,10.2901],[11.1816,10.3125],[11.1726,10.3215],[11.1659,10.3237],[11.1637,10.3215],[11.1592,10.3192],[11.1479,10.317],[11.1367,10.317],[11.1277,10.3237],[11.1232,10.3148],[11.1232,10.3103],[11.121,10.3058],[11.121,10.2968],[11.1232,10.2923]]]}},{"type":"Feature","properties":{"id":"gombe/kaltungo","name":"Kaltungo","state":"Gombe"},"geometry":{"type":"Polygon","coordinates":[[[11.2535,9.924],[11.2602,9.9173],[11.2647,9.9105],[11.2737,9.897],[11.2804,9.8813],[11.2827,9.8679],[11.2872,9.8589],[11.2962,9.8387],[11.2917,9.8207],[11.2917,9.8072],[11.2894,9.796],[11.2872,9.7892],[11.2917,9.7735],[11.3029,9.7645],[11.3141,9.7556],[11.3253,9.7466],[11.3343,9.7376],[11.3411,9.7264],[11.35,9.7106],[11.3568,9.7039],[11.368,9.6859],[11.3725,9.6792],[11.3792,9.6747],[11.386,9.668],[11.3927,9.6657],[11.4062,9.659],[11.4129,9.6567],[11.4197,9.6702],[11.4354,9.6904],[11.4466,9.6972],[11.4556,9.6994],[11.4578,9.6994],[11.4668,9.6994],[11.4893,9.6972],[11.505,9.6994],[11.5207,9.7039],[11.5275,9.7084],[11.5364,9.7129],[11.5477,9.7196],[11.5567,9.7241],[11.5679,9.7398],[11.5679,9.7488],[11.5701,9.7645],[11.5746,9.778],[11.5769,9.787],[11.5791,9.8095],[11.5791,9.8229],[11.5769,9.8476],[11.5746,9.8634],[11.5656,9.8723],[11.5544,9.8768],[11.5364,9.8926],[11.5275,9.9015],[11.523,9.906],[11.523,9.924],[11.523,9.9375],[11.5162,9.9397],[11.5073,9.9397],[11.5005,9.9397],[11.4893,9.9397],[11.4803,9.942],[11.4578,9.9487],[11.4466,9.9599],[11.4174,9.9779],[11.4017,9.9869],[11.3905,9.9936],[11.3748,9.9936],[11.3545,9.9914],[11.3321,9.9869],[11.3231,9.9801],[11.3074,9.9734],[11.2984,9.9712],[11.2917,9.9689],[11.2872,9.9667],[11.258,9.9487],[11.2535,9.942],[11.249,9.9352],[11.2467,9.924],[11.2535,9.924]]]}},{"type":"Feature","properties":{"id":"gombe/kwami","name":"Kwami","state":"Gombe"},"geometry":{"type":"Polygon","coordinates":[[[10.9301,10.5483],[10.9346,10.5416],[10.9413,10.5303],[10.9503,10.5146],[10.9548,10.5056],[10.9615,10.4944],[10.9683,10.4787],[10.9795,10.463],[10.984,10.454],[10.9907,10.4473],[10.9975,10.436],[11.0042,10.4248],[11.0087,10.4136],[11.0177,10.3956],[11.0199,10.3866],[11.0199,10.3799],[11.0222,10.3754],[11.0267,10.3687],[11.0356,10.3642],[11.0469,10.3619],[11.0603,10.3574],[11.0738,10.3552],[11.0895,10.3574],[11.0985,10.3574],[11.1098,10.3507],[11.1142,10.344],[11.1187,10.3327],[11.1277,10.3237],[11.1367,10.317],[11.1479,10.317],[11.1592,10.3192],[11.1637,10.3215],[11.1659,10.3237],[11.1681,10.326],[11.1726,10.3282],[11.1794,10.3327],[11.1861,10.3327],[11.1906,10.3237],[11.1906,10.3192],[11.1928,10.317],[11.1951,10.3125],[11.1973,10.3125],[11.2041,10.3125],[11.2243,10.3148],[11.2378,10.3192],[11.2557,10.3237],[11.2692,10.3305],[11.2804,10.344],[11.2827,10.3484],[11.2939,10.3597],[11.3051,10.3664],[11.3164,10.3709],[11.3298,10.3731],[11.3433,10.3776],[11.3568,10.3799],[11.3748,10.3889],[11.3972,10.3978],[11.4062,10.4046],[11.4152,10.4091],[11.4197,10.4158],[11.4354,10.4338],[11.4399,10.4405],[11.4489,10.4495],[11.4556,10.4562],[11.4623,10.463],[11.4668,10.4675],[11.4691,10.4742],[11.4736,10.4787],[11.4803,10.4832],[11.4938,10.4944],[11.5095,10.5191],[11.514,10.5371],[11.5162,10.5416],[11.5185,10.5483],[11.5185,10.5551],[11.5185,10.564],[11.523,10.5685],[11.5162,10.5708],[11.5117,10.5842],[11.5117,10.6],[11.5117,10.6022],[11.514,10.6067],[11.514,10.6112],[11.5073,10.6157],[11.4915,10.6224],[11.4713,10.6247],[11.4601,10.6269],[11.4354,10.6224],[11.4242,10.6224],[11.4129,10.6202],[11.4017,10.6179],[11.3658,10.6202],[11.3545,10.6224],[11.3388,10.6224],[11.3209,10.6224],[11.3096,10.6224],[11.3029,10.6224],[11.2894,10.6224],[11.2625,10.6269],[11.24,10.6337],[11.231,10.6359],[11.2108,10.6449],[11.1816,10.6561],[11.1726,10.6606],[11.1614,10.6651],[11.1457,10.6718],[11.1367,10.6718],[11.1232,10.6696],[11.112,10.6673],[11.0963,10.6628],[11.0918,10.6628],[11.0851,10.6628],[11.0783,10.6651],[11.0469,10.6651],[11.0401,10.6651],[11.0244,10.6628],[10.9952,10.6561],[10.9705,10.6494],[10.9593,10.6426],[10.9481,10.6381],[10.9323,10.6202],[10.9256,10.6067],[10.9234,10.5977],[10.9234,10.5865],[10.9301,10.5483]]]}},{"type":"Feature","properties":{"id":"gombe/nafada","name":"Nafada","state":"Gombe"},"geometry":{"type":"Polygon","coordinates":[[[10.957,11.1749],[10.9638,11.1659],[10.9728,11.1547],[10.9885,11.1367],[10.9997,11.1232],[11.0154,11.1075],[11.0289,11.0985],[11.0469,11.0851],[11.0559,11.0806],[11.0693,11.0783],[11.0783,11.0783],[11.0873,11.0761],[11.103,11.0716],[11.112,11.0671],[11.1277,11.0536],[11.1367,11.0424],[11.1389,11.0312],[11.13,11.0042],[11.121,10.9862],[11.112,10.9705],[11.1075,10.9548],[11.103,10.9323],[11.1008,10.9211],[11.1008,10.9144],[11.103,10.8964],[11.112,10.8695],[11.1165,10.8582],[11.1232,10.856],[11.1345,10.8515],[11.1524,10.838],[11.1592,10.8335],[11.1681,10.829],[11.1749,10.8268],[11.1816,10.8223],[11.2063,10.8133],[11.2175,10.8043],[11.231,10.8021],[11.2378,10.8021],[11.2467,10.7998],[11.2557,10.7998],[11.2714,10.7953],[11.2849,10.7931],[11.3096,10.7909],[11.3164,10.7886],[11.3276,10.7909],[11.3411,10.7953],[11.3478,10.8021],[11.3523,10.8066],[11.3545,10.8156],[11.3568,10.8223],[11.3568,10.8313],[11.3545,10.838],[11.35,10.8627],[11.3478,10.8739],[11.3478,10.8874],[11.3478,10.8987],[11.3456,10.9278],[11.3433,10.9436],[11.3388,10.966],[11.3343,10.9728],[11.3276,10.9862],[11.3276,10.9997],[11.3321,11.0087],[11.3411,11.0154],[11.3523,11.0222],[11.3613,11.0267],[11.3703,11.0334],[11.3792,11.0401],[11.3792,11.0469],[11.377,11.0603],[11.3748,11.0716],[11.3815,11.0783],[11.3905,11.0895],[11.395,11.0918],[11.3995,11.0895],[11.3995,11.0918],[11.3927,11.0963],[11.386,11.1008],[11.3815,11.1075],[11.3792,11.1098],[11.368,11.1232],[11.3635,11.13],[11.35,11.1614],[11.3411,11.1794],[11.3411,11.1816],[11.3366,11.1906],[11.3276,11.2063],[11.3253,11.2131],[11.3209,11.2243],[11.3186,11.2265],[11.3141,11.2378],[11.3096,11.2445],[11.3029,11.249],[11.3006,11.2512],[11.2962,11.2535],[11.2917,11.2535],[11.2872,11.2535],[11.2759,11.2467],[11.2737,11.2445],[11.2692,11.2423],[11.2625,11.24],[11.2602,11.24],[11.2467,11.2423],[11.2423,11.2423],[11.2378,11.2423],[11.2333,11.2445],[11.231,11.2467],[11.2265,11.249],[11.2243,11.249],[11.2175,11.2535],[11.2108,11.258],[11.2063,11.2602],[11.2018,11.2602],[11.1973,11.2602],[11.1816,11.2647],[11.1704,11.267],[11.1592,11.2692],[11.1547,11.2692],[11.1502,11.2714],[11.1479,11.2737],[11.1412,11.2782],[11.1367,11.2804],[11.1322,11.2804],[11.121,11.2827],[11.1142,11.2872],[11.1075,11.2894],[11.0985,11.2962],[11.0918,11.3006],[11.0895,11.3029],[11.0806,11.3096],[11.0716,11.3119],[11.0626,11.3096],[11.0581,11.3096],[11.0559,11.3074],[11.0514,11.3074],[11.0424,11.3074],[11.0379,11.3074],[11.0334,11.3051],[11.0312,11.3029],[11.0289,11.2984],[11.0199,11.2984],[11.0132,11.2984],[11.0064,11.2962],[11.0222,11.2917],[11.0222,11.2849],[11.0199,11.2782],[11.0132,11.2647],[10.9997,11.2355],[10.984,11.2198],[10.9705,11.2018],[10.9526,11.1839],[10.9503,11.1816],[10.957,11.1749]]]}},{"type":"Feature","properties":{"id":"gombe/shomgom","name":"Shomgom","state":"Gombe"},"geometry":{"type":"Polygon","coordinates":[[[10.9526,9.6837],[10.957,9.659],[10.9615,9.6478],[10.966,9.6298],[10.9705,9.6096],[10.9728,9.6006],[10.975,9.5939],[10.9773,9.5737],[10.9795,9.5714],[10.984,9.5647],[10.993,9.5602],[11.0087,9.5512],[11.0199,9.549],[11.0267,9.549],[11.0356,9.549],[11.0626,9.5512],[11.0716,9.5512],[11.0985,9.5512],[11.1255,9.5512],[11.1389,9.5512],[11.1502,9.5512],[11.1614,9.5512],[11.1704,9.5534],[11.1816,9.5557],[11.1928,9.5579],[11.1996,9.5602],[11.2108,9.5647],[11.222,9.5692],[11.2265,9.5692],[11.2445,9.5624],[11.2557,9.5534],[11.2692,9.549],[11.2782,9.5467],[11.2939,9.549],[11.2984,9.549],[11.3209,9.549],[11.3388,9.549],[11.3456,9.549],[11.368,9.5467],[11.3748,9.5467],[11.3748,9.5534],[11.3748,9.5579],[11.3748,9.5647],[11.377,9.5692],[11.3792,9.5804],[11.3815,9.5849],[11.3882,9.5961],[11.3905,9.6029],[11.3927,9.6051],[11.3927,9.6118],[11.3995,9.6253],[11.4017,9.632],[11.4062,9.6455],[11.4084,9.65],[11.4129,9.6567],[11.4062,9.659],[11.3927,9.6657],[11.386,9.668],[11.3792,9.6747],[11.3725,9.6792],[11.368,9.6859],[11.3568,9.7039],[11.35,9.7106],[11.3411,9.7264],[11.3343,9.7376],[11.3253,9.7466],[11.3141,9.7556],[11.3029,9.7645],[11.2917,9.7735],[11.2872,9.7892],[11.2894,9.796],[11.2917,9.8072],[11.2917,9.8207],[11.2962,9.8387],[11.2872,9.8589],[11.2827,9.8679],[11.2804,9.8813],[11.2737,9.897],[11.2647,9.9105],[11.2602,9.9173],[11.2535,9.924],[11.2467,9.924],[11.2445,9.9173],[11.2423,9.8993],[11.2423,9.8746],[11.2423,9.8454],[11.2423,9.8342],[11.24,9.8229],[11.2333,9.8005],[11.231,9.7915],[11.2265,9.7735],[11.2198,9.7556],[11.2153,9.7488],[11.2131,9.7398],[11.2086,9.7331],[11.2063,9.7264],[11.1973,9.7219],[11.1816,9.7106],[11.1726,9.7084],[11.1457,9.6972],[11.1345,9.6927],[11.1277,9.6882],[11.121,9.6837],[11.1142,9.6792],[11.1053,9.677],[11.0963,9.6747],[11.0895,9.6747],[11.0716,9.677],[11.0626,9.677],[11.0356,9.6859],[11.0244,9.6882],[11.0154,9.6904],[10.9885,9.7017],[10.9773,9.7084],[10.9683,9.7106],[10.9526,9.7129],[10.9503,9.7151],[10.9503,9.7084],[10.9503,9.6949],[10.9526,9.6837]]]}},{"type":"Feature","properties":{"id":"gombe/yamaltu-deba","name":"Yamaltu/Deba","state":"Gombe"},"geometry":{"type":"Polygon","coordinates":[[[11.1928,10.2204],[11.2018,10.2025],[11.2086,10.1935],[11.2131,10.189],[11.2265,10.1845],[11.249,10.1688],[11.2557,10.162],[11.2647,10.1553],[11.2827,10.1328],[11.2894,10.1261],[11.2939,10.1194],[11.2984,10.1149],[11.3051,10.1081],[11.3096,10.1037],[11.3164,10.0947],[11.3209,10.0879],[11.3298,10.079],[11.3478,10.0632],[11.3545,10.0565],[11.3658,10.052],[11.3725,10.0498],[11.395,10.043],[11.4039,10.0408],[11.4107,10.0385],[11.4309,10.0363],[11.4466,10.0385],[11.4556,10.0408],[11.4713,10.043],[11.4938,10.043],[11.5117,10.0385],[11.5207,10.034],[11.5297,10.0273],[11.5387,10.0206],[11.5454,10.0228],[11.5656,10.034],[11.5724,10.0385],[11.5814,10.0475],[11.5881,10.0565],[11.5993,10.0632],[11.615,10.0722],[11.624,10.0767],[11.633,10.079],[11.6398,10.0812],[11.6487,10.0812],[11.6577,10.0812],[11.6689,10.0857],[11.6847,10.0879],[11.6892,10.0857],[11.6981,10.0834],[11.7071,10.0834],[11.7161,10.0834],[11.7273,10.0857],[11.7341,10.0857],[11.7475,10.0857],[11.7678,10.0812],[11.7835,10.0767],[11.7925,10.0722],[11.8014,10.061],[11.8082,10.0565],[11.8172,10.0542],[11.8261,10.052],[11.8284,10.0542],[11.8217,10.0632],[11.8172,10.0677],[11.8104,10.0745],[11.8082,10.0857],[11.8059,10.0879],[11.7992,10.0947],[11.7745,10.1194],[11.761,10.1328],[11.7565,10.1418],[11.7498,10.1553],[11.7408,10.1643],[11.7228,10.1665],[11.6981,10.1665],[11.6824,10.1733],[11.6757,10.1733],[11.6622,10.1778],[11.6375,10.1867],[11.6173,10.1935],[11.5971,10.2025],[11.5859,10.2249],[11.5814,10.2451],[11.5724,10.2609],[11.5612,10.2743],[11.5477,10.2856],[11.5387,10.2945],[11.532,10.3013],[11.5342,10.3125],[11.5432,10.326],[11.5679,10.3395],[11.6016,10.3574],[11.624,10.3821],[11.6353,10.3956],[11.6353,10.4001],[11.6353,10.4091],[11.6353,10.4181],[11.6353,10.427],[11.6353,10.4383],[11.6353,10.4473],[11.6353,10.4652],[11.6375,10.472],[11.6375,10.4765],[11.6398,10.4899],[11.6398,10.5012],[11.6442,10.5101],[11.6465,10.5191],[11.651,10.5303],[11.6487,10.5438],[11.642,10.5528],[11.6398,10.5618],[11.6375,10.5708],[11.6398,10.5865],[11.6398,10.6],[11.6398,10.609],[11.633,10.609],[11.6285,10.609],[11.624,10.6067],[11.6128,10.6045],[11.6016,10.6022],[11.5926,10.5977],[11.5836,10.5932],[11.5724,10.5932],[11.5612,10.591],[11.5522,10.5887],[11.5477,10.5842],[11.5364,10.5753],[11.532,10.5708],[11.5275,10.5685],[11.523,10.5685],[11.5185,10.564],[11.5185,10.5551],[11.5185,10.5483],[11.5162,10.5416],[11.514,10.5371],[11.5095,10.5191],[11.4938,10.4944],[11.4803,10.4832],[11.4736,10.4787],[11.4691,10.4742],[11.4668,10.4675],[11.4623,10.463],[11.4556,10.4562],[11.4489,10.4495],[11.4399,10.4405],[11.4354,10.4338],[11.4197,10.4158],[11.4152,10.4091],[11.4062,10.4046],[11.3972,10.3978],[11.3748,10.3889],[11.3568,10.3799],[11.3433,10.3776],[11.3298,10.3731],[11.3164,10.3709],[11.3051,10.3664],[11.2939,10.3597],[11.2827,10.3484],[11.2804,10.344],[11.2692,10.3305],[11.2557,10.3237],[11.2378,10.3192],[11.2243,10.3148],[11.2041,10.3125],[11.1973,10.3125],[11.1996,10.3058],[11.2041,10.3013],[11.2086,10.2923],[11.2108,10.2833],[11.2108,10.2743],[11.2086,10.2653],[11.2041,10.2609],[11.1996,10.2564],[11.1973,10.2519],[11.1928,10.2429],[11.1906,10.2384],[11.1906,10.2317],[11.1906,10.2249],[11.1928,10.2204]]]}}]}