{"type":"FeatureCollection","features":[{"type":"Feature","properties":{"id":"imo/aboh-mbaise","name":"Aboh-Mbaise","state":"Imo"},"geometry":{"type":"Polygon","coordinates":[[[7.164,5.4729],[7.1662,5.4684],[7.1752,5.4594],[7.1774,5.4549],[7.1842,5.4504],[7.1909,5.4482],[7.2021,5.4504],[7.2044,5.4527],[7.2089,5.4527],[7.2111,5.4527],[7.2134,5.4527],[7.2156,5.4527],[7.2246,5.446],[7.2313,5.4415],[7.2313,5.4392],[7.2313,5.4347],[7.2313,5.4325],[7.2313,5.428],[7.2291,5.4257],[7.2291,5.4213],[7.2268,5.419],[7.2246,5.4168],[7.2246,5.4145],[7.2224,5.4123],[7.2201,5.4078],[7.2201,5.4055],[7.2201,5.3988],[7.2201,5.3921],[7.2201,5.3898],[7.2224,5.3876],[7.2246,5.3853],[7.2291,5.3786],[7.2313,5.3786],[7.2403,5.3741],[7.2448,5.3651],[7.2471,5.3584],[7.2515,5.3516],[7.2538,5.3494],[7.256,5.3471],[7.2762,5.3269],[7.2785,5.3247],[7.2875,5.3202],[7.292,5.3202],[7.292,5.3247],[7.292,5.3269],[7.2942,5.3292],[7.2942,5.3314],[7.301,5.3427],[7.3032,5.3471],[7.3032,5.3516],[7.3054,5.3584],[7.3077,5.3606],[7.3122,5.3606],[7.3144,5.3629],[7.3167,5.3674],[7.3212,5.3831],[7.3234,5.3876],[7.3234,5.3966],[7.3212,5.4055],[7.3189,5.4055],[7.3167,5.4055],[7.3032,5.41],[7.301,5.4123],[7.2965,5.419],[7.2942,5.419],[7.292,5.4213],[7.2897,5.4235],[7.2897,5.4257],[7.2762,5.4504],[7.2718,5.4617],[7.2695,5.4639],[7.2673,5.4662],[7.2673,5.4707],[7.2673,5.4729],[7.2718,5.4729],[7.274,5.4729],[7.2762,5.4752],[7.2785,5.4774],[7.2785,5.4796],[7.2807,5.4819],[7.2807,5.4841],[7.283,5.4886],[7.283,5.4909],[7.2852,5.4909],[7.2897,5.4954],[7.292,5.4976],[7.2965,5.4999],[7.301,5.5021],[7.3054,5.5043],[7.3077,5.5066],[7.3099,5.5133],[7.3099,5.5156],[7.3099,5.5201],[7.3077,5.5178],[7.292,5.5156],[7.2852,5.5133],[7.2785,5.5133],[7.2628,5.5156],[7.2538,5.5156],[7.2515,5.5156],[7.2471,5.5133],[7.2448,5.5133],[7.2426,5.5111],[7.2403,5.5088],[7.2381,5.5066],[7.2336,5.5066],[7.2313,5.5066],[7.2291,5.5066],[7.2268,5.5066],[7.2224,5.5066],[7.2179,5.5111],[7.2134,5.5111],[7.2066,5.5088],[7.2044,5.5066],[7.1999,5.5066],[7.1954,5.5066],[7.1932,5.5066],[7.1887,5.5043],[7.1842,5.5021],[7.1774,5.4999],[7.1752,5.4976],[7.1729,5.4954],[7.1729,5.4931],[7.1685,5.4909],[7.1662,5.4886],[7.164,5.4886],[7.1595,5.4841],[7.1595,5.4796],[7.164,5.4729]]]}},{"type":"Feature","properties":{"id":"imo/ahiazu-mbaise","name":"Ahiazu-Mbaise","state":"Imo"},"geometry":{"type":"Polygon","coordinates":[[[7.2134,5.5223],[7.2179,5.5111],[7.2224,5.5066],[7.2268,5.5066],[7.2291,5.5066],[7.2313,5.5066],[7.2336,5.5066],[7.2381,5.5066],[7.2403,5.5088],[7.2426,5.5111],[7.2448,5.5133],[7.2471,5.5133],[7.2515,5.5156],[7.2538,5.5156],[7.2628,5.5156],[7.2785,5.5133],[7.2852,5.5133],[7.292,5.5156],[7.3077,5.5178],[7.3099,5.5201],[7.3189,5.5268],[7.3212,5.5291],[7.3234,5.5313],[7.3234,5.538],[7.3234,5.5425],[7.3212,5.5425],[7.3144,5.5448],[7.3122,5.547],[7.3099,5.5515],[7.3054,5.556],[7.3054,5.5605],[7.3054,5.565],[7.3054,5.5695],[7.3077,5.5717],[7.3077,5.5762],[7.3099,5.5785],[7.3099,5.5829],[7.3099,5.5852],[7.3099,5.5874],[7.3099,5.5964],[7.3077,5.6032],[7.3032,5.6009],[7.3032,5.6032],[7.301,5.6077],[7.301,5.6099],[7.2987,5.6144],[7.2987,5.6166],[7.2942,5.6189],[7.292,5.6189],[7.2897,5.6189],[7.2852,5.6189],[7.2718,5.6144],[7.2673,5.6121],[7.265,5.6121],[7.2605,5.6099],[7.2538,5.6077],[7.2493,5.6077],[7.2448,5.6099],[7.2336,5.6099],[7.2246,5.6099],[7.2224,5.6121],[7.2134,5.6099],[7.2134,5.6054],[7.2156,5.6032],[7.2201,5.5987],[7.2224,5.5964],[7.2246,5.5942],[7.2291,5.5897],[7.2313,5.5852],[7.2313,5.5829],[7.2291,5.5785],[7.2291,5.5762],[7.2268,5.574],[7.2224,5.565],[7.2179,5.5582],[7.2156,5.556],[7.2134,5.5538],[7.2089,5.5515],[7.2066,5.547],[7.2066,5.5425],[7.2134,5.5223]]]}},{"type":"Feature","properties":{"id":"imo/ehime-mbano","name":"Ehime-Mbano","state":"Imo"},"geometry":{"type":"Polygon","coordinates":[[[7.2224,5.6166],[7.2224,5.6121],[7.2246,5.6099],[7.2336,5.6099],[7.2448,5.6099],[7.2493,5.6077],[7.2538,5.6077],[7.2605,5.6099],[7.265,5.6121],[7.2673,5.6121],[7.2718,5.6144],[7.2852,5.6189],[7.2897,5.6189],[7.292,5.6189],[7.2942,5.6189],[7.2987,5.6166],[7.301,5.6189],[7.3054,5.6189],[7.3099,5.6166],[7.3144,5.6166],[7.3167,5.6189],[7.3189,5.6189],[7.3279,5.6256],[7.3324,5.6279],[7.3369,5.6324],[7.3414,5.6391],[7.3414,5.6436],[7.3459,5.6503],[7.3459,5.6571],[7.3459,5.6593],[7.3459,5.6638],[7.3459,5.6683],[7.3459,5.6773],[7.3459,5.6863],[7.3459,5.6997],[7.3459,5.7042],[7.3481,5.7065],[7.3504,5.7087],[7.3526,5.711],[7.3593,5.7132],[7.3616,5.7132],[7.3571,5.7177],[7.3549,5.7177],[7.3504,5.7199],[7.3459,5.7222],[7.3414,5.7244],[7.3391,5.7244],[7.3369,5.7244],[7.3324,5.7267],[7.3301,5.7289],[7.3234,5.7402],[7.3189,5.7469],[7.3167,5.7514],[7.3122,5.7559],[7.3099,5.7581],[7.3099,5.7604],[7.3054,5.7649],[7.3032,5.7671],[7.2987,5.7693],[7.2965,5.7693],[7.292,5.7693],[7.292,5.7671],[7.2897,5.7649],[7.2852,5.7649],[7.283,5.7626],[7.2762,5.7626],[7.274,5.7626],[7.265,5.7604],[7.265,5.7559],[7.265,5.7446],[7.265,5.7402],[7.265,5.7334],[7.2605,5.7154],[7.2605,5.7087],[7.2583,5.6952],[7.256,5.693],[7.256,5.6907],[7.256,5.6885],[7.2538,5.6863],[7.2515,5.6818],[7.2471,5.6795],[7.2426,5.6773],[7.2403,5.6773],[7.2381,5.6773],[7.2313,5.6728],[7.2291,5.6705],[7.2268,5.6683],[7.2268,5.666],[7.2246,5.6616],[7.2246,5.6593],[7.2224,5.6571],[7.2224,5.6526],[7.2224,5.6436],[7.2224,5.6413],[7.2201,5.6234],[7.2224,5.6166]]]}},{"type":"Feature","properties":{"id":"imo/ezinihitte","name":"Ezinihitte","state":"Imo"},"geometry":{"type":"Polygon","coordinates":[[[7.2695,5.4639],[7.2718,5.4617],[7.2762,5.4504],[7.2897,5.4257],[7.2897,5.4235],[7.292,5.4213],[7.2942,5.419],[7.2965,5.419],[7.301,5.4123],[7.3032,5.41],[7.3167,5.4055],[7.3189,5.4055],[7.3212,5.4055],[7.3234,5.4078],[7.3234,5.41],[7.3324,5.4235],[7.3346,5.4302],[7.3369,5.4325],[7.3391,5.4347],[7.3436,5.4392],[7.3481,5.4415],[7.3481,5.4437],[7.3504,5.4437],[7.3549,5.4437],[7.3571,5.446],[7.3593,5.4504],[7.3593,5.4527],[7.3616,5.4549],[7.3616,5.4594],[7.3638,5.4662],[7.3661,5.4684],[7.3706,5.4729],[7.3728,5.4752],[7.3751,5.4774],[7.3751,5.4796],[7.3773,5.4819],[7.384,5.5021],[7.3885,5.5111],[7.384,5.5156],[7.3818,5.5178],[7.3773,5.5178],[7.3728,5.5201],[7.3593,5.5268],[7.3526,5.5291],[7.3481,5.5335],[7.3459,5.5335],[7.3414,5.5358],[7.3346,5.5403],[7.3324,5.5403],[7.3301,5.5403],[7.3234,5.5425],[7.3234,5.538],[7.3234,5.5313],[7.3212,5.5291],[7.3189,5.5268],[7.3099,5.5201],[7.3099,5.5156],[7.3099,5.5133],[7.3077,5.5066],[7.3054,5.5043],[7.301,5.5021],[7.2965,5.4999],[7.292,5.4976],[7.2897,5.4954],[7.2852,5.4909],[7.283,5.4909],[7.283,5.4886],[7.2807,5.4841],[7.2807,5.4819],[7.2785,5.4796],[7.2785,5.4774],[7.2762,5.4752],[7.274,5.4729],[7.2718,5.4729],[7.2673,5.4729],[7.2673,5.4707],[7.2673,5.4662],[7.2695,5.4639]]]}},{"type":"Feature","properties":{"id":"imo/ideato-north","name":"Ideato North","state":"Imo"},"geometry":{"type":"Polygon","coordinates":[[[7.0045,5.8974],[7.0068,5.8951],[7.0112,5.8951],[7.0157,5.8951],[7.018,5.8951],[7.0202,5.8951],[7.0292,5.8929],[7.036,5.8906],[7.0382,5.8906],[7.0404,5.8884],[7.0427,5.8861],[7.0472,5.8816],[7.0472,5.8794],[7.0494,5.8749],[7.0494,5.8727],[7.0517,5.8637],[7.0539,5.8637],[7.0584,5.8367],[7.0584,5.8322],[7.0629,5.8277],[7.0674,5.83],[7.0764,5.8345],[7.0966,5.8412],[7.1011,5.8435],[7.1033,5.8435],[7.1146,5.8502],[7.1168,5.8502],[7.1213,5.8524],[7.1235,5.8547],[7.1258,5.8547],[7.1303,5.8569],[7.1348,5.8569],[7.1437,5.8569],[7.146,5.8569],[7.1505,5.8524],[7.1527,5.8502],[7.1527,5.8479],[7.1572,5.8435],[7.1685,5.83],[7.1707,5.8277],[7.1729,5.8255],[7.1729,5.8232],[7.1752,5.8165],[7.1774,5.812],[7.1774,5.8053],[7.1797,5.803],[7.1819,5.8008],[7.1819,5.7985],[7.1864,5.7918],[7.1887,5.7896],[7.1909,5.7873],[7.1932,5.7896],[7.1932,5.7918],[7.1932,5.794],[7.1932,5.7963],[7.1932,5.803],[7.1954,5.8098],[7.1954,5.812],[7.1954,5.8143],[7.1954,5.8165],[7.1976,5.8188],[7.2021,5.8277],[7.2089,5.839],[7.2134,5.8479],[7.2156,5.8569],[7.2179,5.8592],[7.2201,5.8637],[7.2201,5.8659],[7.2224,5.8704],[7.2246,5.8727],[7.2291,5.8861],[7.2291,5.8884],[7.2313,5.8951],[7.2313,5.8974],[7.2313,5.8996],[7.2291,5.9018],[7.2246,5.9176],[7.2246,5.9198],[7.2224,5.9265],[7.2224,5.9288],[7.2224,5.9333],[7.2201,5.931],[7.2179,5.931],[7.2156,5.931],[7.2111,5.9288],[7.2089,5.9265],[7.2021,5.9221],[7.1999,5.9176],[7.1954,5.9086],[7.1954,5.9041],[7.1932,5.9018],[7.1909,5.8996],[7.1887,5.8996],[7.1864,5.8996],[7.1819,5.9018],[7.1797,5.9041],[7.1774,5.9041],[7.1752,5.9063],[7.1729,5.9063],[7.164,5.9108],[7.1482,5.9176],[7.146,5.9176],[7.1437,5.9176],[7.1393,5.9198],[7.1325,5.9198],[7.1168,5.9221],[7.0988,5.9265],[7.0809,5.9288],[7.0629,5.931],[7.0607,5.931],[7.0562,5.931],[7.0539,5.9288],[7.0472,5.9265],[7.0404,5.9221],[7.0404,5.9198],[7.0382,5.9176],[7.036,5.9153],[7.0337,5.9153],[7.0315,5.9131],[7.0247,5.9108],[7.0202,5.9086],[7.0135,5.9086],[7.009,5.9086],[7.0023,5.9041],[7.0045,5.8974]]]}},{"type":"Feature","properties":{"id":"imo/ideato-south","name":"Ideato South","state":"Imo"},"geometry":{"type":"Polygon","coordinates":[[[7.0651,5.8255],[7.0674,5.8232],[7.0696,5.821],[7.0741,5.8188],[7.0786,5.8165],[7.0809,5.8165],[7.0854,5.8143],[7.0921,5.812],[7.0966,5.8098],[7.0966,5.8075],[7.0988,5.8053],[7.1011,5.803],[7.1011,5.8008],[7.1033,5.7918],[7.1056,5.7896],[7.1056,5.7851],[7.1056,5.7828],[7.1056,5.7806],[7.1078,5.7783],[7.1078,5.7738],[7.1101,5.7716],[7.1146,5.7716],[7.119,5.7716],[7.1258,5.7716],[7.1348,5.7693],[7.137,5.7693],[7.1415,5.7671],[7.1437,5.7671],[7.1505,5.7649],[7.155,5.7626],[7.1617,5.7581],[7.1774,5.7536],[7.1797,5.7559],[7.1842,5.7604],[7.1864,5.7671],[7.1909,5.7828],[7.1909,5.7873],[7.1887,5.7896],[7.1864,5.7918],[7.1819,5.7985],[7.1819,5.8008],[7.1797,5.803],[7.1774,5.8053],[7.1774,5.812],[7.1752,5.8165],[7.1729,5.8232],[7.1729,5.8255],[7.1707,5.8277],[7.1685,5.83],[7.1572,5.8435],[7.1527,5.8479],[7.1527,5.8502],[7.1505,5.8524],[7.146,5.8569],[7.1437,5.8569],[7.1348,5.8569],[7.1303,5.8569],[7.1258,5.8547],[7.1235,5.8547],[7.1213,5.8524],[7.1168,5.8502],[7.1146,5.8502],[7.1033,5.8435],[7.1011,5.8435],[7.0966,5.8412],[7.0764,5.8345],[7.0674,5.83],[7.0629,5.8277],[7.0651,5.8255]]]}},{"type":"Feature","properties":{"id":"imo/ihitte-uboma","name":"Ihitte/Uboma","state":"Imo"},"geometry":{"type":"Polygon","coordinates":[[[7.301,5.6099],[7.301,5.6077],[7.3032,5.6032],[7.3032,5.6009],[7.3077,5.6032],[7.3167,5.6054],[7.3391,5.6077],[7.3436,5.6077],[7.3459,5.6077],[7.3481,5.6077],[7.3571,5.6032],[7.3593,5.6032],[7.3728,5.5987],[7.3751,5.5987],[7.384,5.5987],[7.3953,5.5987],[7.3998,5.5964],[7.4043,5.5964],[7.4065,5.5942],[7.4177,5.5874],[7.4222,5.5829],[7.4267,5.5874],[7.4312,5.6054],[7.429,5.6166],[7.429,5.6234],[7.4267,5.6279],[7.4267,5.6324],[7.4222,5.6346],[7.42,5.6413],[7.4177,5.6481],[7.4177,5.6503],[7.4177,5.6526],[7.4177,5.6571],[7.4155,5.6616],[7.4155,5.6638],[7.411,5.6728],[7.4087,5.6773],[7.4043,5.6795],[7.402,5.6818],[7.3953,5.6863],[7.3908,5.6907],[7.3863,5.6975],[7.384,5.6997],[7.3818,5.7042],[7.3818,5.7065],[7.3773,5.7087],[7.3751,5.7087],[7.3706,5.7087],[7.3683,5.7087],[7.3661,5.711],[7.3616,5.7132],[7.3593,5.7132],[7.3526,5.711],[7.3504,5.7087],[7.3481,5.7065],[7.3459,5.7042],[7.3459,5.6997],[7.3459,5.6863],[7.3459,5.6773],[7.3459,5.6683],[7.3459,5.6638],[7.3459,5.6593],[7.3459,5.6571],[7.3459,5.6503],[7.3414,5.6436],[7.3414,5.6391],[7.3369,5.6324],[7.3324,5.6279],[7.3279,5.6256],[7.3189,5.6189],[7.3167,5.6189],[7.3144,5.6166],[7.3099,5.6166],[7.3054,5.6189],[7.301,5.6189],[7.2987,5.6166],[7.2987,5.6144],[7.301,5.6099]]]}},{"type":"Feature","properties":{"id":"imo/ikeduru","name":"Ikeduru","state":"Imo"},"geometry":{"type":"Polygon","coordinates":[[[7.0809,5.5425],[7.0809,5.5403],[7.0899,5.538],[7.0943,5.5358],[7.1078,5.5268],[7.1123,5.5223],[7.119,5.5156],[7.1213,5.5156],[7.1213,5.5133],[7.1235,5.5088],[7.1303,5.5088],[7.1325,5.5066],[7.1348,5.5066],[7.1393,5.5066],[7.1415,5.5043],[7.146,5.5021],[7.1482,5.4999],[7.1527,5.4931],[7.155,5.4909],[7.1572,5.4886],[7.1595,5.4841],[7.164,5.4886],[7.1662,5.4886],[7.1685,5.4909],[7.1729,5.4931],[7.1729,5.4954],[7.1752,5.4976],[7.1774,5.4999],[7.1842,5.5021],[7.1887,5.5043],[7.1932,5.5066],[7.1954,5.5066],[7.1999,5.5066],[7.2044,5.5066],[7.2066,5.5088],[7.2134,5.5111],[7.2179,5.5111],[7.2134,5.5223],[7.2066,5.5425],[7.2066,5.547],[7.2089,5.5515],[7.2134,5.5538],[7.2156,5.556],[7.2179,5.5582],[7.2224,5.565],[7.2268,5.574],[7.2291,5.5762],[7.2291,5.5785],[7.2313,5.5829],[7.2313,5.5852],[7.2291,5.5897],[7.2246,5.5942],[7.2224,5.5964],[7.2201,5.5987],[7.2156,5.6032],[7.2134,5.6054],[7.2134,5.6099],[7.2089,5.6099],[7.2044,5.6099],[7.2021,5.6099],[7.1999,5.6099],[7.1887,5.6121],[7.1842,5.6166],[7.1752,5.6211],[7.1617,5.6279],[7.146,5.6324],[7.1393,5.6346],[7.137,5.6324],[7.1303,5.6301],[7.128,5.6279],[7.1235,5.6256],[7.1213,5.6256],[7.1146,5.6211],[7.1123,5.6189],[7.0966,5.6054],[7.0943,5.6032],[7.0943,5.6009],[7.0921,5.5919],[7.0921,5.5852],[7.0921,5.5829],[7.0899,5.5762],[7.0876,5.5717],[7.0831,5.5672],[7.0809,5.5627],[7.0786,5.5605],[7.0786,5.556],[7.0786,5.5515],[7.0786,5.547],[7.0786,5.5448],[7.0809,5.5425]]]}},{"type":"Feature","properties":{"id":"imo/isiala-mbano","name":"Isiala Mbano","state":"Imo"},"geometry":{"type":"Polygon","coordinates":[[[7.0809,5.6526],[7.0854,5.6503],[7.0943,5.6503],[7.1011,5.6481],[7.1033,5.6481],[7.1078,5.6481],[7.1123,5.6481],[7.119,5.6481],[7.1213,5.6458],[7.1235,5.6458],[7.1348,5.6391],[7.137,5.6368],[7.1393,5.6346],[7.146,5.6324],[7.1617,5.6279],[7.1752,5.6211],[7.1842,5.6166],[7.1887,5.6121],[7.1999,5.6099],[7.2021,5.6099],[7.2044,5.6099],[7.2089,5.6099],[7.2134,5.6099],[7.2224,5.6121],[7.2224,5.6166],[7.2201,5.6234],[7.2224,5.6413],[7.2224,5.6436],[7.2224,5.6526],[7.2224,5.6571],[7.2246,5.6593],[7.2246,5.6616],[7.2268,5.666],[7.2268,5.6683],[7.2291,5.6705],[7.2313,5.6728],[7.2381,5.6773],[7.2403,5.6773],[7.2426,5.6773],[7.2471,5.6795],[7.2515,5.6818],[7.2538,5.6863],[7.256,5.6885],[7.256,5.6907],[7.256,5.693],[7.2583,5.6952],[7.2605,5.7087],[7.2605,5.7154],[7.265,5.7334],[7.265,5.7402],[7.265,5.7446],[7.265,5.7559],[7.265,5.7604],[7.2515,5.7604],[7.2493,5.7581],[7.2448,5.7581],[7.2426,5.7559],[7.2336,5.7491],[7.2201,5.7424],[7.2111,5.7379],[7.2089,5.7379],[7.2044,5.7379],[7.1999,5.7379],[7.1954,5.7379],[7.1797,5.7379],[7.1774,5.7379],[7.1752,5.7357],[7.1707,5.7244],[7.164,5.711],[7.164,5.7065],[7.1617,5.702],[7.1572,5.6975],[7.1527,5.6907],[7.1527,5.6885],[7.1505,5.6863],[7.1482,5.6863],[7.146,5.6863],[7.137,5.684],[7.1213,5.684],[7.1168,5.684],[7.1123,5.684],[7.1101,5.684],[7.1078,5.684],[7.1033,5.6818],[7.0988,5.6773],[7.0921,5.6728],[7.0876,5.6705],[7.0831,5.6638],[7.0786,5.6548],[7.0809,5.6526]]]}},{"type":"Feature","properties":{"id":"imo/isu","name":"Isu","state":"Imo"},"geometry":{"type":"Polygon","coordinates":[[[7.027,5.6952],[7.0315,5.6907],[7.0337,5.6885],[7.0337,5.6863],[7.036,5.684],[7.0382,5.6795],[7.0404,5.6728],[7.0427,5.6705],[7.0427,5.666],[7.0427,5.6616],[7.0427,5.6593],[7.0427,5.6526],[7.0404,5.6503],[7.0427,5.6458],[7.0449,5.6481],[7.0472,5.6481],[7.0517,5.6481],[7.0607,5.6503],[7.0629,5.6503],[7.0651,5.6503],[7.0696,5.6503],[7.0719,5.6526],[7.0741,5.6526],[7.0786,5.6548],[7.0831,5.6638],[7.0809,5.666],[7.0809,5.6705],[7.0786,5.675],[7.0764,5.693],[7.0741,5.702],[7.0741,5.7065],[7.0741,5.7087],[7.0741,5.7154],[7.0741,5.7177],[7.0741,5.7267],[7.0674,5.7267],[7.0629,5.7267],[7.0562,5.7267],[7.0517,5.7267],[7.0382,5.7244],[7.036,5.7244],[7.0337,5.7222],[7.0292,5.7177],[7.0292,5.7154],[7.027,5.711],[7.0247,5.7087],[7.0247,5.7065],[7.0247,5.702],[7.0247,5.6997],[7.0247,5.6975],[7.027,5.6952]]]}},{"type":"Feature","properties":{"id":"imo/mbaitoli","name":"Mbaitoli","state":"Imo"},"geometry":{"type":"Polygon","coordinates":[[[6.9371,5.5493],[6.9394,5.5493],[6.9484,5.547],[6.9551,5.547],[6.9596,5.547],[6.9641,5.547],[6.9663,5.5493],[6.9708,5.5493],[6.9798,5.5515],[6.9821,5.5515],[6.9865,5.5493],[6.991,5.547],[6.9955,5.5448],[6.9978,5.5425],[7.0,5.5403],[7.009,5.5358],[7.0112,5.5358],[7.0135,5.5335],[7.0225,5.5313],[7.027,5.5313],[7.0292,5.5313],[7.036,5.5313],[7.0404,5.5313],[7.0449,5.5313],[7.0494,5.5313],[7.0539,5.5335],[7.0674,5.5358],[7.0719,5.5358],[7.0764,5.5358],[7.0764,5.538],[7.0786,5.538],[7.0809,5.5403],[7.0809,5.5425],[7.0786,5.5448],[7.0786,5.547],[7.0786,5.5515],[7.0786,5.556],[7.0786,5.5605],[7.0809,5.5627],[7.0831,5.5672],[7.0876,5.5717],[7.0899,5.5762],[7.0921,5.5829],[7.0921,5.5852],[7.0921,5.5919],[7.0943,5.6009],[7.0943,5.6032],[7.0966,5.6054],[7.1123,5.6189],[7.1146,5.6211],[7.1213,5.6256],[7.1235,5.6256],[7.128,5.6279],[7.1303,5.6301],[7.137,5.6324],[7.1393,5.6346],[7.137,5.6368],[7.1348,5.6391],[7.1235,5.6458],[7.1213,5.6458],[7.119,5.6481],[7.1123,5.6481],[7.1078,5.6481],[7.1033,5.6481],[7.1011,5.6481],[7.0943,5.6503],[7.0854,5.6503],[7.0809,5.6526],[7.0786,5.6548],[7.0741,5.6526],[7.0719,5.6526],[7.0696,5.6503],[7.0651,5.6503],[7.0629,5.6503],[7.0607,5.6503],[7.0517,5.6481],[7.0472,5.6481],[7.0449,5.6481],[7.0427,5.6458],[7.0382,5.6458],[7.0337,5.6436],[7.027,5.6436],[7.018,5.6436],[7.009,5.6436],[6.9978,5.6458],[6.991,5.6458],[6.9888,5.6458],[6.9821,5.6458],[6.9596,5.6436],[6.9574,5.6413],[6.9506,5.6413],[6.9484,5.6391],[6.9439,5.6368],[6.9439,5.6301],[6.9439,5.6279],[6.9439,5.6256],[6.9439,5.6144],[6.9461,5.5919],[6.9461,5.5897],[6.9461,5.5852],[6.9461,5.5807],[6.9461,5.5762],[6.9416,5.5717],[6.9394,5.5672],[6.9371,5.5582],[6.9349,5.5515],[6.9371,5.5493]]]}},{"type":"Feature","properties":{"id":"imo/ngor-okpala","name":"Ngor-Okpala","state":"Imo"},"geometry":{"type":"Polygon","coordinates":[[[6.9843,5.2573],[6.9843,5.2551],[6.9865,5.2528],[6.9955,5.2416],[6.9978,5.2393],[7.0045,5.2393],[7.0068,5.2416],[7.0202,5.2438],[7.0292,5.2461],[7.036,5.2483],[7.0404,5.2506],[7.0449,5.2483],[7.0539,5.2461],[7.0562,5.2438],[7.0629,5.2393],[7.0809,5.2304],[7.0831,5.2281],[7.0943,5.2259],[7.1078,5.2214],[7.1235,5.2169],[7.1348,5.2146],[7.1415,5.2146],[7.1617,5.2124],[7.1662,5.2124],[7.1752,5.2102],[7.1797,5.2079],[7.1819,5.2079],[7.1864,5.2057],[7.1887,5.2034],[7.1909,5.2034],[7.1932,5.2012],[7.1976,5.1989],[7.2111,5.1967],[7.2156,5.1967],[7.2179,5.1967],[7.2291,5.1944],[7.2313,5.1944],[7.2426,5.1967],[7.2515,5.2012],[7.2515,5.2057],[7.2605,5.2124],[7.265,5.2146],[7.265,5.2214],[7.2673,5.2281],[7.2673,5.2326],[7.2673,5.2371],[7.2673,5.2393],[7.2673,5.2416],[7.2695,5.2461],[7.274,5.2528],[7.2762,5.2551],[7.2762,5.2596],[7.2785,5.273],[7.2785,5.2753],[7.2785,5.2775],[7.283,5.2865],[7.2852,5.291],[7.2875,5.2955],[7.2897,5.3022],[7.292,5.3045],[7.292,5.3067],[7.292,5.3112],[7.292,5.3202],[7.2875,5.3202],[7.2785,5.3247],[7.2762,5.3269],[7.256,5.3471],[7.2538,5.3494],[7.2515,5.3516],[7.2471,5.3584],[7.2448,5.3651],[7.2403,5.3741],[7.2313,5.3786],[7.2291,5.3786],[7.2246,5.3853],[7.2224,5.3876],[7.2201,5.3898],[7.2201,5.3921],[7.2201,5.3988],[7.2201,5.4055],[7.2201,5.4078],[7.2224,5.4123],[7.2246,5.4145],[7.2246,5.4168],[7.2268,5.419],[7.2291,5.4213],[7.2291,5.4257],[7.2313,5.428],[7.2313,5.4325],[7.2313,5.4347],[7.2313,5.4392],[7.2313,5.4415],[7.2246,5.446],[7.2156,5.4527],[7.2134,5.4527],[7.2111,5.4527],[7.2089,5.4527],[7.2044,5.4527],[7.2021,5.4504],[7.1909,5.4482],[7.1842,5.4504],[7.1774,5.4549],[7.1752,5.4594],[7.1729,5.4572],[7.1685,5.4549],[7.1662,5.4527],[7.1617,5.4504],[7.1595,5.4482],[7.1572,5.446],[7.155,5.4415],[7.155,5.4392],[7.1527,5.437],[7.1527,5.4302],[7.1527,5.428],[7.155,5.4257],[7.155,5.4235],[7.155,5.4168],[7.155,5.4145],[7.1527,5.4123],[7.1527,5.41],[7.1505,5.4078],[7.146,5.4055],[7.1415,5.4055],[7.1303,5.4033],[7.128,5.4033],[7.1213,5.4033],[7.1078,5.4033],[7.1056,5.4033],[7.0966,5.4033],[7.0943,5.401],[7.0899,5.3988],[7.0876,5.3943],[7.0764,5.3763],[7.0696,5.3629],[7.0674,5.3584],[7.0607,5.3494],[7.0562,5.3449],[7.0539,5.3404],[7.0494,5.3382],[7.0382,5.3269],[7.036,5.3247],[7.036,5.3157],[7.036,5.309],[7.0337,5.3045],[7.0337,5.3022],[7.0315,5.2977],[7.027,5.2932],[7.018,5.2865],[7.0135,5.2843],[7.0045,5.2775],[6.9888,5.2663],[6.9821,5.2663],[6.9821,5.2618],[6.9843,5.2573]]]}},{"type":"Feature","properties":{"id":"imo/njaba","name":"Njaba","state":"Imo"},"geometry":{"type":"Polygon","coordinates":[[[6.9574,5.7424],[6.9574,5.7402],[6.9596,5.7379],[6.9596,5.7357],[6.9663,5.7312],[6.9686,5.7289],[6.9708,5.7244],[6.9731,5.7222],[6.9753,5.7177],[6.9753,5.7154],[6.9776,5.711],[6.9821,5.6975],[6.9843,5.693],[6.9865,5.6773],[6.9888,5.6705],[6.9888,5.666],[6.9888,5.6593],[6.9888,5.6481],[6.9888,5.6458],[6.991,5.6458],[6.9978,5.6458],[7.009,5.6436],[7.018,5.6436],[7.027,5.6436],[7.0337,5.6436],[7.0382,5.6458],[7.0427,5.6458],[7.0404,5.6503],[7.0427,5.6526],[7.0427,5.6593],[7.0427,5.6616],[7.0427,5.666],[7.0427,5.6705],[7.0404,5.6728],[7.0382,5.6795],[7.036,5.684],[7.0337,5.6863],[7.0337,5.6885],[7.0315,5.6907],[7.027,5.6952],[7.0247,5.6975],[7.0247,5.6997],[7.0247,5.702],[7.0247,5.7065],[7.0247,5.7087],[7.027,5.711],[7.0292,5.7154],[7.0292,5.7177],[7.0337,5.7222],[7.036,5.7244],[7.0382,5.7244],[7.0517,5.7267],[7.0562,5.7267],[7.0629,5.7267],[7.0674,5.7267],[7.0741,5.7267],[7.0741,5.7312],[7.0719,5.7334],[7.0719,5.7357],[7.0674,5.7402],[7.0629,5.7469],[7.0607,5.7491],[7.0584,5.7514],[7.0539,5.7491],[7.0472,5.7446],[7.036,5.7424],[7.0337,5.7402],[7.0292,5.7402],[7.0247,5.7402],[7.0202,5.7402],[7.0023,5.7446],[7.0,5.7446],[6.9978,5.7446],[6.9978,5.7469],[6.9955,5.7469],[6.991,5.7559],[6.9865,5.7626],[6.9865,5.7671],[6.9798,5.7671],[6.9663,5.7626],[6.9618,5.7604],[6.9596,5.7581],[6.9574,5.7536],[6.9551,5.7514],[6.9551,5.7469],[6.9551,5.7446],[6.9574,5.7424]]]}},{"type":"Feature","properties":{"id":"imo/nkwerre","name":"Nkwerre","state":"Imo"},"geometry":{"type":"Polygon","coordinates":[[[7.0607,5.7491],[7.0629,5.7469],[7.0674,5.7402],[7.0719,5.7357],[7.0719,5.7334],[7.0741,5.7312],[7.0741,5.7267],[7.0741,5.7177],[7.0764,5.7177],[7.0831,5.7177],[7.0854,5.7177],[7.0876,5.7199],[7.0899,5.7222],[7.0943,5.7244],[7.0988,5.7289],[7.1033,5.7312],[7.1078,5.7334],[7.1101,5.7334],[7.1123,5.7334],[7.1146,5.7334],[7.119,5.7334],[7.1213,5.7334],[7.1258,5.7334],[7.128,5.7357],[7.1303,5.7402],[7.1325,5.7424],[7.1348,5.7469],[7.1393,5.7491],[7.1437,5.7514],[7.146,5.7514],[7.1482,5.7514],[7.1505,5.7514],[7.1527,5.7536],[7.155,5.7536],[7.1572,5.7536],[7.1617,5.7559],[7.1617,5.7581],[7.155,5.7626],[7.1505,5.7649],[7.1437,5.7671],[7.1415,5.7671],[7.137,5.7693],[7.1348,5.7693],[7.1258,5.7716],[7.119,5.7716],[7.1146,5.7716],[7.1101,5.7716],[7.1011,5.7693],[7.0988,5.7716],[7.0943,5.7716],[7.0899,5.7693],[7.0876,5.7693],[7.0809,5.7671],[7.0786,5.7649],[7.0719,5.7626],[7.0674,5.7581],[7.0629,5.7559],[7.0607,5.7536],[7.0584,5.7514],[7.0607,5.7491]]]}},{"type":"Feature","properties":{"id":"imo/nwangele","name":"Nwangele","state":"Imo"},"geometry":{"type":"Polygon","coordinates":[[[7.0764,5.693],[7.0786,5.675],[7.0809,5.6705],[7.0809,5.666],[7.0831,5.6638],[7.0876,5.6705],[7.0921,5.6728],[7.0988,5.6773],[7.1033,5.6818],[7.1078,5.684],[7.1101,5.684],[7.1123,5.684],[7.1168,5.684],[7.1213,5.684],[7.137,5.684],[7.146,5.6863],[7.1482,5.6863],[7.1505,5.6863],[7.1527,5.6885],[7.1527,5.6907],[7.1572,5.6975],[7.1617,5.702],[7.164,5.7065],[7.164,5.711],[7.1707,5.7244],[7.1752,5.7357],[7.1774,5.7536],[7.1617,5.7581],[7.1617,5.7559],[7.1572,5.7536],[7.155,5.7536],[7.1527,5.7536],[7.1505,5.7514],[7.1482,5.7514],[7.146,5.7514],[7.1437,5.7514],[7.1393,5.7491],[7.1348,5.7469],[7.1325,5.7424],[7.1303,5.7402],[7.128,5.7357],[7.1258,5.7334],[7.1213,5.7334],[7.119,5.7334],[7.1146,5.7334],[7.1123,5.7334],[7.1101,5.7334],[7.1078,5.7334],[7.1033,5.7312],[7.0988,5.7289],[7.0943,5.7244],[7.0899,5.7222],[7.0876,5.7199],[7.0854,5.7177],[7.0831,5.7177],[7.0764,5.7177],[7.0741,5.7177],[7.0741,5.7154],[7.0741,5.7087],[7.0741,5.7065],[7.0741,5.702],[7.0764,5.693]]]}},{"type":"Feature","properties":{"id":"imo/obowo","name":"Obowo","state":"Imo"},"geometry":{"type":"Polygon","coordinates":[[[7.3099,5.5515],[7.3122,5.547],[7.3144,5.5448],[7.3212,5.5425],[7.3234,5.5425],[7.3301,5.5403],[7.3324,5.5403],[7.3346,5.5403],[7.3414,5.5358],[7.3459,5.5335],[7.3481,5.5335],[7.3526,5.5291],[7.3593,5.5268],[7.3728,5.5201],[7.3773,5.5178],[7.3818,5.5178],[7.384,5.5156],[7.3885,5.5111],[7.3908,5.5111],[7.393,5.5133],[7.3998,5.5223],[7.402,5.5246],[7.402,5.5268],[7.4043,5.5291],[7.4065,5.5335],[7.4065,5.5358],[7.4087,5.5425],[7.4087,5.5448],[7.4132,5.5582],[7.4177,5.5627],[7.4155,5.5717],[7.4155,5.574],[7.4155,5.5762],[7.4177,5.5785],[7.42,5.5785],[7.4222,5.5807],[7.4222,5.5829],[7.4177,5.5874],[7.4065,5.5942],[7.4043,5.5964],[7.3998,5.5964],[7.3953,5.5987],[7.384,5.5987],[7.3751,5.5987],[7.3728,5.5987],[7.3593,5.6032],[7.3571,5.6032],[7.3481,5.6077],[7.3459,5.6077],[7.3436,5.6077],[7.3391,5.6077],[7.3167,5.6054],[7.3077,5.6032],[7.3099,5.5964],[7.3099,5.5874],[7.3099,5.5852],[7.3099,5.5829],[7.3099,5.5785],[7.3077,5.5762],[7.3077,5.5717],[7.3054,5.5695],[7.3054,5.565],[7.3054,5.5605],[7.3054,5.556],[7.3099,5.5515]]]}},{"type":"Feature","properties":{"id":"imo/oguta","name":"Oguta","state":"Imo"},"geometry":{"type":"Polygon","coordinates":[[[6.6609,5.6234],[6.6632,5.6234],[6.6789,5.6211],[6.6834,5.6211],[6.6924,5.6211],[6.7103,5.6189],[6.7328,5.6189],[6.7395,5.6166],[6.744,5.6166],[6.7485,5.6144],[6.753,5.6121],[6.7575,5.6121],[6.762,5.6121],[6.7642,5.6121],[6.7687,5.6121],[6.7732,5.6144],[6.7754,5.6144],[6.7799,5.6121],[6.7844,5.6121],[6.7889,5.6121],[6.7957,5.6099],[6.8001,5.6077],[6.8046,5.6077],[6.8091,5.6054],[6.8181,5.6009],[6.8226,5.5987],[6.8249,5.5964],[6.8293,5.5942],[6.8338,5.5874],[6.8361,5.5852],[6.8383,5.5829],[6.8428,5.5762],[6.8451,5.574],[6.8473,5.5695],[6.854,5.5605],[6.8585,5.556],[6.8608,5.5515],[6.8653,5.5493],[6.8675,5.547],[6.8765,5.538],[6.8832,5.5313],[6.8855,5.5291],[6.89,5.5291],[6.8945,5.5335],[6.8967,5.5358],[6.899,5.538],[6.9124,5.5448],[6.9192,5.547],[6.9259,5.5493],[6.9349,5.5515],[6.9371,5.5582],[6.9394,5.5672],[6.9416,5.5717],[6.9461,5.5762],[6.9461,5.5807],[6.9461,5.5852],[6.9461,5.5897],[6.9461,5.5919],[6.9439,5.6144],[6.9439,5.6256],[6.9439,5.6279],[6.9439,5.6301],[6.9439,5.6368],[6.9416,5.6368],[6.9304,5.6346],[6.9282,5.6346],[6.9237,5.6346],[6.9192,5.6368],[6.9147,5.6391],[6.9102,5.6436],[6.8967,5.6571],[6.8922,5.6616],[6.8743,5.6795],[6.8698,5.6863],[6.8675,5.6863],[6.8518,5.702],[6.8496,5.7042],[6.8406,5.7177],[6.8361,5.7267],[6.8338,5.7312],[6.8338,5.7379],[6.8338,5.7514],[6.8361,5.7581],[6.8383,5.7671],[6.8406,5.7693],[6.8383,5.7716],[6.8338,5.7738],[6.8316,5.7738],[6.8249,5.7783],[6.8249,5.7806],[6.8226,5.7828],[6.8204,5.7828],[6.8159,5.7851],[6.8136,5.7873],[6.8114,5.7873],[6.7979,5.7896],[6.7957,5.7896],[6.7912,5.7896],[6.7799,5.7896],[6.7665,5.7873],[6.762,5.7851],[6.7597,5.7851],[6.7552,5.7828],[6.7485,5.7806],[6.7463,5.7783],[6.744,5.7783],[6.7395,5.7761],[6.735,5.7716],[6.7238,5.7671],[6.7215,5.7649],[6.7148,5.7604],[6.7058,5.7559],[6.6879,5.7424],[6.6789,5.7334],[6.6744,5.7312],[6.6721,5.7267],[6.6676,5.7222],[6.6744,5.7199],[6.6699,5.6907],[6.6587,5.6256],[6.6609,5.6234]]]}},{"type":"Feature","properties":{"id":"imo/ohaji-egbema","name":"Ohaji/Egbema","state":"Imo"},"geometry":{"type":"Polygon","coordinates":[[[6.6519,5.4909],[6.7148,5.4886],[6.7193,5.4909],[6.7305,5.4931],[6.7328,5.4931],[6.7418,5.4931],[6.7507,5.4774],[6.7507,5.4639],[6.744,5.4594],[6.744,5.4482],[6.7485,5.4392],[6.7552,5.4302],[6.7597,5.4213],[6.762,5.41],[6.7597,5.401],[6.7575,5.3898],[6.7575,5.3763],[6.7597,5.3674],[6.7597,5.3539],[6.7575,5.3427],[6.7552,5.3224],[6.7665,5.309],[6.771,5.3],[6.7867,5.2843],[6.7934,5.2775],[6.8046,5.2685],[6.8181,5.2573],[6.8249,5.2551],[6.8271,5.2528],[6.8361,5.2506],[6.8496,5.2506],[6.8675,5.2438],[6.8765,5.2371],[6.881,5.2304],[6.8877,5.2259],[6.8922,5.2236],[6.8945,5.2236],[6.8967,5.2214],[6.9035,5.2191],[6.9169,5.2236],[6.9214,5.2236],[6.9304,5.2259],[6.9394,5.2281],[6.9596,5.2326],[6.9708,5.2371],[6.9753,5.2349],[6.9821,5.2349],[6.9865,5.2349],[6.9978,5.2393],[6.9955,5.2416],[6.9865,5.2528],[6.9843,5.2551],[6.9843,5.2573],[6.9821,5.2618],[6.9821,5.2663],[6.9821,5.2685],[6.9843,5.282],[6.9843,5.2865],[6.9843,5.291],[6.9821,5.2932],[6.9821,5.2955],[6.9798,5.3],[6.9798,5.3022],[6.9776,5.3045],[6.9753,5.3067],[6.9753,5.3112],[6.9731,5.3157],[6.9708,5.3202],[6.9708,5.3247],[6.9708,5.3269],[6.9708,5.3292],[6.9731,5.3382],[6.9731,5.3427],[6.9753,5.3471],[6.9776,5.3516],[6.9798,5.3606],[6.9821,5.3629],[6.9821,5.3651],[6.9798,5.3696],[6.9753,5.3741],[6.9731,5.3763],[6.9708,5.3763],[6.9641,5.3808],[6.9551,5.3853],[6.9506,5.3876],[6.9304,5.4055],[6.9259,5.4123],[6.9237,5.4145],[6.9214,5.4213],[6.9192,5.4257],[6.9192,5.428],[6.9169,5.4302],[6.9147,5.4325],[6.9124,5.4347],[6.9079,5.4392],[6.9035,5.4392],[6.9012,5.4415],[6.8967,5.4415],[6.8922,5.4437],[6.89,5.4437],[6.8855,5.4437],[6.8832,5.446],[6.881,5.4482],[6.881,5.4527],[6.8787,5.4549],[6.8787,5.4594],[6.8787,5.4752],[6.8787,5.4796],[6.8787,5.4819],[6.881,5.4931],[6.8855,5.5066],[6.89,5.5133],[6.89,5.5178],[6.8922,5.5201],[6.8922,5.5246],[6.89,5.5291],[6.8855,5.5291],[6.8832,5.5313],[6.8765,5.538],[6.8675,5.547],[6.8653,5.5493],[6.8608,5.5515],[6.8585,5.556],[6.854,5.5605],[6.8473,5.5695],[6.8451,5.574],[6.8428,5.5762],[6.8383,5.5829],[6.8361,5.5852],[6.8338,5.5874],[6.8293,5.5942],[6.8249,5.5964],[6.8226,5.5987],[6.8181,5.6009],[6.8091,5.6054],[6.8046,5.6077],[6.8001,5.6077],[6.7957,5.6099],[6.7889,5.6121],[6.7844,5.6121],[6.7799,5.6121],[6.7754,5.6144],[6.7732,5.6144],[6.7687,5.6121],[6.7642,5.6121],[6.762,5.6121],[6.7575,5.6121],[6.753,5.6121],[6.7485,5.6144],[6.744,5.6166],[6.7395,5.6166],[6.7328,5.6189],[6.7103,5.6189],[6.6924,5.6211],[6.6834,5.6211],[6.6789,5.6211],[6.6632,5.6234],[6.6609,5.6234],[6.6587,5.6256],[6.6385,5.4931],[6.6519,5.4909]]]}},{"type":"Feature","properties":{"id":"imo/okigwe","name":"Okigwe","state":"Imo"},"geometry":{"type":"Polygon","coordinates":[[[7.2179,5.8569],[7.2224,5.8547],[7.2268,5.8547],[7.2313,5.8524],[7.2336,5.8502],[7.2358,5.8479],[7.2358,5.8457],[7.2381,5.8457],[7.2381,5.8435],[7.2448,5.8277],[7.2471,5.8232],[7.2605,5.8008],[7.2718,5.7896],[7.2785,5.7806],[7.2875,5.7738],[7.2897,5.7716],[7.292,5.7693],[7.2965,5.7693],[7.2987,5.7693],[7.3032,5.7671],[7.3054,5.7649],[7.3099,5.7604],[7.3099,5.7581],[7.3122,5.7559],[7.3167,5.7514],[7.3189,5.7469],[7.3234,5.7402],[7.3301,5.7289],[7.3324,5.7267],[7.3369,5.7244],[7.3391,5.7244],[7.3414,5.7244],[7.3459,5.7222],[7.3504,5.7199],[7.3549,5.7177],[7.3571,5.7177],[7.3616,5.7132],[7.3661,5.711],[7.3683,5.7087],[7.3706,5.7087],[7.3751,5.7087],[7.3773,5.7087],[7.3818,5.7065],[7.384,5.7087],[7.3863,5.7087],[7.3908,5.7065],[7.393,5.7087],[7.3975,5.7087],[7.3998,5.711],[7.3998,5.7132],[7.3998,5.7177],[7.3998,5.7199],[7.3998,5.7244],[7.3975,5.7289],[7.3953,5.7357],[7.3953,5.7446],[7.3953,5.7469],[7.3953,5.7536],[7.3953,5.7559],[7.3953,5.7604],[7.3953,5.7693],[7.3953,5.7761],[7.393,5.7896],[7.393,5.8188],[7.393,5.83],[7.393,5.8345],[7.3908,5.8412],[7.3885,5.8479],[7.3885,5.8502],[7.3863,5.8547],[7.3863,5.8592],[7.3863,5.8614],[7.3863,5.8637],[7.3863,5.8659],[7.3885,5.8704],[7.3885,5.8794],[7.3908,5.8861],[7.393,5.8906],[7.393,5.8929],[7.3953,5.8951],[7.3953,5.8996],[7.3975,5.9041],[7.3953,5.9086],[7.3953,5.9108],[7.393,5.9108],[7.3885,5.9131],[7.3818,5.9086],[7.3773,5.9063],[7.3728,5.9041],[7.3661,5.9041],[7.3638,5.9041],[7.3504,5.9063],[7.3414,5.9086],[7.3346,5.9108],[7.3279,5.9131],[7.2965,5.9153],[7.2942,5.9176],[7.2897,5.9176],[7.2852,5.9176],[7.274,5.9221],[7.2718,5.9243],[7.2695,5.9265],[7.2673,5.9288],[7.265,5.9333],[7.2628,5.9333],[7.2605,5.94],[7.2583,5.9355],[7.256,5.9355],[7.2538,5.9333],[7.2515,5.9333],[7.2493,5.931],[7.2448,5.931],[7.2403,5.931],[7.2381,5.931],[7.2358,5.9333],[7.2313,5.9333],[7.2291,5.9333],[7.2224,5.9333],[7.2224,5.9288],[7.2224,5.9265],[7.2246,5.9198],[7.2246,5.9176],[7.2291,5.9018],[7.2313,5.8996],[7.2313,5.8974],[7.2313,5.8951],[7.2291,5.8884],[7.2291,5.8861],[7.2246,5.8727],[7.2224,5.8704],[7.2201,5.8659],[7.2201,5.8637],[7.2179,5.8592],[7.2156,5.8569],[7.2179,5.8569]]]}},{"type":"Feature","properties":{"id":"imo/onu-imo","name":"Onu-Imo","state":"Imo"},"geometry":{"type":"Polygon","coordinates":[[[7.1774,5.7379],[7.1797,5.7379],[7.1954,5.7379],[7.1999,5.7379],[7.2044,5.7379],[7.2089,5.7379],[7.2111,5.7379],[7.2201,5.7424],[7.2336,5.7491],[7.2426,5.7559],[7.2448,5.7581],[7.2493,5.7581],[7.2515,5.7604],[7.265,5.7604],[7.274,5.7626],[7.2762,5.7626],[7.283,5.7626],[7.2852,5.7649],[7.2897,5.7649],[7.292,5.7671],[7.292,5.7693],[7.2897,5.7716],[7.2875,5.7738],[7.2785,5.7806],[7.2718,5.7896],[7.2605,5.8008],[7.2471,5.8232],[7.2448,5.8277],[7.2381,5.8435],[7.2381,5.8457],[7.2358,5.8457],[7.2358,5.8479],[7.2336,5.8502],[7.2313,5.8524],[7.2268,5.8547],[7.2224,5.8547],[7.2179,5.8569],[7.2156,5.8569],[7.2134,5.8479],[7.2089,5.839],[7.2021,5.8277],[7.1976,5.8188],[7.1954,5.8165],[7.1954,5.8143],[7.1954,5.812],[7.1954,5.8098],[7.1932,5.803],[7.1932,5.7963],[7.1932,5.794],[7.1932,5.7918],[7.1932,5.7896],[7.1909,5.7873],[7.1909,5.7828],[7.1864,5.7671],[7.1842,5.7604],[7.1797,5.7559],[7.1774,5.7536],[7.1752,5.7357],[7.1774,5.7379]]]}},{"type":"Feature","properties":{"id":"imo/orlu","name":"Orlu","state":"Imo"},"geometry":{"type":"Polygon","coordinates":[[[6.9798,5.7896],[6.9798,5.7873],[6.9843,5.7716],[6.9865,5.7671],[6.9865,5.7626],[6.991,5.7559],[6.9955,5.7469],[6.9978,5.7469],[6.9978,5.7446],[7.0,5.7446],[7.0023,5.7446],[7.0202,5.7402],[7.0247,5.7402],[7.0292,5.7402],[7.0337,5.7402],[7.036,5.7424],[7.0472,5.7446],[7.0539,5.7491],[7.0584,5.7514],[7.0607,5.7536],[7.0629,5.7559],[7.0674,5.7581],[7.0719,5.7626],[7.0786,5.7649],[7.0809,5.7671],[7.0876,5.7693],[7.0899,5.7693],[7.0943,5.7716],[7.0988,5.7716],[7.1011,5.7693],[7.1101,5.7716],[7.1078,5.7738],[7.1078,5.7783],[7.1056,5.7806],[7.1056,5.7828],[7.1056,5.7851],[7.1056,5.7896],[7.1033,5.7918],[7.1011,5.8008],[7.1011,5.803],[7.0988,5.8053],[7.0966,5.8075],[7.0966,5.8098],[7.0921,5.812],[7.0854,5.8143],[7.0809,5.8165],[7.0786,5.8165],[7.0741,5.8188],[7.0696,5.821],[7.0674,5.8232],[7.0651,5.8255],[7.0629,5.8277],[7.0584,5.8322],[7.0584,5.8367],[7.0539,5.8637],[7.0517,5.8637],[7.0494,5.8727],[7.0494,5.8749],[7.0472,5.8794],[7.0472,5.8816],[7.0427,5.8861],[7.0404,5.8884],[7.0382,5.8906],[7.036,5.8906],[7.0292,5.8929],[7.0202,5.8951],[7.018,5.8951],[7.0157,5.8951],[7.0135,5.8816],[7.0135,5.8771],[7.0135,5.8727],[7.009,5.8569],[7.009,5.8435],[7.0112,5.8277],[7.009,5.8255],[7.009,5.821],[7.0068,5.8188],[7.0045,5.8143],[7.0023,5.812],[6.9955,5.8075],[6.9843,5.7985],[6.9776,5.7963],[6.9798,5.7896]]]}},{"type":"Feature","properties":{"id":"imo/orsu","name":"Orsu","state":"Imo"},"geometry":{"type":"Polygon","coordinates":[[[6.9237,5.821],[6.9282,5.821],[6.9326,5.821],[6.9371,5.8188],[6.9439,5.8143],[6.9529,5.812],[6.9596,5.812],[6.9663,5.8098],[6.9686,5.8098],[6.9708,5.8075],[6.9731,5.8075],[6.9753,5.8053],[6.9753,5.803],[6.9776,5.8008],[6.9776,5.7985],[6.9776,5.7963],[6.9843,5.7985],[6.9955,5.8075],[7.0023,5.812],[7.0045,5.8143],[7.0068,5.8188],[7.009,5.821],[7.009,5.8255],[7.0112,5.8277],[7.009,5.8435],[7.009,5.8569],[7.0135,5.8727],[7.0135,5.8771],[7.0135,5.8816],[7.0157,5.8951],[7.0112,5.8951],[7.0068,5.8951],[7.0045,5.8974],[7.0023,5.9041],[6.9955,5.8974],[6.9821,5.8794],[6.9798,5.8749],[6.9753,5.8704],[6.9663,5.8614],[6.9574,5.8524],[6.9551,5.8502],[6.9551,5.8479],[6.9529,5.8457],[6.9529,5.8435],[6.9484,5.839],[6.9461,5.8367],[6.9439,5.8345],[6.9416,5.8345],[6.9326,5.83],[6.9237,5.8277],[6.9147,5.8232],[6.9237,5.821]]]}},{"type":"Feature","properties":{"id":"imo/oru-east","name":"Oru East","state":"Imo"},"geometry":{"type":"Polygon","coordinates":[[[6.8743,5.6795],[6.8922,5.6616],[6.8967,5.6571],[6.9102,5.6436],[6.9147,5.6391],[6.9192,5.6368],[6.9237,5.6346],[6.9282,5.6346],[6.9304,5.6346],[6.9416,5.6368],[6.9439,5.6368],[6.9484,5.6391],[6.9506,5.6413],[6.9574,5.6413],[6.9596,5.6436],[6.9821,5.6458],[6.9888,5.6458],[6.9888,5.6481],[6.9888,5.6593],[6.9888,5.666],[6.9888,5.6705],[6.9865,5.6773],[6.9843,5.693],[6.9821,5.6975],[6.9776,5.711],[6.9753,5.7154],[6.9753,5.7177],[6.9731,5.7222],[6.9708,5.7244],[6.9686,5.7289],[6.9663,5.7312],[6.9596,5.7357],[6.9596,5.7379],[6.9574,5.7402],[6.9574,5.7424],[6.9551,5.7446],[6.9551,5.7469],[6.9551,5.7514],[6.9574,5.7536],[6.9596,5.7581],[6.9618,5.7604],[6.9663,5.7626],[6.9798,5.7671],[6.9865,5.7671],[6.9843,5.7716],[6.9798,5.7873],[6.9798,5.7896],[6.9776,5.7963],[6.9776,5.7985],[6.9776,5.8008],[6.9753,5.803],[6.9753,5.8053],[6.9731,5.8075],[6.9708,5.8075],[6.9686,5.8098],[6.9663,5.8098],[6.9596,5.812],[6.9529,5.812],[6.9439,5.8143],[6.9371,5.8188],[6.9349,5.8165],[6.9326,5.8165],[6.9304,5.8143],[6.9282,5.8143],[6.9259,5.812],[6.9192,5.8098],[6.9124,5.8053],[6.9102,5.803],[6.9079,5.8008],[6.9057,5.7985],[6.9057,5.7963],[6.9035,5.7918],[6.9012,5.7873],[6.9035,5.7828],[6.9035,5.7806],[6.9057,5.7783],[6.9079,5.7783],[6.9102,5.7783],[6.9124,5.7783],[6.9169,5.7806],[6.9237,5.7806],[6.9282,5.7806],[6.9304,5.7783],[6.9349,5.7783],[6.9371,5.7783],[6.9394,5.7761],[6.9439,5.7738],[6.9461,5.7716],[6.9484,5.7693],[6.9484,5.7671],[6.9506,5.7649],[6.9484,5.7626],[6.9461,5.7604],[6.9439,5.7581],[6.9394,5.7559],[6.9371,5.7536],[6.9326,5.7514],[6.9304,5.7469],[6.9282,5.7446],[6.9259,5.7402],[6.9259,5.7357],[6.9282,5.7267],[6.9282,5.7177],[6.9282,5.7154],[6.9282,5.7132],[6.9282,5.7087],[6.9282,5.7065],[6.9259,5.7042],[6.9237,5.6997],[6.9192,5.6975],[6.9169,5.6952],[6.9102,5.6952],[6.9079,5.6975],[6.9035,5.6975],[6.9012,5.6975],[6.899,5.6975],[6.8967,5.6975],[6.89,5.6975],[6.881,5.6952],[6.872,5.6863],[6.8698,5.6863],[6.8743,5.6795]]]}},{"type":"Feature","properties":{"id":"imo/oru-west","name":"Oru West","state":"Imo"},"geometry":{"type":"Polygon","coordinates":[[[6.8361,5.7267],[6.8406,5.7177],[6.8496,5.7042],[6.8518,5.702],[6.8675,5.6863],[6.8698,5.6863],[6.872,5.6863],[6.881,5.6952],[6.89,5.6975],[6.8967,5.6975],[6.899,5.6975],[6.9012,5.6975],[6.9035,5.6975],[6.9079,5.6975],[6.9102,5.6952],[6.9169,5.6952],[6.9192,5.6975],[6.9237,5.6997],[6.9259,5.7042],[6.9282,5.7065],[6.9282,5.7087],[6.9282,5.7132],[6.9282,5.7154],[6.9282,5.7177],[6.9282,5.7267],[6.9259,5.7357],[6.9259,5.7402],[6.9282,5.7446],[6.9304,5.7469],[6.9326,5.7514],[6.9371,5.7536],[6.9394,5.7559],[6.9439,5.7581],[6.9461,5.7604],[6.9484,5.7626],[6.9506,5.7649],[6.9484,5.7671],[6.9484,5.7693],[6.9461,5.7716],[6.9439,5.7738],[6.9394,5.7761],[6.9371,5.7783],[6.9349,5.7783],[6.9304,5.7783],[6.9282,5.7806],[6.9237,5.7806],[6.9169,5.7806],[6.9124,5.7783],[6.9102,5.7783],[6.9079,5.7783],[6.9057,5.7783],[6.9035,5.7806],[6.9035,5.7828],[6.9012,5.7873],[6.9035,5.7918],[6.9057,5.7963],[6.9057,5.7985],[6.9079,5.8008],[6.9102,5.803],[6.9124,5.8053],[6.9192,5.8098],[6.9259,5.812],[6.9282,5.8143],[6.9304,5.8143],[6.9326,5.8165],[6.9349,5.8165],[6.9371,5.8188],[6.9326,5.821],[6.9282,5.821],[6.9237,5.821],[6.9147,5.8232],[6.9012,5.8165],[6.8967,5.812],[6.8922,5.8098],[6.89,5.8053],[6.8855,5.7918],[6.8855,5.7873],[6.8832,5.7649],[6.8832,5.7536],[6.8832,5.7514],[6.8787,5.7446],[6.8765,5.7446],[6.8743,5.7446],[6.872,5.7446],[6.8675,5.7469],[6.8653,5.7469],[6.863,5.7491],[6.8608,5.7514],[6.8608,5.7536],[6.8585,5.7536],[6.8518,5.7626],[6.8496,5.7649],[6.8473,5.7649],[6.8428,5.7671],[6.8406,5.7693],[6.8383,5.7671],[6.8361,5.7581],[6.8338,5.7514],[6.8338,5.7379],[6.8338,5.7312],[6.8361,5.7267]]]}},{"type":"Feature","properties":{"id":"imo/owerri-north","name":"Owerri North","state":"Imo"},"geometry":{"type":"Polygon","coordinates":[[[7.018,5.5223],[7.0202,5.5156],[7.0225,5.5133],[7.0247,5.5111],[7.027,5.5088],[7.0337,5.5021],[7.0382,5.5021],[7.0427,5.4999],[7.0449,5.4999],[7.0494,5.4999],[7.0584,5.4976],[7.0607,5.4954],[7.0629,5.4931],[7.0651,5.4909],[7.0651,5.4886],[7.0651,5.4841],[7.0651,5.4796],[7.0629,5.4752],[7.0584,5.4684],[7.0562,5.4662],[7.0494,5.4572],[7.0449,5.4572],[7.0427,5.4527],[7.0427,5.4504],[7.0472,5.446],[7.0494,5.4437],[7.0517,5.4415],[7.0562,5.437],[7.0584,5.4347],[7.0607,5.4325],[7.0629,5.4302],[7.0607,5.428],[7.0584,5.428],[7.0562,5.4257],[7.0539,5.4235],[7.0517,5.4235],[7.0494,5.4213],[7.0449,5.4168],[7.0449,5.4145],[7.0427,5.4123],[7.0427,5.4078],[7.0404,5.4055],[7.0382,5.4033],[7.0382,5.3988],[7.036,5.3921],[7.036,5.3853],[7.0337,5.3808],[7.0315,5.3741],[7.0292,5.3651],[7.027,5.3606],[7.027,5.3539],[7.027,5.3494],[7.0292,5.3427],[7.0337,5.3269],[7.036,5.3247],[7.0382,5.3269],[7.0494,5.3382],[7.0539,5.3404],[7.0562,5.3449],[7.0607,5.3494],[7.0674,5.3584],[7.0696,5.3629],[7.0764,5.3763],[7.0876,5.3943],[7.0899,5.3988],[7.0943,5.401],[7.0966,5.4033],[7.1056,5.4033],[7.1078,5.4033],[7.1213,5.4033],[7.128,5.4033],[7.1303,5.4033],[7.1415,5.4055],[7.146,5.4055],[7.1505,5.4078],[7.1527,5.41],[7.1527,5.4123],[7.155,5.4145],[7.155,5.4168],[7.155,5.4235],[7.155,5.4257],[7.1527,5.428],[7.1527,5.4302],[7.1527,5.437],[7.155,5.4392],[7.155,5.4415],[7.1572,5.446],[7.1595,5.4482],[7.1617,5.4504],[7.1662,5.4527],[7.1685,5.4549],[7.1729,5.4572],[7.1752,5.4594],[7.1662,5.4684],[7.164,5.4729],[7.1595,5.4796],[7.1595,5.4841],[7.1572,5.4886],[7.155,5.4909],[7.1527,5.4931],[7.1482,5.4999],[7.146,5.5021],[7.1415,5.5043],[7.1393,5.5066],[7.1348,5.5066],[7.1325,5.5066],[7.1303,5.5088],[7.1235,5.5088],[7.1213,5.5133],[7.1213,5.5156],[7.119,5.5156],[7.1123,5.5223],[7.1078,5.5268],[7.0943,5.5358],[7.0899,5.538],[7.0809,5.5403],[7.0786,5.538],[7.0764,5.538],[7.0764,5.5358],[7.0719,5.5358],[7.0674,5.5358],[7.0539,5.5335],[7.0494,5.5313],[7.0449,5.5313],[7.0404,5.5313],[7.036,5.5313],[7.0292,5.5313],[7.027,5.5313],[7.0225,5.5313],[7.0135,5.5335],[7.018,5.5223]]]}},{"type":"Feature","properties":{"id":"imo/owerri-west","name":"Owerri West","state":"Imo"},"geometry":{"type":"Polygon","coordinates":[[[6.881,5.4527],[6.881,5.4482],[6.8832,5.446],[6.8855,5.4437],[6.89,5.4437],[6.8922,5.4437],[6.8967,5.4415],[6.9012,5.4415],[6.9035,5.4392],[6.9079,5.4392],[6.9124,5.4347],[6.9147,5.4325],[6.9169,5.4302],[6.9192,5.428],[6.9192,5.4257],[6.9214,5.4213],[6.9237,5.4145],[6.9259,5.4123],[6.9304,5.4055],[6.9506,5.3876],[6.9551,5.3853],[6.9641,5.3808],[6.9708,5.3763],[6.9731,5.3763],[6.9753,5.3741],[6.9798,5.3696],[6.9821,5.3651],[6.9821,5.3629],[6.9798,5.3606],[6.9776,5.3516],[6.9753,5.3471],[6.9731,5.3427],[6.9731,5.3382],[6.9708,5.3292],[6.9708,5.3269],[6.9708,5.3247],[6.9708,5.3202],[6.9731,5.3157],[6.9753,5.3112],[6.9753,5.3067],[6.9776,5.3045],[6.9798,5.3022],[6.9798,5.3],[6.9821,5.2955],[6.9821,5.2932],[6.9843,5.291],[6.9843,5.2865],[6.9843,5.282],[6.9821,5.2685],[6.9821,5.2663],[6.9888,5.2663],[7.0045,5.2775],[7.0135,5.2843],[7.018,5.2865],[7.027,5.2932],[7.0315,5.2977],[7.0337,5.3022],[7.0337,5.3045],[7.036,5.309],[7.036,5.3157],[7.036,5.3247],[7.0337,5.3269],[7.0292,5.3427],[7.027,5.3494],[7.027,5.3539],[7.027,5.3606],[7.0292,5.3651],[7.0315,5.3741],[7.0337,5.3808],[7.036,5.3853],[7.036,5.3921],[7.0382,5.3988],[7.0382,5.4033],[7.0404,5.4055],[7.0427,5.4078],[7.0427,5.4123],[7.0449,5.4145],[7.0449,5.4168],[7.0494,5.4213],[7.0517,5.4235],[7.0539,5.4235],[7.0562,5.4257],[7.0584,5.428],[7.0607,5.428],[7.0629,5.4302],[7.0607,5.4325],[7.0584,5.4347],[7.0562,5.437],[7.0517,5.4415],[7.0494,5.4437],[7.0472,5.446],[7.0427,5.4504],[7.0427,5.4527],[7.0382,5.4527],[7.0337,5.4527],[7.0315,5.4527],[7.0292,5.4527],[7.027,5.4504],[7.0247,5.4504],[7.0202,5.4482],[7.018,5.446],[7.0157,5.4437],[7.0135,5.4415],[7.0112,5.4392],[7.009,5.437],[7.0045,5.4392],[7.0023,5.4392],[6.9821,5.4482],[6.9798,5.4482],[6.9753,5.4504],[6.9731,5.4549],[6.9731,5.4572],[6.9731,5.4617],[6.9731,5.4639],[6.9753,5.4684],[6.9776,5.4729],[6.9798,5.4796],[6.9798,5.4841],[6.9821,5.4864],[6.9888,5.4976],[6.991,5.4999],[6.9933,5.5043],[7.0,5.5133],[7.0045,5.5156],[7.0068,5.5178],[7.009,5.5178],[7.0112,5.5201],[7.018,5.5223],[7.0135,5.5335],[7.0112,5.5358],[7.009,5.5358],[7.0,5.5403],[6.9978,5.5425],[6.9955,5.5448],[6.991,5.547],[6.9865,5.5493],[6.9821,5.5515],[6.9798,5.5515],[6.9708,5.5493],[6.9663,5.5493],[6.9641,5.547],[6.9596,5.547],[6.9551,5.547],[6.9484,5.547],[6.9394,5.5493],[6.9371,5.5493],[6.9349,5.5515],[6.9259,5.5493],[6.9192,5.547],[6.9124,5.5448],[6.899,5.538],[6.8967,5.5358],[6.8945,5.5335],[6.89,5.5291],[6.8922,5.5246],[6.8922,5.5201],[6.89,5.5178],[6.89,5.5133],[6.8855,5.5066],[6.881,5.4931],[6.8787,5.4819],[6.8787,5.4796],[6.8787,5.4752],[6.8787,5.4594],[6.8787,5.4549],[6.881,5.4527]]]}},{"type":"Feature","properties":{"id":"imo/owerri-municipal","name":"Owerri-Municipal","state":"Imo"},"geometry":{"type":"Polygon","coordinates":[[[6.9753,5.4504],[6.9798,5.4482],[6.9821,5.4482],[7.0023,5.4392],[7.0045,5.4392],[7.009,5.437],[7.0112,5.4392],[7.0135,5.4415],[7.0157,5.4437],[7.018,5.446],[7.0202,5.4482],[7.0247,5.4504],[7.027,5.4504],[7.0292,5.4527],[7.0315,5.4527],[7.0337,5.4527],[7.0382,5.4527],[7.0427,5.4527],[7.0449,5.4572],[7.0494,5.4572],[7.0562,5.4662],[7.0584,5.4684],[7.0629,5.4752],[7.0651,5.4796],[7.0651,5.4841],[7.0651,5.4886],[7.0651,5.4909],[7.0629,5.4931],[7.0607,5.4954],[7.0584,5.4976],[7.0494,5.4999],[7.0449,5.4999],[7.0427,5.4999],[7.0382,5.5021],[7.0337,5.5021],[7.027,5.5088],[7.0247,5.5111],[7.0225,5.5133],[7.0202,5.5156],[7.018,5.5223],[7.0112,5.5201],[7.009,5.5178],[7.0068,5.5178],[7.0045,5.5156],[7.0,5.5133],[6.9933,5.5043],[6.991,5.4999],[6.9888,5.4976],[6.9821,5.4864],[6.9798,5.4841],[6.9798,5.4796],[6.9776,5.4729],[6.9753,5.4684],[6.9731,5.4639],[6.9731,5.4617],[6.9731,5.4572],[6.9731,5.4549],[6.9753,5.4504]]]}}]}