{"type":"FeatureCollection","features":[{"type":"Feature","properties":{"id":"jigawa/auyo","name":"Auyo","state":"Jigawa"},"geometry":{"type":"Polygon","coordinates":[[[9.7309,12.3],[9.7354,12.3],[9.7488,12.2955],[9.7556,12.2933],[9.7623,12.2865],[9.778,12.2775],[9.7825,12.2775],[9.787,12.2775],[9.7892,12.2798],[9.796,12.282],[9.8027,12.2843],[9.814,12.2888],[9.8184,12.291],[9.8229,12.291],[9.8252,12.291],[9.8297,12.2888],[9.8409,12.2843],[9.8476,12.2798],[9.8499,12.2775],[9.8544,12.2708],[9.8566,12.2596],[9.8656,12.2596],[9.8701,12.2596],[9.8858,12.2618],[9.8993,12.2641],[9.906,12.2641],[9.9128,12.2663],[9.9217,12.2686],[9.9352,12.2708],[9.9442,12.2753],[9.9577,12.282],[9.9644,12.2865],[9.9667,12.2888],[9.9712,12.291],[9.9734,12.2955],[9.9712,12.3045],[9.9712,12.3112],[9.9801,12.3225],[9.9824,12.3247],[9.9869,12.327],[9.9936,12.3337],[9.9981,12.3382],[10.0004,12.3427],[10.0026,12.3449],[10.0071,12.3539],[10.0093,12.3561],[10.0295,12.3696],[10.0408,12.3786],[10.0475,12.3809],[10.061,12.3831],[10.0677,12.3831],[10.079,12.3809],[10.0879,12.3786],[10.0992,12.3741],[10.1081,12.3696],[10.1149,12.3674],[10.1239,12.3629],[10.1328,12.3539],[10.1531,12.3314],[10.1553,12.3292],[10.1576,12.3225],[10.162,12.3135],[10.171,12.3045],[10.1823,12.2933],[10.1957,12.2843],[10.2025,12.2798],[10.2115,12.2731],[10.2159,12.2731],[10.2182,12.2731],[10.2204,12.2775],[10.2294,12.2955],[10.2384,12.3135],[10.2406,12.318],[10.2429,12.3225],[10.2429,12.3247],[10.2429,12.3517],[10.2429,12.3606],[10.2429,12.3741],[10.2451,12.3831],[10.2451,12.3898],[10.2496,12.4033],[10.2541,12.4123],[10.2564,12.419],[10.2586,12.4235],[10.2519,12.4235],[10.2474,12.4235],[10.2384,12.4213],[10.2317,12.419],[10.2249,12.419],[10.207,12.4168],[10.2025,12.4168],[10.1912,12.4168],[10.1867,12.4168],[10.18,12.4168],[10.1553,12.4168],[10.1418,12.4145],[10.1306,12.4145],[10.1239,12.4145],[10.1194,12.4145],[10.1037,12.4145],[10.0969,12.4145],[10.079,12.4145],[10.0587,12.4168],[10.0565,12.4258],[10.07,12.4415],[10.079,12.4505],[10.0767,12.4527],[10.061,12.4482],[10.043,12.4505],[10.0385,12.4505],[10.0318,12.4482],[10.0251,12.4437],[10.0206,12.4392],[10.0161,12.4392],[10.0116,12.4392],[10.0004,12.4303],[9.9981,12.4258],[9.9914,12.428],[9.9869,12.4303],[9.9801,12.4325],[9.9756,12.4303],[9.9712,12.4258],[9.9712,12.4213],[9.9712,12.4168],[9.9712,12.4145],[9.9712,12.4078],[9.9667,12.4056],[9.9644,12.4056],[9.9577,12.4078],[9.9465,12.4078],[9.9397,12.4056],[9.924,12.3966],[9.9195,12.3943],[9.9173,12.3921],[9.9015,12.3786],[9.897,12.3741],[9.8926,12.3696],[9.8881,12.3651],[9.8768,12.3584],[9.8701,12.3561],[9.8499,12.3472],[9.8454,12.3472],[9.8319,12.3449],[9.8207,12.3427],[9.814,12.3382],[9.8027,12.3337],[9.796,12.3292],[9.7892,12.327],[9.7735,12.3225],[9.769,12.3202],[9.7645,12.318],[9.7578,12.3202],[9.7511,12.3225],[9.7398,12.3292],[9.7331,12.3337],[9.7286,12.3337],[9.7264,12.3157],[9.7264,12.309],[9.7264,12.3022],[9.7309,12.3]]]}},{"type":"Feature","properties":{"id":"jigawa/babura","name":"Babura","state":"Jigawa"},"geometry":{"type":"Polygon","coordinates":[[[8.6484,12.5942],[8.6484,12.592],[8.6574,12.5897],[8.6619,12.5897],[8.6709,12.5875],[8.6911,12.583],[8.7135,12.574],[8.7158,12.5717],[8.718,12.5672],[8.7158,12.5583],[8.7113,12.547],[8.709,12.5425],[8.7023,12.5358],[8.6911,12.5291],[8.6866,12.5268],[8.6843,12.5223],[8.6821,12.5178],[8.6821,12.5156],[8.6776,12.5044],[8.6776,12.5021],[8.6776,12.4954],[8.6821,12.4842],[8.6843,12.4797],[8.6843,12.4774],[8.6866,12.4729],[8.6911,12.4707],[8.6933,12.4684],[8.7023,12.4595],[8.7068,12.4527],[8.7113,12.4505],[8.718,12.4482],[8.7203,12.446],[8.7337,12.4437],[8.7382,12.4415],[8.7427,12.4392],[8.7472,12.4415],[8.7562,12.4392],[8.7652,12.4392],[8.7674,12.437],[8.7854,12.4258],[8.7876,12.4258],[8.7944,12.4258],[8.7966,12.4235],[8.8123,12.419],[8.8146,12.4168],[8.8168,12.4145],[8.8258,12.4145],[8.8483,12.419],[8.8573,12.4213],[8.8595,12.4213],[8.864,12.4235],[8.8685,12.4258],[8.873,12.4303],[8.873,12.437],[8.873,12.4415],[8.8707,12.446],[8.8707,12.4505],[8.8707,12.455],[8.8707,12.4617],[8.8752,12.4729],[8.8775,12.4797],[8.8842,12.4931],[8.8865,12.4976],[8.8887,12.4999],[8.8909,12.5044],[8.8977,12.5089],[8.9022,12.5134],[8.9067,12.5156],[8.9179,12.5246],[8.9224,12.5336],[8.9291,12.547],[8.9314,12.5515],[8.9359,12.5605],[8.9493,12.583],[8.9516,12.5852],[8.9606,12.5942],[8.9651,12.5964],[8.9718,12.5987],[8.9785,12.6009],[8.9853,12.6054],[8.9898,12.6054],[9.0122,12.6099],[9.0279,12.6054],[9.0324,12.6032],[9.0324,12.6346],[9.0324,12.6369],[9.0347,12.6436],[9.0347,12.6503],[9.0392,12.6593],[9.0414,12.6638],[9.0437,12.6661],[9.0481,12.6706],[9.0504,12.675],[9.0526,12.6795],[9.0549,12.6885],[9.0639,12.7065],[9.0661,12.711],[9.0706,12.7177],[9.0729,12.7289],[9.0729,12.7357],[9.0729,12.7469],[9.0706,12.7536],[9.0684,12.7649],[9.0661,12.7716],[9.0639,12.7784],[9.0594,12.7828],[9.0526,12.7896],[9.0459,12.7986],[9.0392,12.8075],[9.0369,12.812],[9.0369,12.8143],[9.0324,12.8143],[9.019,12.8165],[9.01,12.8165],[9.0055,12.8188],[8.9987,12.8188],[8.992,12.821],[8.9808,12.8188],[8.9763,12.8165],[8.9695,12.8098],[8.9673,12.8053],[8.9673,12.7986],[8.9651,12.7806],[8.9606,12.7716],[8.9606,12.7671],[8.9583,12.7604],[8.9538,12.7536],[8.9471,12.7402],[8.9426,12.7334],[8.9381,12.7289],[8.9314,12.7245],[8.9269,12.7222],[8.9224,12.72],[8.9134,12.7177],[8.9044,12.7132],[8.8932,12.711],[8.8707,12.702],[8.8662,12.702],[8.8505,12.6997],[8.8415,12.6975],[8.8303,12.6953],[8.8236,12.693],[8.8146,12.6885],[8.8101,12.6885],[8.8011,12.6863],[8.7966,12.6885],[8.7921,12.693],[8.7876,12.693],[8.7832,12.693],[8.7674,12.684],[8.7584,12.6818],[8.754,12.684],[8.7517,12.6885],[8.7517,12.6953],[8.7472,12.6953],[8.7405,12.6953],[8.7382,12.6908],[8.736,12.6863],[8.7337,12.684],[8.727,12.675],[8.7203,12.6706],[8.7135,12.6683],[8.7045,12.6593],[8.7068,12.6526],[8.709,12.6459],[8.7113,12.6391],[8.7113,12.6346],[8.7068,12.6301],[8.7001,12.6279],[8.6911,12.6279],[8.6776,12.6256],[8.6731,12.6256],[8.6596,12.6167],[8.6529,12.6122],[8.6462,12.6054],[8.6484,12.5942]]]}},{"type":"Feature","properties":{"id":"jigawa/biriniwa","name":"Biriniwa","state":"Jigawa"},"geometry":{"type":"Polygon","coordinates":[[[9.8027,12.8098],[9.8095,12.8031],[9.814,12.7941],[9.8184,12.7873],[9.8229,12.7784],[9.8274,12.7671],[9.8342,12.7581],[9.8409,12.7492],[9.8431,12.7424],[9.8454,12.7312],[9.8476,12.7222],[9.8476,12.7177],[9.8499,12.7155],[9.8544,12.702],[9.8611,12.6885],[9.8634,12.6795],[9.8723,12.6616],[9.8723,12.6593],[9.8746,12.6526],[9.8768,12.6503],[9.8791,12.6459],[9.8926,12.6436],[9.897,12.6436],[9.9015,12.6414],[9.906,12.6391],[9.9352,12.6346],[9.9442,12.6346],[9.9509,12.6346],[9.9554,12.6346],[9.9712,12.6391],[9.9779,12.6391],[9.9959,12.6459],[10.0116,12.6526],[10.0161,12.6548],[10.0206,12.6571],[10.034,12.6616],[10.0453,12.6661],[10.052,12.6683],[10.0565,12.6706],[10.061,12.6773],[10.0655,12.6863],[10.0655,12.6908],[10.0722,12.6953],[10.0812,12.7042],[10.0857,12.7042],[10.0902,12.7065],[10.0947,12.7065],[10.1014,12.7042],[10.1104,12.6975],[10.1149,12.693],[10.1194,12.6908],[10.1261,12.6885],[10.1328,12.6885],[10.1351,12.6885],[10.1396,12.6908],[10.1553,12.693],[10.1576,12.693],[10.1643,12.693],[10.1867,12.702],[10.1912,12.7065],[10.1935,12.7065],[10.1957,12.711],[10.198,12.7155],[10.2002,12.7222],[10.2025,12.7267],[10.207,12.7379],[10.2115,12.7424],[10.2159,12.7447],[10.2204,12.7447],[10.2272,12.7447],[10.2317,12.7424],[10.2362,12.7402],[10.2429,12.7379],[10.2519,12.7379],[10.2564,12.7379],[10.2609,12.7402],[10.2653,12.7424],[10.2721,12.7469],[10.2766,12.7514],[10.2856,12.7604],[10.2923,12.7694],[10.2945,12.7716],[10.2968,12.7761],[10.3013,12.7806],[10.3103,12.7851],[10.3148,12.7851],[10.3215,12.7873],[10.326,12.7851],[10.3305,12.7851],[10.335,12.7851],[10.3462,12.7851],[10.3507,12.7851],[10.3529,12.7873],[10.3507,12.7918],[10.3529,12.7963],[10.3529,12.8008],[10.3484,12.8075],[10.344,12.812],[10.344,12.8165],[10.3395,12.8412],[10.335,12.8547],[10.335,12.8592],[10.3305,12.857],[10.3215,12.8547],[10.3192,12.8547],[10.3058,12.8502],[10.299,12.848],[10.2788,12.8412],[10.2721,12.8412],[10.2676,12.8412],[10.2519,12.8435],[10.2496,12.8457],[10.2474,12.8502],[10.2474,12.8547],[10.2519,12.8614],[10.2564,12.8659],[10.2609,12.8704],[10.2676,12.8772],[10.2721,12.8861],[10.2721,12.8884],[10.2721,12.8929],[10.2721,12.8996],[10.2743,12.9153],[10.2766,12.9198],[10.2788,12.9266],[10.2811,12.9333],[10.2811,12.9378],[10.2811,12.949],[10.2811,12.9513],[10.2811,12.9558],[10.2788,12.9603],[10.2788,12.9647],[10.2766,12.967],[10.2743,12.9715],[10.2653,12.9827],[10.2631,12.9872],[10.2586,13.0007],[10.2564,13.0074],[10.2541,13.0186],[10.2496,13.0254],[10.2474,13.0299],[10.2474,13.0344],[10.2451,13.0344],[10.2362,13.0411],[10.2339,13.0433],[10.2272,13.0433],[10.2204,13.0433],[10.2182,13.0433],[10.207,13.0411],[10.2047,13.0389],[10.2025,13.0366],[10.198,13.0344],[10.1867,13.0254],[10.1823,13.0231],[10.1688,13.0186],[10.1553,13.0142],[10.1463,13.0097],[10.1418,13.0097],[10.1373,13.0074],[10.1216,13.0029],[10.1171,13.0029],[10.1149,13.0029],[10.1059,13.0029],[10.1014,13.0029],[10.0969,13.0029],[10.0879,13.0029],[10.07,12.9984],[10.0655,12.9984],[10.0587,12.9939],[10.0498,12.9917],[10.043,12.9872],[10.0363,12.985],[10.0295,12.9827],[10.0183,12.9827],[10.0026,12.9737],[9.9959,12.9737],[9.9891,12.9737],[9.9824,12.9737],[9.9734,12.9692],[9.9554,12.9603],[9.9487,12.9558],[9.9442,12.9513],[9.9397,12.9468],[9.9375,12.9445],[9.9262,12.9198],[9.9195,12.9019],[9.915,12.8884],[9.906,12.8727],[9.9015,12.8659],[9.8926,12.8547],[9.8881,12.848],[9.8746,12.8367],[9.8701,12.8345],[9.8454,12.8255],[9.8342,12.821],[9.8229,12.8188],[9.8117,12.8165],[9.8005,12.8143],[9.8027,12.8098]]]}},{"type":"Feature","properties":{"id":"jigawa/birnin-kudu","name":"Birnin-Kudu","state":"Jigawa"},"geometry":{"type":"Polygon","coordinates":[[[9.1941,11.3613],[9.1941,11.359],[9.1941,11.3545],[9.1941,11.35],[9.2256,11.3658],[9.239,11.368],[9.2795,11.3725],[9.2997,11.3703],[9.3131,11.3703],[9.3311,11.359],[9.3356,11.359],[9.3491,11.35],[9.3626,11.3456],[9.3805,11.3366],[9.3918,11.3298],[9.4007,11.3231],[9.4165,11.3164],[9.4232,11.3141],[9.4277,11.3119],[9.4344,11.3119],[9.4456,11.3074],[9.4546,11.3074],[9.4659,11.3074],[9.4748,11.3096],[9.4861,11.3209],[9.4951,11.3298],[9.4995,11.3343],[9.5063,11.3343],[9.5153,11.3366],[9.5243,11.3388],[9.5287,11.3411],[9.5355,11.3411],[9.5422,11.3388],[9.5467,11.3388],[9.5557,11.3343],[9.5579,11.3343],[9.5669,11.3276],[9.5714,11.3231],[9.5714,11.3209],[9.5737,11.3164],[9.5759,11.3096],[9.5759,11.2984],[9.5781,11.2872],[9.5759,11.2827],[9.5759,11.2804],[9.5759,11.2759],[9.5759,11.2714],[9.5826,11.2602],[9.5849,11.258],[9.5894,11.2602],[9.5961,11.2602],[9.6029,11.258],[9.6141,11.2557],[9.6163,11.2557],[9.6253,11.2535],[9.65,11.2535],[9.6478,11.258],[9.65,11.2625],[9.65,11.2692],[9.65,11.2939],[9.6478,11.3006],[9.6455,11.3051],[9.6433,11.3096],[9.6433,11.3141],[9.641,11.3253],[9.641,11.3411],[9.641,11.35],[9.641,11.3613],[9.6433,11.3703],[9.6433,11.3748],[9.6455,11.3792],[9.6478,11.3815],[9.6433,11.3905],[9.641,11.3972],[9.641,11.4017],[9.6455,11.4107],[9.6433,11.4242],[9.6433,11.4264],[9.641,11.4354],[9.6433,11.4399],[9.6455,11.4421],[9.6478,11.4466],[9.65,11.4556],[9.6523,11.4646],[9.65,11.4691],[9.65,11.4825],[9.65,11.4915],[9.6478,11.5028],[9.6455,11.5162],[9.641,11.523],[9.641,11.5297],[9.6433,11.532],[9.6455,11.5364],[9.6478,11.5499],[9.6455,11.5634],[9.6455,11.5746],[9.641,11.5814],[9.641,11.5836],[9.6433,11.5903],[9.6455,11.5948],[9.6523,11.6038],[9.6523,11.6083],[9.6545,11.6173],[9.6523,11.624],[9.6567,11.6308],[9.6635,11.6375],[9.6635,11.642],[9.6635,11.6442],[9.6612,11.6465],[9.659,11.651],[9.659,11.6555],[9.659,11.66],[9.6612,11.6622],[9.6612,11.6689],[9.6612,11.6712],[9.6612,11.6847],[9.659,11.6981],[9.6612,11.7026],[9.6635,11.7071],[9.6657,11.7094],[9.6657,11.7161],[9.6635,11.7251],[9.6635,11.7296],[9.6612,11.7296],[9.6523,11.7251],[9.6433,11.7228],[9.6163,11.7161],[9.6051,11.7139],[9.5961,11.7094],[9.5916,11.7071],[9.5759,11.7004],[9.5647,11.6937],[9.5422,11.6802],[9.5332,11.6734],[9.5287,11.6712],[9.522,11.6645],[9.5175,11.66],[9.513,11.6577],[9.504,11.6532],[9.4951,11.6465],[9.4838,11.6353],[9.4748,11.6285],[9.4681,11.6263],[9.4636,11.6218],[9.4614,11.6195],[9.4569,11.6128],[9.4501,11.6038],[9.4412,11.5948],[9.4389,11.5926],[9.4299,11.5859],[9.4209,11.5746],[9.4142,11.5701],[9.412,11.5656],[9.4075,11.5634],[9.3985,11.5544],[9.3828,11.5477],[9.3738,11.5499],[9.3558,11.5499],[9.3513,11.5477],[9.3468,11.5477],[9.3423,11.5454],[9.3379,11.5409],[9.3356,11.5387],[9.3334,11.5364],[9.3311,11.5342],[9.3311,11.5275],[9.3311,11.5252],[9.3311,11.523],[9.3289,11.5207],[9.3244,11.5117],[9.3176,11.5117],[9.3109,11.5095],[9.3019,11.5073],[9.2952,11.5028],[9.2907,11.4983],[9.284,11.4938],[9.2795,11.4915],[9.2682,11.487],[9.2503,11.4803],[9.2413,11.4781],[9.2345,11.4781],[9.2278,11.4758],[9.2256,11.4736],[9.2233,11.4713],[9.2233,11.4691],[9.2233,11.4623],[9.2233,11.4578],[9.2233,11.4534],[9.2211,11.4466],[9.2188,11.4376],[9.2166,11.4264],[9.2121,11.4152],[9.2098,11.4084],[9.2031,11.3995],[9.1986,11.3905],[9.1964,11.386],[9.1964,11.3815],[9.1941,11.3748],[9.1919,11.368],[9.1919,11.3658],[9.1941,11.3613]]]}},{"type":"Feature","properties":{"id":"jigawa/buji","name":"Buji","state":"Jigawa"},"geometry":{"type":"Polygon","coordinates":[[[9.6433,11.3905],[9.6478,11.3815],[9.6545,11.3882],[9.6612,11.3927],[9.6725,11.4084],[9.6747,11.4129],[9.6792,11.4197],[9.6837,11.4331],[9.6882,11.4421],[9.6904,11.4444],[9.6994,11.4556],[9.7039,11.4601],[9.7106,11.4623],[9.7151,11.4623],[9.7196,11.4623],[9.7264,11.4623],[9.7331,11.4623],[9.7421,11.4646],[9.7488,11.4668],[9.7668,11.4691],[9.778,11.4713],[9.787,11.4736],[9.787,11.4781],[9.7848,11.4983],[9.7848,11.505],[9.7825,11.5095],[9.7825,11.514],[9.7803,11.5207],[9.778,11.5252],[9.778,11.5297],[9.778,11.532],[9.7825,11.5387],[9.7915,11.5477],[9.7982,11.5522],[9.8027,11.5544],[9.8095,11.5589],[9.814,11.5612],[9.8184,11.5679],[9.8184,11.5701],[9.8207,11.5769],[9.8207,11.5791],[9.8207,11.5859],[9.8184,11.5903],[9.8162,11.5971],[9.8162,11.6016],[9.8184,11.6061],[9.8207,11.6083],[9.8229,11.6128],[9.8252,11.6195],[9.8274,11.6263],[9.8274,11.642],[9.8252,11.6487],[9.8229,11.6555],[9.8207,11.6645],[9.8207,11.6712],[9.8207,11.6824],[9.8207,11.6892],[9.8207,11.6914],[9.8207,11.6959],[9.8207,11.7004],[9.8207,11.7139],[9.8184,11.7206],[9.8162,11.7296],[9.814,11.7341],[9.8095,11.7408],[9.805,11.7431],[9.8027,11.7453],[9.7982,11.7475],[9.7848,11.752],[9.7668,11.7498],[9.7623,11.7475],[9.7578,11.7475],[9.7533,11.7453],[9.7443,11.7431],[9.7354,11.7408],[9.7331,11.7408],[9.7309,11.7386],[9.7151,11.7341],[9.7106,11.7341],[9.6815,11.7296],[9.6635,11.7296],[9.6635,11.7251],[9.6657,11.7161],[9.6657,11.7094],[9.6635,11.7071],[9.6612,11.7026],[9.659,11.6981],[9.6612,11.6847],[9.6612,11.6712],[9.6612,11.6689],[9.6612,11.6622],[9.659,11.66],[9.659,11.6555],[9.659,11.651],[9.6612,11.6465],[9.6635,11.6442],[9.6635,11.642],[9.6635,11.6375],[9.6567,11.6308],[9.6523,11.624],[9.6545,11.6173],[9.6523,11.6083],[9.6523,11.6038],[9.6455,11.5948],[9.6433,11.5903],[9.641,11.5836],[9.641,11.5814],[9.6455,11.5746],[9.6455,11.5634],[9.6478,11.5499],[9.6455,11.5364],[9.6433,11.532],[9.641,11.5297],[9.641,11.523],[9.6455,11.5162],[9.6478,11.5028],[9.65,11.4915],[9.65,11.4825],[9.65,11.4691],[9.6523,11.4646],[9.65,11.4556],[9.6478,11.4466],[9.6455,11.4421],[9.6433,11.4399],[9.641,11.4354],[9.6433,11.4264],[9.6433,11.4242],[9.6455,11.4107],[9.641,11.4017],[9.641,11.3972],[9.6433,11.3905]]]}},{"type":"Feature","properties":{"id":"jigawa/dutse","name":"Dutse","state":"Jigawa"},"geometry":{"type":"Polygon","coordinates":[[[9.1425,11.779],[9.1425,11.7767],[9.1447,11.77],[9.147,11.7655],[9.147,11.7633],[9.147,11.7588],[9.147,11.7498],[9.147,11.7475],[9.147,11.7453],[9.1492,11.7431],[9.1604,11.7363],[9.1627,11.7363],[9.1649,11.7386],[9.1672,11.7408],[9.1717,11.7431],[9.1762,11.7453],[9.1784,11.7475],[9.1874,11.7498],[9.1896,11.7475],[9.1919,11.7453],[9.1941,11.7431],[9.2076,11.7431],[9.2143,11.7453],[9.2188,11.7453],[9.2233,11.7475],[9.2345,11.7498],[9.2368,11.7498],[9.2413,11.7498],[9.2458,11.7475],[9.248,11.7453],[9.2503,11.7431],[9.2503,11.7386],[9.2503,11.7341],[9.2503,11.7251],[9.2458,11.7251],[9.2458,11.7206],[9.2413,11.7116],[9.2368,11.7026],[9.2345,11.7004],[9.2278,11.7026],[9.2233,11.7049],[9.2211,11.7049],[9.2188,11.7026],[9.2166,11.7004],[9.2188,11.6959],[9.2211,11.6892],[9.2256,11.6847],[9.2301,11.6712],[9.2301,11.6645],[9.2323,11.66],[9.2345,11.6577],[9.2368,11.6555],[9.2413,11.6555],[9.2435,11.6555],[9.2503,11.6555],[9.2525,11.6577],[9.2548,11.6577],[9.257,11.66],[9.2727,11.6645],[9.275,11.6645],[9.2772,11.6622],[9.2772,11.66],[9.275,11.6577],[9.2705,11.6442],[9.2682,11.6375],[9.2637,11.6173],[9.2637,11.615],[9.2727,11.6016],[9.2772,11.5971],[9.2952,11.5881],[9.2997,11.5859],[9.3087,11.5814],[9.3109,11.5814],[9.3154,11.5814],[9.3311,11.5769],[9.3468,11.5769],[9.3603,11.5746],[9.3648,11.5701],[9.3626,11.5634],[9.3648,11.5589],[9.3626,11.5567],[9.3603,11.5522],[9.3558,11.5499],[9.3738,11.5499],[9.3828,11.5477],[9.3985,11.5544],[9.4075,11.5634],[9.412,11.5656],[9.4142,11.5701],[9.4209,11.5746],[9.4299,11.5859],[9.4389,11.5926],[9.4412,11.5948],[9.4501,11.6038],[9.4569,11.6128],[9.4614,11.6195],[9.4591,11.6218],[9.4591,11.624],[9.4569,11.6353],[9.4546,11.6442],[9.4546,11.651],[9.4546,11.6555],[9.4479,11.6712],[9.4456,11.6734],[9.4344,11.6869],[9.4322,11.6892],[9.4254,11.6914],[9.4187,11.6937],[9.412,11.6937],[9.4052,11.6981],[9.4007,11.7026],[9.3985,11.7049],[9.3985,11.7094],[9.3985,11.7161],[9.4007,11.7251],[9.4007,11.7453],[9.403,11.752],[9.4007,11.7588],[9.4007,11.7655],[9.3985,11.7723],[9.3985,11.7767],[9.3962,11.7812],[9.3962,11.788],[9.3985,11.8082],[9.403,11.8172],[9.4052,11.8217],[9.4097,11.8306],[9.4142,11.8374],[9.4165,11.8441],[9.4187,11.8553],[9.4254,11.8711],[9.4322,11.8868],[9.4367,11.8958],[9.4389,11.9048],[9.4412,11.9205],[9.4412,11.925],[9.4412,11.9295],[9.4322,11.925],[9.4254,11.925],[9.4187,11.9272],[9.4142,11.9272],[9.4052,11.9339],[9.4007,11.9407],[9.3985,11.9497],[9.394,11.9654],[9.3918,11.9834],[9.3918,12.0081],[9.3918,12.0125],[9.3873,12.0193],[9.3828,12.0238],[9.367,12.0373],[9.3558,12.0395],[9.3379,12.053],[9.3334,12.0552],[9.3289,12.0575],[9.3244,12.062],[9.3199,12.0642],[9.3154,12.0664],[9.3064,12.0687],[9.3042,12.0664],[9.3019,12.0597],[9.2952,12.0552],[9.2929,12.053],[9.2884,12.0507],[9.2862,12.0485],[9.284,12.0462],[9.2795,12.0417],[9.2772,12.0373],[9.275,12.0328],[9.2705,12.026],[9.257,12.0081],[9.2503,12.0013],[9.2548,11.9968],[9.2548,11.9923],[9.2503,11.9878],[9.2435,11.9856],[9.2345,11.9789],[9.2301,11.9766],[9.2233,11.9699],[9.2211,11.9676],[9.2211,11.9654],[9.2188,11.9609],[9.2211,11.9519],[9.2211,11.9452],[9.2256,11.9384],[9.2301,11.9317],[9.2345,11.925],[9.2345,11.9227],[9.2368,11.916],[9.239,11.907],[9.239,11.9048],[9.239,11.9003],[9.2368,11.898],[9.2368,11.8958],[9.2345,11.8913],[9.2301,11.8845],[9.2256,11.88],[9.2233,11.8756],[9.2143,11.8711],[9.2121,11.8711],[9.2076,11.8711],[9.2009,11.8643],[9.2009,11.8621],[9.1986,11.8553],[9.1941,11.8509],[9.1762,11.8351],[9.1649,11.8239],[9.1582,11.8172],[9.1515,11.8127],[9.1447,11.8082],[9.1425,11.7992],[9.1402,11.7902],[9.1402,11.7857],[9.1425,11.779]]]}},{"type":"Feature","properties":{"id":"jigawa/gagarawa","name":"Gagarawa","state":"Jigawa"},"geometry":{"type":"Polygon","coordinates":[[[9.3985,12.41],[9.4052,12.4078],[9.4142,12.3988],[9.4254,12.3921],[9.4299,12.3898],[9.4344,12.3876],[9.4434,12.3876],[9.4546,12.3876],[9.4636,12.3876],[9.4704,12.3898],[9.4793,12.3898],[9.4951,12.3898],[9.4995,12.3898],[9.5085,12.3898],[9.513,12.3876],[9.5175,12.3876],[9.522,12.3898],[9.5265,12.3898],[9.5377,12.3943],[9.5534,12.3966],[9.5647,12.3966],[9.5759,12.3966],[9.5826,12.3943],[9.5871,12.3921],[9.5894,12.3966],[9.5894,12.3988],[9.5916,12.4033],[9.5939,12.4078],[9.6006,12.4123],[9.6096,12.4213],[9.6141,12.4235],[9.6253,12.4303],[9.6343,12.4415],[9.6365,12.4505],[9.6343,12.455],[9.6343,12.4639],[9.6478,12.4797],[9.65,12.4819],[9.6567,12.4886],[9.6635,12.4999],[9.6725,12.5134],[9.677,12.5246],[9.6815,12.5268],[9.6859,12.5268],[9.6927,12.5291],[9.6949,12.5291],[9.7039,12.5313],[9.7084,12.5336],[9.7106,12.5358],[9.7174,12.5425],[9.7241,12.5515],[9.7376,12.5717],[9.7421,12.5852],[9.7331,12.5852],[9.7286,12.5875],[9.7174,12.5942],[9.7017,12.6054],[9.6927,12.6099],[9.6882,12.6144],[9.6837,12.6189],[9.677,12.6211],[9.668,12.6234],[9.65,12.6256],[9.6433,12.6256],[9.6276,12.6256],[9.6208,12.6256],[9.6141,12.6234],[9.6096,12.6211],[9.6051,12.6189],[9.5939,12.6144],[9.5916,12.6144],[9.5692,12.6077],[9.5647,12.6077],[9.5579,12.6077],[9.5467,12.6077],[9.5287,12.6122],[9.5085,12.6189],[9.5063,12.6122],[9.5063,12.6099],[9.504,12.6054],[9.4951,12.5987],[9.4861,12.5964],[9.4636,12.5897],[9.4569,12.5875],[9.4456,12.5875],[9.4389,12.5875],[9.4322,12.5875],[9.4277,12.5897],[9.4232,12.592],[9.4209,12.592],[9.4187,12.5875],[9.4187,12.583],[9.4187,12.5785],[9.4232,12.5695],[9.4254,12.565],[9.4277,12.5628],[9.4254,12.5583],[9.4209,12.5583],[9.4232,12.5515],[9.4322,12.5313],[9.4322,12.5178],[9.4322,12.5134],[9.4322,12.5089],[9.4299,12.5021],[9.4299,12.4976],[9.4277,12.4954],[9.4277,12.4909],[9.4254,12.4842],[9.4142,12.4617],[9.4097,12.4527],[9.403,12.437],[9.403,12.4347],[9.403,12.4303],[9.4007,12.4213],[9.3985,12.4168],[9.3962,12.4123],[9.3985,12.41]]]}},{"type":"Feature","properties":{"id":"jigawa/garki","name":"Garki","state":"Jigawa"},"geometry":{"type":"Polygon","coordinates":[[[8.7248,12.2147],[8.7293,12.2147],[8.7405,12.2192],[8.7427,12.2236],[8.754,12.2394],[8.7562,12.2416],[8.7719,12.2708],[8.7742,12.2753],[8.7787,12.282],[8.7832,12.2843],[8.7876,12.2865],[8.7944,12.2888],[8.7966,12.291],[8.7989,12.2955],[8.7989,12.3],[8.7989,12.3022],[8.8011,12.3067],[8.8079,12.3135],[8.8191,12.3157],[8.8236,12.3157],[8.837,12.3157],[8.8415,12.309],[8.8438,12.3],[8.8438,12.2955],[8.8438,12.2933],[8.846,12.282],[8.8505,12.2798],[8.8528,12.2775],[8.864,12.282],[8.8662,12.2933],[8.8662,12.3],[8.8685,12.3067],[8.8707,12.309],[8.8797,12.3135],[8.8909,12.3157],[8.8954,12.3157],[8.9022,12.3157],[8.9067,12.3157],[8.9089,12.3157],[8.9179,12.318],[8.9291,12.3225],[8.9426,12.3247],[8.9606,12.327],[8.9785,12.3314],[8.983,12.3337],[8.9898,12.3359],[8.9965,12.3382],[9.0032,12.3382],[9.0122,12.3382],[9.019,12.3404],[9.0279,12.3427],[9.0369,12.3427],[9.0549,12.3427],[9.0594,12.3427],[9.0706,12.3427],[9.0796,12.3449],[9.0886,12.3449],[9.0931,12.3427],[9.1043,12.3404],[9.111,12.3404],[9.1178,12.3382],[9.1268,12.3382],[9.1312,12.3404],[9.138,12.3404],[9.1492,12.3404],[9.1537,12.3404],[9.1694,12.3404],[9.1739,12.3427],[9.1851,12.3427],[9.1941,12.3427],[9.2098,12.3427],[9.2143,12.3404],[9.2188,12.3382],[9.2278,12.3337],[9.2301,12.3314],[9.2345,12.327],[9.239,12.3202],[9.2413,12.318],[9.2435,12.3157],[9.248,12.3112],[9.2548,12.3112],[9.2705,12.309],[9.275,12.309],[9.2862,12.309],[9.3042,12.309],[9.3131,12.309],[9.3244,12.309],[9.3356,12.3067],[9.3446,12.309],[9.3558,12.3112],[9.3805,12.3157],[9.4007,12.3225],[9.4142,12.327],[9.4277,12.3337],[9.4456,12.3404],[9.4793,12.3539],[9.4838,12.3561],[9.4883,12.3606],[9.5085,12.3809],[9.5085,12.3876],[9.5085,12.3898],[9.4995,12.3898],[9.4951,12.3898],[9.4793,12.3898],[9.4704,12.3898],[9.4636,12.3876],[9.4546,12.3876],[9.4434,12.3876],[9.4344,12.3876],[9.4299,12.3898],[9.4254,12.3921],[9.4142,12.3988],[9.4052,12.4078],[9.3985,12.41],[9.3962,12.4123],[9.3918,12.4145],[9.3873,12.419],[9.3828,12.4235],[9.3783,12.428],[9.3626,12.4347],[9.3581,12.437],[9.3446,12.4415],[9.3311,12.4437],[9.3266,12.4437],[9.3199,12.4415],[9.3109,12.4437],[9.3064,12.446],[9.2997,12.446],[9.2862,12.4437],[9.2795,12.4415],[9.275,12.4437],[9.266,12.446],[9.2525,12.4572],[9.248,12.4639],[9.2345,12.4797],[9.2278,12.4864],[9.2188,12.4954],[9.2031,12.5089],[9.1941,12.5156],[9.1896,12.5178],[9.1829,12.5201],[9.1784,12.5201],[9.1717,12.5223],[9.1604,12.5268],[9.147,12.5313],[9.1425,12.5336],[9.138,12.5336],[9.1223,12.5358],[9.1178,12.5358],[9.1133,12.5358],[9.1043,12.5336],[9.0818,12.5336],[9.0796,12.5336],[9.0729,12.5381],[9.0661,12.5425],[9.0594,12.5515],[9.0571,12.5538],[9.0504,12.5605],[9.0414,12.5762],[9.0369,12.5875],[9.0369,12.592],[9.0347,12.5964],[9.0324,12.6009],[9.0324,12.6032],[9.0279,12.6054],[9.0122,12.6099],[8.9898,12.6054],[8.9853,12.6054],[8.9785,12.6009],[8.9718,12.5987],[8.9651,12.5964],[8.9606,12.5942],[8.9516,12.5852],[8.9493,12.583],[8.9359,12.5605],[8.9314,12.5515],[8.9291,12.547],[8.9224,12.5336],[8.9179,12.5246],[8.9067,12.5156],[8.9022,12.5134],[8.8977,12.5089],[8.8909,12.5044],[8.8887,12.4999],[8.8865,12.4976],[8.8842,12.4931],[8.8775,12.4797],[8.8752,12.4729],[8.8707,12.4617],[8.8707,12.455],[8.8707,12.4505],[8.8707,12.446],[8.873,12.4415],[8.873,12.437],[8.873,12.4303],[8.8685,12.4258],[8.864,12.4235],[8.8595,12.4213],[8.8573,12.4213],[8.8483,12.419],[8.8258,12.4145],[8.8168,12.4145],[8.8168,12.4056],[8.8146,12.4033],[8.8101,12.3966],[8.8056,12.3943],[8.8011,12.3898],[8.7989,12.3876],[8.7921,12.3764],[8.7809,12.3629],[8.7742,12.3539],[8.7697,12.3494],[8.7517,12.3292],[8.7405,12.3157],[8.7382,12.309],[8.736,12.3],[8.7337,12.2933],[8.7315,12.2888],[8.7315,12.282],[8.7315,12.2708],[8.7293,12.2686],[8.727,12.2596],[8.727,12.2551],[8.727,12.2484],[8.7248,12.2371],[8.7225,12.2349],[8.7225,12.2326],[8.7203,12.2236],[8.7203,12.2169],[8.7248,12.2147]]]}},{"type":"Feature","properties":{"id":"jigawa/gumel","name":"Gumel","state":"Jigawa"},"geometry":{"type":"Polygon","coordinates":[[[9.3154,12.6459],[9.3199,12.6414],[9.3221,12.6391],[9.3244,12.6346],[9.3289,12.6301],[9.3311,12.6256],[9.3334,12.6211],[9.3334,12.6144],[9.3334,12.6099],[9.3356,12.6077],[9.3401,12.6054],[9.3491,12.5987],[9.3536,12.5987],[9.3558,12.5964],[9.3581,12.5942],[9.3648,12.5852],[9.3648,12.5807],[9.367,12.5762],[9.367,12.5717],[9.3715,12.565],[9.376,12.5605],[9.3962,12.556],[9.4052,12.556],[9.4187,12.556],[9.4209,12.5583],[9.4254,12.5583],[9.4277,12.5628],[9.4254,12.565],[9.4232,12.5695],[9.4187,12.5785],[9.4187,12.583],[9.4187,12.5875],[9.4209,12.592],[9.4232,12.592],[9.4277,12.5897],[9.4322,12.5875],[9.4389,12.5875],[9.4456,12.5875],[9.4569,12.5875],[9.4636,12.5897],[9.4861,12.5964],[9.4951,12.5987],[9.504,12.6054],[9.5063,12.6099],[9.5063,12.6122],[9.5085,12.6189],[9.4995,12.6211],[9.4883,12.6256],[9.4838,12.6301],[9.4771,12.6369],[9.4748,12.6414],[9.4771,12.6459],[9.4793,12.6548],[9.4793,12.6593],[9.4793,12.6638],[9.4748,12.6728],[9.4614,12.6975],[9.4546,12.7065],[9.4524,12.7087],[9.4389,12.711],[9.4232,12.7087],[9.3985,12.7065],[9.3873,12.7065],[9.3738,12.702],[9.3693,12.702],[9.367,12.6997],[9.3626,12.6953],[9.3558,12.6908],[9.3536,12.6863],[9.3513,12.684],[9.3491,12.6818],[9.3423,12.6773],[9.3401,12.675],[9.3334,12.6728],[9.3199,12.6661],[9.3154,12.6616],[9.3131,12.6571],[9.3154,12.6459]]]}},{"type":"Feature","properties":{"id":"jigawa/guri","name":"Guri","state":"Jigawa"},"geometry":{"type":"Polygon","coordinates":[[[10.3372,12.6099],[10.3395,12.5964],[10.3417,12.574],[10.344,12.5695],[10.3462,12.5628],[10.3462,12.5605],[10.3507,12.547],[10.3507,12.5313],[10.3507,12.5246],[10.3462,12.5156],[10.344,12.4999],[10.344,12.4931],[10.344,12.4842],[10.3484,12.4684],[10.3529,12.4684],[10.3574,12.4684],[10.3597,12.4707],[10.3709,12.4729],[10.3754,12.4729],[10.3799,12.4729],[10.4023,12.4707],[10.4068,12.4729],[10.4136,12.4729],[10.4158,12.4729],[10.4248,12.4707],[10.4293,12.4662],[10.4293,12.4617],[10.4338,12.4415],[10.4338,12.4392],[10.4338,12.4347],[10.436,12.4325],[10.4383,12.428],[10.4473,12.4235],[10.4517,12.4235],[10.4765,12.4325],[10.4854,12.437],[10.4922,12.4392],[10.5056,12.4595],[10.5101,12.4639],[10.5169,12.4729],[10.5259,12.4819],[10.5438,12.4909],[10.5528,12.4931],[10.5618,12.4954],[10.564,12.4976],[10.573,12.4999],[10.5775,12.5021],[10.582,12.5044],[10.5842,12.5066],[10.5887,12.5111],[10.591,12.5134],[10.5932,12.5178],[10.5932,12.5201],[10.591,12.5223],[10.5887,12.5268],[10.591,12.5313],[10.5932,12.5358],[10.591,12.5448],[10.591,12.5583],[10.5955,12.5695],[10.5977,12.5762],[10.6,12.5807],[10.5977,12.592],[10.5977,12.6167],[10.5955,12.6234],[10.5977,12.6324],[10.5977,12.6391],[10.5977,12.6414],[10.5977,12.6481],[10.5955,12.6548],[10.5955,12.6571],[10.5955,12.6706],[10.5977,12.684],[10.5977,12.6863],[10.5977,12.6908],[10.6,12.693],[10.6,12.702],[10.6,12.7042],[10.5977,12.7132],[10.5932,12.72],[10.5865,12.7357],[10.5775,12.7469],[10.5753,12.7536],[10.573,12.7649],[10.5753,12.7716],[10.5775,12.7828],[10.5775,12.7918],[10.573,12.7986],[10.5708,12.8031],[10.5775,12.8075],[10.5753,12.812],[10.5708,12.8165],[10.5663,12.8188],[10.5595,12.8233],[10.5506,12.8255],[10.5371,12.83],[10.5236,12.83],[10.5146,12.8278],[10.5079,12.8255],[10.5056,12.8255],[10.5034,12.8255],[10.5012,12.8233],[10.4899,12.821],[10.4854,12.821],[10.4787,12.821],[10.4607,12.821],[10.454,12.8255],[10.445,12.8322],[10.4428,12.8367],[10.436,12.839],[10.4203,12.8412],[10.4158,12.8412],[10.4046,12.8435],[10.3934,12.8525],[10.3911,12.8525],[10.3754,12.8592],[10.3664,12.8614],[10.3484,12.8614],[10.3417,12.8592],[10.335,12.8592],[10.335,12.8547],[10.3395,12.8412],[10.344,12.8165],[10.344,12.812],[10.3484,12.8075],[10.3529,12.8008],[10.3529,12.7963],[10.3507,12.7918],[10.3529,12.7873],[10.3574,12.7828],[10.3574,12.7784],[10.3619,12.7604],[10.3619,12.7559],[10.3619,12.7469],[10.3619,12.7402],[10.3597,12.7379],[10.3597,12.7334],[10.3574,12.7267],[10.3574,12.7177],[10.3574,12.711],[10.3597,12.7087],[10.3619,12.7042],[10.3642,12.693],[10.3664,12.6863],[10.3687,12.6818],[10.3687,12.6773],[10.3664,12.6661],[10.3664,12.6638],[10.3619,12.6526],[10.3507,12.6369],[10.3417,12.6234],[10.3372,12.6189],[10.335,12.6144],[10.3372,12.6099]]]}},{"type":"Feature","properties":{"id":"jigawa/gwaram","name":"Gwaram","state":"Jigawa"},"geometry":{"type":"Polygon","coordinates":[[[9.6433,11.3141],[9.6433,11.3096],[9.6455,11.3051],[9.6478,11.3006],[9.65,11.2939],[9.65,11.2692],[9.65,11.2625],[9.6478,11.258],[9.65,11.2535],[9.6545,11.2535],[9.6702,11.2557],[9.6927,11.258],[9.7084,11.2602],[9.7241,11.2647],[9.7376,11.2647],[9.7466,11.2625],[9.7488,11.2625],[9.7601,11.2647],[9.7848,11.2759],[9.8005,11.2849],[9.8095,11.2849],[9.8184,11.2849],[9.8229,11.2827],[9.8252,11.2827],[9.8252,11.2782],[9.8252,11.2737],[9.8319,11.2602],[9.8342,11.2512],[9.8364,11.2467],[9.8387,11.2445],[9.8431,11.24],[9.8454,11.2355],[9.8499,11.2265],[9.8566,11.2108],[9.8611,11.1951],[9.8634,11.1928],[9.8656,11.1861],[9.8701,11.1794],[9.8768,11.1726],[9.8791,11.1726],[9.8813,11.1704],[9.8881,11.1659],[9.8926,11.1614],[9.8926,11.1592],[9.8926,11.1547],[9.8903,11.1524],[9.8791,11.1412],[9.8723,11.1345],[9.8656,11.13],[9.8634,11.1277],[9.8589,11.121],[9.8566,11.1187],[9.8544,11.1098],[9.8544,11.1008],[9.8544,11.0895],[9.8544,11.0761],[9.8544,11.0716],[9.8521,11.0671],[9.8521,11.0648],[9.8544,11.0536],[9.8544,11.0514],[9.8544,11.0446],[9.8544,11.0401],[9.8544,11.0379],[9.8589,11.0199],[9.8589,11.0154],[9.8656,10.9997],[9.8746,10.9975],[9.8881,10.993],[9.9015,10.984],[9.9083,10.9817],[9.9217,10.975],[9.9397,10.9683],[9.9509,10.9638],[9.9532,10.9615],[9.9577,10.9615],[9.9667,10.9615],[9.9689,10.9615],[9.9734,10.9638],[9.9846,10.966],[9.9936,10.966],[10.0026,10.966],[10.0093,10.9683],[10.0183,10.9773],[10.0206,10.9817],[10.0295,10.9862],[10.052,10.9885],[10.0587,10.9862],[10.0677,10.9862],[10.0722,10.9885],[10.0767,10.9885],[10.079,10.9885],[10.0857,10.9862],[10.1014,10.9817],[10.1037,10.9817],[10.1059,10.9773],[10.1059,10.975],[10.1081,10.9683],[10.1104,10.9638],[10.1149,10.9593],[10.1194,10.9548],[10.1261,10.9503],[10.1351,10.9481],[10.1441,10.9458],[10.1598,10.9436],[10.1733,10.9413],[10.1755,10.9413],[10.1823,10.9436],[10.1867,10.9436],[10.1912,10.9481],[10.1935,10.9503],[10.1935,10.9526],[10.1957,10.9593],[10.1957,10.9615],[10.1957,10.9638],[10.1935,10.9683],[10.1867,10.9728],[10.18,10.9773],[10.1755,10.9773],[10.1665,10.9817],[10.1643,10.9817],[10.1576,10.9862],[10.1553,10.9907],[10.1531,10.993],[10.1441,11.0064],[10.1418,11.0177],[10.1486,11.0334],[10.1531,11.0401],[10.1531,11.0424],[10.1598,11.0536],[10.162,11.0559],[10.1665,11.0626],[10.1688,11.0671],[10.1755,11.0738],[10.1778,11.0783],[10.18,11.0806],[10.189,11.0895],[10.1935,11.094],[10.198,11.1008],[10.2025,11.1008],[10.207,11.103],[10.2159,11.103],[10.2182,11.103],[10.2294,11.103],[10.2294,11.1008],[10.2339,11.0963],[10.2429,11.094],[10.2564,11.094],[10.2609,11.094],[10.2631,11.0963],[10.2653,11.0985],[10.2676,11.1008],[10.2676,11.103],[10.2766,11.1142],[10.2856,11.1187],[10.2945,11.1277],[10.3058,11.1345],[10.3125,11.1367],[10.317,11.1367],[10.3192,11.1345],[10.3237,11.13],[10.3282,11.13],[10.3305,11.1322],[10.3327,11.1345],[10.335,11.1389],[10.335,11.1434],[10.3395,11.1502],[10.3395,11.1524],[10.3507,11.1659],[10.3552,11.1704],[10.3619,11.1749],[10.3642,11.1794],[10.3664,11.1951],[10.3664,11.2018],[10.3664,11.2063],[10.3642,11.2063],[10.3574,11.2086],[10.3529,11.2086],[10.3462,11.2086],[10.3395,11.2063],[10.3305,11.2063],[10.3192,11.2041],[10.299,11.2063],[10.2878,11.2086],[10.2698,11.2131],[10.2653,11.2131],[10.2609,11.2131],[10.2474,11.2198],[10.2384,11.222],[10.2362,11.2243],[10.2294,11.2243],[10.2137,11.2265],[10.2092,11.2265],[10.2002,11.2265],[10.1957,11.2243],[10.189,11.222],[10.1755,11.2243],[10.1643,11.2288],[10.1598,11.231],[10.1508,11.2378],[10.1486,11.24],[10.1418,11.24],[10.1373,11.24],[10.1328,11.24],[10.1284,11.24],[10.1171,11.2445],[10.1081,11.249],[10.0992,11.2535],[10.0879,11.258],[10.0767,11.258],[10.0632,11.2602],[10.061,11.2625],[10.0565,11.2625],[10.0498,11.2625],[10.0363,11.2625],[10.0318,11.2602],[10.0138,11.2535],[10.0071,11.2512],[10.0048,11.249],[10.0026,11.249],[10.0004,11.2467],[9.9981,11.2467],[9.9914,11.2512],[9.9801,11.2737],[9.9779,11.2804],[9.9756,11.2827],[9.9734,11.2894],[9.9667,11.2962],[9.9577,11.3096],[9.9554,11.3141],[9.9532,11.3209],[9.9442,11.3253],[9.9307,11.3343],[9.9262,11.3388],[9.924,11.3433],[9.9217,11.3456],[9.9195,11.3478],[9.9173,11.3478],[9.915,11.3478],[9.9128,11.3478],[9.9083,11.3456],[9.906,11.3456],[9.897,11.3478],[9.8858,11.3568],[9.8836,11.359],[9.8791,11.3658],[9.8768,11.368],[9.8768,11.3725],[9.8768,11.3748],[9.8791,11.3792],[9.8791,11.386],[9.8813,11.3995],[9.8813,11.4017],[9.8813,11.4039],[9.8813,11.4084],[9.8813,11.4129],[9.8813,11.4197],[9.8791,11.4287],[9.8791,11.4309],[9.8791,11.4331],[9.8813,11.4444],[9.8836,11.4556],[9.8836,11.4623],[9.8836,11.4646],[9.8746,11.4736],[9.8701,11.4803],[9.8679,11.487],[9.8634,11.4915],[9.8544,11.496],[9.8521,11.4983],[9.8476,11.4983],[9.8409,11.487],[9.8387,11.4848],[9.8364,11.4803],[9.8319,11.4736],[9.8184,11.4623],[9.8095,11.4601],[9.8005,11.4623],[9.7982,11.4623],[9.7915,11.4668],[9.787,11.4736],[9.778,11.4713],[9.7668,11.4691],[9.7488,11.4668],[9.7421,11.4646],[9.7331,11.4623],[9.7264,11.4623],[9.7196,11.4623],[9.7151,11.4623],[9.7106,11.4623],[9.7039,11.4601],[9.6994,11.4556],[9.6904,11.4444],[9.6882,11.4421],[9.6837,11.4331],[9.6792,11.4197],[9.6747,11.4129],[9.6725,11.4084],[9.6612,11.3927],[9.6545,11.3882],[9.6478,11.3815],[9.6455,11.3792],[9.6433,11.3748],[9.6433,11.3703],[9.641,11.3613],[9.641,11.35],[9.641,11.3411],[9.641,11.3253],[9.6433,11.3141]]]}},{"type":"Feature","properties":{"id":"jigawa/gwiwa","name":"Gwiwa","state":"Jigawa"},"geometry":{"type":"Polygon","coordinates":[[[8.1678,12.702],[8.179,12.702],[8.1835,12.702],[8.188,12.702],[8.1925,12.6997],[8.1993,12.6953],[8.2037,12.693],[8.206,12.6908],[8.2105,12.6863],[8.215,12.684],[8.2217,12.6818],[8.2284,12.6885],[8.2352,12.693],[8.2397,12.6953],[8.2419,12.693],[8.2464,12.693],[8.2487,12.6908],[8.2509,12.6885],[8.2532,12.6863],[8.2666,12.6773],[8.2711,12.6773],[8.2779,12.6728],[8.2846,12.6706],[8.2868,12.6616],[8.2891,12.6548],[8.2913,12.6503],[8.2981,12.6481],[8.316,12.6503],[8.325,12.6526],[8.3295,12.6526],[8.343,12.6616],[8.3587,12.6683],[8.3609,12.6683],[8.3654,12.6661],[8.3699,12.6638],[8.3744,12.6661],[8.3901,12.684],[8.3946,12.6908],[8.3969,12.6908],[8.3946,12.6953],[8.3946,12.7132],[8.3969,12.72],[8.4014,12.7559],[8.4014,12.7671],[8.4014,12.7784],[8.3991,12.7828],[8.3969,12.7873],[8.3969,12.7941],[8.3969,12.8098],[8.3969,12.8165],[8.3991,12.8278],[8.3901,12.8255],[8.3834,12.8255],[8.3767,12.8255],[8.3609,12.83],[8.3497,12.8345],[8.3407,12.839],[8.3362,12.8412],[8.3295,12.8435],[8.316,12.8412],[8.2981,12.8412],[8.2846,12.8412],[8.2801,12.8435],[8.2756,12.8412],[8.2644,12.839],[8.2487,12.8367],[8.2464,12.8367],[8.2374,12.839],[8.2195,12.8367],[8.1993,12.839],[8.1835,12.839],[8.179,12.839],[8.1768,12.8367],[8.1723,12.8345],[8.1701,12.8322],[8.1633,12.8188],[8.1656,12.8075],[8.1678,12.8031],[8.1723,12.7941],[8.1723,12.7873],[8.1746,12.7716],[8.1701,12.7581],[8.1656,12.7424],[8.1588,12.7312],[8.1521,12.72],[8.1521,12.7132],[8.1498,12.7042],[8.1498,12.702],[8.1678,12.702]]]}},{"type":"Feature","properties":{"id":"jigawa/hadejia","name":"Hadejia","state":"Jigawa"},"geometry":{"type":"Polygon","coordinates":[[[10.0161,12.4572],[10.0161,12.4505],[10.0206,12.446],[10.0251,12.4437],[10.0318,12.4482],[10.0385,12.4505],[10.043,12.4505],[10.061,12.4482],[10.0767,12.4527],[10.079,12.4505],[10.079,12.455],[10.079,12.4595],[10.079,12.4639],[10.079,12.4707],[10.0767,12.4752],[10.0745,12.4797],[10.07,12.4842],[10.0632,12.4909],[10.0587,12.4931],[10.0498,12.4976],[10.0385,12.4976],[10.0318,12.4954],[10.0273,12.4931],[10.0228,12.4886],[10.0206,12.4864],[10.0183,12.4819],[10.0161,12.4729],[10.0138,12.4639],[10.0161,12.4572]]]}},{"type":"Feature","properties":{"id":"jigawa/jahun","name":"Jahun","state":"Jigawa"},"geometry":{"type":"Polygon","coordinates":[[[9.3199,12.0642],[9.3244,12.062],[9.3289,12.0575],[9.3334,12.0552],[9.3379,12.053],[9.3558,12.0395],[9.367,12.0373],[9.3828,12.0238],[9.3873,12.0193],[9.3918,12.0125],[9.3918,12.0081],[9.3918,11.9834],[9.394,11.9654],[9.3985,11.9497],[9.4007,11.9407],[9.4052,11.9339],[9.4142,11.9272],[9.4187,11.9272],[9.4254,11.925],[9.4322,11.925],[9.4412,11.9295],[9.4524,11.9317],[9.4748,11.9362],[9.4816,11.9407],[9.4838,11.9429],[9.5018,11.9542],[9.5085,11.9586],[9.513,11.9654],[9.5175,11.9699],[9.5265,11.9744],[9.531,11.9744],[9.5512,11.9789],[9.5669,11.9811],[9.5737,11.9811],[9.5804,11.9834],[9.5961,11.9856],[9.6006,11.9878],[9.6096,11.9946],[9.6141,11.9968],[9.6208,11.9968],[9.6276,11.9923],[9.6298,11.9901],[9.6365,11.9811],[9.641,11.9721],[9.6433,11.9654],[9.6455,11.9609],[9.6478,11.9564],[9.6567,11.9497],[9.6635,11.9497],[9.6657,11.9497],[9.6725,11.9497],[9.6792,11.9497],[9.6815,11.9519],[9.6859,11.9564],[9.6904,11.9564],[9.6994,11.9586],[9.7129,11.9654],[9.7174,11.9676],[9.7241,11.9699],[9.7264,11.9721],[9.7421,11.9766],[9.7533,11.9789],[9.7825,11.9856],[9.7982,11.9901],[9.8095,11.9946],[9.8207,11.9991],[9.8207,12.0058],[9.8162,12.0395],[9.8162,12.044],[9.8184,12.053],[9.8207,12.0575],[9.8207,12.0664],[9.8184,12.0709],[9.8184,12.0777],[9.8184,12.0911],[9.8184,12.0956],[9.8207,12.1024],[9.8252,12.1136],[9.8184,12.1159],[9.8117,12.1159],[9.7982,12.1114],[9.7848,12.1091],[9.778,12.1091],[9.7735,12.1091],[9.7668,12.1114],[9.7511,12.1136],[9.7443,12.1181],[9.7443,12.1226],[9.7466,12.1271],[9.7488,12.1316],[9.7488,12.1361],[9.7466,12.1406],[9.7398,12.145],[9.7331,12.1473],[9.7264,12.1473],[9.7219,12.1495],[9.7151,12.1518],[9.7106,12.1518],[9.7039,12.1518],[9.6994,12.1495],[9.6815,12.1495],[9.6792,12.1495],[9.6635,12.1473],[9.659,12.145],[9.6545,12.145],[9.65,12.1495],[9.6455,12.1518],[9.6433,12.1585],[9.6343,12.1653],[9.6253,12.172],[9.6118,12.1765],[9.6006,12.181],[9.5894,12.181],[9.5804,12.1787],[9.5737,12.1787],[9.5669,12.1832],[9.5692,12.1855],[9.5714,12.19],[9.5737,12.1922],[9.5692,12.1945],[9.5669,12.1967],[9.5602,12.1967],[9.5512,12.1945],[9.5355,12.1967],[9.5287,12.1989],[9.522,12.2034],[9.5108,12.2147],[9.4951,12.2147],[9.4928,12.2147],[9.4838,12.2169],[9.4793,12.2169],[9.4771,12.2169],[9.4726,12.2147],[9.4681,12.2124],[9.4636,12.2102],[9.4569,12.2102],[9.4546,12.2102],[9.4479,12.2079],[9.4434,12.2057],[9.4412,12.2034],[9.4389,12.2012],[9.4322,12.1967],[9.4277,12.1945],[9.4232,12.1922],[9.4187,12.1922],[9.412,12.1945],[9.4097,12.1945],[9.403,12.1967],[9.3985,12.1967],[9.394,12.1967],[9.3895,12.1945],[9.3738,12.19],[9.3648,12.19],[9.3603,12.19],[9.3536,12.1877],[9.3468,12.1855],[9.3446,12.1787],[9.3423,12.172],[9.3379,12.1675],[9.3356,12.163],[9.3379,12.1585],[9.3379,12.154],[9.3289,12.1428],[9.3266,12.1406],[9.3221,12.1338],[9.3199,12.1271],[9.3199,12.1069],[9.3199,12.0777],[9.3176,12.0732],[9.3154,12.0687],[9.3154,12.0664],[9.3199,12.0642]]]}},{"type":"Feature","properties":{"id":"jigawa/kafin-hausa","name":"Kafin Hausa","state":"Jigawa"},"geometry":{"type":"Polygon","coordinates":[[[9.8207,12.0058],[9.8207,11.9991],[9.8252,11.9968],[9.8364,11.9946],[9.8409,11.9923],[9.8476,11.9901],[9.8521,11.9878],[9.8634,11.9856],[9.8768,11.9834],[9.8881,11.9834],[9.9038,11.9699],[9.906,11.9654],[9.9083,11.9631],[9.906,11.9564],[9.9128,11.9586],[9.9375,11.9654],[9.9487,11.9676],[9.9509,11.9676],[9.9577,11.9654],[9.9622,11.9654],[9.9644,11.9631],[9.9689,11.9654],[9.9801,11.9721],[9.9959,11.9766],[10.0093,11.9789],[10.0206,11.9834],[10.0363,11.9878],[10.0475,11.9923],[10.0587,11.9946],[10.0655,11.9968],[10.0722,12.0013],[10.0947,12.0103],[10.0969,12.0125],[10.0969,12.0148],[10.0969,12.017],[10.0947,12.0238],[10.0992,12.0283],[10.1037,12.0305],[10.1059,12.0305],[10.1104,12.0283],[10.1126,12.0283],[10.1216,12.0283],[10.1216,12.0305],[10.1261,12.0373],[10.1306,12.0395],[10.1351,12.0395],[10.1396,12.0373],[10.1418,12.0373],[10.1441,12.0373],[10.1508,12.0395],[10.1531,12.0395],[10.1553,12.0417],[10.1598,12.0462],[10.1643,12.0485],[10.1688,12.0507],[10.1733,12.053],[10.1733,12.0597],[10.1755,12.062],[10.1755,12.0664],[10.1755,12.0709],[10.1755,12.0754],[10.1733,12.0822],[10.1688,12.0934],[10.1643,12.1046],[10.162,12.1091],[10.162,12.1114],[10.162,12.1226],[10.162,12.1316],[10.162,12.1383],[10.1665,12.1518],[10.1733,12.1742],[10.1755,12.181],[10.1778,12.1832],[10.18,12.19],[10.1845,12.1989],[10.1867,12.2102],[10.189,12.2192],[10.1912,12.2259],[10.1935,12.2349],[10.198,12.2416],[10.2002,12.2461],[10.2025,12.2484],[10.2047,12.2528],[10.2137,12.2663],[10.2159,12.2731],[10.2115,12.2731],[10.2025,12.2798],[10.1957,12.2843],[10.1823,12.2933],[10.171,12.3045],[10.162,12.3135],[10.1576,12.3225],[10.1553,12.3292],[10.1531,12.3314],[10.1328,12.3539],[10.1239,12.3629],[10.1149,12.3674],[10.1081,12.3696],[10.0992,12.3741],[10.0879,12.3786],[10.079,12.3809],[10.0677,12.3831],[10.061,12.3831],[10.0475,12.3809],[10.0408,12.3786],[10.0295,12.3696],[10.0093,12.3561],[10.0071,12.3539],[10.0026,12.3449],[10.0004,12.3427],[9.9981,12.3382],[9.9936,12.3337],[9.9869,12.327],[9.9824,12.3247],[9.9801,12.3225],[9.9712,12.3112],[9.9712,12.3045],[9.9734,12.2955],[9.9712,12.291],[9.9667,12.2888],[9.9644,12.2865],[9.9577,12.282],[9.9442,12.2753],[9.9352,12.2708],[9.9217,12.2686],[9.9128,12.2663],[9.906,12.2641],[9.8993,12.2641],[9.8858,12.2618],[9.8701,12.2596],[9.8656,12.2596],[9.8566,12.2596],[9.8589,12.2528],[9.8566,12.2461],[9.8544,12.2416],[9.8499,12.2394],[9.8409,12.2326],[9.8364,12.2304],[9.8319,12.2281],[9.8274,12.2236],[9.8252,12.2192],[9.8252,12.2147],[9.8229,12.2124],[9.8229,12.2034],[9.8252,12.1989],[9.8252,12.1945],[9.8274,12.19],[9.8252,12.1787],[9.8252,12.1742],[9.8274,12.1653],[9.8297,12.1495],[9.8274,12.1316],[9.8252,12.1136],[9.8207,12.1024],[9.8184,12.0956],[9.8184,12.0911],[9.8184,12.0777],[9.8184,12.0709],[9.8207,12.0664],[9.8207,12.0575],[9.8184,12.053],[9.8162,12.044],[9.8162,12.0395],[9.8207,12.0058]]]}},{"type":"Feature","properties":{"id":"jigawa/kaugama","name":"Kaugama","state":"Jigawa"},"geometry":{"type":"Polygon","coordinates":[[[9.5894,12.3921],[9.5939,12.3898],[9.6006,12.3853],[9.6029,12.3809],[9.6029,12.3786],[9.6006,12.3696],[9.6006,12.3629],[9.5984,12.3561],[9.6029,12.3539],[9.6163,12.3539],[9.6276,12.3517],[9.632,12.3472],[9.6365,12.3472],[9.65,12.3449],[9.6523,12.3449],[9.659,12.3449],[9.6635,12.3449],[9.668,12.3449],[9.6837,12.3404],[9.6949,12.3359],[9.7106,12.318],[9.7129,12.3135],[9.7196,12.3067],[9.7264,12.3022],[9.7264,12.309],[9.7264,12.3157],[9.7286,12.3337],[9.7331,12.3337],[9.7398,12.3292],[9.7511,12.3225],[9.7578,12.3202],[9.7645,12.318],[9.769,12.3202],[9.7735,12.3225],[9.7892,12.327],[9.796,12.3292],[9.8027,12.3337],[9.814,12.3382],[9.8207,12.3427],[9.8319,12.3449],[9.8454,12.3472],[9.8499,12.3472],[9.8701,12.3561],[9.8768,12.3584],[9.8881,12.3651],[9.8926,12.3696],[9.897,12.3741],[9.9015,12.3786],[9.9173,12.3921],[9.9195,12.3943],[9.924,12.3966],[9.9397,12.4056],[9.9465,12.4078],[9.9577,12.4078],[9.9644,12.4056],[9.9644,12.4078],[9.9622,12.4168],[9.9599,12.4213],[9.9532,12.4258],[9.9465,12.428],[9.9397,12.4303],[9.9217,12.4347],[9.9128,12.4347],[9.9105,12.4347],[9.9015,12.4347],[9.8656,12.4347],[9.8499,12.4347],[9.8364,12.4347],[9.8319,12.437],[9.8297,12.437],[9.8252,12.4415],[9.8229,12.455],[9.8274,12.4595],[9.8319,12.4639],[9.8387,12.4662],[9.8454,12.4729],[9.8476,12.4774],[9.8521,12.4819],[9.8544,12.4864],[9.8566,12.5021],[9.8544,12.5156],[9.8544,12.5178],[9.8544,12.5246],[9.8566,12.5268],[9.8566,12.5313],[9.8544,12.5358],[9.8544,12.5403],[9.8499,12.5538],[9.8454,12.5672],[9.8454,12.5717],[9.8454,12.5807],[9.8454,12.5852],[9.8499,12.6054],[9.8544,12.6144],[9.8634,12.6301],[9.8656,12.6346],[9.8701,12.6391],[9.8746,12.6459],[9.8768,12.6503],[9.8746,12.6526],[9.8723,12.6593],[9.8723,12.6616],[9.8634,12.6795],[9.8611,12.6885],[9.8544,12.702],[9.8499,12.7155],[9.8476,12.7177],[9.8476,12.7222],[9.8454,12.7312],[9.8431,12.7424],[9.8409,12.7492],[9.8342,12.7581],[9.8274,12.7671],[9.8229,12.7784],[9.8184,12.7873],[9.814,12.7941],[9.8095,12.8031],[9.8027,12.8098],[9.8005,12.8143],[9.796,12.8143],[9.7803,12.812],[9.7735,12.8098],[9.7645,12.8098],[9.7488,12.8098],[9.7443,12.8098],[9.7354,12.8098],[9.7264,12.812],[9.7286,12.8075],[9.7286,12.8031],[9.7286,12.7986],[9.7309,12.7918],[9.7309,12.7873],[9.7398,12.7739],[9.7443,12.7671],[9.7556,12.7424],[9.7623,12.7267],[9.7645,12.7177],[9.7645,12.7155],[9.7668,12.7087],[9.7758,12.6997],[9.7803,12.6908],[9.7848,12.6818],[9.787,12.675],[9.7915,12.6661],[9.7937,12.6548],[9.7937,12.6481],[9.7937,12.6436],[9.7937,12.6346],[9.7937,12.6256],[9.7915,12.6144],[9.7892,12.6099],[9.7848,12.6032],[9.778,12.5987],[9.7758,12.5964],[9.7668,12.5897],[9.7645,12.5897],[9.7601,12.5875],[9.7443,12.5852],[9.7421,12.5852],[9.7376,12.5717],[9.7241,12.5515],[9.7174,12.5425],[9.7106,12.5358],[9.7084,12.5336],[9.7039,12.5313],[9.6949,12.5291],[9.6927,12.5291],[9.6859,12.5268],[9.6815,12.5268],[9.677,12.5246],[9.6725,12.5134],[9.6635,12.4999],[9.6567,12.4886],[9.65,12.4819],[9.6478,12.4797],[9.6343,12.4639],[9.6343,12.455],[9.6365,12.4505],[9.6343,12.4415],[9.6253,12.4303],[9.6141,12.4235],[9.6096,12.4213],[9.6006,12.4123],[9.5939,12.4078],[9.5916,12.4033],[9.5894,12.3988],[9.5894,12.3966],[9.5871,12.3921],[9.5894,12.3921]]]}},{"type":"Feature","properties":{"id":"jigawa/kazaure","name":"Kazaure","state":"Jigawa"},"geometry":{"type":"Polygon","coordinates":[[[8.3654,12.6324],[8.3654,12.6301],[8.3677,12.6234],[8.3699,12.6211],[8.3722,12.6189],[8.3744,12.6167],[8.3789,12.6144],[8.3834,12.6144],[8.3901,12.6122],[8.3969,12.6122],[8.4059,12.6122],[8.4216,12.6167],[8.4283,12.6189],[8.4328,12.6211],[8.4373,12.6167],[8.4418,12.6099],[8.4485,12.6009],[8.453,12.5987],[8.462,12.592],[8.4665,12.5875],[8.471,12.5875],[8.48,12.5852],[8.5002,12.5852],[8.5137,12.5897],[8.5294,12.5897],[8.5451,12.5942],[8.5496,12.5942],[8.5586,12.5942],[8.5833,12.5964],[8.599,12.5987],[8.608,12.5942],[8.6192,12.5897],[8.6282,12.5897],[8.6372,12.592],[8.6484,12.5942],[8.6462,12.6054],[8.6529,12.6122],[8.6596,12.6167],[8.6731,12.6256],[8.6776,12.6256],[8.6911,12.6279],[8.7001,12.6279],[8.7068,12.6301],[8.7113,12.6346],[8.7113,12.6391],[8.709,12.6459],[8.7068,12.6526],[8.7045,12.6593],[8.7135,12.6683],[8.7203,12.6706],[8.727,12.675],[8.7337,12.684],[8.736,12.6863],[8.7382,12.6908],[8.7405,12.6953],[8.7337,12.6975],[8.7203,12.7042],[8.7023,12.7087],[8.6956,12.7042],[8.6888,12.6975],[8.6821,12.6975],[8.6798,12.693],[8.6709,12.693],[8.6664,12.6908],[8.6619,12.6908],[8.6551,12.6885],[8.6372,12.6818],[8.599,12.6661],[8.59,12.6638],[8.581,12.6616],[8.5765,12.6593],[8.5743,12.6571],[8.572,12.6548],[8.5586,12.6459],[8.5541,12.6459],[8.5451,12.6459],[8.5406,12.6459],[8.5384,12.6481],[8.5339,12.6526],[8.5316,12.6571],[8.5271,12.6638],[8.5271,12.6728],[8.5294,12.6795],[8.5316,12.6885],[8.5339,12.693],[8.5361,12.6975],[8.5406,12.6975],[8.5451,12.702],[8.5473,12.711],[8.5473,12.7132],[8.5429,12.7222],[8.5384,12.7289],[8.5316,12.7312],[8.5226,12.7334],[8.5159,12.7334],[8.5024,12.7357],[8.4957,12.7357],[8.489,12.7334],[8.4845,12.7289],[8.4822,12.7245],[8.48,12.72],[8.4755,12.7155],[8.4687,12.7065],[8.453,12.6953],[8.4508,12.693],[8.4463,12.6908],[8.4396,12.693],[8.4351,12.6953],[8.4261,12.6953],[8.4148,12.6953],[8.4014,12.693],[8.3969,12.6908],[8.3946,12.6908],[8.3901,12.684],[8.3744,12.6661],[8.3699,12.6638],[8.3677,12.6571],[8.3654,12.6548],[8.3632,12.6459],[8.3632,12.6391],[8.3654,12.6324]]]}},{"type":"Feature","properties":{"id":"jigawa/kiri-asamma","name":"Kiri-Asamma","state":"Jigawa"},"geometry":{"type":"Polygon","coordinates":[[[10.0587,12.4168],[10.079,12.4145],[10.0969,12.4145],[10.1037,12.4145],[10.1194,12.4145],[10.1239,12.4145],[10.1306,12.4145],[10.1418,12.4145],[10.1553,12.4168],[10.18,12.4168],[10.1867,12.4168],[10.1912,12.4168],[10.2025,12.4168],[10.207,12.4168],[10.2249,12.419],[10.2317,12.419],[10.2384,12.4213],[10.2474,12.4235],[10.2519,12.4235],[10.2586,12.4235],[10.2676,12.4347],[10.2766,12.4437],[10.2856,12.4505],[10.2878,12.4505],[10.2968,12.455],[10.3013,12.455],[10.3282,12.4617],[10.335,12.4662],[10.344,12.4684],[10.3484,12.4684],[10.344,12.4842],[10.344,12.4931],[10.344,12.4999],[10.3462,12.5156],[10.3507,12.5246],[10.3507,12.5313],[10.3507,12.547],[10.3462,12.5605],[10.3462,12.5628],[10.344,12.5695],[10.3417,12.574],[10.3395,12.5964],[10.3372,12.6099],[10.335,12.6144],[10.3372,12.6189],[10.3417,12.6234],[10.3507,12.6369],[10.3619,12.6526],[10.3664,12.6638],[10.3664,12.6661],[10.3687,12.6773],[10.3687,12.6818],[10.3664,12.6863],[10.3642,12.693],[10.3619,12.7042],[10.3597,12.7087],[10.3574,12.711],[10.3574,12.7177],[10.3574,12.7267],[10.3597,12.7334],[10.3597,12.7379],[10.3619,12.7402],[10.3619,12.7469],[10.3619,12.7559],[10.3619,12.7604],[10.3574,12.7784],[10.3574,12.7828],[10.3529,12.7873],[10.3507,12.7851],[10.3462,12.7851],[10.335,12.7851],[10.3305,12.7851],[10.326,12.7851],[10.3215,12.7873],[10.3148,12.7851],[10.3103,12.7851],[10.3013,12.7806],[10.2968,12.7761],[10.2945,12.7716],[10.2923,12.7694],[10.2856,12.7604],[10.2766,12.7514],[10.2721,12.7469],[10.2653,12.7424],[10.2609,12.7402],[10.2564,12.7379],[10.2519,12.7379],[10.2429,12.7379],[10.2362,12.7402],[10.2317,12.7424],[10.2272,12.7447],[10.2204,12.7447],[10.2159,12.7447],[10.2115,12.7424],[10.207,12.7379],[10.2025,12.7267],[10.2002,12.7222],[10.198,12.7155],[10.1957,12.711],[10.1935,12.7065],[10.1957,12.702],[10.2002,12.6975],[10.2025,12.6953],[10.2115,12.684],[10.2115,12.6818],[10.2137,12.675],[10.2137,12.6728],[10.2137,12.6661],[10.2092,12.6638],[10.2047,12.6571],[10.2025,12.6503],[10.2025,12.6459],[10.2025,12.6391],[10.207,12.6346],[10.2137,12.6324],[10.2204,12.6301],[10.2249,12.6279],[10.2249,12.6234],[10.2227,12.6189],[10.2159,12.6144],[10.2115,12.6122],[10.2092,12.6077],[10.207,12.6032],[10.207,12.5964],[10.2047,12.592],[10.2025,12.5875],[10.198,12.5852],[10.1957,12.5852],[10.1912,12.5852],[10.1867,12.583],[10.18,12.5785],[10.1755,12.5762],[10.1733,12.574],[10.1598,12.574],[10.1531,12.5807],[10.1486,12.583],[10.1441,12.5897],[10.1396,12.5942],[10.1373,12.5987],[10.1328,12.6009],[10.1284,12.5964],[10.1239,12.5897],[10.1239,12.5875],[10.1239,12.583],[10.1216,12.5785],[10.1194,12.574],[10.1149,12.5672],[10.1059,12.5493],[10.1014,12.5381],[10.0969,12.5246],[10.0924,12.5156],[10.0924,12.5134],[10.0902,12.5066],[10.0879,12.5021],[10.0857,12.4931],[10.0812,12.4842],[10.0745,12.4797],[10.0767,12.4752],[10.079,12.4707],[10.079,12.4639],[10.079,12.4595],[10.079,12.455],[10.079,12.4505],[10.07,12.4415],[10.0565,12.4258],[10.0587,12.4168]]]}},{"type":"Feature","properties":{"id":"jigawa/kiyawa","name":"Kiyawa","state":"Jigawa"},"geometry":{"type":"Polygon","coordinates":[[[9.3985,11.7767],[9.3985,11.7723],[9.4007,11.7655],[9.4007,11.7588],[9.403,11.752],[9.4007,11.7453],[9.4007,11.7251],[9.3985,11.7161],[9.3985,11.7094],[9.3985,11.7049],[9.4007,11.7026],[9.4052,11.6981],[9.412,11.6937],[9.4187,11.6937],[9.4254,11.6914],[9.4322,11.6892],[9.4344,11.6869],[9.4456,11.6734],[9.4479,11.6712],[9.4546,11.6555],[9.4546,11.651],[9.4546,11.6442],[9.4569,11.6353],[9.4591,11.624],[9.4591,11.6218],[9.4614,11.6195],[9.4636,11.6218],[9.4681,11.6263],[9.4748,11.6285],[9.4838,11.6353],[9.4951,11.6465],[9.504,11.6532],[9.513,11.6577],[9.5175,11.66],[9.522,11.6645],[9.5287,11.6712],[9.5332,11.6734],[9.5422,11.6802],[9.5647,11.6937],[9.5759,11.7004],[9.5916,11.7071],[9.5961,11.7094],[9.6051,11.7139],[9.6163,11.7161],[9.6433,11.7228],[9.6523,11.7251],[9.6612,11.7296],[9.6523,11.7318],[9.65,11.7318],[9.6455,11.7318],[9.6388,11.7363],[9.6343,11.7408],[9.632,11.7431],[9.6298,11.7475],[9.6276,11.7543],[9.6276,11.7588],[9.6276,11.761],[9.6276,11.7633],[9.6298,11.7678],[9.6343,11.7812],[9.6365,11.7835],[9.6388,11.7857],[9.6433,11.7902],[9.65,11.7925],[9.6523,11.7925],[9.6567,11.7947],[9.6612,11.7992],[9.6635,11.8037],[9.6657,11.8082],[9.6657,11.8104],[9.6657,11.8149],[9.6657,11.8217],[9.668,11.8306],[9.6702,11.8351],[9.6725,11.8374],[9.6725,11.8396],[9.6747,11.8464],[9.6747,11.8553],[9.6725,11.8621],[9.6725,11.8688],[9.6747,11.8778],[9.6815,11.8868],[9.6837,11.889],[9.6904,11.8913],[9.6927,11.8913],[9.6994,11.8868],[9.7106,11.88],[9.7151,11.8778],[9.7196,11.8778],[9.7264,11.88],[9.7309,11.88],[9.7354,11.8823],[9.7421,11.8868],[9.7443,11.8913],[9.7511,11.8935],[9.7578,11.8935],[9.7601,11.8935],[9.769,11.8935],[9.778,11.8958],[9.7848,11.9003],[9.8005,11.9048],[9.8027,11.9048],[9.8072,11.9048],[9.8117,11.907],[9.8207,11.9137],[9.8319,11.9227],[9.8476,11.9384],[9.8521,11.9407],[9.8611,11.9429],[9.8791,11.9497],[9.8836,11.9519],[9.8903,11.9519],[9.8948,11.9519],[9.8993,11.9519],[9.9015,11.9542],[9.906,11.9564],[9.9083,11.9631],[9.906,11.9654],[9.9038,11.9699],[9.8881,11.9834],[9.8768,11.9834],[9.8634,11.9856],[9.8521,11.9878],[9.8476,11.9901],[9.8409,11.9923],[9.8364,11.9946],[9.8252,11.9968],[9.8207,11.9991],[9.8095,11.9946],[9.7982,11.9901],[9.7825,11.9856],[9.7533,11.9789],[9.7421,11.9766],[9.7264,11.9721],[9.7241,11.9699],[9.7174,11.9676],[9.7129,11.9654],[9.6994,11.9586],[9.6904,11.9564],[9.6859,11.9564],[9.6815,11.9519],[9.6792,11.9497],[9.6725,11.9497],[9.6657,11.9497],[9.6635,11.9497],[9.6567,11.9497],[9.6478,11.9564],[9.6455,11.9609],[9.6433,11.9654],[9.641,11.9721],[9.6365,11.9811],[9.6298,11.9901],[9.6276,11.9923],[9.6208,11.9968],[9.6141,11.9968],[9.6096,11.9946],[9.6006,11.9878],[9.5961,11.9856],[9.5804,11.9834],[9.5737,11.9811],[9.5669,11.9811],[9.5512,11.9789],[9.531,11.9744],[9.5265,11.9744],[9.5175,11.9699],[9.513,11.9654],[9.5085,11.9586],[9.5018,11.9542],[9.4838,11.9429],[9.4816,11.9407],[9.4748,11.9362],[9.4524,11.9317],[9.4412,11.9295],[9.4412,11.925],[9.4412,11.9205],[9.4389,11.9048],[9.4367,11.8958],[9.4322,11.8868],[9.4254,11.8711],[9.4187,11.8553],[9.4165,11.8441],[9.4142,11.8374],[9.4097,11.8306],[9.4052,11.8217],[9.403,11.8172],[9.3985,11.8082],[9.3962,11.788],[9.3962,11.7812],[9.3985,11.7767]]]}},{"type":"Feature","properties":{"id":"jigawa/maigatari","name":"Maigatari","state":"Jigawa"},"geometry":{"type":"Polygon","coordinates":[[[9.3289,12.7447],[9.3334,12.7402],[9.3356,12.7379],[9.3446,12.7312],[9.3491,12.7222],[9.3491,12.7177],[9.3513,12.7042],[9.3513,12.6997],[9.3491,12.6863],[9.3491,12.6818],[9.3513,12.684],[9.3536,12.6863],[9.3558,12.6908],[9.3626,12.6953],[9.367,12.6997],[9.3693,12.702],[9.3738,12.702],[9.3873,12.7065],[9.3985,12.7065],[9.4232,12.7087],[9.4389,12.711],[9.4524,12.7087],[9.4546,12.7065],[9.4614,12.6975],[9.4748,12.6728],[9.4793,12.6638],[9.4793,12.6593],[9.4793,12.6548],[9.4771,12.6459],[9.4748,12.6414],[9.4771,12.6369],[9.4838,12.6301],[9.4883,12.6256],[9.4995,12.6211],[9.5085,12.6189],[9.5287,12.6122],[9.5467,12.6077],[9.5579,12.6077],[9.5647,12.6077],[9.5692,12.6077],[9.5916,12.6144],[9.5939,12.6144],[9.6051,12.6189],[9.6096,12.6211],[9.6141,12.6234],[9.6208,12.6256],[9.6276,12.6256],[9.6433,12.6256],[9.65,12.6256],[9.668,12.6234],[9.677,12.6211],[9.6837,12.6189],[9.6882,12.6144],[9.6927,12.6099],[9.7017,12.6054],[9.7174,12.5942],[9.7286,12.5875],[9.7331,12.5852],[9.7421,12.5852],[9.7443,12.5852],[9.7601,12.5875],[9.7645,12.5897],[9.7668,12.5897],[9.7758,12.5964],[9.778,12.5987],[9.7848,12.6032],[9.7892,12.6099],[9.7915,12.6144],[9.7937,12.6256],[9.7937,12.6346],[9.7937,12.6436],[9.7937,12.6481],[9.7937,12.6548],[9.7915,12.6661],[9.787,12.675],[9.7848,12.6818],[9.7803,12.6908],[9.7758,12.6997],[9.7668,12.7087],[9.7645,12.7155],[9.7645,12.7177],[9.7623,12.7267],[9.7556,12.7424],[9.7443,12.7671],[9.7398,12.7739],[9.7309,12.7873],[9.7309,12.7918],[9.7286,12.7986],[9.7286,12.8031],[9.7286,12.8075],[9.7264,12.812],[9.7241,12.812],[9.7174,12.812],[9.7106,12.812],[9.7017,12.812],[9.6927,12.812],[9.6815,12.8098],[9.6702,12.8098],[9.659,12.8098],[9.65,12.8031],[9.641,12.8031],[9.6343,12.8053],[9.6253,12.8053],[9.6163,12.8053],[9.6073,12.8053],[9.5984,12.8053],[9.5916,12.8053],[9.5849,12.8075],[9.5804,12.8075],[9.5737,12.8075],[9.5534,12.8075],[9.5467,12.8075],[9.54,12.8098],[9.531,12.8098],[9.522,12.8098],[9.513,12.8098],[9.4883,12.8098],[9.4344,12.8188],[9.4299,12.821],[9.4232,12.821],[9.4075,12.8233],[9.3985,12.8233],[9.3895,12.8233],[9.3828,12.821],[9.3805,12.8188],[9.3783,12.8143],[9.3715,12.8053],[9.3693,12.8031],[9.3401,12.7739],[9.3289,12.7604],[9.3266,12.7514],[9.3289,12.7447]]]}},{"type":"Feature","properties":{"id":"jigawa/malam-madori","name":"Malam Madori","state":"Jigawa"},"geometry":{"type":"Polygon","coordinates":[[[9.8252,12.4415],[9.8297,12.437],[9.8319,12.437],[9.8364,12.4347],[9.8499,12.4347],[9.8656,12.4347],[9.9015,12.4347],[9.9105,12.4347],[9.9128,12.4347],[9.9217,12.4347],[9.9397,12.4303],[9.9465,12.428],[9.9532,12.4258],[9.9599,12.4213],[9.9622,12.4168],[9.9644,12.4078],[9.9644,12.4056],[9.9667,12.4056],[9.9712,12.4078],[9.9712,12.4145],[9.9712,12.4168],[9.9712,12.4213],[9.9712,12.4258],[9.9756,12.4303],[9.9801,12.4325],[9.9869,12.4303],[9.9914,12.428],[9.9981,12.4258],[10.0004,12.4303],[10.0116,12.4392],[10.0161,12.4392],[10.0206,12.4392],[10.0251,12.4437],[10.0206,12.446],[10.0161,12.4505],[10.0161,12.4572],[10.0138,12.4639],[10.0161,12.4729],[10.0183,12.4819],[10.0206,12.4864],[10.0228,12.4886],[10.0273,12.4931],[10.0318,12.4954],[10.0385,12.4976],[10.0498,12.4976],[10.0587,12.4931],[10.0632,12.4909],[10.07,12.4842],[10.0745,12.4797],[10.0812,12.4842],[10.0857,12.4931],[10.0879,12.5021],[10.0902,12.5066],[10.0924,12.5134],[10.0924,12.5156],[10.0969,12.5246],[10.1014,12.5381],[10.1059,12.5493],[10.1149,12.5672],[10.1194,12.574],[10.1216,12.5785],[10.1239,12.583],[10.1239,12.5875],[10.1239,12.5897],[10.1284,12.5964],[10.1328,12.6009],[10.1373,12.5987],[10.1396,12.5942],[10.1441,12.5897],[10.1486,12.583],[10.1531,12.5807],[10.1598,12.574],[10.1733,12.574],[10.1755,12.5762],[10.18,12.5785],[10.1867,12.583],[10.1912,12.5852],[10.1957,12.5852],[10.198,12.5852],[10.2025,12.5875],[10.2047,12.592],[10.207,12.5964],[10.207,12.6032],[10.2092,12.6077],[10.2115,12.6122],[10.2159,12.6144],[10.2227,12.6189],[10.2249,12.6234],[10.2249,12.6279],[10.2204,12.6301],[10.2137,12.6324],[10.207,12.6346],[10.2025,12.6391],[10.2025,12.6459],[10.2025,12.6503],[10.2047,12.6571],[10.2092,12.6638],[10.2137,12.6661],[10.2137,12.6728],[10.2137,12.675],[10.2115,12.6818],[10.2115,12.684],[10.2025,12.6953],[10.2002,12.6975],[10.1957,12.702],[10.1912,12.7065],[10.1867,12.702],[10.1643,12.693],[10.1576,12.693],[10.1553,12.693],[10.1396,12.6908],[10.1351,12.6885],[10.1328,12.6885],[10.1261,12.6885],[10.1194,12.6908],[10.1149,12.693],[10.1104,12.6975],[10.1014,12.7042],[10.0947,12.7065],[10.0902,12.7065],[10.0857,12.7042],[10.0812,12.7042],[10.0722,12.6953],[10.0655,12.6908],[10.0655,12.6863],[10.061,12.6773],[10.0565,12.6706],[10.052,12.6683],[10.0453,12.6661],[10.034,12.6616],[10.0206,12.6571],[10.0161,12.6548],[10.0116,12.6526],[9.9959,12.6459],[9.9779,12.6391],[9.9712,12.6391],[9.9554,12.6346],[9.9509,12.6346],[9.9442,12.6346],[9.9352,12.6346],[9.906,12.6391],[9.9015,12.6414],[9.897,12.6436],[9.8926,12.6436],[9.8791,12.6459],[9.8768,12.6503],[9.8746,12.6459],[9.8701,12.6391],[9.8656,12.6346],[9.8634,12.6301],[9.8544,12.6144],[9.8499,12.6054],[9.8454,12.5852],[9.8454,12.5807],[9.8454,12.5717],[9.8454,12.5672],[9.8499,12.5538],[9.8544,12.5403],[9.8544,12.5358],[9.8566,12.5313],[9.8566,12.5268],[9.8544,12.5246],[9.8544,12.5178],[9.8544,12.5156],[9.8566,12.5021],[9.8544,12.4864],[9.8521,12.4819],[9.8476,12.4774],[9.8454,12.4729],[9.8387,12.4662],[9.8319,12.4639],[9.8274,12.4595],[9.8229,12.455],[9.8252,12.4415]]]}},{"type":"Feature","properties":{"id":"jigawa/miga","name":"Miga","state":"Jigawa"},"geometry":{"type":"Polygon","coordinates":[[[9.522,12.2034],[9.5287,12.1989],[9.5355,12.1967],[9.5512,12.1945],[9.5602,12.1967],[9.5669,12.1967],[9.5692,12.1945],[9.5737,12.1922],[9.5714,12.19],[9.5692,12.1855],[9.5669,12.1832],[9.5737,12.1787],[9.5804,12.1787],[9.5894,12.181],[9.6006,12.181],[9.6118,12.1765],[9.6253,12.172],[9.6343,12.1653],[9.6433,12.1585],[9.6455,12.1518],[9.65,12.1495],[9.6545,12.145],[9.659,12.145],[9.6635,12.1473],[9.6792,12.1495],[9.6815,12.1495],[9.6994,12.1495],[9.7039,12.1518],[9.7106,12.1518],[9.7151,12.1518],[9.7219,12.1495],[9.7264,12.1473],[9.7331,12.1473],[9.7398,12.145],[9.7466,12.1406],[9.7488,12.1361],[9.7488,12.1316],[9.7466,12.1271],[9.7443,12.1226],[9.7443,12.1181],[9.7511,12.1136],[9.7668,12.1114],[9.7735,12.1091],[9.778,12.1091],[9.7848,12.1091],[9.7982,12.1114],[9.8117,12.1159],[9.8184,12.1159],[9.8252,12.1136],[9.8274,12.1316],[9.8297,12.1495],[9.8274,12.1653],[9.8252,12.1742],[9.8252,12.1787],[9.8274,12.19],[9.8252,12.1945],[9.8252,12.1989],[9.8229,12.2034],[9.8229,12.2124],[9.8252,12.2147],[9.8252,12.2192],[9.8274,12.2236],[9.8319,12.2281],[9.8364,12.2304],[9.8409,12.2326],[9.8499,12.2394],[9.8544,12.2416],[9.8566,12.2461],[9.8589,12.2528],[9.8566,12.2596],[9.8544,12.2708],[9.8499,12.2775],[9.8476,12.2798],[9.8409,12.2843],[9.8297,12.2888],[9.8252,12.291],[9.8229,12.291],[9.8184,12.291],[9.814,12.2888],[9.8027,12.2843],[9.796,12.282],[9.7892,12.2798],[9.787,12.2775],[9.7825,12.2775],[9.778,12.2775],[9.7623,12.2865],[9.7556,12.2933],[9.7488,12.2955],[9.7354,12.3],[9.7309,12.3],[9.7264,12.3022],[9.7196,12.3067],[9.7129,12.3135],[9.7106,12.318],[9.6949,12.3359],[9.6837,12.3404],[9.668,12.3449],[9.6635,12.3449],[9.659,12.3449],[9.6523,12.3449],[9.65,12.3449],[9.6365,12.3472],[9.632,12.3472],[9.6276,12.3517],[9.6163,12.3539],[9.6029,12.3539],[9.5984,12.3561],[9.5961,12.3517],[9.5939,12.3472],[9.5916,12.3404],[9.5849,12.3292],[9.5781,12.318],[9.5737,12.3045],[9.5669,12.291],[9.5602,12.2753],[9.5534,12.2618],[9.549,12.2528],[9.549,12.2506],[9.54,12.2394],[9.531,12.2304],[9.5243,12.2236],[9.5198,12.2236],[9.5175,12.2214],[9.5108,12.2147],[9.522,12.2034]]]}},{"type":"Feature","properties":{"id":"jigawa/ringim","name":"Ringim","state":"Jigawa"},"geometry":{"type":"Polygon","coordinates":[[[8.8909,12.2686],[8.8977,12.2551],[8.9022,12.2461],[8.9112,12.2349],[8.9426,12.2079],[8.9471,12.2034],[8.9516,12.1989],[8.9538,12.1967],[8.9628,12.1832],[8.9628,12.1787],[8.9651,12.1675],[8.9673,12.1585],[8.9673,12.154],[8.9673,12.1518],[8.9651,12.1495],[8.9628,12.1473],[8.9606,12.1473],[8.9583,12.1473],[8.9538,12.1473],[8.9516,12.145],[8.9516,12.1406],[8.9516,12.1383],[8.9516,12.1361],[8.9493,12.1316],[8.9493,12.1293],[8.9471,12.1248],[8.9426,12.1203],[8.9426,12.1181],[8.9404,12.1136],[8.9426,12.1114],[8.9448,12.1091],[8.9471,12.1046],[8.9471,12.1024],[8.9493,12.0889],[8.9471,12.0844],[8.9471,12.0799],[8.9448,12.0732],[8.9471,12.0687],[8.9493,12.0687],[8.9538,12.0732],[8.9583,12.0799],[8.9651,12.0844],[8.9695,12.0867],[8.9785,12.0889],[8.9808,12.0889],[8.9853,12.0867],[8.9853,12.0844],[8.992,12.0799],[8.9943,12.0777],[8.9965,12.0777],[9.0077,12.0754],[9.01,12.0754],[9.0167,12.0754],[9.0257,12.0777],[9.0414,12.0822],[9.0437,12.0799],[9.0481,12.0822],[9.0594,12.0844],[9.0661,12.0822],[9.0684,12.0822],[9.0706,12.0777],[9.0729,12.0709],[9.0796,12.0485],[9.0818,12.0417],[9.0841,12.0395],[9.0841,12.0373],[9.0886,12.0305],[9.0908,12.0283],[9.0976,12.0238],[9.102,12.0215],[9.1088,12.017],[9.12,12.0148],[9.1245,12.0148],[9.1357,12.017],[9.1402,12.017],[9.1425,12.0215],[9.1447,12.0238],[9.147,12.0305],[9.147,12.035],[9.147,12.044],[9.147,12.062],[9.1492,12.0709],[9.1515,12.0799],[9.1537,12.0822],[9.1604,12.0934],[9.1649,12.1001],[9.1672,12.1046],[9.1717,12.1091],[9.1829,12.1159],[9.1851,12.1159],[9.1964,12.1203],[9.2031,12.1203],[9.2121,12.1181],[9.2143,12.1159],[9.2188,12.1001],[9.2233,12.0844],[9.2233,12.0754],[9.2233,12.062],[9.2211,12.0552],[9.2188,12.053],[9.2166,12.0417],[9.2166,12.026],[9.2166,12.0238],[9.2166,12.0193],[9.2211,12.0125],[9.2211,12.0103],[9.2256,12.0036],[9.2301,12.0013],[9.2368,12.0013],[9.239,12.0013],[9.2503,12.0013],[9.257,12.0081],[9.2705,12.026],[9.275,12.0328],[9.2772,12.0373],[9.2795,12.0417],[9.284,12.0462],[9.2862,12.0485],[9.2884,12.0507],[9.2929,12.053],[9.2952,12.0552],[9.3019,12.0597],[9.3042,12.0664],[9.3064,12.0687],[9.3154,12.0664],[9.3154,12.0687],[9.3176,12.0732],[9.3199,12.0777],[9.3199,12.1069],[9.3199,12.1271],[9.3221,12.1338],[9.3266,12.1406],[9.3289,12.1428],[9.3379,12.154],[9.3379,12.1585],[9.3356,12.163],[9.3379,12.1675],[9.3334,12.1698],[9.3176,12.1832],[9.3064,12.1922],[9.2974,12.2012],[9.2929,12.2034],[9.2817,12.2102],[9.2727,12.2124],[9.2682,12.2124],[9.2525,12.2169],[9.2458,12.2214],[9.239,12.2236],[9.2323,12.2236],[9.2278,12.2236],[9.2233,12.2259],[9.1986,12.2326],[9.1762,12.2439],[9.1717,12.2484],[9.1649,12.2528],[9.1604,12.2641],[9.1559,12.2731],[9.1492,12.2865],[9.147,12.2888],[9.147,12.2933],[9.1447,12.2978],[9.1402,12.309],[9.138,12.3135],[9.1357,12.3157],[9.1335,12.3202],[9.1312,12.3404],[9.1268,12.3382],[9.1178,12.3382],[9.111,12.3404],[9.1043,12.3404],[9.0931,12.3427],[9.0886,12.3449],[9.0796,12.3449],[9.0706,12.3427],[9.0594,12.3427],[9.0549,12.3427],[9.0369,12.3427],[9.0279,12.3427],[9.019,12.3404],[9.0122,12.3382],[9.0032,12.3382],[8.9965,12.3382],[8.9898,12.3359],[8.983,12.3337],[8.9785,12.3314],[8.9606,12.327],[8.9426,12.3247],[8.9291,12.3225],[8.9179,12.318],[8.9089,12.3157],[8.9067,12.3157],[8.9067,12.3135],[8.9067,12.309],[8.9044,12.3067],[8.9022,12.3022],[8.8999,12.2978],[8.8977,12.2955],[8.8932,12.2888],[8.8909,12.2843],[8.8909,12.282],[8.8887,12.2708],[8.8909,12.2686]]]}},{"type":"Feature","properties":{"id":"jigawa/roni","name":"Roni","state":"Jigawa"},"geometry":{"type":"Polygon","coordinates":[[[8.1454,12.6638],[8.1498,12.6638],[8.1543,12.6638],[8.1611,12.6616],[8.1656,12.6593],[8.179,12.6548],[8.1858,12.6548],[8.1925,12.6526],[8.197,12.6481],[8.1993,12.6436],[8.2015,12.6414],[8.206,12.6391],[8.215,12.6391],[8.2217,12.6414],[8.2262,12.6436],[8.2307,12.6459],[8.2374,12.6481],[8.2442,12.6481],[8.2487,12.6391],[8.2509,12.6369],[8.2599,12.6346],[8.2666,12.6346],[8.2711,12.6369],[8.2756,12.6414],[8.2823,12.6414],[8.2868,12.6391],[8.2913,12.6211],[8.2913,12.6122],[8.2913,12.6054],[8.2891,12.6009],[8.2936,12.5942],[8.2981,12.592],[8.3026,12.5897],[8.3048,12.5875],[8.3093,12.583],[8.3115,12.5785],[8.3115,12.565],[8.3115,12.556],[8.3115,12.5403],[8.3115,12.5178],[8.3138,12.5111],[8.316,12.5044],[8.3228,12.4976],[8.334,12.4909],[8.3385,12.4864],[8.3452,12.4819],[8.352,12.4797],[8.3565,12.4752],[8.3609,12.4684],[8.3609,12.4662],[8.3609,12.4639],[8.3632,12.4617],[8.3677,12.4527],[8.3699,12.4505],[8.3744,12.4437],[8.3812,12.4415],[8.3834,12.4437],[8.3857,12.4482],[8.3857,12.4527],[8.3857,12.4639],[8.3879,12.4752],[8.3901,12.4774],[8.3924,12.4819],[8.4036,12.4909],[8.4193,12.5111],[8.4216,12.5134],[8.4238,12.5223],[8.4283,12.5313],[8.4351,12.5403],[8.4396,12.5538],[8.4418,12.5605],[8.4463,12.565],[8.462,12.583],[8.4665,12.5875],[8.462,12.592],[8.453,12.5987],[8.4485,12.6009],[8.4418,12.6099],[8.4373,12.6167],[8.4328,12.6211],[8.4283,12.6189],[8.4216,12.6167],[8.4059,12.6122],[8.3969,12.6122],[8.3901,12.6122],[8.3834,12.6144],[8.3789,12.6144],[8.3744,12.6167],[8.3722,12.6189],[8.3699,12.6211],[8.3677,12.6234],[8.3654,12.6301],[8.3654,12.6324],[8.3632,12.6391],[8.3632,12.6459],[8.3654,12.6548],[8.3677,12.6571],[8.3699,12.6638],[8.3654,12.6661],[8.3609,12.6683],[8.3587,12.6683],[8.343,12.6616],[8.3295,12.6526],[8.325,12.6526],[8.316,12.6503],[8.2981,12.6481],[8.2913,12.6503],[8.2891,12.6548],[8.2868,12.6616],[8.2846,12.6706],[8.2779,12.6728],[8.2711,12.6773],[8.2666,12.6773],[8.2532,12.6863],[8.2509,12.6885],[8.2487,12.6908],[8.2464,12.693],[8.2419,12.693],[8.2397,12.6953],[8.2352,12.693],[8.2284,12.6885],[8.2217,12.6818],[8.215,12.684],[8.2105,12.6863],[8.206,12.6908],[8.2037,12.693],[8.1993,12.6953],[8.1925,12.6997],[8.188,12.702],[8.1835,12.702],[8.179,12.702],[8.1678,12.702],[8.1498,12.702],[8.1498,12.6997],[8.1476,12.6908],[8.1454,12.6863],[8.1454,12.6818],[8.1431,12.6706],[8.1454,12.6638]]]}},{"type":"Feature","properties":{"id":"jigawa/sule-tankarkar","name":"Sule-Tankarkar","state":"Jigawa"},"geometry":{"type":"Polygon","coordinates":[[[9.0347,12.5964],[9.0369,12.592],[9.0369,12.5875],[9.0414,12.5762],[9.0504,12.5605],[9.0571,12.5538],[9.0594,12.5515],[9.0661,12.5425],[9.0729,12.5381],[9.0796,12.5336],[9.0818,12.5336],[9.1043,12.5336],[9.1133,12.5358],[9.1178,12.5358],[9.1223,12.5358],[9.138,12.5336],[9.1425,12.5336],[9.147,12.5313],[9.1604,12.5268],[9.1717,12.5223],[9.1784,12.5201],[9.1829,12.5201],[9.1896,12.5178],[9.1941,12.5156],[9.2031,12.5089],[9.2188,12.4954],[9.2278,12.4864],[9.2345,12.4797],[9.248,12.4639],[9.2525,12.4572],[9.266,12.446],[9.275,12.4437],[9.2795,12.4415],[9.2862,12.4437],[9.2997,12.446],[9.3064,12.446],[9.3109,12.4437],[9.3199,12.4415],[9.3266,12.4437],[9.3311,12.4437],[9.3446,12.4415],[9.3581,12.437],[9.3626,12.4347],[9.3783,12.428],[9.3828,12.4235],[9.3873,12.419],[9.3918,12.4145],[9.3962,12.4123],[9.3985,12.4168],[9.4007,12.4213],[9.403,12.4303],[9.403,12.4347],[9.403,12.437],[9.4097,12.4527],[9.4142,12.4617],[9.4254,12.4842],[9.4277,12.4909],[9.4277,12.4954],[9.4299,12.4976],[9.4299,12.5021],[9.4322,12.5089],[9.4322,12.5134],[9.4322,12.5178],[9.4322,12.5313],[9.4232,12.5515],[9.4209,12.5583],[9.4187,12.556],[9.4052,12.556],[9.3962,12.556],[9.376,12.5605],[9.3715,12.565],[9.367,12.5717],[9.367,12.5762],[9.3648,12.5807],[9.3648,12.5852],[9.3581,12.5942],[9.3558,12.5964],[9.3536,12.5987],[9.3491,12.5987],[9.3401,12.6054],[9.3356,12.6077],[9.3334,12.6099],[9.3334,12.6144],[9.3334,12.6211],[9.3311,12.6256],[9.3289,12.6301],[9.3244,12.6346],[9.3221,12.6391],[9.3199,12.6414],[9.3154,12.6459],[9.3131,12.6571],[9.3154,12.6616],[9.3199,12.6661],[9.3334,12.6728],[9.3401,12.675],[9.3423,12.6773],[9.3491,12.6818],[9.3491,12.6863],[9.3513,12.6997],[9.3513,12.7042],[9.3491,12.7177],[9.3491,12.7222],[9.3446,12.7312],[9.3356,12.7379],[9.3334,12.7402],[9.3289,12.7447],[9.3266,12.7514],[9.3289,12.7604],[9.3401,12.7739],[9.3693,12.8031],[9.3715,12.8053],[9.3783,12.8143],[9.3805,12.8188],[9.3648,12.8165],[9.3603,12.8165],[9.3536,12.8165],[9.3468,12.8143],[9.3334,12.812],[9.3266,12.812],[9.3064,12.812],[9.2997,12.812],[9.2929,12.812],[9.2884,12.812],[9.2795,12.8143],[9.2727,12.8165],[9.266,12.8188],[9.2593,12.8188],[9.2525,12.8233],[9.2435,12.8255],[9.2368,12.8255],[9.2301,12.8255],[9.2256,12.8278],[9.2211,12.8278],[9.2121,12.8278],[9.2031,12.8278],[9.1964,12.8278],[9.1874,12.8278],[9.1784,12.8278],[9.1694,12.83],[9.1672,12.8322],[9.1604,12.8345],[9.1537,12.8345],[9.147,12.8345],[9.1425,12.8322],[9.138,12.8345],[9.1312,12.8345],[9.1223,12.8345],[9.1155,12.8345],[9.1065,12.8345],[9.102,12.8367],[9.0931,12.8367],[9.0863,12.8367],[9.0818,12.8345],[9.0729,12.8367],[9.0661,12.8367],[9.0594,12.8367],[9.0459,12.8367],[9.0481,12.8278],[9.0504,12.8255],[9.0504,12.821],[9.0481,12.8188],[9.0459,12.8165],[9.0414,12.8143],[9.0369,12.8143],[9.0369,12.812],[9.0392,12.8075],[9.0459,12.7986],[9.0526,12.7896],[9.0594,12.7828],[9.0639,12.7784],[9.0661,12.7716],[9.0684,12.7649],[9.0706,12.7536],[9.0729,12.7469],[9.0729,12.7357],[9.0729,12.7289],[9.0706,12.7177],[9.0661,12.711],[9.0639,12.7065],[9.0549,12.6885],[9.0526,12.6795],[9.0504,12.675],[9.0481,12.6706],[9.0437,12.6661],[9.0414,12.6638],[9.0392,12.6593],[9.0347,12.6503],[9.0347,12.6436],[9.0324,12.6369],[9.0324,12.6346],[9.0324,12.6032],[9.0324,12.6009],[9.0347,12.5964]]]}},{"type":"Feature","properties":{"id":"jigawa/taura","name":"Taura","state":"Jigawa"},"geometry":{"type":"Polygon","coordinates":[[[9.1335,12.3202],[9.1357,12.3157],[9.138,12.3135],[9.1402,12.309],[9.1447,12.2978],[9.147,12.2933],[9.147,12.2888],[9.1492,12.2865],[9.1559,12.2731],[9.1604,12.2641],[9.1649,12.2528],[9.1717,12.2484],[9.1762,12.2439],[9.1986,12.2326],[9.2233,12.2259],[9.2278,12.2236],[9.2323,12.2236],[9.239,12.2236],[9.2458,12.2214],[9.2525,12.2169],[9.2682,12.2124],[9.2727,12.2124],[9.2817,12.2102],[9.2929,12.2034],[9.2974,12.2012],[9.3064,12.1922],[9.3176,12.1832],[9.3334,12.1698],[9.3379,12.1675],[9.3423,12.172],[9.3446,12.1787],[9.3468,12.1855],[9.3536,12.1877],[9.3603,12.19],[9.3648,12.19],[9.3738,12.19],[9.3895,12.1945],[9.394,12.1967],[9.3985,12.1967],[9.403,12.1967],[9.4097,12.1945],[9.412,12.1945],[9.4187,12.1922],[9.4232,12.1922],[9.4277,12.1945],[9.4322,12.1967],[9.4389,12.2012],[9.4412,12.2034],[9.4434,12.2057],[9.4479,12.2079],[9.4546,12.2102],[9.4569,12.2102],[9.4636,12.2102],[9.4681,12.2124],[9.4726,12.2147],[9.4771,12.2169],[9.4793,12.2169],[9.4838,12.2169],[9.4928,12.2147],[9.4951,12.2147],[9.5108,12.2147],[9.5175,12.2214],[9.5198,12.2236],[9.5243,12.2236],[9.531,12.2304],[9.54,12.2394],[9.549,12.2506],[9.549,12.2528],[9.5534,12.2618],[9.5602,12.2753],[9.5669,12.291],[9.5737,12.3045],[9.5781,12.318],[9.5849,12.3292],[9.5916,12.3404],[9.5939,12.3472],[9.5961,12.3517],[9.5984,12.3561],[9.6006,12.3629],[9.6006,12.3696],[9.6029,12.3786],[9.6029,12.3809],[9.6006,12.3853],[9.5939,12.3898],[9.5894,12.3921],[9.5871,12.3921],[9.5826,12.3943],[9.5759,12.3966],[9.5647,12.3966],[9.5534,12.3966],[9.5377,12.3943],[9.5265,12.3898],[9.522,12.3898],[9.5175,12.3876],[9.513,12.3876],[9.5085,12.3898],[9.5085,12.3876],[9.5085,12.3809],[9.4883,12.3606],[9.4838,12.3561],[9.4793,12.3539],[9.4456,12.3404],[9.4277,12.3337],[9.4142,12.327],[9.4007,12.3225],[9.3805,12.3157],[9.3558,12.3112],[9.3446,12.309],[9.3356,12.3067],[9.3244,12.309],[9.3131,12.309],[9.3042,12.309],[9.2862,12.309],[9.275,12.309],[9.2705,12.309],[9.2548,12.3112],[9.248,12.3112],[9.2435,12.3157],[9.2413,12.318],[9.239,12.3202],[9.2345,12.327],[9.2301,12.3314],[9.2278,12.3337],[9.2188,12.3382],[9.2143,12.3404],[9.2098,12.3427],[9.1941,12.3427],[9.1851,12.3427],[9.1739,12.3427],[9.1694,12.3404],[9.1537,12.3404],[9.1492,12.3404],[9.138,12.3404],[9.1312,12.3404],[9.1335,12.3202]]]}},{"type":"Feature","properties":{"id":"jigawa/yankwashi","name":"Yankwashi","state":"Jigawa"},"geometry":{"type":"Polygon","coordinates":[[[8.3969,12.6908],[8.4014,12.693],[8.4148,12.6953],[8.4261,12.6953],[8.4351,12.6953],[8.4396,12.693],[8.4463,12.6908],[8.4508,12.693],[8.453,12.6953],[8.4687,12.7065],[8.4755,12.7155],[8.48,12.72],[8.4822,12.7245],[8.4845,12.7289],[8.489,12.7334],[8.4957,12.7357],[8.5024,12.7357],[8.5159,12.7334],[8.5226,12.7334],[8.5316,12.7312],[8.5384,12.7289],[8.5429,12.7222],[8.5473,12.7132],[8.5473,12.711],[8.5451,12.702],[8.5406,12.6975],[8.5361,12.6975],[8.5339,12.693],[8.5316,12.6885],[8.5294,12.6795],[8.5271,12.6728],[8.5271,12.6638],[8.5316,12.6571],[8.5339,12.6526],[8.5384,12.6481],[8.5406,12.6459],[8.5451,12.6459],[8.5541,12.6459],[8.5586,12.6459],[8.572,12.6548],[8.5743,12.6571],[8.5765,12.6593],[8.581,12.6616],[8.59,12.6638],[8.599,12.6661],[8.6372,12.6818],[8.6551,12.6885],[8.6619,12.6908],[8.6664,12.6908],[8.6709,12.693],[8.6798,12.693],[8.6821,12.6975],[8.6798,12.702],[8.6709,12.7087],[8.6619,12.7222],[8.6574,12.7245],[8.6507,12.7312],[8.6349,12.7334],[8.6237,12.7334],[8.617,12.7334],[8.6125,12.7334],[8.608,12.7402],[8.608,12.7492],[8.6102,12.7536],[8.6057,12.7604],[8.599,12.7649],[8.6012,12.7694],[8.6035,12.7739],[8.6057,12.7784],[8.6057,12.7828],[8.6012,12.7873],[8.5945,12.7986],[8.5923,12.8075],[8.59,12.812],[8.5833,12.8165],[8.581,12.8188],[8.5765,12.821],[8.5631,12.8278],[8.5563,12.83],[8.5451,12.8322],[8.5361,12.8345],[8.5159,12.8345],[8.5024,12.8345],[8.489,12.8367],[8.48,12.8345],[8.471,12.8322],[8.462,12.83],[8.4553,12.83],[8.4373,12.8255],[8.4261,12.8233],[8.4148,12.8233],[8.4059,12.8255],[8.3991,12.8278],[8.3969,12.8165],[8.3969,12.8098],[8.3969,12.7941],[8.3969,12.7873],[8.3991,12.7828],[8.4014,12.7784],[8.4014,12.7671],[8.4014,12.7559],[8.3969,12.72],[8.3946,12.7132],[8.3946,12.6953],[8.3969,12.6908]]]}}]}