{"type":"FeatureCollection","features":[{"type":"Feature","properties":{"id":"kaduna/birnin-gwari","name":"Birnin-Gwari","state":"Kaduna"},"geometry":{"type":"Polygon","coordinates":[[[6.0905,10.4809],[6.0905,10.4765],[6.095,10.4742],[6.0972,10.4697],[6.0995,10.463],[6.104,10.4562],[6.1129,10.4585],[6.1174,10.4607],[6.1287,10.463],[6.1332,10.463],[6.1399,10.4585],[6.1466,10.4517],[6.1489,10.4495],[6.1511,10.4428],[6.1511,10.436],[6.1534,10.4226],[6.1534,10.4091],[6.1579,10.4001],[6.1691,10.3844],[6.1915,10.3866],[6.2005,10.3866],[6.214,10.3934],[6.2163,10.3956],[6.2275,10.4091],[6.2297,10.4181],[6.2387,10.4203],[6.241,10.4226],[6.2499,10.4226],[6.2499,10.4248],[6.2522,10.4338],[6.2544,10.4428],[6.2634,10.4562],[6.2769,10.4607],[6.2836,10.463],[6.2859,10.463],[6.2993,10.4697],[6.2993,10.4742],[6.3038,10.4809],[6.3061,10.4899],[6.3263,10.5056],[6.3443,10.5169],[6.3645,10.5303],[6.369,10.5326],[6.3735,10.5371],[6.3869,10.5528],[6.3892,10.5551],[6.3959,10.5685],[6.3959,10.573],[6.4026,10.573],[6.4184,10.5775],[6.4274,10.5842],[6.4296,10.5865],[6.4386,10.5932],[6.4498,10.5955],[6.47,10.6022],[6.479,10.609],[6.4813,10.6112],[6.4947,10.6134],[6.5037,10.6112],[6.506,10.609],[6.5149,10.6045],[6.5194,10.6],[6.5239,10.5955],[6.5217,10.5842],[6.5217,10.582],[6.5217,10.573],[6.5262,10.564],[6.5329,10.5528],[6.5396,10.5461],[6.5486,10.5461],[6.5509,10.5461],[6.5554,10.5461],[6.5688,10.5551],[6.5778,10.5618],[6.5823,10.5685],[6.5823,10.5708],[6.5868,10.573],[6.625,10.5865],[6.6474,10.5932],[6.6676,10.591],[6.6856,10.591],[6.7013,10.5887],[6.7103,10.5865],[6.726,10.5887],[6.7305,10.5977],[6.7305,10.6022],[6.726,10.6134],[6.7193,10.6247],[6.7148,10.6337],[6.7058,10.6381],[6.6968,10.6381],[6.6924,10.6404],[6.6901,10.6449],[6.6924,10.6516],[6.6968,10.6584],[6.7036,10.6651],[6.7081,10.6718],[6.7126,10.6808],[6.7171,10.6876],[6.7193,10.6965],[6.7238,10.7055],[6.7283,10.71],[6.7373,10.7167],[6.744,10.7212],[6.753,10.7257],[6.7575,10.7325],[6.762,10.7437],[6.7754,10.7706],[6.7799,10.7864],[6.7822,10.7931],[6.7867,10.8043],[6.7934,10.8156],[6.7979,10.8156],[6.8091,10.8156],[6.8249,10.8088],[6.8316,10.8043],[6.8406,10.7976],[6.8563,10.7886],[6.8698,10.7819],[6.8877,10.7706],[6.899,10.7617],[6.9124,10.7549],[6.9237,10.7482],[6.9326,10.7414],[6.9484,10.7302],[6.9731,10.719],[6.9865,10.7123],[7.0023,10.7055],[7.0157,10.7033],[7.036,10.7033],[7.0517,10.7055],[7.0674,10.7078],[7.0786,10.7078],[7.0899,10.71],[7.1123,10.7123],[7.1348,10.7078],[7.1505,10.7055],[7.1572,10.7055],[7.1595,10.7078],[7.1505,10.719],[7.146,10.7235],[7.1415,10.7325],[7.1325,10.7482],[7.1303,10.7572],[7.128,10.7706],[7.1235,10.7886],[7.1213,10.7953],[7.119,10.8066],[7.1146,10.8178],[7.1146,10.8223],[7.1123,10.8245],[7.1056,10.8335],[7.1033,10.838],[7.1011,10.8448],[7.1011,10.8582],[7.0943,10.8739],[7.0943,10.8852],[7.0966,10.8964],[7.1033,10.9076],[7.1146,10.9211],[7.128,10.9391],[7.1325,10.9458],[7.137,10.9548],[7.1393,10.9593],[7.146,10.9773],[7.1505,10.9817],[7.1572,11.0087],[7.1595,11.0177],[7.1617,11.0244],[7.164,11.0379],[7.164,11.0491],[7.164,11.0581],[7.1662,11.0693],[7.1685,11.0873],[7.1752,11.103],[7.1774,11.112],[7.1797,11.1255],[7.1797,11.1367],[7.1819,11.1412],[7.1864,11.1412],[7.2044,11.1547],[7.2111,11.1614],[7.2179,11.1704],[7.2111,11.1659],[7.1999,11.1592],[7.1864,11.1502],[7.1774,11.1434],[7.1685,11.1412],[7.164,11.1389],[7.1572,11.1389],[7.1527,11.1389],[7.146,11.1412],[7.1393,11.1479],[7.1303,11.1569],[7.128,11.1614],[7.119,11.1704],[7.1101,11.1771],[7.1056,11.1816],[7.0966,11.1928],[7.0966,11.1973],[7.0854,11.2041],[7.0741,11.2153],[7.0651,11.2198],[7.0562,11.2243],[7.0449,11.2288],[7.0404,11.2288],[7.036,11.2265],[7.0292,11.231],[7.0225,11.2355],[7.018,11.24],[7.009,11.2445],[7.0045,11.2467],[6.991,11.2445],[6.9798,11.2445],[6.9731,11.2423],[6.9708,11.2423],[6.9686,11.2445],[6.9686,11.249],[6.9731,11.2557],[6.9776,11.2647],[6.9843,11.2714],[6.9865,11.2737],[6.9888,11.2759],[6.9933,11.2782],[6.9978,11.2804],[7.0,11.2827],[7.009,11.2939],[7.0135,11.3074],[7.0225,11.3141],[7.0225,11.3186],[7.0247,11.3253],[7.0247,11.3366],[7.0202,11.3411],[7.018,11.3456],[7.0157,11.3523],[7.0135,11.3568],[7.0112,11.359],[7.0068,11.3613],[7.0023,11.3613],[6.9888,11.3613],[6.9821,11.359],[6.9753,11.3568],[6.9686,11.3568],[6.9618,11.359],[6.9551,11.3635],[6.9461,11.368],[6.9394,11.3725],[6.9237,11.3815],[6.9192,11.3837],[6.9102,11.3837],[6.899,11.3815],[6.8945,11.3792],[6.8877,11.3815],[6.8855,11.377],[6.8832,11.3748],[6.8743,11.3635],[6.8698,11.3523],[6.8653,11.3411],[6.8518,11.3321],[6.8383,11.3186],[6.8293,11.3074],[6.8226,11.3096],[6.8159,11.3096],[6.8091,11.3006],[6.8001,11.2939],[6.7889,11.2872],[6.7844,11.2804],[6.7732,11.2759],[6.762,11.2692],[6.7552,11.2625],[6.753,11.2535],[6.7485,11.249],[6.7463,11.2423],[6.7463,11.2378],[6.7463,11.2333],[6.744,11.222],[6.744,11.2175],[6.7373,11.2086],[6.7328,11.2018],[6.735,11.1951],[6.7395,11.1906],[6.7418,11.1749],[6.7395,11.1704],[6.7328,11.1659],[6.7305,11.1614],[6.735,11.1547],[6.7328,11.1479],[6.7305,11.1434],[6.7215,11.1412],[6.7171,11.1367],[6.7148,11.1322],[6.7058,11.121],[6.7058,11.1165],[6.7081,11.1142],[6.7148,11.1142],[6.7171,11.1098],[6.7171,11.1053],[6.7058,11.0963],[6.7036,11.094],[6.6968,11.0963],[6.6879,11.094],[6.6879,11.0895],[6.6879,11.0806],[6.6901,11.0761],[6.6924,11.0738],[6.6901,11.0693],[6.6766,11.0581],[6.6744,11.0581],[6.6699,11.0603],[6.6587,11.0536],[6.6452,11.0491],[6.6385,11.0491],[6.6182,11.0469],[6.607,11.0469],[6.5958,11.0401],[6.5913,11.0379],[6.5846,11.0312],[6.5756,11.0244],[6.5643,11.0244],[6.5576,11.0244],[6.5486,11.0289],[6.5284,11.0267],[6.5172,11.0267],[6.5172,11.0199],[6.5127,11.0177],[6.5082,11.0132],[6.4992,11.0154],[6.4925,11.0154],[6.4902,11.0177],[6.4857,11.0199],[6.479,11.0222],[6.4723,11.0222],[6.4678,11.0177],[6.4655,11.0087],[6.4633,11.002],[6.4588,10.9997],[6.4521,11.002],[6.4476,11.0042],[6.4431,10.9997],[6.4386,10.9975],[6.4206,11.0132],[6.4184,11.0177],[6.4184,11.0244],[6.4116,11.0312],[6.3914,11.0334],[6.3869,11.0334],[6.3824,11.0334],[6.3757,11.0312],[6.369,11.0267],[6.3645,11.0199],[6.3577,11.0199],[6.351,11.0222],[6.3398,11.0222],[6.333,11.0222],[6.324,11.0199],[6.3218,11.0177],[6.3151,11.0109],[6.3083,11.0087],[6.3016,11.002],[6.2971,10.9952],[6.2904,10.9862],[6.2836,10.9773],[6.2769,10.966],[6.2724,10.9638],[6.2634,10.966],[6.2567,10.9615],[6.2522,10.9548],[6.2499,10.9526],[6.2454,10.9481],[6.2365,10.9458],[6.232,10.9413],[6.2297,10.9346],[6.2297,10.9278],[6.2275,10.9189],[6.223,10.9099],[6.223,10.9054],[6.2252,10.9031],[6.2252,10.8964],[6.2207,10.8919],[6.2185,10.8874],[6.2118,10.8784],[6.2073,10.8739],[6.2073,10.8695],[6.205,10.8627],[6.2005,10.8627],[6.196,10.8672],[6.1893,10.8717],[6.1826,10.8717],[6.1736,10.8672],[6.1668,10.8672],[6.1624,10.8672],[6.1579,10.8627],[6.1556,10.856],[6.1489,10.8537],[6.1444,10.8537],[6.1377,10.8515],[6.1219,10.8448],[6.1197,10.838],[6.1219,10.8358],[6.1264,10.8335],[6.1309,10.829],[6.1309,10.8245],[6.1287,10.8223],[6.1219,10.8133],[6.1152,10.8133],[6.1085,10.8133],[6.1085,10.8088],[6.1107,10.8043],[6.1107,10.8021],[6.1107,10.7976],[6.1062,10.7841],[6.104,10.7796],[6.1017,10.7751],[6.0995,10.7706],[6.1017,10.7639],[6.1085,10.7527],[6.1107,10.7459],[6.1107,10.737],[6.1062,10.7257],[6.0972,10.7145],[6.0905,10.7078],[6.0905,10.701],[6.095,10.6988],[6.104,10.6988],[6.1107,10.6943],[6.1129,10.6898],[6.1197,10.6831],[6.1332,10.6786],[6.1354,10.6786],[6.1377,10.6696],[6.1332,10.6606],[6.1242,10.6471],[6.1242,10.6426],[6.1219,10.6359],[6.1197,10.6269],[6.1129,10.6134],[6.1129,10.6045],[6.1152,10.6],[6.1264,10.5932],[6.1287,10.5798],[6.1264,10.5685],[6.1219,10.5528],[6.1152,10.5483],[6.1085,10.5461],[6.0995,10.5461],[6.0927,10.5461],[6.0905,10.5371],[6.0905,10.5236],[6.086,10.5146],[6.0905,10.4809]]]}},{"type":"Feature","properties":{"id":"kaduna/chikun","name":"Chikun","state":"Kaduna"},"geometry":{"type":"Polygon","coordinates":[[[6.6924,10.6404],[6.6968,10.6381],[6.7058,10.6381],[6.7148,10.6337],[6.7148,10.6381],[6.7171,10.6404],[6.7215,10.6449],[6.726,10.6471],[6.7283,10.6494],[6.744,10.6471],[6.7507,10.6471],[6.7597,10.6449],[6.7665,10.6426],[6.7754,10.6404],[6.7822,10.6404],[6.7844,10.6381],[6.7957,10.6404],[6.8001,10.6426],[6.8024,10.6426],[6.8136,10.6381],[6.8159,10.6381],[6.8293,10.6247],[6.8293,10.6157],[6.8293,10.6112],[6.8293,10.6045],[6.8361,10.5955],[6.8383,10.5842],[6.8428,10.573],[6.8406,10.5663],[6.8406,10.5573],[6.8406,10.5483],[6.8361,10.5371],[6.8406,10.5326],[6.8451,10.5281],[6.8496,10.5303],[6.8563,10.5371],[6.8608,10.5506],[6.863,10.5528],[6.8698,10.5551],[6.881,10.5506],[6.89,10.5461],[6.9012,10.5416],[6.9057,10.5416],[6.9124,10.5371],[6.9147,10.5371],[6.9192,10.5303],[6.9282,10.5169],[6.9282,10.5124],[6.9349,10.5012],[6.9484,10.4922],[6.9529,10.4832],[6.9551,10.463],[6.9506,10.4562],[6.9484,10.454],[6.9461,10.4495],[6.9394,10.4338],[6.9282,10.4023],[6.9237,10.3821],[6.9259,10.3709],[6.9304,10.3664],[6.9349,10.3619],[6.9484,10.3597],[6.9506,10.3619],[6.9618,10.3619],[6.9641,10.3619],[6.9776,10.3642],[6.9888,10.3597],[7.0,10.3574],[7.0023,10.3574],[7.0202,10.3529],[7.0247,10.3507],[7.0337,10.344],[7.0472,10.3215],[7.0517,10.317],[7.0494,10.3013],[7.0449,10.2923],[7.0404,10.2901],[7.0315,10.2878],[7.0202,10.2743],[7.009,10.2474],[6.991,10.2406],[6.9843,10.2406],[6.9821,10.2429],[6.9708,10.2317],[6.9663,10.2227],[6.9596,10.2025],[6.9551,10.1912],[6.9416,10.18],[6.9394,10.18],[6.9371,10.18],[6.9282,10.18],[6.9282,10.1867],[6.9214,10.1912],[6.9147,10.189],[6.9102,10.18],[6.9057,10.171],[6.9035,10.1688],[6.8945,10.1576],[6.8877,10.1531],[6.8855,10.1508],[6.881,10.1171],[6.8922,10.0924],[6.9012,10.0767],[6.9035,10.079],[6.9057,10.079],[6.9147,10.079],[6.9259,10.0677],[6.9394,10.061],[6.9529,10.0475],[6.9618,10.0475],[6.9843,10.0453],[7.0068,10.0453],[7.018,10.0385],[7.0337,10.0453],[7.0651,10.043],[7.0854,10.0363],[7.1011,10.0295],[7.1056,10.0273],[7.1123,10.0273],[7.1235,10.0295],[7.1258,10.034],[7.1393,10.0363],[7.1505,10.034],[7.1662,10.034],[7.1797,10.0273],[7.1887,10.0273],[7.1932,10.0295],[7.1999,10.034],[7.2066,10.0408],[7.2134,10.0408],[7.2291,10.0385],[7.2403,10.0408],[7.2538,10.0385],[7.2628,10.0453],[7.274,10.0475],[7.2785,10.0453],[7.283,10.0408],[7.2875,10.0408],[7.2942,10.0498],[7.301,10.0587],[7.3099,10.061],[7.3212,10.061],[7.3346,10.061],[7.3436,10.0655],[7.3526,10.0722],[7.3593,10.0812],[7.3661,10.0902],[7.3728,10.0992],[7.384,10.1037],[7.3953,10.1081],[7.4065,10.1149],[7.4155,10.1171],[7.4267,10.1216],[7.4402,10.1216],[7.4492,10.1194],[7.4604,10.1171],[7.4694,10.1194],[7.4829,10.1239],[7.4941,10.1284],[7.5031,10.1373],[7.5076,10.1486],[7.5143,10.1531],[7.5255,10.162],[7.5345,10.1643],[7.5412,10.1643],[7.5525,10.162],[7.5682,10.162],[7.5817,10.1665],[7.5907,10.171],[7.5974,10.171],[7.6041,10.171],[7.6086,10.1665],[7.6041,10.1778],[7.6019,10.18],[7.5929,10.1912],[7.5907,10.1935],[7.5862,10.2002],[7.5794,10.2137],[7.5727,10.2339],[7.566,10.2519],[7.566,10.2609],[7.566,10.2653],[7.5794,10.2878],[7.5862,10.2945],[7.5929,10.3035],[7.6086,10.317],[7.6154,10.3215],[7.6221,10.326],[7.6356,10.335],[7.6423,10.3372],[7.6558,10.344],[7.6648,10.3507],[7.6737,10.3574],[7.6782,10.3619],[7.6827,10.3709],[7.685,10.3754],[7.6895,10.3821],[7.7007,10.3934],[7.7074,10.4001],[7.7142,10.4068],[7.7232,10.4136],[7.7299,10.4181],[7.7366,10.4226],[7.7389,10.427],[7.7434,10.436],[7.7479,10.445],[7.7501,10.4562],[7.7568,10.4675],[7.7658,10.4809],[7.7703,10.4922],[7.7703,10.4967],[7.7748,10.5012],[7.7703,10.5056],[7.7636,10.5101],[7.7591,10.5146],[7.7501,10.5191],[7.7434,10.5236],[7.7389,10.5303],[7.7344,10.5348],[7.7344,10.5416],[7.7366,10.5483],[7.7366,10.5528],[7.7389,10.5573],[7.7411,10.564],[7.7344,10.5708],[7.7187,10.5775],[7.7119,10.5798],[7.7029,10.5775],[7.6917,10.573],[7.685,10.5708],[7.6737,10.573],[7.658,10.5685],[7.6378,10.5618],[7.5974,10.5461],[7.5817,10.5393],[7.5727,10.5371],[7.5637,10.5348],[7.5547,10.5303],[7.5412,10.5259],[7.5278,10.5214],[7.5165,10.5169],[7.5076,10.5146],[7.5008,10.5124],[7.4873,10.5079],[7.4806,10.5056],[7.4761,10.5034],[7.4671,10.5034],[7.4626,10.5012],[7.4537,10.4967],[7.4469,10.4944],[7.4357,10.4899],[7.4267,10.4877],[7.42,10.4854],[7.4245,10.4832],[7.4267,10.4787],[7.429,10.4652],[7.429,10.4585],[7.4267,10.454],[7.4222,10.4383],[7.42,10.4315],[7.4155,10.427],[7.411,10.4248],[7.4065,10.4248],[7.393,10.427],[7.3885,10.4315],[7.3796,10.4405],[7.3751,10.4473],[7.3773,10.454],[7.3773,10.4607],[7.3773,10.4652],[7.3661,10.472],[7.3661,10.4652],[7.3593,10.463],[7.3526,10.4607],[7.3481,10.4607],[7.3414,10.4607],[7.3234,10.4652],[7.3144,10.472],[7.3054,10.4742],[7.2965,10.4765],[7.2875,10.4742],[7.2807,10.4675],[7.2695,10.4517],[7.2673,10.4428],[7.2583,10.4226],[7.256,10.4091],[7.2515,10.3956],[7.2493,10.3889],[7.2448,10.3844],[7.2358,10.3731],[7.2291,10.3731],[7.2179,10.3754],[7.2111,10.3821],[7.2044,10.3934],[7.2021,10.3978],[7.2021,10.4046],[7.2021,10.4181],[7.2044,10.427],[7.2044,10.4338],[7.2066,10.4405],[7.2111,10.4652],[7.2111,10.4675],[7.2089,10.4787],[7.2089,10.4854],[7.2066,10.4967],[7.2111,10.5034],[7.2156,10.5079],[7.2201,10.5169],[7.2224,10.5236],[7.2179,10.5303],[7.2066,10.5438],[7.2044,10.5506],[7.2044,10.5551],[7.2044,10.5663],[7.2044,10.573],[7.2066,10.582],[7.2089,10.591],[7.2089,10.5977],[7.2111,10.6067],[7.2179,10.6157],[7.2201,10.6179],[7.2201,10.6247],[7.2201,10.6314],[7.2156,10.6359],[7.2111,10.6381],[7.2044,10.6404],[7.1999,10.6426],[7.1954,10.6449],[7.1819,10.6516],[7.1729,10.6516],[7.1662,10.6539],[7.1617,10.6584],[7.1595,10.6651],[7.155,10.6718],[7.155,10.6786],[7.155,10.6876],[7.155,10.692],[7.1572,10.6988],[7.1572,10.7055],[7.1505,10.7055],[7.1348,10.7078],[7.1123,10.7123],[7.0899,10.71],[7.0786,10.7078],[7.0674,10.7078],[7.0517,10.7055],[7.036,10.7033],[7.0157,10.7033],[7.0023,10.7055],[6.9865,10.7123],[6.9731,10.719],[6.9484,10.7302],[6.9326,10.7414],[6.9237,10.7482],[6.9124,10.7549],[6.899,10.7617],[6.8877,10.7706],[6.8698,10.7819],[6.8563,10.7886],[6.8406,10.7976],[6.8316,10.8043],[6.8249,10.8088],[6.8091,10.8156],[6.7979,10.8156],[6.7934,10.8156],[6.7867,10.8043],[6.7822,10.7931],[6.7799,10.7864],[6.7754,10.7706],[6.762,10.7437],[6.7575,10.7325],[6.753,10.7257],[6.744,10.7212],[6.7373,10.7167],[6.7283,10.71],[6.7238,10.7055],[6.7193,10.6965],[6.7171,10.6876],[6.7126,10.6808],[6.7081,10.6718],[6.7036,10.6651],[6.6968,10.6584],[6.6924,10.6516],[6.6901,10.6449],[6.6924,10.6404]]]}},{"type":"Feature","properties":{"id":"kaduna/giwa","name":"Giwa","state":"Kaduna"},"geometry":{"type":"Polygon","coordinates":[[[7.1011,10.8582],[7.1011,10.8448],[7.1033,10.838],[7.1056,10.8335],[7.1123,10.8245],[7.1146,10.8223],[7.119,10.8223],[7.128,10.8245],[7.1393,10.8268],[7.1527,10.8268],[7.1595,10.829],[7.1774,10.8313],[7.1887,10.8313],[7.1976,10.829],[7.2066,10.8268],[7.2179,10.8245],[7.2358,10.8245],[7.2403,10.8245],[7.2583,10.829],[7.265,10.8335],[7.2807,10.8537],[7.2875,10.8627],[7.292,10.8717],[7.2965,10.8784],[7.3032,10.8852],[7.3144,10.8987],[7.3257,10.9121],[7.3324,10.9211],[7.3369,10.9301],[7.3436,10.9481],[7.3459,10.9593],[7.3526,10.9885],[7.3571,11.002],[7.3661,11.0154],[7.3728,11.0222],[7.384,11.0267],[7.393,11.0267],[7.4087,11.0244],[7.4155,11.0222],[7.429,11.0177],[7.4424,11.0132],[7.4514,11.0132],[7.4626,11.0109],[7.4806,11.0064],[7.4896,11.0042],[7.5031,11.0064],[7.5143,11.0064],[7.5255,11.0064],[7.5502,11.0087],[7.566,11.0109],[7.5772,11.0132],[7.5929,11.0154],[7.5996,11.0154],[7.6086,11.0177],[7.6109,11.0312],[7.6154,11.0401],[7.6198,11.0491],[7.6288,11.0716],[7.6311,11.0783],[7.6333,11.0963],[7.6288,11.1142],[7.6266,11.13],[7.6266,11.1367],[7.6198,11.1412],[7.6086,11.1434],[7.5907,11.1457],[7.5794,11.1502],[7.5727,11.1592],[7.5727,11.1771],[7.5749,11.1996],[7.5772,11.2131],[7.5794,11.2175],[7.5929,11.24],[7.6041,11.2535],[7.6064,11.258],[7.6154,11.2625],[7.6198,11.2625],[7.6243,11.267],[7.6288,11.2827],[7.6266,11.2849],[7.6243,11.2872],[7.6154,11.2984],[7.6109,11.3074],[7.6041,11.3164],[7.5996,11.3209],[7.5929,11.3253],[7.5862,11.3276],[7.5772,11.3298],[7.5682,11.3343],[7.5615,11.3411],[7.557,11.3478],[7.5502,11.3545],[7.5412,11.359],[7.53,11.3613],[7.5233,11.359],[7.5188,11.3568],[7.5121,11.3568],[7.5076,11.3568],[7.5053,11.359],[7.5008,11.3703],[7.4941,11.3837],[7.4918,11.3905],[7.4918,11.3972],[7.4896,11.4017],[7.4829,11.4062],[7.4784,11.4084],[7.4694,11.4107],[7.4469,11.4084],[7.4402,11.4084],[7.4312,11.4039],[7.4245,11.4017],[7.4155,11.395],[7.4132,11.3927],[7.402,11.3882],[7.3998,11.3837],[7.393,11.3748],[7.3885,11.3658],[7.384,11.3545],[7.3796,11.35],[7.3773,11.3433],[7.3728,11.3388],[7.3706,11.3321],[7.3661,11.3231],[7.3638,11.3119],[7.3638,11.3051],[7.3638,11.2984],[7.3638,11.2939],[7.3593,11.2737],[7.3549,11.2737],[7.3436,11.2737],[7.3324,11.2759],[7.3279,11.2782],[7.3257,11.2782],[7.3189,11.2827],[7.3144,11.2849],[7.3077,11.2894],[7.2987,11.2917],[7.2807,11.2984],[7.274,11.3006],[7.2695,11.2984],[7.265,11.2984],[7.2426,11.2984],[7.2336,11.2984],[7.2268,11.2962],[7.2156,11.2894],[7.2089,11.2849],[7.2066,11.2849],[7.2044,11.2804],[7.2021,11.2759],[7.1976,11.2714],[7.1976,11.2692],[7.1976,11.2647],[7.1999,11.2557],[7.2044,11.249],[7.2134,11.231],[7.2156,11.2265],[7.2201,11.2243],[7.2224,11.2198],[7.2291,11.2086],[7.2336,11.1996],[7.2358,11.1973],[7.2358,11.1928],[7.2358,11.1861],[7.2268,11.1771],[7.2201,11.1726],[7.2179,11.1704],[7.2111,11.1614],[7.2044,11.1547],[7.1864,11.1412],[7.1819,11.1412],[7.1797,11.1367],[7.1797,11.1255],[7.1774,11.112],[7.1752,11.103],[7.1685,11.0873],[7.1662,11.0693],[7.164,11.0581],[7.164,11.0491],[7.164,11.0379],[7.1617,11.0244],[7.1595,11.0177],[7.1572,11.0087],[7.1505,10.9817],[7.146,10.9773],[7.1393,10.9593],[7.137,10.9548],[7.1325,10.9458],[7.128,10.9391],[7.1146,10.9211],[7.1033,10.9076],[7.0966,10.8964],[7.0943,10.8852],[7.0943,10.8739],[7.1011,10.8582]]]}},{"type":"Feature","properties":{"id":"kaduna/igabi","name":"Igabi","state":"Kaduna"},"geometry":{"type":"Polygon","coordinates":[[[7.119,10.8066],[7.1213,10.7953],[7.1235,10.7886],[7.128,10.7706],[7.1303,10.7572],[7.1325,10.7482],[7.1415,10.7325],[7.146,10.7235],[7.1505,10.719],[7.1595,10.7078],[7.1572,10.7055],[7.1572,10.6988],[7.155,10.692],[7.155,10.6876],[7.155,10.6786],[7.155,10.6718],[7.1595,10.6651],[7.1617,10.6584],[7.1662,10.6539],[7.1729,10.6516],[7.1819,10.6516],[7.1954,10.6449],[7.1999,10.6426],[7.2044,10.6404],[7.2111,10.6381],[7.2156,10.6359],[7.2201,10.6314],[7.2201,10.6247],[7.2201,10.6179],[7.2179,10.6157],[7.2111,10.6067],[7.2089,10.5977],[7.2089,10.591],[7.2066,10.582],[7.2044,10.573],[7.2044,10.5663],[7.2044,10.5551],[7.2044,10.5506],[7.2066,10.5438],[7.2179,10.5303],[7.2224,10.5236],[7.2201,10.5169],[7.2156,10.5079],[7.2111,10.5034],[7.2066,10.4967],[7.2089,10.4854],[7.2089,10.4787],[7.2111,10.4675],[7.2111,10.4652],[7.2066,10.4405],[7.2044,10.4338],[7.2044,10.427],[7.2021,10.4181],[7.2021,10.4046],[7.2021,10.3978],[7.2044,10.3934],[7.2111,10.3821],[7.2179,10.3754],[7.2291,10.3731],[7.2358,10.3731],[7.2448,10.3844],[7.2493,10.3889],[7.2515,10.3956],[7.256,10.4091],[7.2583,10.4226],[7.2673,10.4428],[7.2695,10.4517],[7.2807,10.4675],[7.2875,10.4742],[7.2965,10.4765],[7.3054,10.4742],[7.3144,10.472],[7.3234,10.4652],[7.3414,10.4607],[7.3481,10.4607],[7.3526,10.4607],[7.3593,10.463],[7.3661,10.4652],[7.3661,10.472],[7.3683,10.4765],[7.3683,10.4877],[7.3706,10.4944],[7.3706,10.5012],[7.3796,10.5124],[7.3863,10.5214],[7.3908,10.5348],[7.393,10.5416],[7.3975,10.5573],[7.3998,10.5618],[7.402,10.5663],[7.4065,10.5753],[7.4065,10.582],[7.4065,10.5865],[7.4087,10.591],[7.4132,10.5977],[7.4245,10.6045],[7.4312,10.6067],[7.4469,10.6045],[7.4604,10.5977],[7.4649,10.5955],[7.4671,10.5842],[7.4671,10.573],[7.4649,10.5685],[7.4649,10.564],[7.4671,10.5573],[7.4671,10.5528],[7.4694,10.5483],[7.4694,10.5393],[7.4671,10.5303],[7.4649,10.5281],[7.4604,10.5236],[7.4582,10.5169],[7.4559,10.5124],[7.4492,10.4989],[7.4537,10.4967],[7.4626,10.5012],[7.4671,10.5034],[7.4761,10.5034],[7.4806,10.5056],[7.4873,10.5079],[7.5008,10.5124],[7.5076,10.5146],[7.5165,10.5169],[7.5278,10.5214],[7.5412,10.5259],[7.5547,10.5303],[7.5637,10.5348],[7.5727,10.5371],[7.5817,10.5393],[7.5974,10.5461],[7.6378,10.5618],[7.658,10.5685],[7.6737,10.573],[7.685,10.5708],[7.6917,10.573],[7.7029,10.5775],[7.7119,10.5798],[7.7187,10.5775],[7.7344,10.5708],[7.7411,10.564],[7.7389,10.5573],[7.7366,10.5528],[7.7366,10.5483],[7.7344,10.5416],[7.7344,10.5348],[7.7389,10.5303],[7.7434,10.5236],[7.7501,10.5191],[7.7591,10.5146],[7.7636,10.5101],[7.7703,10.5056],[7.7748,10.5012],[7.786,10.5079],[7.7928,10.5124],[7.7995,10.5124],[7.8018,10.5101],[7.8107,10.5056],[7.8175,10.4944],[7.8332,10.4899],[7.8377,10.4899],[7.8467,10.4922],[7.8557,10.4944],[7.8624,10.4989],[7.8691,10.5056],[7.8781,10.5169],[7.8804,10.5214],[7.8916,10.5348],[7.9096,10.5483],[7.9185,10.5438],[7.9298,10.5393],[7.9432,10.5416],[7.95,10.5438],[7.9545,10.5461],[7.959,10.5483],[7.9747,10.5528],[7.9814,10.5551],[7.9904,10.5528],[8.0016,10.5506],[8.0106,10.5528],[8.0196,10.5551],[8.0218,10.5551],[8.0173,10.5618],[8.0151,10.5663],[8.0106,10.5708],[8.0061,10.582],[7.9994,10.591],[7.9904,10.6],[7.9814,10.6112],[7.9747,10.6202],[7.9634,10.6381],[7.959,10.6494],[7.9522,10.6628],[7.9477,10.6741],[7.9253,10.6786],[7.9185,10.6808],[7.9073,10.6831],[7.8938,10.6831],[7.8781,10.6831],[7.8646,10.6853],[7.8557,10.6876],[7.8512,10.692],[7.8444,10.7033],[7.8399,10.7123],[7.8377,10.7235],[7.8354,10.7347],[7.831,10.7459],[7.8265,10.7549],[7.8175,10.7639],[7.8107,10.7729],[7.8062,10.7819],[7.7973,10.7909],[7.7883,10.7998],[7.7838,10.8066],[7.7793,10.8156],[7.7771,10.829],[7.7748,10.838],[7.7748,10.847],[7.786,10.865],[7.7928,10.8717],[7.8018,10.8807],[7.8107,10.8987],[7.8152,10.9099],[7.8197,10.9189],[7.8265,10.9346],[7.8242,10.9458],[7.822,10.9548],[7.8175,10.9615],[7.813,10.9683],[7.8085,10.975],[7.8018,10.9773],[7.7995,10.9773],[7.786,10.9705],[7.7748,10.9683],[7.7546,10.9638],[7.7456,10.9615],[7.7276,10.9615],[7.7007,10.9638],[7.6895,10.966],[7.667,10.9683],[7.6558,10.9705],[7.6311,10.975],[7.6243,10.9795],[7.6131,10.9907],[7.6109,10.9975],[7.6086,11.0042],[7.6086,11.0109],[7.6086,11.0177],[7.5996,11.0154],[7.5929,11.0154],[7.5772,11.0132],[7.566,11.0109],[7.5502,11.0087],[7.5255,11.0064],[7.5143,11.0064],[7.5031,11.0064],[7.4896,11.0042],[7.4806,11.0064],[7.4626,11.0109],[7.4514,11.0132],[7.4424,11.0132],[7.429,11.0177],[7.4155,11.0222],[7.4087,11.0244],[7.393,11.0267],[7.384,11.0267],[7.3728,11.0222],[7.3661,11.0154],[7.3571,11.002],[7.3526,10.9885],[7.3459,10.9593],[7.3436,10.9481],[7.3369,10.9301],[7.3324,10.9211],[7.3257,10.9121],[7.3144,10.8987],[7.3032,10.8852],[7.2965,10.8784],[7.292,10.8717],[7.2875,10.8627],[7.2807,10.8537],[7.265,10.8335],[7.2583,10.829],[7.2403,10.8245],[7.2358,10.8245],[7.2179,10.8245],[7.2066,10.8268],[7.1976,10.829],[7.1887,10.8313],[7.1774,10.8313],[7.1595,10.829],[7.1527,10.8268],[7.1393,10.8268],[7.128,10.8245],[7.119,10.8223],[7.1146,10.8223],[7.1146,10.8178],[7.119,10.8066]]]}},{"type":"Feature","properties":{"id":"kaduna/ikara","name":"Ikara","state":"Kaduna"},"geometry":{"type":"Polygon","coordinates":[[[7.9926,11.4668],[7.9994,11.4534],[8.0106,11.4421],[8.0173,11.4331],[8.0241,11.4197],[8.0286,11.4084],[8.0331,11.3972],[8.0421,11.3815],[8.0578,11.359],[8.0712,11.3433],[8.0802,11.3343],[8.0892,11.3253],[8.0937,11.3186],[8.0982,11.3074],[8.1027,11.3029],[8.1072,11.2939],[8.1251,11.2692],[8.1296,11.2625],[8.1341,11.2557],[8.1341,11.2512],[8.1364,11.2467],[8.1319,11.2423],[8.1274,11.2378],[8.1162,11.2333],[8.0982,11.2265],[8.0892,11.2243],[8.078,11.2243],[8.06,11.222],[8.0488,11.2243],[8.0376,11.2243],[8.0353,11.2243],[8.0421,11.2131],[8.0533,11.2041],[8.0735,11.1906],[8.0937,11.1794],[8.1004,11.1749],[8.1162,11.1681],[8.1229,11.1614],[8.1319,11.1569],[8.1386,11.1524],[8.1476,11.1502],[8.1498,11.1479],[8.1611,11.1389],[8.1656,11.1322],[8.1678,11.13],[8.1723,11.13],[8.1925,11.1322],[8.1993,11.1322],[8.2037,11.13],[8.2195,11.13],[8.2374,11.13],[8.2487,11.1277],[8.2621,11.1255],[8.2734,11.1232],[8.2891,11.1232],[8.316,11.1187],[8.325,11.1165],[8.3385,11.112],[8.3475,11.112],[8.3587,11.112],[8.3699,11.112],[8.3834,11.1165],[8.3901,11.1165],[8.3946,11.1165],[8.4059,11.1165],[8.4126,11.1187],[8.4171,11.1255],[8.4193,11.1322],[8.4171,11.1367],[8.4148,11.1457],[8.4081,11.1547],[8.4014,11.1614],[8.3946,11.1659],[8.3857,11.1816],[8.3789,11.1906],[8.3767,11.1973],[8.3767,11.2018],[8.3789,11.2063],[8.3834,11.2086],[8.3857,11.2063],[8.3946,11.2041],[8.4126,11.1906],[8.4238,11.1816],[8.4351,11.1726],[8.444,11.1659],[8.4598,11.1547],[8.4687,11.1502],[8.4957,11.1524],[8.5069,11.1524],[8.489,11.1592],[8.4822,11.1637],[8.4755,11.1749],[8.471,11.1884],[8.4598,11.1951],[8.4508,11.2041],[8.4418,11.2131],[8.4351,11.2198],[8.4148,11.231],[8.3991,11.2288],[8.3901,11.2265],[8.3834,11.2243],[8.3744,11.2198],[8.3654,11.2198],[8.3587,11.222],[8.3452,11.2153],[8.3385,11.2131],[8.3295,11.2131],[8.3205,11.2175],[8.3071,11.2333],[8.3026,11.24],[8.2936,11.2557],[8.2891,11.2625],[8.2823,11.267],[8.2756,11.2714],[8.2734,11.2782],[8.2734,11.2939],[8.2756,11.3006],[8.2756,11.3029],[8.2734,11.3074],[8.2666,11.3119],[8.2576,11.3164],[8.2419,11.3141],[8.2307,11.3119],[8.2195,11.3096],[8.215,11.3119],[8.2015,11.3231],[8.1925,11.3343],[8.188,11.3411],[8.1746,11.3478],[8.1633,11.3545],[8.1588,11.359],[8.1543,11.3613],[8.1431,11.3703],[8.1364,11.377],[8.1319,11.386],[8.1319,11.3927],[8.1319,11.4017],[8.1364,11.4084],[8.1431,11.4197],[8.1476,11.4264],[8.1566,11.4376],[8.1656,11.4511],[8.1678,11.4601],[8.1656,11.4691],[8.1656,11.4781],[8.1656,11.487],[8.1611,11.4938],[8.1566,11.4983],[8.1364,11.5095],[8.1319,11.5117],[8.1229,11.5117],[8.1139,11.5095],[8.1049,11.505],[8.0959,11.5005],[8.0892,11.4938],[8.0757,11.487],[8.0645,11.4825],[8.0533,11.4803],[8.0465,11.4803],[8.0376,11.4848],[8.0331,11.4848],[8.0084,11.4781],[7.9971,11.4713],[7.9904,11.4691],[7.9926,11.4668]]]}},{"type":"Feature","properties":{"id":"kaduna/jaba","name":"Jaba","state":"Kaduna"},"geometry":{"type":"Polygon","coordinates":[[[7.914,9.4075],[7.914,9.4007],[7.9208,9.4052],[7.9387,9.403],[7.9432,9.3985],[7.9814,9.3715],[7.9882,9.3648],[7.9926,9.3603],[7.9994,9.3536],[8.0016,9.3401],[7.9994,9.3289],[7.9971,9.3244],[7.9971,9.3176],[8.0016,9.3199],[8.0084,9.3244],[8.0196,9.3334],[8.0308,9.3468],[8.0421,9.3626],[8.0465,9.3693],[8.0488,9.3738],[8.0488,9.3805],[8.0488,9.3873],[8.0533,9.403],[8.0578,9.4165],[8.06,9.4254],[8.0645,9.4322],[8.0712,9.4434],[8.0757,9.4546],[8.0825,9.4636],[8.0937,9.4748],[8.1004,9.4793],[8.1162,9.4906],[8.1251,9.4951],[8.1431,9.5018],[8.1566,9.5063],[8.1701,9.5085],[8.1813,9.5153],[8.1835,9.5198],[8.179,9.5243],[8.1723,9.5287],[8.1633,9.5422],[8.1566,9.549],[8.1521,9.5579],[8.1476,9.5624],[8.1409,9.5692],[8.1364,9.5737],[8.1296,9.5804],[8.1296,9.5849],[8.1274,9.5961],[8.1274,9.6096],[8.1274,9.6208],[8.1274,9.6276],[8.1184,9.6208],[8.1049,9.6096],[8.0937,9.5961],[8.0825,9.5826],[8.0757,9.5737],[8.0757,9.5647],[8.0668,9.5602],[8.051,9.5534],[8.0421,9.5534],[8.0286,9.5512],[8.0218,9.549],[8.0151,9.5467],[8.0106,9.5467],[8.0084,9.5377],[8.0061,9.5198],[8.0016,9.513],[7.9949,9.5063],[7.9904,9.504],[7.9792,9.4995],[7.9769,9.4973],[7.9657,9.4861],[7.9567,9.4793],[7.9455,9.4704],[7.9365,9.4614],[7.9298,9.4524],[7.9163,9.4344],[7.914,9.4277],[7.9118,9.4165],[7.914,9.4075]]]}},{"type":"Feature","properties":{"id":"kaduna/jemaa","name":"Jemaa","state":"Kaduna"},"geometry":{"type":"Polygon","coordinates":[[[8.0016,9.3064],[8.0398,9.2817],[8.0465,9.2772],[8.06,9.2727],[8.0623,9.2727],[8.0735,9.257],[8.078,9.2503],[8.078,9.2458],[8.0825,9.2368],[8.0892,9.2278],[8.0937,9.2166],[8.0959,9.2121],[8.1027,9.1964],[8.1049,9.1762],[8.1004,9.1672],[8.0982,9.1627],[8.0982,9.1515],[8.0982,9.147],[8.1004,9.1245],[8.1004,9.0953],[8.1004,9.0863],[8.1004,9.0818],[8.1004,9.0751],[8.1027,9.0639],[8.1072,9.0526],[8.1274,9.0481],[8.1364,9.0526],[8.1386,9.0594],[8.1409,9.0729],[8.1431,9.0818],[8.1454,9.0931],[8.1543,9.1133],[8.1633,9.12],[8.179,9.138],[8.188,9.147],[8.197,9.1559],[8.2037,9.1672],[8.2105,9.1739],[8.2195,9.1851],[8.2284,9.1941],[8.2352,9.2009],[8.2487,9.2188],[8.2576,9.2323],[8.2554,9.239],[8.2532,9.2458],[8.2509,9.2503],[8.2554,9.257],[8.2599,9.2615],[8.2644,9.2637],[8.2689,9.2637],[8.2779,9.2637],[8.2891,9.2593],[8.2981,9.2593],[8.3115,9.2615],[8.3228,9.2637],[8.3318,9.266],[8.343,9.2682],[8.3587,9.2682],[8.3654,9.2682],[8.3812,9.2682],[8.3879,9.266],[8.3901,9.266],[8.3991,9.2637],[8.4126,9.2637],[8.4193,9.266],[8.4238,9.2727],[8.4261,9.2817],[8.4261,9.2862],[8.4238,9.2952],[8.4261,9.2997],[8.4283,9.3087],[8.4351,9.3131],[8.4418,9.3176],[8.4508,9.3244],[8.4598,9.3334],[8.4665,9.3379],[8.471,9.3491],[8.48,9.3738],[8.4845,9.3895],[8.4957,9.4097],[8.4979,9.4187],[8.5069,9.4277],[8.5159,9.4389],[8.5271,9.4456],[8.5361,9.4524],[8.5451,9.4569],[8.5541,9.4636],[8.5608,9.4681],[8.5676,9.4748],[8.5765,9.4771],[8.5855,9.4816],[8.581,9.4861],[8.5698,9.4973],[8.5676,9.504],[8.5608,9.5265],[8.5586,9.5355],[8.5586,9.54],[8.5563,9.5467],[8.5451,9.5445],[8.5316,9.5422],[8.5159,9.5355],[8.5069,9.531],[8.4957,9.5265],[8.4755,9.5175],[8.4665,9.5153],[8.4575,9.513],[8.4373,9.5063],[8.4283,9.5018],[8.4126,9.4973],[8.4014,9.4951],[8.3946,9.4951],[8.3857,9.5018],[8.3744,9.5108],[8.3677,9.522],[8.3587,9.5355],[8.3542,9.5467],[8.3475,9.5602],[8.3385,9.5647],[8.3318,9.5759],[8.3295,9.5826],[8.3228,9.5916],[8.316,9.5916],[8.3093,9.5894],[8.2981,9.5849],[8.2891,9.5781],[8.2823,9.5692],[8.2801,9.5624],[8.2779,9.549],[8.2734,9.5355],[8.2711,9.531],[8.2576,9.5287],[8.2419,9.5265],[8.2329,9.522],[8.2082,9.5175],[8.1925,9.522],[8.1835,9.5198],[8.1813,9.5153],[8.1701,9.5085],[8.1566,9.5063],[8.1431,9.5018],[8.1251,9.4951],[8.1162,9.4906],[8.1004,9.4793],[8.0937,9.4748],[8.0825,9.4636],[8.0757,9.4546],[8.0712,9.4434],[8.0645,9.4322],[8.06,9.4254],[8.0578,9.4165],[8.0533,9.403],[8.0488,9.3873],[8.0488,9.3805],[8.0488,9.3738],[8.0465,9.3693],[8.0421,9.3626],[8.0308,9.3468],[8.0196,9.3334],[8.0084,9.3244],[8.0016,9.3199],[7.9971,9.3176],[7.9971,9.3154],[8.0016,9.3064]]]}},{"type":"Feature","properties":{"id":"kaduna/kachia","name":"Kachia","state":"Kaduna"},"geometry":{"type":"Polygon","coordinates":[[[7.2156,9.7488],[7.2246,9.7398],[7.2448,9.7331],[7.2695,9.7331],[7.2718,9.7331],[7.2807,9.7241],[7.2852,9.7129],[7.2897,9.7062],[7.2875,9.7017],[7.283,9.6949],[7.283,9.6927],[7.283,9.6837],[7.2897,9.6815],[7.2987,9.677],[7.3122,9.668],[7.3144,9.6635],[7.3167,9.659],[7.3279,9.65],[7.3436,9.632],[7.3481,9.6208],[7.3459,9.6096],[7.3369,9.6029],[7.3301,9.6006],[7.3212,9.5984],[7.3144,9.5961],[7.3099,9.5939],[7.2942,9.5849],[7.292,9.5714],[7.2875,9.5557],[7.283,9.5512],[7.2673,9.5355],[7.2628,9.5287],[7.274,9.5355],[7.283,9.54],[7.292,9.5445],[7.2987,9.5467],[7.3054,9.549],[7.3234,9.549],[7.3324,9.549],[7.3369,9.549],[7.3459,9.5512],[7.3571,9.5557],[7.3661,9.5602],[7.3751,9.5624],[7.3796,9.5647],[7.3863,9.5714],[7.402,9.5804],[7.4155,9.5804],[7.4357,9.5781],[7.4424,9.5759],[7.4492,9.5759],[7.4649,9.5737],[7.4784,9.5714],[7.5008,9.5669],[7.5188,9.5602],[7.5278,9.5557],[7.5435,9.549],[7.5525,9.5467],[7.5592,9.5467],[7.5749,9.549],[7.5862,9.5534],[7.6064,9.5557],[7.6154,9.5557],[7.6243,9.5557],[7.6423,9.5557],[7.658,9.5579],[7.667,9.5624],[7.6782,9.5804],[7.6805,9.5849],[7.6827,9.5939],[7.6962,9.6073],[7.7052,9.6208],[7.7164,9.632],[7.7232,9.6388],[7.7299,9.6455],[7.7389,9.6523],[7.7546,9.6635],[7.7681,9.6725],[7.7815,9.677],[7.786,9.677],[7.795,9.6747],[7.804,9.6725],[7.8107,9.6612],[7.8152,9.6567],[7.8197,9.6478],[7.8287,9.6388],[7.8332,9.6343],[7.8399,9.6298],[7.8467,9.6253],[7.8557,9.6186],[7.8646,9.6073],[7.8714,9.6006],[7.8781,9.5939],[7.8938,9.5871],[7.9006,9.5804],[7.9073,9.5737],[7.9118,9.5624],[7.9185,9.5534],[7.9343,9.54],[7.9477,9.5355],[7.9567,9.5355],[7.9657,9.5355],[7.9747,9.5377],[7.9837,9.54],[7.9949,9.5445],[8.0039,9.5467],[8.0106,9.5467],[8.0151,9.5467],[8.0218,9.549],[8.0286,9.5512],[8.0421,9.5534],[8.051,9.5534],[8.0668,9.5602],[8.0757,9.5647],[8.0757,9.5737],[8.0825,9.5826],[8.0937,9.5961],[8.1049,9.6096],[8.1184,9.6208],[8.1274,9.6276],[8.1251,9.6343],[8.1251,9.641],[8.1229,9.65],[8.1207,9.6612],[8.1162,9.668],[8.1072,9.6747],[8.078,9.6927],[8.0712,9.6972],[8.06,9.7039],[8.0488,9.7084],[8.0286,9.7174],[8.0218,9.7196],[8.0129,9.7196],[8.0084,9.7219],[7.9994,9.7309],[7.9971,9.7398],[7.9971,9.7488],[8.0016,9.7668],[8.0016,9.7803],[7.9994,9.7937],[7.9994,9.805],[7.9994,9.814],[7.9971,9.8207],[7.9971,9.8297],[7.9926,9.8409],[7.9837,9.8611],[7.9792,9.8701],[7.9747,9.8836],[7.9724,9.8948],[7.9724,9.9015],[7.9747,9.9083],[7.9792,9.9397],[7.9837,9.9532],[7.9904,9.9644],[8.0016,9.9846],[8.0039,9.9936],[8.0106,10.0071],[8.0173,10.0183],[8.0263,10.0295],[8.0353,10.0408],[8.0465,10.0565],[8.051,10.0677],[8.0533,10.079],[8.0533,10.0924],[8.0555,10.0969],[8.0533,10.0992],[8.0465,10.1014],[8.0286,10.1014],[8.0218,10.1014],[8.0106,10.1014],[7.9904,10.0992],[7.9814,10.0969],[7.9724,10.0947],[7.9657,10.0902],[7.95,10.0879],[7.932,10.0834],[7.9051,10.0745],[7.8848,10.0655],[7.8691,10.0587],[7.8601,10.0542],[7.8399,10.0453],[7.831,10.0408],[7.8197,10.0363],[7.7883,10.0318],[7.7748,10.0295],[7.7523,10.0295],[7.7456,10.0318],[7.7366,10.0363],[7.7209,10.043],[7.7164,10.0498],[7.7119,10.0542],[7.7029,10.0632],[7.6962,10.07],[7.6917,10.0745],[7.6895,10.079],[7.6737,10.0924],[7.667,10.0969],[7.6625,10.1037],[7.6513,10.1171],[7.6311,10.1373],[7.6198,10.1508],[7.6131,10.1598],[7.6109,10.1598],[7.6086,10.1665],[7.6041,10.171],[7.5974,10.171],[7.5907,10.171],[7.5817,10.1665],[7.5682,10.162],[7.5525,10.162],[7.5412,10.1643],[7.5345,10.1643],[7.5255,10.162],[7.5143,10.1531],[7.5076,10.1486],[7.5031,10.1373],[7.4941,10.1284],[7.4829,10.1239],[7.4694,10.1194],[7.4604,10.1171],[7.4492,10.1194],[7.4402,10.1216],[7.4267,10.1216],[7.4155,10.1171],[7.4065,10.1149],[7.3953,10.1081],[7.384,10.1037],[7.3728,10.0992],[7.3661,10.0902],[7.3593,10.0812],[7.3526,10.0722],[7.3436,10.0655],[7.3346,10.061],[7.3212,10.061],[7.3099,10.061],[7.301,10.0587],[7.2942,10.0498],[7.2875,10.0408],[7.283,10.0408],[7.2785,10.0453],[7.274,10.0475],[7.2628,10.0453],[7.2538,10.0385],[7.2583,10.0363],[7.2695,10.0273],[7.274,10.0228],[7.2785,10.0161],[7.2807,10.0004],[7.2807,9.9936],[7.2807,9.9891],[7.2807,9.9846],[7.2807,9.9734],[7.2807,9.9644],[7.283,9.9599],[7.2852,9.9577],[7.2852,9.9509],[7.2852,9.942],[7.2852,9.9352],[7.2852,9.933],[7.2875,9.9262],[7.2875,9.924],[7.2942,9.9083],[7.2987,9.8993],[7.2965,9.8881],[7.2965,9.8791],[7.2965,9.8723],[7.2965,9.8701],[7.301,9.8634],[7.2987,9.8566],[7.2942,9.8521],[7.292,9.8521],[7.2897,9.8409],[7.292,9.8297],[7.292,9.8229],[7.292,9.8117],[7.292,9.8005],[7.2852,9.7892],[7.274,9.7825],[7.2673,9.7825],[7.2605,9.787],[7.256,9.7892],[7.2515,9.7937],[7.2313,9.7915],[7.2246,9.787],[7.2201,9.787],[7.2111,9.7803],[7.2066,9.7668],[7.2044,9.7578],[7.2156,9.7488]]]}},{"type":"Feature","properties":{"id":"kaduna/kaduna-north","name":"Kaduna North","state":"Kaduna"},"geometry":{"type":"Polygon","coordinates":[[[7.4087,10.5595],[7.4132,10.5573],[7.4177,10.5573],[7.4222,10.5551],[7.4222,10.5506],[7.4222,10.5438],[7.42,10.5371],[7.4132,10.5303],[7.411,10.5236],[7.4043,10.5012],[7.402,10.4967],[7.402,10.4922],[7.4065,10.4899],[7.4087,10.4877],[7.4132,10.4854],[7.42,10.4854],[7.4267,10.4877],[7.4357,10.4899],[7.4469,10.4944],[7.4537,10.4967],[7.4492,10.4989],[7.4559,10.5124],[7.4582,10.5169],[7.4604,10.5236],[7.4649,10.5281],[7.4671,10.5303],[7.4694,10.5393],[7.4694,10.5483],[7.4671,10.5528],[7.4671,10.5573],[7.4649,10.564],[7.4649,10.5685],[7.4671,10.573],[7.4671,10.5842],[7.4649,10.5955],[7.4604,10.5977],[7.4469,10.6045],[7.4312,10.6067],[7.4245,10.6045],[7.4132,10.5977],[7.4087,10.591],[7.4065,10.5865],[7.4065,10.582],[7.4065,10.5753],[7.402,10.5663],[7.3998,10.5618],[7.4087,10.5595]]]}},{"type":"Feature","properties":{"id":"kaduna/kaduna-south","name":"Kaduna South","state":"Kaduna"},"geometry":{"type":"Polygon","coordinates":[[[7.3773,10.4652],[7.3773,10.4607],[7.3773,10.454],[7.3751,10.4473],[7.3796,10.4405],[7.3885,10.4315],[7.393,10.427],[7.4065,10.4248],[7.411,10.4248],[7.4155,10.427],[7.42,10.4315],[7.4222,10.4383],[7.4267,10.454],[7.429,10.4585],[7.429,10.4652],[7.4267,10.4787],[7.4245,10.4832],[7.42,10.4854],[7.4132,10.4854],[7.4087,10.4877],[7.4065,10.4899],[7.402,10.4922],[7.402,10.4967],[7.4043,10.5012],[7.411,10.5236],[7.4132,10.5303],[7.42,10.5371],[7.4222,10.5438],[7.4222,10.5506],[7.4222,10.5551],[7.4177,10.5573],[7.4132,10.5573],[7.4087,10.5595],[7.3998,10.5618],[7.3975,10.5573],[7.393,10.5416],[7.3908,10.5348],[7.3863,10.5214],[7.3796,10.5124],[7.3706,10.5012],[7.3706,10.4944],[7.3683,10.4877],[7.3683,10.4765],[7.3661,10.472],[7.3773,10.4652]]]}},{"type":"Feature","properties":{"id":"kaduna/kagarko","name":"Kagarko","state":"Kaduna"},"geometry":{"type":"Polygon","coordinates":[[[7.2134,9.4928],[7.2134,9.4883],[7.2134,9.4861],[7.2156,9.4816],[7.2179,9.4748],[7.2201,9.4704],[7.2224,9.4681],[7.2246,9.4614],[7.2224,9.4524],[7.2224,9.4479],[7.2268,9.4434],[7.2381,9.4367],[7.2403,9.4367],[7.2471,9.4389],[7.2583,9.4412],[7.274,9.4412],[7.2897,9.4254],[7.2897,9.412],[7.2897,9.4097],[7.2852,9.4052],[7.283,9.403],[7.2695,9.3918],[7.2583,9.3805],[7.256,9.376],[7.256,9.3648],[7.2538,9.3626],[7.2583,9.3603],[7.2605,9.3558],[7.265,9.3536],[7.2673,9.3513],[7.2695,9.3491],[7.2807,9.3513],[7.283,9.3513],[7.2987,9.3581],[7.3077,9.3626],[7.3144,9.3648],[7.3212,9.367],[7.3279,9.3648],[7.3436,9.3626],[7.3459,9.3648],[7.3593,9.367],[7.3773,9.3626],[7.3885,9.3491],[7.393,9.3536],[7.3975,9.3581],[7.4177,9.367],[7.4447,9.3693],[7.4626,9.3693],[7.4761,9.3715],[7.4963,9.3626],[7.5098,9.3603],[7.5907,9.4322],[7.6715,9.412],[7.7299,9.3311],[7.7479,9.3221],[7.7523,9.3131],[7.7591,9.3019],[7.7636,9.2952],[7.7703,9.2929],[7.7883,9.2817],[7.7928,9.275],[7.7995,9.2682],[7.8085,9.266],[7.8242,9.2705],[7.8265,9.2772],[7.8332,9.2884],[7.8422,9.3042],[7.8489,9.3109],[7.8512,9.3154],[7.8579,9.3244],[7.8669,9.3379],[7.8781,9.3558],[7.8893,9.3738],[7.9006,9.3895],[7.9028,9.3918],[7.914,9.4007],[7.914,9.4075],[7.9118,9.4165],[7.914,9.4277],[7.9163,9.4344],[7.9298,9.4524],[7.9365,9.4614],[7.9455,9.4704],[7.9567,9.4793],[7.9657,9.4861],[7.9769,9.4973],[7.9792,9.4995],[7.9904,9.504],[7.9949,9.5063],[8.0016,9.513],[8.0061,9.5198],[8.0084,9.5377],[8.0106,9.5467],[8.0039,9.5467],[7.9949,9.5445],[7.9837,9.54],[7.9747,9.5377],[7.9657,9.5355],[7.9567,9.5355],[7.9477,9.5355],[7.9343,9.54],[7.9185,9.5534],[7.9118,9.5624],[7.9073,9.5737],[7.9006,9.5804],[7.8938,9.5871],[7.8781,9.5939],[7.8714,9.6006],[7.8646,9.6073],[7.8557,9.6186],[7.8467,9.6253],[7.8399,9.6298],[7.8332,9.6343],[7.8287,9.6388],[7.8197,9.6478],[7.8152,9.6567],[7.8107,9.6612],[7.804,9.6725],[7.795,9.6747],[7.786,9.677],[7.7815,9.677],[7.7681,9.6725],[7.7546,9.6635],[7.7389,9.6523],[7.7299,9.6455],[7.7232,9.6388],[7.7164,9.632],[7.7052,9.6208],[7.6962,9.6073],[7.6827,9.5939],[7.6805,9.5849],[7.6782,9.5804],[7.667,9.5624],[7.658,9.5579],[7.6423,9.5557],[7.6243,9.5557],[7.6154,9.5557],[7.6064,9.5557],[7.5862,9.5534],[7.5749,9.549],[7.5592,9.5467],[7.5525,9.5467],[7.5435,9.549],[7.5278,9.5557],[7.5188,9.5602],[7.5008,9.5669],[7.4784,9.5714],[7.4649,9.5737],[7.4492,9.5759],[7.4424,9.5759],[7.4357,9.5781],[7.4155,9.5804],[7.402,9.5804],[7.3863,9.5714],[7.3796,9.5647],[7.3751,9.5624],[7.3661,9.5602],[7.3571,9.5557],[7.3459,9.5512],[7.3369,9.549],[7.3324,9.549],[7.3234,9.549],[7.3054,9.549],[7.2987,9.5467],[7.292,9.5445],[7.283,9.54],[7.274,9.5355],[7.2628,9.5287],[7.2605,9.5265],[7.2538,9.5243],[7.2471,9.522],[7.2381,9.5175],[7.2336,9.5085],[7.2268,9.4951],[7.2201,9.4951],[7.2156,9.504],[7.2111,9.5018],[7.2134,9.4928]]]}},{"type":"Feature","properties":{"id":"kaduna/kajuru","name":"Kajuru","state":"Kaduna"},"geometry":{"type":"Polygon","coordinates":[[[7.9522,10.6628],[7.959,10.6494],[7.9634,10.6381],[7.9747,10.6202],[7.9814,10.6112],[7.9904,10.6],[7.9994,10.591],[8.0061,10.582],[8.0106,10.5708],[8.0151,10.5663],[8.0173,10.5618],[8.0218,10.5551],[8.0263,10.5506],[8.0308,10.5438],[8.0353,10.5393],[8.0376,10.5259],[8.0421,10.5101],[8.0443,10.4989],[8.0443,10.4899],[8.0465,10.4809],[8.0488,10.4697],[8.0533,10.4517],[8.0533,10.4383],[8.0488,10.4181],[8.0465,10.4046],[8.0443,10.3911],[8.0376,10.3709],[8.0331,10.3574],[8.0308,10.3529],[8.0331,10.3462],[8.0421,10.3305],[8.0488,10.3192],[8.0555,10.3148],[8.0668,10.3148],[8.0735,10.3148],[8.0847,10.3148],[8.0982,10.308],[8.1072,10.3013],[8.1207,10.2968],[8.1386,10.2856],[8.1498,10.2743],[8.1588,10.2609],[8.1633,10.2541],[8.1678,10.2429],[8.1723,10.2362],[8.1768,10.2227],[8.1835,10.2137],[8.2015,10.1845],[8.2082,10.1733],[8.215,10.1643],[8.2172,10.1598],[8.2172,10.1576],[8.2195,10.1441],[8.2284,10.1284],[8.2352,10.1081],[8.2397,10.0969],[8.2509,10.0834],[8.2666,10.0632],[8.2756,10.052],[8.2846,10.0453],[8.2958,10.0408],[8.3071,10.0363],[8.3273,10.0273],[8.3385,10.0228],[8.3632,10.0206],[8.3744,10.0206],[8.3901,10.0183],[8.4036,10.0161],[8.4328,10.0026],[8.444,9.9936],[8.4553,9.9869],[8.4553,9.9779],[8.4598,9.9689],[8.4687,9.9577],[8.471,9.942],[8.4732,9.933],[8.48,9.915],[8.4845,9.9015],[8.4934,9.8858],[8.4957,9.8723],[8.5002,9.8679],[8.5114,9.8611],[8.5204,9.8544],[8.5249,9.8409],[8.5271,9.8342],[8.5271,9.805],[8.5249,9.7937],[8.5204,9.7803],[8.5182,9.769],[8.5159,9.7578],[8.5182,9.7488],[8.5249,9.7466],[8.5294,9.7443],[8.5384,9.7443],[8.5518,9.7421],[8.572,9.7376],[8.5788,9.7354],[8.59,9.7376],[8.599,9.7376],[8.6147,9.7421],[8.6215,9.7511],[8.6237,9.7533],[8.6304,9.7601],[8.6304,9.7623],[8.6304,9.7713],[8.6282,9.778],[8.6259,9.7892],[8.6282,9.8027],[8.6282,9.814],[8.6304,9.8297],[8.6304,9.8454],[8.6282,9.8544],[8.6282,9.8589],[8.6259,9.8679],[8.6215,9.8768],[8.6192,9.8836],[8.6192,9.8926],[8.6282,9.9083],[8.6349,9.9173],[8.6349,9.924],[8.6327,9.9307],[8.6237,9.9465],[8.617,9.9532],[8.6102,9.9577],[8.6102,9.9644],[8.617,9.9756],[8.6237,9.9779],[8.6237,9.9846],[8.6147,10.0004],[8.6102,10.0048],[8.6035,10.0116],[8.5855,10.0183],[8.5788,10.0183],[8.5631,10.0138],[8.5473,10.0071],[8.5406,10.0048],[8.5294,10.0116],[8.5182,10.0071],[8.5047,10.0004],[8.5002,9.9959],[8.4957,9.9914],[8.489,9.9891],[8.48,9.9891],[8.4777,9.9914],[8.4755,10.0004],[8.4732,10.0138],[8.4732,10.0228],[8.4777,10.0295],[8.48,10.043],[8.4822,10.0542],[8.4845,10.0587],[8.4867,10.07],[8.4867,10.0812],[8.4867,10.0902],[8.489,10.1261],[8.489,10.1306],[8.4934,10.1396],[8.4934,10.1508],[8.4912,10.1576],[8.489,10.1665],[8.4867,10.1755],[8.4777,10.1867],[8.4687,10.2025],[8.4598,10.2182],[8.453,10.2272],[8.4463,10.2362],[8.4396,10.2451],[8.4238,10.2586],[8.4036,10.2743],[8.3879,10.2811],[8.3834,10.2856],[8.3722,10.2945],[8.3677,10.3013],[8.3632,10.3103],[8.3632,10.3215],[8.3654,10.3327],[8.3677,10.3484],[8.3677,10.3597],[8.3722,10.3731],[8.3767,10.3866],[8.3789,10.3978],[8.3857,10.4091],[8.3946,10.4315],[8.3969,10.4383],[8.4014,10.4473],[8.4036,10.4585],[8.4059,10.4697],[8.4081,10.4854],[8.4081,10.4899],[8.4148,10.5012],[8.4238,10.5214],[8.4261,10.5326],[8.4328,10.5438],[8.4351,10.5461],[8.4396,10.5506],[8.4306,10.5528],[8.4126,10.5551],[8.3969,10.5595],[8.3767,10.5685],[8.3565,10.5753],[8.3407,10.5798],[8.3205,10.5887],[8.3071,10.5977],[8.2981,10.6134],[8.2823,10.6224],[8.2666,10.6314],[8.2487,10.6426],[8.2397,10.6494],[8.2082,10.6584],[8.1903,10.6651],[8.1678,10.6696],[8.1521,10.6718],[8.1341,10.6741],[8.1207,10.6786],[8.1072,10.6853],[8.0915,10.6876],[8.0825,10.692],[8.0712,10.6943],[8.0533,10.692],[8.0376,10.6898],[8.0241,10.6876],[8.0151,10.6876],[7.9994,10.6831],[7.9904,10.6763],[7.9837,10.6741],[7.9724,10.6718],[7.9545,10.6741],[7.9477,10.6741],[7.9522,10.6628]]]}},{"type":"Feature","properties":{"id":"kaduna/kaura","name":"Kaura","state":"Kaduna"},"geometry":{"type":"Polygon","coordinates":[[[8.316,9.5916],[8.3228,9.5916],[8.3295,9.5826],[8.3318,9.5759],[8.3385,9.5647],[8.3475,9.5602],[8.3542,9.5467],[8.3587,9.5355],[8.3677,9.522],[8.3744,9.5108],[8.3857,9.5018],[8.3946,9.4951],[8.4014,9.4951],[8.4126,9.4973],[8.4283,9.5018],[8.4373,9.5063],[8.4575,9.513],[8.4665,9.5153],[8.4755,9.5175],[8.4957,9.5265],[8.5069,9.531],[8.5159,9.5355],[8.5316,9.5422],[8.5451,9.5445],[8.5563,9.5467],[8.5563,9.5534],[8.5541,9.5692],[8.5541,9.5804],[8.5608,9.5894],[8.5631,9.5916],[8.5653,9.5961],[8.5676,9.6073],[8.5676,9.6208],[8.5653,9.6276],[8.5541,9.6523],[8.5541,9.6635],[8.5631,9.6702],[8.5653,9.6702],[8.5765,9.668],[8.581,9.6657],[8.5878,9.668],[8.5923,9.6747],[8.5968,9.6837],[8.599,9.6904],[8.5968,9.6994],[8.5945,9.7106],[8.5923,9.7219],[8.5945,9.7309],[8.599,9.7376],[8.59,9.7376],[8.5788,9.7354],[8.572,9.7376],[8.5518,9.7421],[8.5384,9.7443],[8.5294,9.7443],[8.5249,9.7466],[8.5182,9.7488],[8.5159,9.7376],[8.5182,9.7331],[8.5204,9.7241],[8.5249,9.7129],[8.5339,9.6949],[8.5316,9.6904],[8.5271,9.6859],[8.5204,9.6859],[8.5137,9.6882],[8.4979,9.6904],[8.4755,9.6882],[8.4598,9.6882],[8.444,9.6882],[8.4261,9.6882],[8.4148,9.6882],[8.4036,9.6904],[8.3946,9.6882],[8.3699,9.6792],[8.3632,9.6612],[8.3609,9.65],[8.3587,9.6433],[8.3587,9.6343],[8.352,9.6276],[8.3452,9.6186],[8.3407,9.6141],[8.325,9.6029],[8.3138,9.5961],[8.3093,9.5894],[8.316,9.5916]]]}},{"type":"Feature","properties":{"id":"kaduna/kauru","name":"Kauru","state":"Kaduna"},"geometry":{"type":"Polygon","coordinates":[[[7.5727,10.2339],[7.5794,10.2137],[7.5862,10.2002],[7.5907,10.1935],[7.5929,10.1912],[7.6019,10.18],[7.6041,10.1778],[7.6086,10.1665],[7.6109,10.1598],[7.6131,10.1598],[7.6198,10.1508],[7.6311,10.1373],[7.6513,10.1171],[7.6625,10.1037],[7.667,10.0969],[7.6737,10.0924],[7.6895,10.079],[7.6917,10.0745],[7.6962,10.07],[7.7029,10.0632],[7.7119,10.0542],[7.7164,10.0498],[7.7209,10.043],[7.7366,10.0363],[7.7456,10.0318],[7.7523,10.0295],[7.7748,10.0295],[7.7883,10.0318],[7.8197,10.0363],[7.831,10.0408],[7.8399,10.0453],[7.8601,10.0542],[7.8691,10.0587],[7.8848,10.0655],[7.9051,10.0745],[7.932,10.0834],[7.95,10.0879],[7.9657,10.0902],[7.9724,10.0947],[7.9814,10.0969],[7.9904,10.0992],[8.0106,10.1014],[8.0218,10.1014],[8.0286,10.1014],[8.0465,10.1014],[8.0533,10.0992],[8.0555,10.0969],[8.0623,10.0992],[8.069,10.1014],[8.0802,10.1037],[8.0959,10.1081],[8.1072,10.1126],[8.1409,10.1261],[8.1521,10.1306],[8.1633,10.1328],[8.179,10.1373],[8.1948,10.1463],[8.2082,10.1531],[8.2172,10.1576],[8.2172,10.1598],[8.215,10.1643],[8.2082,10.1733],[8.2015,10.1845],[8.1835,10.2137],[8.1768,10.2227],[8.1723,10.2362],[8.1678,10.2429],[8.1633,10.2541],[8.1588,10.2609],[8.1498,10.2743],[8.1386,10.2856],[8.1207,10.2968],[8.1072,10.3013],[8.0982,10.308],[8.0847,10.3148],[8.0735,10.3148],[8.0668,10.3148],[8.0555,10.3148],[8.0488,10.3192],[8.0421,10.3305],[8.0331,10.3462],[8.0308,10.3529],[8.0331,10.3574],[8.0376,10.3709],[8.0443,10.3911],[8.0465,10.4046],[8.0488,10.4181],[8.0533,10.4383],[8.0533,10.4517],[8.0488,10.4697],[8.0465,10.4809],[8.0443,10.4899],[8.0443,10.4989],[8.0421,10.5101],[8.0376,10.5259],[8.0353,10.5393],[8.0308,10.5438],[8.0263,10.5506],[8.0218,10.5551],[8.0196,10.5551],[8.0106,10.5528],[8.0016,10.5506],[7.9904,10.5528],[7.9814,10.5551],[7.9747,10.5528],[7.959,10.5483],[7.9545,10.5461],[7.95,10.5438],[7.9432,10.5416],[7.9298,10.5393],[7.9185,10.5438],[7.9096,10.5483],[7.8916,10.5348],[7.8804,10.5214],[7.8781,10.5169],[7.8691,10.5056],[7.8624,10.4989],[7.8557,10.4944],[7.8467,10.4922],[7.8377,10.4899],[7.8332,10.4899],[7.8175,10.4944],[7.8107,10.5056],[7.8018,10.5101],[7.7995,10.5124],[7.7928,10.5124],[7.786,10.5079],[7.7748,10.5012],[7.7703,10.4967],[7.7703,10.4922],[7.7658,10.4809],[7.7568,10.4675],[7.7501,10.4562],[7.7479,10.445],[7.7434,10.436],[7.7389,10.427],[7.7366,10.4226],[7.7299,10.4181],[7.7232,10.4136],[7.7142,10.4068],[7.7074,10.4001],[7.7007,10.3934],[7.6895,10.3821],[7.685,10.3754],[7.6827,10.3709],[7.6782,10.3619],[7.6737,10.3574],[7.6648,10.3507],[7.6558,10.344],[7.6423,10.3372],[7.6356,10.335],[7.6221,10.326],[7.6154,10.3215],[7.6086,10.317],[7.5929,10.3035],[7.5862,10.2945],[7.5794,10.2878],[7.566,10.2653],[7.566,10.2609],[7.566,10.2519],[7.5727,10.2339]]]}},{"type":"Feature","properties":{"id":"kaduna/kubau","name":"Kubau","state":"Kaduna"},"geometry":{"type":"Polygon","coordinates":[[[8.0241,10.6876],[8.0376,10.6898],[8.0533,10.692],[8.0712,10.6943],[8.0825,10.692],[8.0915,10.6876],[8.1072,10.6853],[8.1207,10.6786],[8.1341,10.6741],[8.1521,10.6718],[8.1678,10.6696],[8.1903,10.6651],[8.2082,10.6584],[8.2397,10.6494],[8.2487,10.6426],[8.2666,10.6314],[8.2823,10.6224],[8.2981,10.6134],[8.3071,10.5977],[8.3205,10.5887],[8.3407,10.5798],[8.3565,10.5753],[8.3767,10.5685],[8.3969,10.5595],[8.4126,10.5551],[8.4306,10.5528],[8.4396,10.5506],[8.444,10.5618],[8.4463,10.573],[8.4463,10.5865],[8.4463,10.5932],[8.444,10.6045],[8.4418,10.6134],[8.444,10.6224],[8.4485,10.6404],[8.453,10.6494],[8.4665,10.6763],[8.4687,10.6808],[8.4755,10.6876],[8.4822,10.692],[8.4912,10.6943],[8.4957,10.6943],[8.5002,10.6943],[8.5092,10.6943],[8.5114,10.6965],[8.5204,10.7033],[8.5182,10.7055],[8.5271,10.7123],[8.5339,10.7123],[8.5406,10.7123],[8.5496,10.71],[8.5563,10.7078],[8.5608,10.71],[8.5765,10.7123],[8.5878,10.7145],[8.5878,10.719],[8.5855,10.728],[8.581,10.7392],[8.5765,10.7706],[8.5765,10.7909],[8.5743,10.8021],[8.5743,10.8111],[8.5743,10.8245],[8.5743,10.8335],[8.572,10.8537],[8.5698,10.8627],[8.5676,10.8717],[8.5676,10.8784],[8.5698,10.8942],[8.5676,10.9076],[8.5698,10.9166],[8.572,10.9211],[8.5743,10.9301],[8.5765,10.9368],[8.581,10.9413],[8.5855,10.957],[8.5945,10.9817],[8.5968,10.9885],[8.599,10.993],[8.599,11.002],[8.599,11.0222],[8.5968,11.0603],[8.5923,11.0693],[8.581,11.0783],[8.5653,11.0851],[8.5586,11.0873],[8.5429,11.094],[8.5361,11.103],[8.5271,11.1165],[8.5249,11.1277],[8.5249,11.1389],[8.5204,11.1457],[8.5159,11.1502],[8.5137,11.1524],[8.5069,11.1524],[8.4957,11.1524],[8.4687,11.1502],[8.4598,11.1547],[8.444,11.1659],[8.4351,11.1726],[8.4238,11.1816],[8.4126,11.1906],[8.3946,11.2041],[8.3857,11.2063],[8.3834,11.2086],[8.3789,11.2063],[8.3767,11.2018],[8.3767,11.1973],[8.3789,11.1906],[8.3857,11.1816],[8.3946,11.1659],[8.4014,11.1614],[8.4081,11.1547],[8.4148,11.1457],[8.4171,11.1367],[8.4193,11.1322],[8.4171,11.1255],[8.4126,11.1187],[8.4059,11.1165],[8.3946,11.1165],[8.3901,11.1165],[8.3834,11.1165],[8.3699,11.112],[8.3587,11.112],[8.3475,11.112],[8.3385,11.112],[8.325,11.1165],[8.316,11.1187],[8.2891,11.1232],[8.2734,11.1232],[8.2621,11.1255],[8.2487,11.1277],[8.2374,11.13],[8.2195,11.13],[8.2037,11.13],[8.1993,11.1322],[8.1925,11.1322],[8.1723,11.13],[8.1678,11.13],[8.1633,11.1277],[8.1588,11.1232],[8.1566,11.112],[8.1566,11.103],[8.1566,11.0895],[8.1656,11.0693],[8.1678,11.0626],[8.1746,11.0514],[8.188,11.0356],[8.2082,11.0154],[8.2195,11.0064],[8.2307,11.002],[8.2442,10.9952],[8.2576,10.9862],[8.2666,10.9795],[8.2846,10.9638],[8.2868,10.9526],[8.2823,10.9458],[8.2779,10.9346],[8.2621,10.9189],[8.2532,10.9076],[8.2397,10.8964],[8.2307,10.8874],[8.2217,10.8807],[8.206,10.8717],[8.1925,10.8582],[8.1835,10.8515],[8.1566,10.8335],[8.1409,10.8268],[8.1229,10.8178],[8.1094,10.8088],[8.0712,10.7841],[8.0623,10.7751],[8.0488,10.7572],[8.0421,10.7437],[8.0353,10.728],[8.0286,10.7145],[8.0218,10.701],[8.0151,10.6876],[8.0241,10.6876]]]}},{"type":"Feature","properties":{"id":"kaduna/kudan","name":"Kudan","state":"Kaduna"},"geometry":{"type":"Polygon","coordinates":[[[7.6266,11.2625],[7.6333,11.2557],[7.6468,11.2378],[7.6558,11.2265],[7.6693,11.2153],[7.676,11.2086],[7.6827,11.2086],[7.6917,11.2108],[7.7007,11.2153],[7.7074,11.2198],[7.7187,11.2175],[7.7321,11.2175],[7.7411,11.2175],[7.7501,11.2153],[7.7613,11.2086],[7.7681,11.2018],[7.7748,11.1906],[7.7771,11.1861],[7.7793,11.1726],[7.7815,11.1659],[7.7815,11.1592],[7.7815,11.1502],[7.7815,11.1434],[7.7838,11.1389],[7.786,11.1389],[7.7928,11.1457],[7.7995,11.1502],[7.8062,11.1547],[7.813,11.1614],[7.8175,11.1637],[7.8287,11.1726],[7.8399,11.1771],[7.8489,11.1839],[7.8624,11.1951],[7.8669,11.2018],[7.8826,11.2108],[7.8961,11.2175],[7.8871,11.2288],[7.8804,11.2512],[7.8759,11.2625],[7.8759,11.2714],[7.8759,11.2804],[7.8781,11.2894],[7.8781,11.3006],[7.8759,11.3074],[7.8736,11.3164],[7.8624,11.3253],[7.8534,11.3321],[7.8489,11.3411],[7.8444,11.3545],[7.8444,11.3635],[7.8467,11.3703],[7.8489,11.377],[7.8399,11.377],[7.8332,11.377],[7.8242,11.3792],[7.8175,11.377],[7.795,11.377],[7.7838,11.377],[7.7793,11.3748],[7.7771,11.3725],[7.7748,11.368],[7.7636,11.3613],[7.7568,11.3568],[7.7523,11.3523],[7.7523,11.3478],[7.7523,11.3411],[7.7546,11.3366],[7.7523,11.3276],[7.7523,11.3231],[7.7456,11.3164],[7.7389,11.3141],[7.7344,11.3141],[7.7299,11.3141],[7.7164,11.3141],[7.7119,11.3141],[7.6962,11.3096],[7.6805,11.3006],[7.6737,11.2962],[7.6648,11.2894],[7.6558,11.2872],[7.6468,11.2827],[7.6356,11.2827],[7.6288,11.2827],[7.6243,11.267],[7.6266,11.2625]]]}},{"type":"Feature","properties":{"id":"kaduna/lere","name":"Lere","state":"Kaduna"},"geometry":{"type":"Polygon","coordinates":[[[8.3677,10.3013],[8.3722,10.2945],[8.3834,10.2856],[8.3879,10.2811],[8.4036,10.2743],[8.4238,10.2586],[8.4396,10.2451],[8.4463,10.2362],[8.453,10.2272],[8.4598,10.2182],[8.4687,10.2025],[8.4777,10.1867],[8.4867,10.1755],[8.489,10.1665],[8.4912,10.1576],[8.4934,10.1508],[8.4934,10.1396],[8.489,10.1306],[8.489,10.1261],[8.4867,10.0902],[8.4867,10.0812],[8.4867,10.07],[8.4845,10.0587],[8.4822,10.0542],[8.48,10.043],[8.4777,10.0295],[8.4732,10.0228],[8.4732,10.0138],[8.4755,10.0004],[8.4777,9.9914],[8.48,9.9891],[8.489,9.9891],[8.4957,9.9914],[8.5002,9.9959],[8.5047,10.0004],[8.5182,10.0071],[8.5294,10.0116],[8.5406,10.0048],[8.5473,10.0071],[8.5631,10.0138],[8.5788,10.0183],[8.5855,10.0183],[8.6035,10.0116],[8.6102,10.0048],[8.6147,10.0004],[8.6237,9.9846],[8.6237,9.9779],[8.6349,9.9801],[8.6417,9.9779],[8.6529,9.9779],[8.6619,9.9801],[8.6731,9.9869],[8.6776,9.9936],[8.6798,10.0048],[8.6798,10.0138],[8.6754,10.0318],[8.6731,10.0385],[8.6686,10.0453],[8.6619,10.0542],[8.6507,10.0722],[8.6484,10.0812],[8.6462,10.0902],[8.6417,10.0947],[8.6349,10.0969],[8.6304,10.1037],[8.6282,10.1126],[8.6282,10.1216],[8.6282,10.1239],[8.6304,10.1351],[8.6327,10.1441],[8.6394,10.1508],[8.6439,10.1576],[8.6462,10.162],[8.6462,10.1688],[8.6462,10.1823],[8.6462,10.1957],[8.6484,10.2047],[8.6551,10.2115],[8.6619,10.2182],[8.6709,10.2249],[8.6888,10.2406],[8.6978,10.2496],[8.7023,10.2541],[8.7113,10.2609],[8.718,10.2631],[8.7248,10.2676],[8.7293,10.2721],[8.7382,10.2788],[8.7472,10.2811],[8.754,10.2878],[8.7652,10.299],[8.7674,10.3035],[8.7719,10.3148],[8.7697,10.3237],[8.7652,10.3282],[8.7629,10.3305],[8.7629,10.3372],[8.7652,10.344],[8.7742,10.3597],[8.7742,10.3642],[8.7764,10.3731],[8.7764,10.3799],[8.7742,10.3844],[8.7719,10.3889],[8.7719,10.3934],[8.7742,10.3956],[8.7787,10.3934],[8.7899,10.3889],[8.7944,10.3844],[8.7989,10.3821],[8.8056,10.3821],[8.8101,10.3844],[8.8168,10.3866],[8.8236,10.3844],[8.8213,10.3911],[8.8168,10.3956],[8.8123,10.4023],[8.8056,10.4091],[8.7966,10.4158],[8.7832,10.4226],[8.7719,10.4248],[8.7629,10.4248],[8.754,10.427],[8.7472,10.427],[8.7405,10.4293],[8.7337,10.436],[8.7293,10.4517],[8.7293,10.4562],[8.736,10.4652],[8.745,10.4742],[8.754,10.4809],[8.7584,10.4854],[8.7629,10.4922],[8.7652,10.4989],[8.7719,10.5259],[8.7742,10.5393],[8.7742,10.5438],[8.7764,10.5551],[8.7787,10.5618],[8.7742,10.5663],[8.7674,10.5618],[8.7652,10.5573],[8.7607,10.5551],[8.7562,10.5506],[8.7495,10.5483],[8.736,10.5483],[8.7293,10.5506],[8.718,10.5528],[8.7001,10.5595],[8.6888,10.5663],[8.6866,10.5708],[8.6821,10.5753],[8.6776,10.5842],[8.6754,10.591],[8.6731,10.5977],[8.6641,10.6067],[8.6619,10.6134],[8.6596,10.6247],[8.6574,10.6314],[8.6529,10.6359],[8.6462,10.6404],[8.6394,10.6426],[8.6282,10.6471],[8.6125,10.6494],[8.608,10.6471],[8.6012,10.6449],[8.5968,10.6381],[8.5878,10.6337],[8.5833,10.6314],[8.5765,10.6314],[8.5631,10.6269],[8.5541,10.6292],[8.5473,10.6314],[8.5361,10.6337],[8.5249,10.6404],[8.5159,10.6539],[8.5114,10.6718],[8.5092,10.6943],[8.5002,10.6943],[8.4957,10.6943],[8.4912,10.6943],[8.4822,10.692],[8.4755,10.6876],[8.4687,10.6808],[8.4665,10.6763],[8.453,10.6494],[8.4485,10.6404],[8.444,10.6224],[8.4418,10.6134],[8.444,10.6045],[8.4463,10.5932],[8.4463,10.5865],[8.4463,10.573],[8.444,10.5618],[8.4396,10.5506],[8.4351,10.5461],[8.4328,10.5438],[8.4261,10.5326],[8.4238,10.5214],[8.4148,10.5012],[8.4081,10.4899],[8.4081,10.4854],[8.4059,10.4697],[8.4036,10.4585],[8.4014,10.4473],[8.3969,10.4383],[8.3946,10.4315],[8.3857,10.4091],[8.3789,10.3978],[8.3767,10.3866],[8.3722,10.3731],[8.3677,10.3597],[8.3677,10.3484],[8.3654,10.3327],[8.3632,10.3215],[8.3632,10.3103],[8.3677,10.3013]]]}},{"type":"Feature","properties":{"id":"kaduna/makarfi","name":"Makarfi","state":"Kaduna"},"geometry":{"type":"Polygon","coordinates":[[[7.8489,11.3411],[7.8534,11.3321],[7.8624,11.3253],[7.8736,11.3164],[7.8759,11.3074],[7.8781,11.3006],[7.8781,11.2894],[7.8759,11.2804],[7.8759,11.2714],[7.8759,11.2625],[7.8804,11.2512],[7.8871,11.2288],[7.8961,11.2175],[7.9073,11.2198],[7.9163,11.222],[7.9275,11.222],[7.9387,11.222],[7.9545,11.2243],[7.9634,11.2243],[7.9814,11.2243],[7.9949,11.2243],[8.0129,11.2243],[8.0241,11.2243],[8.0286,11.2243],[8.0353,11.2243],[8.0376,11.2243],[8.0488,11.2243],[8.06,11.222],[8.078,11.2243],[8.0892,11.2243],[8.0982,11.2265],[8.1162,11.2333],[8.1274,11.2378],[8.1319,11.2423],[8.1364,11.2467],[8.1341,11.2512],[8.1341,11.2557],[8.1296,11.2625],[8.1251,11.2692],[8.1072,11.2939],[8.1027,11.3029],[8.0982,11.3074],[8.0937,11.3186],[8.0892,11.3253],[8.0802,11.3343],[8.0712,11.3433],[8.0578,11.359],[8.0421,11.3815],[8.0331,11.3972],[8.0286,11.4084],[8.0241,11.4197],[8.0173,11.4331],[8.0106,11.4421],[7.9994,11.4534],[7.9926,11.4668],[7.9904,11.4691],[7.9837,11.4691],[7.9724,11.4601],[7.9657,11.4578],[7.9522,11.4511],[7.9365,11.4421],[7.9298,11.4331],[7.9208,11.4264],[7.9073,11.4174],[7.8983,11.4084],[7.8871,11.4017],[7.8826,11.3972],[7.8759,11.3927],[7.8714,11.386],[7.8669,11.3815],[7.8646,11.3792],[7.8557,11.377],[7.8512,11.377],[7.8489,11.377],[7.8467,11.3703],[7.8444,11.3635],[7.8444,11.3545],[7.8489,11.3411]]]}},{"type":"Feature","properties":{"id":"kaduna/sabon-gari","name":"Sabon-Gari","state":"Kaduna"},"geometry":{"type":"Polygon","coordinates":[[[7.5794,11.1502],[7.5907,11.1457],[7.6086,11.1434],[7.6198,11.1412],[7.6266,11.1367],[7.6311,11.1367],[7.6401,11.1345],[7.649,11.1322],[7.667,11.1232],[7.6737,11.121],[7.6782,11.1142],[7.6872,11.1098],[7.694,11.1075],[7.6962,11.1075],[7.7029,11.1008],[7.7074,11.0963],[7.7097,11.094],[7.7119,11.0918],[7.7209,11.0895],[7.7366,11.0851],[7.7411,11.0851],[7.7523,11.0963],[7.7546,11.1008],[7.7591,11.1053],[7.7681,11.1187],[7.7748,11.13],[7.7771,11.1345],[7.7838,11.1389],[7.7815,11.1434],[7.7815,11.1502],[7.7815,11.1592],[7.7815,11.1659],[7.7793,11.1726],[7.7771,11.1861],[7.7748,11.1906],[7.7681,11.2018],[7.7613,11.2086],[7.7501,11.2153],[7.7411,11.2175],[7.7321,11.2175],[7.7187,11.2175],[7.7074,11.2198],[7.7007,11.2153],[7.6917,11.2108],[7.6827,11.2086],[7.676,11.2086],[7.6693,11.2153],[7.6558,11.2265],[7.6468,11.2378],[7.6333,11.2557],[7.6266,11.2625],[7.6243,11.267],[7.6198,11.2625],[7.6154,11.2625],[7.6064,11.258],[7.6041,11.2535],[7.5929,11.24],[7.5794,11.2175],[7.5772,11.2131],[7.5749,11.1996],[7.5727,11.1771],[7.5727,11.1592],[7.5794,11.1502]]]}},{"type":"Feature","properties":{"id":"kaduna/sanga","name":"Sanga","state":"Kaduna"},"geometry":{"type":"Polygon","coordinates":[[[8.1409,9.0526],[8.1431,9.0549],[8.1498,9.0594],[8.1611,9.0661],[8.1813,9.0863],[8.1858,9.0908],[8.2015,9.1043],[8.215,9.12],[8.2307,9.1335],[8.2397,9.1447],[8.2419,9.1492],[8.2442,9.1559],[8.2509,9.1627],[8.2554,9.1784],[8.2487,9.1829],[8.2509,9.1919],[8.2689,9.1964],[8.2801,9.1986],[8.2891,9.1986],[8.3003,9.1941],[8.3048,9.1941],[8.3183,9.1874],[8.3273,9.1806],[8.3362,9.1784],[8.3475,9.1784],[8.3587,9.1784],[8.3812,9.1784],[8.3879,9.1762],[8.3924,9.1672],[8.3946,9.1627],[8.4126,9.1447],[8.4306,9.1268],[8.4373,9.12],[8.4418,9.1155],[8.4463,9.1133],[8.4732,9.0729],[8.4755,9.0706],[8.4755,9.0549],[8.48,9.0526],[8.4867,9.0437],[8.4912,9.0369],[8.4934,9.0234],[8.4979,9.0122],[8.5047,9.001],[8.5092,9.001],[8.5137,9.001],[8.5226,9.001],[8.5339,9.0055],[8.5473,9.0145],[8.5541,9.0212],[8.5586,9.0279],[8.5631,9.0414],[8.5631,9.0526],[8.5676,9.0616],[8.5698,9.0639],[8.581,9.0751],[8.5855,9.0818],[8.5945,9.0908],[8.6057,9.0998],[8.6102,9.1043],[8.6215,9.1155],[8.6282,9.1335],[8.6417,9.1582],[8.6462,9.1649],[8.6484,9.1717],[8.6551,9.1874],[8.6574,9.1964],[8.6574,9.2076],[8.6574,9.2098],[8.6574,9.2166],[8.6574,9.2188],[8.6596,9.2233],[8.6507,9.2345],[8.6462,9.2368],[8.6417,9.2368],[8.6372,9.2413],[8.6349,9.248],[8.6439,9.2593],[8.6484,9.2637],[8.6574,9.2682],[8.6664,9.2682],[8.6709,9.2682],[8.6798,9.275],[8.6843,9.284],[8.6866,9.2997],[8.6933,9.3131],[8.6978,9.3199],[8.6933,9.3221],[8.6933,9.3266],[8.6911,9.3401],[8.6888,9.3423],[8.6911,9.3558],[8.6933,9.3581],[8.6956,9.3693],[8.6956,9.3738],[8.6956,9.3783],[8.6911,9.385],[8.6866,9.3873],[8.6686,9.3962],[8.6641,9.394],[8.6551,9.394],[8.6484,9.3962],[8.6417,9.4007],[8.6372,9.4075],[8.6372,9.4097],[8.6327,9.4209],[8.6237,9.4299],[8.6192,9.4322],[8.6125,9.4479],[8.6057,9.4659],[8.6035,9.4726],[8.5945,9.4793],[8.5855,9.4816],[8.5765,9.4771],[8.5676,9.4748],[8.5608,9.4681],[8.5541,9.4636],[8.5451,9.4569],[8.5361,9.4524],[8.5271,9.4456],[8.5159,9.4389],[8.5069,9.4277],[8.4979,9.4187],[8.4957,9.4097],[8.4845,9.3895],[8.48,9.3738],[8.471,9.3491],[8.4665,9.3379],[8.4598,9.3334],[8.4508,9.3244],[8.4418,9.3176],[8.4351,9.3131],[8.4283,9.3087],[8.4261,9.2997],[8.4238,9.2952],[8.4261,9.2862],[8.4261,9.2817],[8.4238,9.2727],[8.4193,9.266],[8.4126,9.2637],[8.3991,9.2637],[8.3901,9.266],[8.3879,9.266],[8.3812,9.2682],[8.3654,9.2682],[8.3587,9.2682],[8.343,9.2682],[8.3318,9.266],[8.3228,9.2637],[8.3115,9.2615],[8.2981,9.2593],[8.2891,9.2593],[8.2779,9.2637],[8.2689,9.2637],[8.2644,9.2637],[8.2599,9.2615],[8.2554,9.257],[8.2509,9.2503],[8.2532,9.2458],[8.2554,9.239],[8.2576,9.2323],[8.2487,9.2188],[8.2352,9.2009],[8.2284,9.1941],[8.2195,9.1851],[8.2105,9.1739],[8.2037,9.1672],[8.197,9.1559],[8.188,9.147],[8.179,9.138],[8.1633,9.12],[8.1543,9.1133],[8.1454,9.0931],[8.1431,9.0818],[8.1409,9.0729],[8.1386,9.0594],[8.1364,9.0526],[8.1409,9.0526]]]}},{"type":"Feature","properties":{"id":"kaduna/soba","name":"Soba","state":"Kaduna"},"geometry":{"type":"Polygon","coordinates":[[[7.7568,11.094],[7.7613,11.0963],[7.7636,11.0985],[7.7658,11.1053],[7.7726,11.1098],[7.7771,11.112],[7.7838,11.1098],[7.7905,11.1053],[7.795,11.094],[7.7973,11.0873],[7.7995,11.0806],[7.7995,11.0738],[7.8018,11.0559],[7.7995,11.0379],[7.7995,11.0334],[7.7973,11.0289],[7.7905,11.0154],[7.7905,11.0064],[7.7905,11.002],[7.7973,10.984],[7.7995,10.9773],[7.8018,10.9773],[7.8085,10.975],[7.813,10.9683],[7.8175,10.9615],[7.822,10.9548],[7.8242,10.9458],[7.8265,10.9346],[7.8197,10.9189],[7.8152,10.9099],[7.8107,10.8987],[7.8018,10.8807],[7.7928,10.8717],[7.786,10.865],[7.7748,10.847],[7.7748,10.838],[7.7771,10.829],[7.7793,10.8156],[7.7838,10.8066],[7.7883,10.7998],[7.7973,10.7909],[7.8062,10.7819],[7.8107,10.7729],[7.8175,10.7639],[7.8265,10.7549],[7.831,10.7459],[7.8354,10.7347],[7.8377,10.7235],[7.8399,10.7123],[7.8444,10.7033],[7.8512,10.692],[7.8557,10.6876],[7.8646,10.6853],[7.8781,10.6831],[7.8938,10.6831],[7.9073,10.6831],[7.9185,10.6808],[7.9253,10.6786],[7.9477,10.6741],[7.9545,10.6741],[7.9724,10.6718],[7.9837,10.6741],[7.9904,10.6763],[7.9994,10.6831],[8.0151,10.6876],[8.0218,10.701],[8.0286,10.7145],[8.0353,10.728],[8.0421,10.7437],[8.0488,10.7572],[8.0623,10.7751],[8.0712,10.7841],[8.1094,10.8088],[8.1229,10.8178],[8.1409,10.8268],[8.1566,10.8335],[8.1835,10.8515],[8.1925,10.8582],[8.206,10.8717],[8.2217,10.8807],[8.2307,10.8874],[8.2397,10.8964],[8.2532,10.9076],[8.2621,10.9189],[8.2779,10.9346],[8.2823,10.9458],[8.2868,10.9526],[8.2846,10.9638],[8.2666,10.9795],[8.2576,10.9862],[8.2442,10.9952],[8.2307,11.002],[8.2195,11.0064],[8.2082,11.0154],[8.188,11.0356],[8.1746,11.0514],[8.1678,11.0626],[8.1656,11.0693],[8.1566,11.0895],[8.1566,11.103],[8.1566,11.112],[8.1588,11.1232],[8.1633,11.1277],[8.1678,11.13],[8.1656,11.1322],[8.1611,11.1389],[8.1498,11.1479],[8.1476,11.1502],[8.1386,11.1524],[8.1319,11.1569],[8.1229,11.1614],[8.1162,11.1681],[8.1004,11.1749],[8.0937,11.1794],[8.0735,11.1906],[8.0533,11.2041],[8.0421,11.2131],[8.0353,11.2243],[8.0286,11.2243],[8.0241,11.2243],[8.0129,11.2243],[7.9949,11.2243],[7.9814,11.2243],[7.9634,11.2243],[7.9545,11.2243],[7.9387,11.222],[7.9275,11.222],[7.9163,11.222],[7.9073,11.2198],[7.8961,11.2175],[7.8826,11.2108],[7.8669,11.2018],[7.8624,11.1951],[7.8489,11.1839],[7.8399,11.1771],[7.8287,11.1726],[7.8175,11.1637],[7.813,11.1614],[7.8062,11.1547],[7.7995,11.1502],[7.7928,11.1457],[7.786,11.1389],[7.7838,11.1389],[7.7771,11.1345],[7.7748,11.13],[7.7681,11.1187],[7.7591,11.1053],[7.7546,11.1008],[7.7523,11.0963],[7.7568,11.094]]]}},{"type":"Feature","properties":{"id":"kaduna/zango-kataf","name":"Zango-Kataf","state":"Kaduna"},"geometry":{"type":"Polygon","coordinates":[[[7.9747,9.8836],[7.9792,9.8701],[7.9837,9.8611],[7.9926,9.8409],[7.9971,9.8297],[7.9971,9.8207],[7.9994,9.814],[7.9994,9.805],[7.9994,9.7937],[8.0016,9.7803],[8.0016,9.7668],[7.9971,9.7488],[7.9971,9.7398],[7.9994,9.7309],[8.0084,9.7219],[8.0129,9.7196],[8.0218,9.7196],[8.0286,9.7174],[8.0488,9.7084],[8.06,9.7039],[8.0712,9.6972],[8.078,9.6927],[8.1072,9.6747],[8.1162,9.668],[8.1207,9.6612],[8.1229,9.65],[8.1251,9.641],[8.1251,9.6343],[8.1274,9.6276],[8.1274,9.6208],[8.1274,9.6096],[8.1274,9.5961],[8.1296,9.5849],[8.1296,9.5804],[8.1364,9.5737],[8.1409,9.5692],[8.1476,9.5624],[8.1521,9.5579],[8.1566,9.549],[8.1633,9.5422],[8.1723,9.5287],[8.179,9.5243],[8.1835,9.5198],[8.1925,9.522],[8.2082,9.5175],[8.2329,9.522],[8.2419,9.5265],[8.2576,9.5287],[8.2711,9.531],[8.2734,9.5355],[8.2779,9.549],[8.2801,9.5624],[8.2823,9.5692],[8.2891,9.5781],[8.2981,9.5849],[8.3093,9.5894],[8.3138,9.5961],[8.325,9.6029],[8.3407,9.6141],[8.3452,9.6186],[8.352,9.6276],[8.3587,9.6343],[8.3587,9.6433],[8.3609,9.65],[8.3632,9.6612],[8.3699,9.6792],[8.3946,9.6882],[8.4036,9.6904],[8.4148,9.6882],[8.4261,9.6882],[8.444,9.6882],[8.4598,9.6882],[8.4755,9.6882],[8.4979,9.6904],[8.5137,9.6882],[8.5204,9.6859],[8.5271,9.6859],[8.5316,9.6904],[8.5339,9.6949],[8.5249,9.7129],[8.5204,9.7241],[8.5182,9.7331],[8.5159,9.7376],[8.5182,9.7488],[8.5159,9.7578],[8.5182,9.769],[8.5204,9.7803],[8.5249,9.7937],[8.5271,9.805],[8.5271,9.8342],[8.5249,9.8409],[8.5204,9.8544],[8.5114,9.8611],[8.5002,9.8679],[8.4957,9.8723],[8.4934,9.8858],[8.4845,9.9015],[8.48,9.915],[8.4732,9.933],[8.471,9.942],[8.4687,9.9577],[8.4598,9.9689],[8.4553,9.9779],[8.4553,9.9869],[8.444,9.9936],[8.4328,10.0026],[8.4036,10.0161],[8.3901,10.0183],[8.3744,10.0206],[8.3632,10.0206],[8.3385,10.0228],[8.3273,10.0273],[8.3071,10.0363],[8.2958,10.0408],[8.2846,10.0453],[8.2756,10.052],[8.2666,10.0632],[8.2509,10.0834],[8.2397,10.0969],[8.2352,10.1081],[8.2284,10.1284],[8.2195,10.1441],[8.2172,10.1576],[8.2082,10.1531],[8.1948,10.1463],[8.179,10.1373],[8.1633,10.1328],[8.1521,10.1306],[8.1409,10.1261],[8.1072,10.1126],[8.0959,10.1081],[8.0802,10.1037],[8.069,10.1014],[8.0623,10.0992],[8.0555,10.0969],[8.0533,10.0924],[8.0533,10.079],[8.051,10.0677],[8.0465,10.0565],[8.0353,10.0408],[8.0263,10.0295],[8.0173,10.0183],[8.0106,10.0071],[8.0039,9.9936],[8.0016,9.9846],[7.9904,9.9644],[7.9837,9.9532],[7.9792,9.9397],[7.9747,9.9083],[7.9724,9.9015],[7.9724,9.8948],[7.9747,9.8836]]]}},{"type":"Feature","properties":{"id":"kaduna/zaria","name":"Zaria","state":"Kaduna"},"geometry":{"type":"Polygon","coordinates":[[[7.6109,10.9975],[7.6131,10.9907],[7.6243,10.9795],[7.6311,10.975],[7.6558,10.9705],[7.667,10.9683],[7.6895,10.966],[7.7007,10.9638],[7.7276,10.9615],[7.7456,10.9615],[7.7546,10.9638],[7.7748,10.9683],[7.786,10.9705],[7.7995,10.9773],[7.7973,10.984],[7.7905,11.002],[7.7905,11.0064],[7.7905,11.0154],[7.7973,11.0289],[7.7995,11.0334],[7.7995,11.0379],[7.8018,11.0559],[7.7995,11.0738],[7.7995,11.0806],[7.7973,11.0873],[7.795,11.094],[7.7905,11.1053],[7.7838,11.1098],[7.7771,11.112],[7.7726,11.1098],[7.7658,11.1053],[7.7636,11.0985],[7.7613,11.0963],[7.7568,11.094],[7.7523,11.0963],[7.7411,11.0851],[7.7366,11.0851],[7.7209,11.0895],[7.7119,11.0918],[7.7097,11.094],[7.7074,11.0963],[7.7029,11.1008],[7.6962,11.1075],[7.694,11.1075],[7.6872,11.1098],[7.6782,11.1142],[7.6737,11.121],[7.667,11.1232],[7.649,11.1322],[7.6401,11.1345],[7.6311,11.1367],[7.6266,11.1367],[7.6266,11.13],[7.6288,11.1142],[7.6333,11.0963],[7.6311,11.0783],[7.6288,11.0716],[7.6198,11.0491],[7.6154,11.0401],[7.6109,11.0312],[7.6086,11.0177],[7.6086,11.0109],[7.6086,11.0042],[7.6109,10.9975]]]}}]}