{"type":"FeatureCollection","features":[{"type":"Feature","properties":{"id":"kano/ajingi","name":"Ajingi","state":"Kano"},"geometry":{"type":"Polygon","coordinates":[[[8.864,11.9317],[8.8685,11.9205],[8.8685,11.9048],[8.8707,11.9003],[8.8775,11.9025],[8.882,11.9048],[8.8865,11.9115],[8.8932,11.9227],[8.9022,11.9227],[8.9067,11.9182],[8.9112,11.9115],[8.9112,11.9048],[8.9157,11.898],[8.9246,11.8935],[8.9471,11.8935],[8.9471,11.8958],[8.9516,11.9003],[8.9561,11.9003],[8.9628,11.9003],[8.9695,11.9003],[8.974,11.9003],[8.9785,11.8958],[8.983,11.889],[8.9875,11.8823],[8.992,11.8778],[9.001,11.8778],[9.0122,11.88],[9.0212,11.88],[9.0279,11.88],[9.0324,11.8778],[9.0459,11.8756],[9.0549,11.8756],[9.0616,11.8733],[9.0729,11.8688],[9.0796,11.8666],[9.0863,11.8643],[9.0931,11.8666],[9.102,11.8666],[9.1088,11.8711],[9.1155,11.88],[9.12,11.8845],[9.1268,11.8868],[9.1357,11.889],[9.147,11.889],[9.1537,11.8868],[9.1649,11.8868],[9.1829,11.8868],[9.1896,11.889],[9.1964,11.889],[9.2098,11.8913],[9.2166,11.8913],[9.2211,11.8913],[9.2278,11.8913],[9.2345,11.8913],[9.2368,11.8958],[9.2368,11.898],[9.239,11.9003],[9.239,11.9048],[9.239,11.907],[9.2368,11.916],[9.2345,11.9227],[9.2345,11.925],[9.2301,11.9317],[9.2256,11.9384],[9.2211,11.9452],[9.2211,11.9519],[9.2188,11.9609],[9.2211,11.9654],[9.2211,11.9676],[9.2233,11.9699],[9.2301,11.9766],[9.2345,11.9789],[9.2435,11.9856],[9.2503,11.9878],[9.2548,11.9923],[9.2548,11.9968],[9.2503,12.0013],[9.239,12.0013],[9.2368,12.0013],[9.2301,12.0013],[9.2256,12.0036],[9.2211,12.0103],[9.2211,12.0125],[9.2166,12.0193],[9.2166,12.0238],[9.2166,12.026],[9.2166,12.0417],[9.2188,12.053],[9.2211,12.0552],[9.2233,12.062],[9.2233,12.0754],[9.2233,12.0844],[9.2188,12.1001],[9.2143,12.1159],[9.2121,12.1181],[9.2031,12.1203],[9.1964,12.1203],[9.1851,12.1159],[9.1829,12.1159],[9.1717,12.1091],[9.1672,12.1046],[9.1649,12.1001],[9.1604,12.0934],[9.1537,12.0822],[9.1515,12.0799],[9.1492,12.0709],[9.147,12.062],[9.147,12.044],[9.147,12.035],[9.147,12.0305],[9.1447,12.0238],[9.1425,12.0215],[9.1402,12.017],[9.1357,12.017],[9.1245,12.0148],[9.12,12.0148],[9.1088,12.017],[9.102,12.0215],[9.0976,12.0238],[9.0908,12.0283],[9.0886,12.0305],[9.0841,12.0373],[9.0841,12.0395],[9.0818,12.0417],[9.0796,12.0485],[9.0729,12.0709],[9.0706,12.0777],[9.0684,12.0822],[9.0661,12.0822],[9.0594,12.0844],[9.0481,12.0822],[9.0437,12.0799],[9.0324,12.0754],[9.0167,12.0709],[9.01,12.0664],[8.9987,12.0575],[8.9943,12.0552],[8.9785,12.0485],[8.9606,12.044],[8.9561,12.0395],[8.9516,12.035],[8.9426,12.035],[8.9246,12.026],[8.9201,12.0215],[8.9157,12.017],[8.9134,12.0125],[8.9089,12.0081],[8.9089,12.0013],[8.9044,11.9968],[8.8909,11.9856],[8.882,11.9789],[8.8752,11.9744],[8.8707,11.9744],[8.8662,11.9699],[8.864,11.9631],[8.8618,11.9519],[8.8595,11.9452],[8.864,11.9317]]]}},{"type":"Feature","properties":{"id":"kano/albasu","name":"Albasu","state":"Kano"},"geometry":{"type":"Polygon","coordinates":[[[8.9471,11.615],[8.9516,11.6083],[8.9538,11.6061],[8.9583,11.6016],[8.9763,11.5859],[8.9875,11.5791],[9.001,11.5701],[9.01,11.5612],[9.0279,11.5432],[9.0324,11.5364],[9.0392,11.5297],[9.0459,11.5275],[9.0526,11.523],[9.0571,11.523],[9.0616,11.532],[9.0661,11.5499],[9.0706,11.5612],[9.0729,11.5724],[9.0751,11.5814],[9.0818,11.5903],[9.0841,11.6016],[9.0863,11.6061],[9.0976,11.6195],[9.1065,11.6218],[9.1133,11.624],[9.12,11.6308],[9.1268,11.6353],[9.1312,11.6398],[9.1357,11.642],[9.1447,11.6487],[9.1492,11.6487],[9.1649,11.6465],[9.1717,11.642],[9.1717,11.6375],[9.1627,11.6308],[9.1627,11.624],[9.1649,11.6195],[9.1739,11.6128],[9.1829,11.615],[9.2098,11.6106],[9.2166,11.6083],[9.2211,11.5971],[9.2188,11.5903],[9.2166,11.5836],[9.2143,11.5746],[9.2166,11.5679],[9.2233,11.5589],[9.2278,11.5544],[9.2413,11.5544],[9.2458,11.5544],[9.2682,11.5612],[9.2795,11.5634],[9.2884,11.5679],[9.2974,11.5612],[9.3064,11.5544],[9.3154,11.5522],[9.3221,11.5567],[9.3334,11.5567],[9.3379,11.5544],[9.3513,11.5544],[9.3558,11.5589],[9.3626,11.5634],[9.3648,11.5701],[9.3603,11.5746],[9.3468,11.5769],[9.3311,11.5769],[9.3154,11.5814],[9.3109,11.5814],[9.3087,11.5814],[9.2997,11.5859],[9.2952,11.5881],[9.2772,11.5971],[9.2727,11.6016],[9.2637,11.615],[9.2637,11.6173],[9.2682,11.6375],[9.2705,11.6442],[9.275,11.6577],[9.2772,11.66],[9.2772,11.6622],[9.275,11.6645],[9.2727,11.6645],[9.257,11.66],[9.2548,11.6577],[9.2525,11.6577],[9.2503,11.6555],[9.2435,11.6555],[9.2413,11.6555],[9.2368,11.6555],[9.2345,11.6577],[9.2323,11.66],[9.2301,11.6645],[9.2301,11.6712],[9.2256,11.6847],[9.2211,11.6892],[9.2188,11.6959],[9.2166,11.7004],[9.2188,11.7026],[9.2211,11.7049],[9.2233,11.7049],[9.2278,11.7026],[9.2345,11.7004],[9.2368,11.7026],[9.2413,11.7116],[9.2458,11.7206],[9.2458,11.7251],[9.2368,11.7184],[9.2301,11.7116],[9.2233,11.7094],[9.2121,11.7071],[9.2054,11.7094],[9.2009,11.6981],[9.1941,11.6959],[9.1851,11.6937],[9.1582,11.6914],[9.1447,11.6892],[9.1335,11.6914],[9.1245,11.6914],[9.0998,11.6937],[9.0908,11.6937],[9.0863,11.6937],[9.0751,11.6959],[9.0684,11.6959],[9.0504,11.6869],[9.0414,11.6824],[9.0324,11.6802],[9.0234,11.6824],[9.0145,11.6847],[9.0032,11.6847],[8.992,11.6824],[8.9853,11.6779],[8.9785,11.6757],[8.9718,11.6712],[8.974,11.6689],[8.9718,11.6577],[8.9695,11.6532],[8.9673,11.651],[8.9561,11.6487],[8.9493,11.6465],[8.9426,11.6353],[8.9426,11.6308],[8.9471,11.615]]]}},{"type":"Feature","properties":{"id":"kano/bagwai","name":"Bagwai","state":"Kano"},"geometry":{"type":"Polygon","coordinates":[[[8.0151,12.0934],[8.0173,12.0867],[8.0196,12.0777],[8.0263,12.0687],[8.0308,12.0664],[8.0353,12.0642],[8.0465,12.062],[8.0623,12.062],[8.0802,12.062],[8.0892,12.062],[8.1027,12.0575],[8.1139,12.053],[8.1229,12.044],[8.1229,12.0373],[8.1229,12.026],[8.1229,12.017],[8.1229,12.0103],[8.1319,11.9968],[8.1364,11.9923],[8.1409,11.9878],[8.1566,11.9789],[8.1588,11.9766],[8.1656,11.9834],[8.1701,11.9878],[8.1746,11.9878],[8.1858,11.9901],[8.1948,11.9901],[8.2015,11.9946],[8.2127,11.9968],[8.2195,11.9991],[8.2307,12.0058],[8.2374,12.0125],[8.2464,12.0193],[8.2487,12.026],[8.2509,12.0283],[8.2509,12.053],[8.2487,12.0687],[8.2464,12.0799],[8.2442,12.0867],[8.2464,12.0911],[8.2442,12.1001],[8.2397,12.1114],[8.2329,12.1226],[8.2284,12.1248],[8.224,12.1293],[8.2172,12.1316],[8.2105,12.1383],[8.206,12.145],[8.2037,12.154],[8.2037,12.1585],[8.2037,12.1653],[8.1993,12.1742],[8.1948,12.181],[8.1948,12.1832],[8.1903,12.19],[8.1768,12.1967],[8.1678,12.1967],[8.1521,12.2012],[8.1454,12.2034],[8.1364,12.2034],[8.1274,12.1989],[8.1207,12.1945],[8.1117,12.1877],[8.1094,12.181],[8.0982,12.172],[8.0892,12.1698],[8.0825,12.172],[8.0757,12.1765],[8.0668,12.1765],[8.06,12.172],[8.0555,12.1675],[8.0533,12.1585],[8.0465,12.1518],[8.0421,12.1518],[8.0353,12.154],[8.0286,12.163],[8.0173,12.1653],[8.0173,12.1608],[8.0173,12.1563],[8.0151,12.1428],[8.0129,12.1338],[8.0129,12.1203],[8.0129,12.1159],[8.0129,12.1046],[8.0151,12.0934]]]}},{"type":"Feature","properties":{"id":"kano/bebeji","name":"Bebeji","state":"Kano"},"geometry":{"type":"Polygon","coordinates":[[[8.2037,11.4287],[8.206,11.4197],[8.2082,11.4084],[8.2172,11.3927],[8.224,11.3837],[8.2284,11.3748],[8.2329,11.368],[8.2374,11.3613],[8.2442,11.3545],[8.2554,11.35],[8.2644,11.3456],[8.2779,11.3433],[8.2891,11.3388],[8.3003,11.3321],[8.3138,11.3253],[8.316,11.3231],[8.3205,11.3276],[8.3295,11.3298],[8.334,11.3343],[8.3362,11.3388],[8.3407,11.3433],[8.3497,11.35],[8.3587,11.3523],[8.3632,11.3568],[8.3722,11.368],[8.3834,11.377],[8.3901,11.3815],[8.3991,11.3882],[8.4081,11.3927],[8.4148,11.3995],[8.4171,11.4107],[8.4171,11.4152],[8.4193,11.4242],[8.4148,11.4331],[8.4126,11.4444],[8.4126,11.4601],[8.4193,11.4713],[8.4238,11.4803],[8.4261,11.4915],[8.4261,11.4983],[8.4306,11.5095],[8.4261,11.532],[8.4238,11.5409],[8.4216,11.5477],[8.4216,11.5567],[8.4216,11.5634],[8.4216,11.5701],[8.4148,11.5746],[8.4081,11.5769],[8.4014,11.5814],[8.3812,11.5993],[8.3699,11.6106],[8.3632,11.6128],[8.352,11.624],[8.3497,11.6263],[8.3452,11.633],[8.343,11.642],[8.334,11.66],[8.3295,11.6712],[8.3273,11.6802],[8.325,11.6914],[8.3228,11.7004],[8.3183,11.7116],[8.3183,11.7184],[8.3138,11.7206],[8.3071,11.7228],[8.3003,11.7228],[8.2936,11.7318],[8.2913,11.7273],[8.2846,11.7184],[8.2801,11.7139],[8.2779,11.7071],[8.2734,11.7004],[8.2644,11.6914],[8.2599,11.6802],[8.2554,11.6689],[8.2532,11.66],[8.2487,11.651],[8.2397,11.633],[8.2329,11.6263],[8.2284,11.6173],[8.224,11.6106],[8.224,11.5993],[8.2262,11.5903],[8.2284,11.5814],[8.2307,11.5724],[8.2329,11.5634],[8.2284,11.5567],[8.2262,11.5499],[8.2262,11.5432],[8.2307,11.532],[8.2262,11.5185],[8.2195,11.4983],[8.215,11.4893],[8.2082,11.4713],[8.206,11.4668],[8.2037,11.4534],[8.2015,11.4399],[8.2037,11.4287]]]}},{"type":"Feature","properties":{"id":"kano/bichi","name":"Bichi","state":"Kano"},"geometry":{"type":"Polygon","coordinates":[[[8.087,12.3359],[8.0915,12.3314],[8.0982,12.318],[8.1072,12.2933],[8.1072,12.2865],[8.1072,12.2753],[8.1094,12.2641],[8.1139,12.2618],[8.1184,12.2528],[8.1207,12.2439],[8.1207,12.2371],[8.1207,12.2304],[8.1207,12.2259],[8.1229,12.2214],[8.1251,12.2147],[8.1341,12.2057],[8.1364,12.2034],[8.1454,12.2034],[8.1521,12.2012],[8.1678,12.1967],[8.1768,12.1967],[8.1903,12.19],[8.1948,12.1832],[8.1993,12.1832],[8.2105,12.181],[8.2172,12.1787],[8.224,12.1765],[8.2352,12.172],[8.2442,12.1698],[8.2487,12.1675],[8.2532,12.163],[8.2576,12.1563],[8.2621,12.1518],[8.2756,12.1473],[8.2801,12.1473],[8.3003,12.1518],[8.3115,12.163],[8.3183,12.172],[8.3228,12.1765],[8.334,12.1832],[8.343,12.1832],[8.3452,12.181],[8.352,12.181],[8.3632,12.1832],[8.3722,12.1855],[8.3834,12.1922],[8.3946,12.2034],[8.3991,12.2079],[8.4081,12.2169],[8.4126,12.2236],[8.4171,12.2326],[8.4148,12.2416],[8.4193,12.2439],[8.4216,12.2439],[8.4283,12.2461],[8.4396,12.2506],[8.444,12.2528],[8.453,12.2506],[8.4575,12.2416],[8.4553,12.2349],[8.4553,12.2259],[8.462,12.2259],[8.4687,12.2236],[8.4755,12.2281],[8.48,12.2326],[8.4822,12.2394],[8.4845,12.2484],[8.489,12.2618],[8.4957,12.2731],[8.4979,12.2731],[8.4957,12.2775],[8.4957,12.2843],[8.4912,12.2955],[8.489,12.3022],[8.4777,12.3112],[8.4687,12.318],[8.4643,12.327],[8.4598,12.3337],[8.4485,12.3427],[8.444,12.3449],[8.4373,12.3404],[8.4193,12.3247],[8.4081,12.3135],[8.3946,12.3045],[8.3834,12.2978],[8.3789,12.2978],[8.3654,12.3],[8.3587,12.2978],[8.3542,12.2933],[8.3497,12.2865],[8.3452,12.2843],[8.334,12.2865],[8.3318,12.2933],[8.3228,12.2955],[8.3138,12.3],[8.3071,12.3],[8.3003,12.2955],[8.2891,12.3022],[8.2576,12.3157],[8.2442,12.3225],[8.2352,12.3292],[8.2284,12.3337],[8.2217,12.3382],[8.215,12.3404],[8.2037,12.3427],[8.197,12.3472],[8.188,12.3517],[8.1813,12.3539],[8.1723,12.3539],[8.1633,12.3584],[8.1498,12.3651],[8.1454,12.3674],[8.1319,12.3764],[8.1274,12.3786],[8.1162,12.3786],[8.1027,12.3696],[8.0982,12.3674],[8.0937,12.3651],[8.0915,12.3606],[8.087,12.3584],[8.0847,12.3561],[8.0825,12.3517],[8.0825,12.3472],[8.0825,12.3427],[8.087,12.3359]]]}},{"type":"Feature","properties":{"id":"kano/bunkure","name":"Bunkure","state":"Kano"},"geometry":{"type":"Polygon","coordinates":[[[8.4485,11.6689],[8.4508,11.6622],[8.4598,11.6442],[8.4598,11.6375],[8.4598,11.6308],[8.4643,11.6218],[8.4687,11.6106],[8.4755,11.5926],[8.4732,11.5836],[8.4732,11.5791],[8.4732,11.5724],[8.48,11.5701],[8.4867,11.5679],[8.4912,11.5701],[8.5024,11.5746],[8.5137,11.5769],[8.5204,11.5814],[8.5316,11.5903],[8.5496,11.5993],[8.5608,11.5971],[8.5608,11.5926],[8.5608,11.5836],[8.5631,11.5746],[8.5743,11.5679],[8.581,11.5724],[8.59,11.5791],[8.5923,11.5903],[8.5968,11.5971],[8.6035,11.6038],[8.6102,11.6061],[8.6215,11.6106],[8.6282,11.6083],[8.6349,11.6083],[8.6462,11.6061],[8.6551,11.6038],[8.6619,11.6061],[8.6798,11.6106],[8.7001,11.6173],[8.709,11.6173],[8.7158,11.6195],[8.727,11.6218],[8.7472,11.6263],[8.7562,11.624],[8.7652,11.6263],[8.7629,11.633],[8.7584,11.6442],[8.7629,11.6532],[8.7652,11.6667],[8.7652,11.6757],[8.7652,11.6959],[8.7629,11.7049],[8.7629,11.7094],[8.7607,11.7206],[8.7629,11.7228],[8.7629,11.7273],[8.7629,11.7341],[8.754,11.7453],[8.7495,11.7498],[8.7337,11.7588],[8.7225,11.7588],[8.718,11.7543],[8.7135,11.7431],[8.7045,11.7296],[8.7045,11.7228],[8.7045,11.7184],[8.7023,11.7139],[8.6956,11.7049],[8.6933,11.6937],[8.6933,11.6824],[8.6843,11.6622],[8.6798,11.6622],[8.6686,11.6645],[8.6619,11.6712],[8.6596,11.6779],[8.6574,11.6869],[8.6574,11.6937],[8.6529,11.7004],[8.6507,11.7071],[8.6507,11.7116],[8.6439,11.7184],[8.6372,11.7228],[8.6327,11.7273],[8.6259,11.7296],[8.6215,11.7296],[8.6102,11.7341],[8.599,11.7431],[8.5833,11.7588],[8.5788,11.7655],[8.5765,11.77],[8.5676,11.7745],[8.5608,11.7767],[8.5563,11.7767],[8.5496,11.7745],[8.5406,11.7723],[8.5271,11.7655],[8.5249,11.7633],[8.5182,11.7565],[8.5069,11.7386],[8.5069,11.7341],[8.5047,11.7228],[8.4979,11.7161],[8.4912,11.7116],[8.4867,11.7071],[8.4845,11.7071],[8.4732,11.7026],[8.4665,11.7026],[8.4598,11.6981],[8.453,11.6937],[8.4508,11.6892],[8.4463,11.6869],[8.444,11.6802],[8.444,11.6734],[8.4485,11.6689]]]}},{"type":"Feature","properties":{"id":"kano/dala","name":"Dala","state":"Kano"},"geometry":{"type":"Polygon","coordinates":[[[8.4755,12.0081],[8.4867,12.0013],[8.4934,11.9968],[8.4979,11.9901],[8.5069,11.9878],[8.5182,11.9878],[8.5294,11.9901],[8.5316,11.9901],[8.5316,11.9968],[8.5294,11.9991],[8.5204,12.0125],[8.5182,12.017],[8.5092,12.0283],[8.5002,12.0305],[8.4957,12.035],[8.4912,12.0305],[8.4845,12.0238],[8.4822,12.0215],[8.4777,12.0148],[8.4755,12.0125],[8.4687,12.0103],[8.4687,12.0081],[8.4755,12.0081]]]}},{"type":"Feature","properties":{"id":"kano/dambatta","name":"Dambatta","state":"Kano"},"geometry":{"type":"Polygon","coordinates":[[[8.4934,12.3561],[8.5002,12.3561],[8.5024,12.3606],[8.5092,12.3696],[8.5114,12.3741],[8.5159,12.3809],[8.5226,12.3831],[8.5294,12.3831],[8.5339,12.3831],[8.5406,12.3741],[8.5451,12.3651],[8.5473,12.3561],[8.5496,12.3494],[8.5563,12.3404],[8.5653,12.3359],[8.5765,12.3292],[8.5833,12.3225],[8.5855,12.3112],[8.5855,12.3067],[8.59,12.2933],[8.5945,12.2843],[8.599,12.2798],[8.6057,12.2686],[8.6102,12.2528],[8.6102,12.2506],[8.6192,12.2528],[8.6282,12.2573],[8.6462,12.2641],[8.6596,12.2686],[8.6641,12.2731],[8.6664,12.2775],[8.6686,12.2843],[8.6754,12.2933],[8.6776,12.2978],[8.6821,12.3],[8.6911,12.3045],[8.6978,12.3067],[8.709,12.3067],[8.7135,12.3022],[8.7248,12.2843],[8.7315,12.2708],[8.7315,12.282],[8.7315,12.2888],[8.7337,12.2933],[8.736,12.3],[8.7382,12.309],[8.7405,12.3157],[8.7517,12.3292],[8.7697,12.3494],[8.7742,12.3539],[8.7809,12.3629],[8.7921,12.3764],[8.7989,12.3876],[8.8011,12.3898],[8.8056,12.3943],[8.8101,12.3966],[8.8146,12.4033],[8.8168,12.4056],[8.8168,12.4145],[8.8146,12.4168],[8.8123,12.419],[8.7966,12.4235],[8.7944,12.4258],[8.7876,12.4258],[8.7854,12.4258],[8.7674,12.437],[8.7652,12.4392],[8.7562,12.4392],[8.7472,12.4415],[8.7427,12.4392],[8.7382,12.4415],[8.7337,12.4437],[8.7203,12.446],[8.718,12.4482],[8.7113,12.4505],[8.7068,12.4527],[8.7023,12.4595],[8.6933,12.4684],[8.6911,12.4707],[8.6866,12.4729],[8.6843,12.4774],[8.6843,12.4797],[8.6821,12.4842],[8.6776,12.4954],[8.6776,12.5021],[8.6776,12.5044],[8.6821,12.5156],[8.6821,12.5178],[8.6843,12.5223],[8.6866,12.5268],[8.6911,12.5291],[8.7023,12.5358],[8.709,12.5425],[8.7113,12.547],[8.7158,12.5583],[8.718,12.5672],[8.7158,12.5717],[8.7135,12.574],[8.6911,12.583],[8.6709,12.5875],[8.6619,12.5897],[8.6574,12.5897],[8.6484,12.592],[8.6484,12.5942],[8.6372,12.592],[8.6282,12.5897],[8.6192,12.5897],[8.608,12.5942],[8.599,12.5987],[8.5833,12.5964],[8.5586,12.5942],[8.5496,12.5942],[8.5518,12.5875],[8.5563,12.5785],[8.5586,12.5717],[8.5563,12.565],[8.5496,12.5605],[8.5451,12.5628],[8.5384,12.5628],[8.5339,12.5605],[8.5316,12.556],[8.5316,12.5515],[8.5339,12.5493],[8.5361,12.5448],[8.5429,12.5381],[8.5473,12.5313],[8.5586,12.5201],[8.5608,12.5156],[8.5653,12.5066],[8.5676,12.4954],[8.5608,12.4909],[8.5563,12.4886],[8.5451,12.4842],[8.5384,12.4819],[8.5294,12.4819],[8.5137,12.4729],[8.5092,12.4617],[8.5047,12.446],[8.5047,12.437],[8.5047,12.4325],[8.5069,12.4258],[8.5069,12.419],[8.5047,12.41],[8.5024,12.3921],[8.4979,12.3831],[8.4934,12.3741],[8.489,12.3696],[8.489,12.3629],[8.4934,12.3561]]]}},{"type":"Feature","properties":{"id":"kano/dawakin-kudu","name":"Dawakin Kudu","state":"Kano"},"geometry":{"type":"Polygon","coordinates":[[[8.5249,11.8374],[8.5271,11.8329],[8.5339,11.8284],[8.5473,11.8239],[8.5586,11.8104],[8.5676,11.8059],[8.5788,11.8059],[8.5878,11.7925],[8.5968,11.7812],[8.6102,11.7745],[8.6215,11.7655],[8.6349,11.7475],[8.6372,11.7386],[8.6372,11.7318],[8.6372,11.7228],[8.6439,11.7184],[8.6507,11.7116],[8.6507,11.7071],[8.6529,11.7004],[8.6574,11.6937],[8.6574,11.6869],[8.6596,11.6779],[8.6619,11.6712],[8.6686,11.6645],[8.6798,11.6622],[8.6843,11.6622],[8.6933,11.6824],[8.6933,11.6937],[8.6956,11.7049],[8.7023,11.7139],[8.7045,11.7184],[8.7045,11.7228],[8.7045,11.7296],[8.7135,11.7431],[8.718,11.7543],[8.7225,11.7588],[8.7337,11.7588],[8.7495,11.7498],[8.754,11.7453],[8.7629,11.7341],[8.7652,11.7386],[8.7719,11.7453],[8.7832,11.7498],[8.7899,11.7543],[8.8034,11.7655],[8.8101,11.7745],[8.8303,11.797],[8.8326,11.797],[8.8281,11.8059],[8.8191,11.8149],[8.8056,11.8217],[8.7921,11.8239],[8.7787,11.8217],[8.7652,11.8217],[8.7427,11.8217],[8.736,11.8217],[8.7293,11.8261],[8.727,11.8329],[8.7203,11.8419],[8.7158,11.8486],[8.7113,11.8531],[8.7068,11.8621],[8.7001,11.8688],[8.6956,11.8711],[8.6731,11.8868],[8.6664,11.889],[8.6596,11.8958],[8.6507,11.9092],[8.6462,11.916],[8.6417,11.9205],[8.6372,11.925],[8.6304,11.9272],[8.6304,11.925],[8.6282,11.9182],[8.6259,11.9115],[8.6192,11.8958],[8.6147,11.889],[8.6057,11.8845],[8.5968,11.88],[8.581,11.8756],[8.5698,11.8756],[8.5586,11.8733],[8.5563,11.8711],[8.5518,11.8666],[8.5473,11.8643],[8.5406,11.8621],[8.5339,11.8621],[8.5271,11.8598],[8.5226,11.8531],[8.5226,11.8486],[8.5182,11.8419],[8.5249,11.8374]]]}},{"type":"Feature","properties":{"id":"kano/dawakin-tofa","name":"Dawakin Tofa","state":"Kano"},"geometry":{"type":"Polygon","coordinates":[[[8.1993,12.1742],[8.2037,12.1653],[8.2037,12.1585],[8.2037,12.154],[8.206,12.145],[8.2105,12.1383],[8.2172,12.1316],[8.224,12.1293],[8.2284,12.1248],[8.2329,12.1226],[8.2397,12.1114],[8.2487,12.1091],[8.2509,12.1091],[8.2532,12.1046],[8.2644,12.1001],[8.2734,12.0979],[8.2801,12.0956],[8.2846,12.0956],[8.2913,12.0911],[8.2936,12.0889],[8.3003,12.0867],[8.3026,12.0799],[8.3071,12.0777],[8.316,12.0777],[8.3273,12.0754],[8.334,12.0732],[8.352,12.0597],[8.3542,12.0575],[8.3632,12.0485],[8.3677,12.0417],[8.3722,12.035],[8.3767,12.0283],[8.3857,12.0238],[8.3924,12.0193],[8.4059,12.0058],[8.4126,11.9968],[8.4193,11.9878],[8.4328,11.9834],[8.4396,11.9811],[8.4396,11.9856],[8.4373,12.0058],[8.4328,12.0238],[8.4328,12.0305],[8.4396,12.0485],[8.4418,12.0575],[8.4485,12.0597],[8.4575,12.0642],[8.462,12.0687],[8.4687,12.0732],[8.4732,12.0822],[8.4822,12.0934],[8.489,12.1024],[8.4979,12.1181],[8.5047,12.1226],[8.5137,12.1271],[8.5159,12.1271],[8.5182,12.1361],[8.5182,12.1518],[8.5182,12.1675],[8.5182,12.1922],[8.5226,12.2034],[8.5226,12.2169],[8.5204,12.2236],[8.5182,12.2304],[8.5204,12.2394],[8.5226,12.2439],[8.5271,12.2506],[8.5294,12.2551],[8.5271,12.2573],[8.5182,12.2551],[8.5092,12.2596],[8.5024,12.2663],[8.5002,12.2686],[8.4979,12.2731],[8.4957,12.2731],[8.489,12.2618],[8.4845,12.2484],[8.4822,12.2394],[8.48,12.2326],[8.4755,12.2281],[8.4687,12.2236],[8.462,12.2259],[8.4553,12.2259],[8.4553,12.2349],[8.4575,12.2416],[8.453,12.2506],[8.444,12.2528],[8.4396,12.2506],[8.4283,12.2461],[8.4216,12.2439],[8.4193,12.2439],[8.4148,12.2416],[8.4171,12.2326],[8.4126,12.2236],[8.4081,12.2169],[8.3991,12.2079],[8.3946,12.2034],[8.3834,12.1922],[8.3722,12.1855],[8.3632,12.1832],[8.352,12.181],[8.3452,12.181],[8.343,12.1832],[8.334,12.1832],[8.3228,12.1765],[8.3183,12.172],[8.3115,12.163],[8.3003,12.1518],[8.2801,12.1473],[8.2756,12.1473],[8.2621,12.1518],[8.2576,12.1563],[8.2532,12.163],[8.2487,12.1675],[8.2442,12.1698],[8.2352,12.172],[8.224,12.1765],[8.2172,12.1787],[8.2105,12.181],[8.1993,12.1832],[8.1948,12.1832],[8.1948,12.181],[8.1993,12.1742]]]}},{"type":"Feature","properties":{"id":"kano/doguwa","name":"Doguwa","state":"Kano"},"geometry":{"type":"Polygon","coordinates":[[[8.5114,10.6718],[8.5159,10.6539],[8.5249,10.6404],[8.5361,10.6337],[8.5473,10.6314],[8.5541,10.6292],[8.5631,10.6269],[8.5765,10.6314],[8.5833,10.6314],[8.5878,10.6337],[8.5968,10.6381],[8.6012,10.6449],[8.608,10.6471],[8.6125,10.6494],[8.6282,10.6471],[8.6394,10.6426],[8.6462,10.6404],[8.6529,10.6359],[8.6574,10.6314],[8.6596,10.6247],[8.6619,10.6134],[8.6641,10.6067],[8.6731,10.5977],[8.6754,10.591],[8.6776,10.5842],[8.6821,10.5753],[8.6866,10.5708],[8.6888,10.5663],[8.7001,10.5595],[8.718,10.5528],[8.7293,10.5506],[8.736,10.5483],[8.7495,10.5483],[8.7562,10.5506],[8.7607,10.5551],[8.7652,10.5573],[8.7674,10.5618],[8.7742,10.5663],[8.7787,10.5618],[8.7921,10.573],[8.8011,10.582],[8.8168,10.6045],[8.8213,10.6134],[8.8303,10.6314],[8.8348,10.6404],[8.8393,10.6516],[8.8415,10.6561],[8.846,10.6673],[8.8483,10.6763],[8.8528,10.6853],[8.855,10.6965],[8.855,10.7078],[8.8505,10.719],[8.846,10.7235],[8.837,10.7347],[8.8348,10.7437],[8.8326,10.7527],[8.8281,10.7572],[8.8213,10.7684],[8.8079,10.7796],[8.7966,10.7864],[8.7921,10.7909],[8.7899,10.7931],[8.7854,10.7976],[8.7787,10.8088],[8.7697,10.829],[8.7674,10.838],[8.7652,10.8605],[8.7652,10.865],[8.7674,10.8739],[8.7697,10.8852],[8.7719,10.8964],[8.7719,10.9031],[8.7764,10.9121],[8.7809,10.9189],[8.7854,10.9278],[8.7876,10.9368],[8.7876,10.9413],[8.7809,10.9503],[8.7719,10.957],[8.7674,10.966],[8.7629,10.9728],[8.7562,10.984],[8.7517,10.9975],[8.745,11.002],[8.7405,11.0064],[8.7382,11.0064],[8.727,11.0109],[8.718,11.0154],[8.7113,11.0267],[8.709,11.0379],[8.709,11.0469],[8.709,11.0559],[8.7068,11.0693],[8.7023,11.0783],[8.6956,11.0828],[8.6888,11.0873],[8.6798,11.094],[8.6731,11.103],[8.6641,11.1142],[8.6619,11.1322],[8.6596,11.1389],[8.6619,11.1479],[8.6619,11.1659],[8.6596,11.1839],[8.6551,11.2041],[8.6529,11.2131],[8.6462,11.2288],[8.6394,11.2333],[8.6282,11.2355],[8.6192,11.231],[8.6102,11.2243],[8.6035,11.2175],[8.5923,11.2063],[8.5878,11.1996],[8.5788,11.1906],[8.5676,11.1816],[8.5631,11.1726],[8.5541,11.1704],[8.5496,11.1681],[8.5451,11.1659],[8.5406,11.1637],[8.5271,11.1569],[8.5249,11.1569],[8.5204,11.1547],[8.5159,11.1547],[8.5137,11.1524],[8.5159,11.1502],[8.5204,11.1457],[8.5249,11.1389],[8.5249,11.1277],[8.5271,11.1165],[8.5361,11.103],[8.5429,11.094],[8.5586,11.0873],[8.5653,11.0851],[8.581,11.0783],[8.5923,11.0693],[8.5968,11.0603],[8.599,11.0222],[8.599,11.002],[8.599,10.993],[8.5968,10.9885],[8.5945,10.9817],[8.5855,10.957],[8.581,10.9413],[8.5765,10.9368],[8.5743,10.9301],[8.572,10.9211],[8.5698,10.9166],[8.5676,10.9076],[8.5698,10.8942],[8.5676,10.8784],[8.5676,10.8717],[8.5698,10.8627],[8.572,10.8537],[8.5743,10.8335],[8.5743,10.8245],[8.5743,10.8111],[8.5743,10.8021],[8.5765,10.7909],[8.5765,10.7706],[8.581,10.7392],[8.5855,10.728],[8.5878,10.719],[8.5878,10.7145],[8.5765,10.7123],[8.5608,10.71],[8.5563,10.7078],[8.5496,10.71],[8.5406,10.7123],[8.5339,10.7123],[8.5271,10.7123],[8.5182,10.7055],[8.5204,10.7033],[8.5114,10.6965],[8.5092,10.6943],[8.5114,10.6718]]]}},{"type":"Feature","properties":{"id":"kano/fagge","name":"Fagge","state":"Kano"},"geometry":{"type":"Polygon","coordinates":[[[8.5002,12.0305],[8.5092,12.0283],[8.5182,12.017],[8.5204,12.0125],[8.5294,11.9991],[8.5316,11.9968],[8.5316,11.9901],[8.5361,11.9901],[8.5406,11.9856],[8.5451,11.9834],[8.5496,11.9856],[8.5541,11.9923],[8.5608,12.0103],[8.5608,12.0193],[8.5563,12.0193],[8.5496,12.0215],[8.5451,12.0238],[8.5406,12.0283],[8.5339,12.0328],[8.5226,12.0417],[8.5092,12.0417],[8.5024,12.0395],[8.4957,12.035],[8.5002,12.0305]]]}},{"type":"Feature","properties":{"id":"kano/gabasawa","name":"Gabasawa","state":"Kano"},"geometry":{"type":"Polygon","coordinates":[[[8.7337,12.1563],[8.7495,12.1563],[8.7764,12.1518],[8.7809,12.1473],[8.7832,12.1406],[8.7809,12.1293],[8.7787,12.1159],[8.7809,12.1114],[8.7876,12.1046],[8.7876,12.0979],[8.7876,12.0911],[8.7921,12.0822],[8.8011,12.0754],[8.8079,12.0754],[8.8213,12.0732],[8.8258,12.0687],[8.8326,12.053],[8.8326,12.0485],[8.8348,12.0328],[8.8393,12.0215],[8.8415,12.0148],[8.8393,12.0081],[8.8326,12.0058],[8.8258,12.0058],[8.8213,12.0058],[8.8168,12.0013],[8.8168,11.9968],[8.8236,11.9923],[8.8303,11.9856],[8.837,11.9789],[8.8438,11.9789],[8.8483,11.9789],[8.855,11.9766],[8.8595,11.9744],[8.8662,11.9699],[8.8707,11.9744],[8.8752,11.9744],[8.882,11.9789],[8.8909,11.9856],[8.9044,11.9968],[8.9089,12.0013],[8.9089,12.0081],[8.9134,12.0125],[8.9157,12.017],[8.9201,12.0215],[8.9246,12.026],[8.9426,12.035],[8.9516,12.035],[8.9561,12.0395],[8.9606,12.044],[8.9785,12.0485],[8.9943,12.0552],[8.9987,12.0575],[9.01,12.0664],[9.0167,12.0709],[9.0324,12.0754],[9.0437,12.0799],[9.0414,12.0822],[9.0257,12.0777],[9.0167,12.0754],[9.01,12.0754],[9.0077,12.0754],[8.9965,12.0777],[8.9943,12.0777],[8.992,12.0799],[8.9853,12.0844],[8.9853,12.0867],[8.9808,12.0889],[8.9785,12.0889],[8.9695,12.0867],[8.9651,12.0844],[8.9583,12.0799],[8.9538,12.0732],[8.9493,12.0687],[8.9471,12.0687],[8.9448,12.0732],[8.9471,12.0799],[8.9471,12.0844],[8.9493,12.0889],[8.9471,12.1024],[8.9471,12.1046],[8.9448,12.1091],[8.9426,12.1114],[8.9404,12.1136],[8.9426,12.1181],[8.9426,12.1203],[8.9471,12.1248],[8.9493,12.1293],[8.9493,12.1316],[8.9516,12.1361],[8.9516,12.1383],[8.9516,12.1406],[8.9516,12.145],[8.9538,12.1473],[8.9583,12.1473],[8.9606,12.1473],[8.9628,12.1473],[8.9651,12.1495],[8.9673,12.1518],[8.9673,12.154],[8.9673,12.1585],[8.9651,12.1675],[8.9628,12.1787],[8.9628,12.1832],[8.9538,12.1967],[8.9516,12.1989],[8.9471,12.2034],[8.9426,12.2079],[8.9112,12.2349],[8.9022,12.2461],[8.8977,12.2551],[8.8909,12.2686],[8.8887,12.2708],[8.8909,12.282],[8.8909,12.2843],[8.8932,12.2888],[8.8977,12.2955],[8.8999,12.2978],[8.9022,12.3022],[8.9044,12.3067],[8.9067,12.309],[8.9067,12.3135],[8.9067,12.3157],[8.9022,12.3157],[8.8954,12.3157],[8.8909,12.3157],[8.8797,12.3135],[8.8707,12.309],[8.8685,12.3067],[8.8662,12.3],[8.8662,12.2933],[8.864,12.282],[8.8528,12.2775],[8.8505,12.2798],[8.846,12.282],[8.8438,12.2933],[8.8438,12.2955],[8.8438,12.3],[8.8415,12.309],[8.837,12.3157],[8.8236,12.3157],[8.8191,12.3157],[8.8079,12.3135],[8.8011,12.3067],[8.7989,12.3022],[8.7989,12.3],[8.7989,12.2955],[8.7966,12.291],[8.7944,12.2888],[8.7876,12.2865],[8.7832,12.2843],[8.7787,12.282],[8.7742,12.2753],[8.7719,12.2708],[8.7562,12.2416],[8.754,12.2394],[8.7427,12.2236],[8.7405,12.2192],[8.7293,12.2147],[8.7337,12.2079],[8.7337,12.1989],[8.7337,12.1877],[8.7337,12.1787],[8.7315,12.1675],[8.7293,12.1585],[8.7293,12.154],[8.7337,12.1563]]]}},{"type":"Feature","properties":{"id":"kano/garko","name":"Garko","state":"Kano"},"geometry":{"type":"Polygon","coordinates":[[[8.7629,11.633],[8.7652,11.6263],[8.7697,11.6173],[8.7674,11.6061],[8.7652,11.5971],[8.7629,11.5814],[8.7652,11.5746],[8.7652,11.5634],[8.7674,11.5522],[8.7697,11.5454],[8.7697,11.5342],[8.7697,11.5252],[8.7697,11.514],[8.7697,11.5095],[8.7697,11.4983],[8.7697,11.4893],[8.7697,11.4825],[8.7652,11.4691],[8.7607,11.4623],[8.7652,11.4578],[8.7697,11.4534],[8.7719,11.4489],[8.7764,11.4331],[8.7764,11.4264],[8.7787,11.4219],[8.7854,11.4152],[8.7921,11.4062],[8.7921,11.3972],[8.7944,11.3882],[8.8011,11.3905],[8.8213,11.3972],[8.8303,11.4017],[8.837,11.4062],[8.8438,11.4152],[8.8505,11.4331],[8.8528,11.4444],[8.8528,11.4511],[8.8595,11.4623],[8.864,11.4668],[8.8685,11.4713],[8.8752,11.4825],[8.8797,11.496],[8.882,11.505],[8.882,11.5162],[8.882,11.5275],[8.8887,11.5364],[8.8954,11.5409],[8.9022,11.5432],[8.9157,11.5499],[8.9269,11.5567],[8.9336,11.5612],[8.9381,11.5656],[8.9448,11.5679],[8.9561,11.5679],[8.9606,11.5634],[8.9695,11.5567],[8.9785,11.5499],[8.9853,11.5432],[8.9898,11.532],[8.9965,11.523],[9.001,11.514],[9.0122,11.5028],[9.0167,11.5005],[9.019,11.5005],[9.0279,11.4983],[9.0347,11.496],[9.0414,11.5028],[9.0459,11.5117],[9.0414,11.5185],[9.0392,11.5297],[9.0324,11.5364],[9.0279,11.5432],[9.01,11.5612],[9.001,11.5701],[8.9875,11.5791],[8.9763,11.5859],[8.9583,11.6016],[8.9538,11.6061],[8.9448,11.6038],[8.9179,11.5993],[8.9112,11.5971],[8.9022,11.5948],[8.8954,11.5948],[8.8842,11.5993],[8.8797,11.6016],[8.8752,11.6106],[8.8775,11.615],[8.8842,11.6173],[8.8887,11.6195],[8.8954,11.624],[8.8999,11.6285],[8.9022,11.6353],[8.9022,11.6398],[8.8999,11.642],[8.8977,11.6487],[8.8909,11.6577],[8.8842,11.6667],[8.8775,11.6689],[8.8775,11.6622],[8.8797,11.6555],[8.8797,11.6465],[8.8752,11.6465],[8.8685,11.651],[8.864,11.6577],[8.8595,11.6645],[8.855,11.6689],[8.8505,11.6667],[8.8438,11.6645],[8.837,11.6645],[8.8326,11.6667],[8.8281,11.6712],[8.8236,11.6802],[8.8191,11.6892],[8.8146,11.6959],[8.8101,11.6959],[8.7989,11.6937],[8.7921,11.6959],[8.7876,11.7004],[8.7832,11.7094],[8.7787,11.7116],[8.7697,11.7071],[8.7629,11.7049],[8.7652,11.6959],[8.7652,11.6757],[8.7652,11.6667],[8.7629,11.6532],[8.7584,11.6442],[8.7629,11.633]]]}},{"type":"Feature","properties":{"id":"kano/garum-mallam","name":"Garum Mallam","state":"Kano"},"geometry":{"type":"Polygon","coordinates":[[[8.3228,11.7004],[8.325,11.6914],[8.3273,11.6802],[8.3295,11.6712],[8.334,11.66],[8.343,11.642],[8.3452,11.633],[8.3497,11.6263],[8.352,11.624],[8.3632,11.6128],[8.3699,11.6106],[8.3812,11.5993],[8.4014,11.5814],[8.4081,11.5769],[8.4148,11.5746],[8.4216,11.5701],[8.4261,11.5724],[8.4306,11.5724],[8.4351,11.5724],[8.444,11.5701],[8.453,11.5656],[8.4575,11.5656],[8.4598,11.5679],[8.4643,11.5724],[8.4732,11.5724],[8.4732,11.5791],[8.4732,11.5836],[8.4755,11.5926],[8.4687,11.6106],[8.4643,11.6218],[8.4598,11.6308],[8.4598,11.6375],[8.4598,11.6442],[8.4508,11.6622],[8.4485,11.6689],[8.444,11.6734],[8.444,11.6802],[8.4463,11.6869],[8.4508,11.6892],[8.453,11.6937],[8.4598,11.6981],[8.4665,11.7026],[8.4732,11.7026],[8.471,11.7116],[8.4665,11.7161],[8.462,11.7206],[8.4598,11.7228],[8.453,11.7251],[8.4463,11.7228],[8.4418,11.7228],[8.4351,11.7184],[8.4238,11.7184],[8.4193,11.7251],[8.4148,11.7363],[8.4126,11.7408],[8.4126,11.7475],[8.4081,11.7543],[8.4059,11.7543],[8.3991,11.752],[8.3924,11.752],[8.3879,11.7431],[8.3857,11.7408],[8.3834,11.7386],[8.3677,11.7273],[8.3385,11.7161],[8.3318,11.7139],[8.3273,11.7139],[8.3183,11.7116],[8.3228,11.7004]]]}},{"type":"Feature","properties":{"id":"kano/gaya","name":"Gaya","state":"Kano"},"geometry":{"type":"Polygon","coordinates":[[[8.8999,11.779],[8.9022,11.7723],[8.9067,11.7565],[8.9134,11.7475],[8.9179,11.7408],[8.9201,11.7341],[8.9291,11.7251],[8.9359,11.7161],[8.9426,11.7071],[8.9538,11.6959],[8.9695,11.6779],[8.9718,11.6712],[8.9785,11.6757],[8.9853,11.6779],[8.992,11.6824],[9.0032,11.6847],[9.0145,11.6847],[9.0234,11.6824],[9.0324,11.6802],[9.0414,11.6824],[9.0504,11.6869],[9.0684,11.6959],[9.0751,11.6959],[9.0863,11.6937],[9.0908,11.6937],[9.0998,11.6937],[9.1245,11.6914],[9.1335,11.6914],[9.1447,11.6892],[9.1582,11.6914],[9.1851,11.6937],[9.1941,11.6959],[9.2009,11.6981],[9.2054,11.7094],[9.2121,11.7071],[9.2233,11.7094],[9.2301,11.7116],[9.2368,11.7184],[9.2458,11.7251],[9.2503,11.7251],[9.2503,11.7341],[9.2503,11.7386],[9.2503,11.7431],[9.248,11.7453],[9.2458,11.7475],[9.2413,11.7498],[9.2368,11.7498],[9.2345,11.7498],[9.2233,11.7475],[9.2188,11.7453],[9.2143,11.7453],[9.2076,11.7431],[9.1941,11.7431],[9.1919,11.7453],[9.1896,11.7475],[9.1874,11.7498],[9.1784,11.7475],[9.1762,11.7453],[9.1717,11.7431],[9.1672,11.7408],[9.1649,11.7386],[9.1627,11.7363],[9.1604,11.7363],[9.1492,11.7431],[9.147,11.7453],[9.147,11.7475],[9.147,11.7498],[9.147,11.7588],[9.147,11.7633],[9.147,11.7655],[9.1447,11.77],[9.1425,11.7767],[9.1425,11.779],[9.1402,11.7857],[9.1402,11.7902],[9.1425,11.7992],[9.1447,11.8082],[9.1515,11.8127],[9.1582,11.8172],[9.1649,11.8239],[9.1762,11.8351],[9.1941,11.8509],[9.1986,11.8553],[9.2009,11.8621],[9.2009,11.8643],[9.2076,11.8711],[9.2121,11.8711],[9.2143,11.8711],[9.2233,11.8756],[9.2256,11.88],[9.2301,11.8845],[9.2345,11.8913],[9.2278,11.8913],[9.2211,11.8913],[9.2166,11.8913],[9.2098,11.8913],[9.1964,11.889],[9.1896,11.889],[9.1829,11.8868],[9.1649,11.8868],[9.1537,11.8868],[9.147,11.889],[9.1357,11.889],[9.1268,11.8868],[9.12,11.8845],[9.1155,11.88],[9.1088,11.8711],[9.102,11.8666],[9.0931,11.8666],[9.0863,11.8643],[9.0796,11.8666],[9.0729,11.8688],[9.0616,11.8733],[9.0549,11.8756],[9.0459,11.8756],[9.0324,11.8778],[9.0279,11.88],[9.0212,11.88],[9.0122,11.88],[9.001,11.8778],[8.992,11.8778],[8.9875,11.8823],[8.983,11.889],[8.9785,11.8958],[8.974,11.9003],[8.9695,11.9003],[8.9628,11.9003],[8.9561,11.9003],[8.9516,11.9003],[8.9471,11.8958],[8.9471,11.8935],[8.9493,11.8935],[8.9583,11.8845],[8.9583,11.8756],[8.9583,11.8688],[8.9493,11.8598],[8.9426,11.8553],[8.9336,11.8464],[8.9224,11.8374],[8.9157,11.8284],[8.9044,11.8149],[8.8999,11.8104],[8.8954,11.8037],[8.8954,11.788],[8.8999,11.779]]]}},{"type":"Feature","properties":{"id":"kano/gezawa","name":"Gezawa","state":"Kano"},"geometry":{"type":"Polygon","coordinates":[[[8.6102,12.0081],[8.6125,12.0058],[8.617,12.0013],[8.6192,11.9968],[8.6192,11.9923],[8.6147,11.9878],[8.6147,11.9834],[8.617,11.9789],[8.6192,11.9744],[8.6282,11.9676],[8.6327,11.9654],[8.6372,11.9631],[8.6507,11.9609],[8.6551,11.9609],[8.6619,11.9631],[8.6686,11.9676],[8.6731,11.9699],[8.6776,11.9766],[8.6888,11.9834],[8.6933,11.9856],[8.7023,11.9878],[8.7113,11.9901],[8.7158,11.9901],[8.7203,11.9878],[8.727,11.9856],[8.736,11.9766],[8.7405,11.9721],[8.7517,11.9609],[8.7584,11.9564],[8.7719,11.9519],[8.7809,11.9564],[8.7899,11.9609],[8.8079,11.9721],[8.8123,11.9744],[8.8258,11.9789],[8.8326,11.9811],[8.837,11.9789],[8.8303,11.9856],[8.8236,11.9923],[8.8168,11.9968],[8.8168,12.0013],[8.8213,12.0058],[8.8258,12.0058],[8.8326,12.0058],[8.8393,12.0081],[8.8415,12.0148],[8.8393,12.0215],[8.8348,12.0328],[8.8326,12.0485],[8.8326,12.053],[8.8258,12.0687],[8.8213,12.0732],[8.8079,12.0754],[8.8011,12.0754],[8.7921,12.0822],[8.7876,12.0911],[8.7876,12.0979],[8.7876,12.1046],[8.7809,12.1114],[8.7787,12.1159],[8.7809,12.1293],[8.7832,12.1406],[8.7809,12.1473],[8.7764,12.1518],[8.7495,12.1563],[8.7337,12.1563],[8.7293,12.154],[8.7203,12.1428],[8.7135,12.1383],[8.7023,12.1316],[8.6933,12.1248],[8.6933,12.1203],[8.6821,12.1114],[8.6754,12.1069],[8.6686,12.1001],[8.6686,12.0956],[8.6641,12.0934],[8.6574,12.0934],[8.6619,12.0844],[8.6619,12.0777],[8.6664,12.0597],[8.6664,12.0552],[8.6641,12.0485],[8.6619,12.044],[8.6529,12.0395],[8.6462,12.0373],[8.6417,12.035],[8.6327,12.0328],[8.6282,12.0328],[8.6215,12.0305],[8.6125,12.0283],[8.608,12.026],[8.6057,12.0215],[8.6057,12.017],[8.6057,12.0125],[8.6102,12.0081]]]}},{"type":"Feature","properties":{"id":"kano/gwale","name":"Gwale","state":"Kano"},"geometry":{"type":"Polygon","coordinates":[[[8.471,11.9923],[8.471,11.9789],[8.471,11.9721],[8.471,11.9542],[8.4777,11.9564],[8.48,11.9609],[8.4845,11.9654],[8.489,11.9699],[8.5002,11.9744],[8.5114,11.9766],[8.5159,11.9766],[8.5204,11.9766],[8.5316,11.9766],[8.5316,11.9901],[8.5294,11.9901],[8.5182,11.9878],[8.5069,11.9878],[8.4979,11.9901],[8.4934,11.9968],[8.4867,12.0013],[8.4755,12.0081],[8.4687,12.0081],[8.4643,12.0036],[8.4643,11.9991],[8.471,11.9923]]]}},{"type":"Feature","properties":{"id":"kano/gwarzo","name":"Gwarzo","state":"Kano"},"geometry":{"type":"Polygon","coordinates":[[[7.8354,11.9519],[7.8377,11.9362],[7.8399,11.9272],[7.8399,11.9227],[7.8422,11.9182],[7.8422,11.907],[7.8444,11.9003],[7.8467,11.898],[7.8489,11.8935],[7.8557,11.8778],[7.8601,11.8711],[7.8646,11.8598],[7.8691,11.8441],[7.8736,11.8329],[7.8736,11.8217],[7.8736,11.8082],[7.8736,11.7992],[7.8848,11.7947],[7.8916,11.7925],[7.8983,11.7857],[7.9051,11.7835],[7.9163,11.7835],[7.9208,11.7857],[7.9253,11.7902],[7.9298,11.797],[7.932,11.8082],[7.9343,11.8127],[7.9432,11.8217],[7.9477,11.8261],[7.9545,11.8284],[7.9612,11.8306],[7.9702,11.8306],[7.9792,11.8284],[7.9882,11.8284],[8.0016,11.8329],[8.0084,11.8329],[8.0196,11.8419],[8.0331,11.8486],[8.0353,11.8553],[8.0398,11.8598],[8.0488,11.8621],[8.0533,11.8621],[8.06,11.8621],[8.0668,11.8621],[8.0757,11.8621],[8.0825,11.8643],[8.0847,11.8666],[8.087,11.8688],[8.0892,11.8778],[8.0937,11.8845],[8.0959,11.8868],[8.1072,11.8913],[8.1162,11.8958],[8.1229,11.9003],[8.1274,11.907],[8.1274,11.9137],[8.1229,11.9205],[8.1184,11.925],[8.1117,11.9272],[8.1072,11.9272],[8.1004,11.9272],[8.0915,11.9272],[8.0825,11.9295],[8.0757,11.9317],[8.0712,11.9362],[8.069,11.9362],[8.0623,11.9384],[8.0578,11.9452],[8.0488,11.9497],[8.0376,11.9519],[8.0308,11.9519],[8.0129,11.9564],[7.9926,11.9654],[7.9769,11.9654],[7.9612,11.9631],[7.9477,11.9631],[7.941,11.9564],[7.9343,11.9519],[7.9275,11.9474],[7.923,11.9452],[7.914,11.9429],[7.9118,11.9452],[7.9073,11.9497],[7.9028,11.9542],[7.9028,11.9586],[7.9006,11.9609],[7.8916,11.9654],[7.8848,11.9699],[7.8691,11.9789],[7.8646,11.9878],[7.8557,11.9946],[7.8489,11.9991],[7.8377,12.0036],[7.8377,11.9991],[7.8377,11.9878],[7.8332,11.9699],[7.8332,11.9654],[7.8354,11.9519]]]}},{"type":"Feature","properties":{"id":"kano/kabo","name":"Kabo","state":"Kano"},"geometry":{"type":"Polygon","coordinates":[[[8.069,11.9362],[8.0712,11.9362],[8.0757,11.9317],[8.0825,11.9295],[8.0915,11.9272],[8.1004,11.9272],[8.1072,11.9272],[8.1117,11.9272],[8.1184,11.925],[8.1229,11.9205],[8.1274,11.9137],[8.1274,11.907],[8.1229,11.9003],[8.1162,11.8958],[8.1072,11.8913],[8.0959,11.8868],[8.0937,11.8845],[8.0982,11.8778],[8.1049,11.8688],[8.1139,11.8643],[8.1251,11.8576],[8.1364,11.8486],[8.1454,11.8464],[8.1521,11.8396],[8.1521,11.8329],[8.1566,11.8217],[8.1633,11.8172],[8.1701,11.8104],[8.179,11.8014],[8.1858,11.7992],[8.2037,11.7902],[8.2172,11.7835],[8.224,11.7812],[8.2329,11.7835],[8.2442,11.7857],[8.2576,11.788],[8.2689,11.788],[8.2734,11.7857],[8.2756,11.7835],[8.2779,11.788],[8.2823,11.7925],[8.2936,11.7992],[8.3026,11.8014],[8.3093,11.8104],[8.3138,11.8149],[8.3183,11.8261],[8.3205,11.8351],[8.316,11.8351],[8.3093,11.8351],[8.3003,11.8351],[8.2891,11.8419],[8.2868,11.8486],[8.2868,11.8553],[8.2868,11.8598],[8.2936,11.8643],[8.2958,11.8666],[8.3003,11.8733],[8.3026,11.8778],[8.3026,11.8823],[8.3003,11.8913],[8.2868,11.916],[8.2823,11.925],[8.2711,11.9362],[8.2666,11.9384],[8.2599,11.9384],[8.2554,11.9362],[8.2487,11.9272],[8.2464,11.9227],[8.2442,11.9137],[8.2374,11.9137],[8.2307,11.9182],[8.2262,11.925],[8.2217,11.9295],[8.2195,11.9362],[8.215,11.9452],[8.2105,11.9519],[8.206,11.9564],[8.1813,11.9631],[8.179,11.9654],[8.1723,11.9654],[8.1656,11.9699],[8.1611,11.9766],[8.1588,11.9766],[8.1566,11.9744],[8.1498,11.9699],[8.1454,11.9676],[8.1341,11.9676],[8.1229,11.9699],[8.1162,11.9721],[8.1072,11.9766],[8.087,11.9766],[8.0847,11.9744],[8.0802,11.9699],[8.0757,11.9654],[8.0712,11.9586],[8.0712,11.9519],[8.0645,11.9407],[8.0623,11.9384],[8.069,11.9362]]]}},{"type":"Feature","properties":{"id":"kano/kano-municipal","name":"Kano Municipal","state":"Kano"},"geometry":{"type":"Polygon","coordinates":[[[8.4732,11.9519],[8.48,11.9452],[8.4912,11.9339],[8.5024,11.9384],[8.5114,11.9474],[8.5182,11.9519],[8.5204,11.9564],[8.5271,11.9631],[8.5316,11.9721],[8.5316,11.9766],[8.5204,11.9766],[8.5159,11.9766],[8.5114,11.9766],[8.5002,11.9744],[8.489,11.9699],[8.4845,11.9654],[8.48,11.9609],[8.4777,11.9564],[8.471,11.9542],[8.4732,11.9519]]]}},{"type":"Feature","properties":{"id":"kano/karaye","name":"Karaye","state":"Kano"},"geometry":{"type":"Polygon","coordinates":[[[7.8759,11.779],[7.8804,11.761],[7.8826,11.7475],[7.8804,11.7251],[7.8893,11.7116],[7.8961,11.7026],[7.9028,11.6869],[7.9096,11.6757],[7.9118,11.6622],[7.9096,11.6532],[7.9185,11.6487],[7.923,11.6442],[7.9298,11.6398],[7.9365,11.6375],[7.941,11.6375],[7.9522,11.6398],[7.959,11.6442],[7.9679,11.6442],[7.9702,11.6465],[7.9792,11.6465],[7.9837,11.6465],[7.9904,11.6487],[7.9994,11.6487],[8.0061,11.6555],[8.0084,11.6622],[8.0106,11.6667],[8.0129,11.6734],[8.0173,11.6779],[8.0218,11.6779],[8.0308,11.6757],[8.0353,11.6734],[8.0443,11.6689],[8.0555,11.6712],[8.0668,11.6779],[8.069,11.6847],[8.069,11.6937],[8.0735,11.7116],[8.0825,11.7318],[8.0892,11.752],[8.0959,11.7588],[8.1072,11.7655],[8.1139,11.77],[8.1207,11.7723],[8.1296,11.7745],[8.1409,11.7812],[8.1454,11.7857],[8.1521,11.7902],[8.1588,11.7947],[8.1678,11.797],[8.1746,11.7992],[8.179,11.8014],[8.1701,11.8104],[8.1633,11.8172],[8.1566,11.8217],[8.1521,11.8329],[8.1521,11.8396],[8.1454,11.8464],[8.1364,11.8486],[8.1251,11.8576],[8.1139,11.8643],[8.1049,11.8688],[8.0982,11.8778],[8.0937,11.8845],[8.0892,11.8778],[8.087,11.8688],[8.0847,11.8666],[8.0825,11.8643],[8.0757,11.8621],[8.0668,11.8621],[8.06,11.8621],[8.0533,11.8621],[8.0488,11.8621],[8.0398,11.8598],[8.0353,11.8553],[8.0331,11.8486],[8.0196,11.8419],[8.0084,11.8329],[8.0016,11.8329],[7.9882,11.8284],[7.9792,11.8284],[7.9702,11.8306],[7.9612,11.8306],[7.9545,11.8284],[7.9477,11.8261],[7.9432,11.8217],[7.9343,11.8127],[7.932,11.8082],[7.9298,11.797],[7.9253,11.7902],[7.9208,11.7857],[7.9163,11.7835],[7.9051,11.7835],[7.8983,11.7857],[7.8916,11.7925],[7.8848,11.7947],[7.8736,11.7992],[7.8736,11.7947],[7.8759,11.779]]]}},{"type":"Feature","properties":{"id":"kano/kibiya","name":"Kibiya","state":"Kano"},"geometry":{"type":"Polygon","coordinates":[[[8.5945,11.3815],[8.5968,11.3748],[8.6012,11.3658],[8.6057,11.359],[8.6102,11.3545],[8.617,11.3456],[8.6304,11.3568],[8.6394,11.3613],[8.6507,11.3658],[8.6619,11.3725],[8.6888,11.3882],[8.7045,11.4017],[8.718,11.4152],[8.7248,11.4242],[8.7405,11.4287],[8.7472,11.4354],[8.7495,11.4399],[8.7562,11.4556],[8.7607,11.4623],[8.7652,11.4691],[8.7697,11.4825],[8.7697,11.4893],[8.7697,11.4983],[8.7697,11.5095],[8.7697,11.514],[8.7697,11.5252],[8.7697,11.5342],[8.7697,11.5454],[8.7674,11.5522],[8.7652,11.5634],[8.7652,11.5746],[8.7629,11.5814],[8.7652,11.5971],[8.7674,11.6061],[8.7697,11.6173],[8.7652,11.6263],[8.7562,11.624],[8.7472,11.6263],[8.727,11.6218],[8.7158,11.6195],[8.709,11.6173],[8.7001,11.6173],[8.6798,11.6106],[8.6619,11.6061],[8.6551,11.6038],[8.6507,11.5926],[8.6507,11.5836],[8.6484,11.5746],[8.6462,11.5656],[8.6417,11.5544],[8.6439,11.5477],[8.6372,11.5364],[8.6282,11.5252],[8.617,11.523],[8.6125,11.5207],[8.6012,11.5117],[8.5968,11.5028],[8.5968,11.496],[8.5923,11.4781],[8.5923,11.4691],[8.5968,11.4489],[8.6012,11.4354],[8.6035,11.4219],[8.6057,11.4039],[8.6035,11.3995],[8.599,11.395],[8.5923,11.3905],[8.5945,11.3815]]]}},{"type":"Feature","properties":{"id":"kano/kiru","name":"Kiru","state":"Kano"},"geometry":{"type":"Polygon","coordinates":[[[7.9702,11.6398],[7.9724,11.6285],[7.9724,11.6195],[7.9724,11.6106],[7.9702,11.5993],[7.9747,11.5926],[7.9792,11.5859],[7.9859,11.5814],[7.9904,11.5724],[7.9904,11.5679],[7.9926,11.5612],[7.9994,11.5567],[8.0016,11.5477],[8.0106,11.5364],[8.0173,11.532],[8.0286,11.5297],[8.0398,11.523],[8.0398,11.5162],[8.0353,11.5028],[8.0331,11.4915],[8.0376,11.4848],[8.0465,11.4803],[8.0533,11.4803],[8.0645,11.4825],[8.0757,11.487],[8.0892,11.4938],[8.0959,11.5005],[8.1049,11.505],[8.1139,11.5095],[8.1229,11.5117],[8.1319,11.5117],[8.1364,11.5095],[8.1566,11.4983],[8.1611,11.4938],[8.1656,11.487],[8.1656,11.4781],[8.1656,11.4691],[8.1678,11.4601],[8.1656,11.4511],[8.1566,11.4376],[8.1476,11.4264],[8.1431,11.4197],[8.1364,11.4084],[8.1319,11.4017],[8.1319,11.3927],[8.1319,11.386],[8.1364,11.377],[8.1431,11.3703],[8.1543,11.3613],[8.1588,11.359],[8.1633,11.3545],[8.1746,11.3478],[8.188,11.3411],[8.1925,11.3343],[8.2015,11.3231],[8.215,11.3119],[8.2195,11.3096],[8.2307,11.3119],[8.2419,11.3141],[8.2576,11.3164],[8.2666,11.3119],[8.2734,11.3074],[8.2756,11.3029],[8.2823,11.3074],[8.2936,11.3096],[8.3048,11.3164],[8.3115,11.3186],[8.316,11.3231],[8.3138,11.3253],[8.3003,11.3321],[8.2891,11.3388],[8.2779,11.3433],[8.2644,11.3456],[8.2554,11.35],[8.2442,11.3545],[8.2374,11.3613],[8.2329,11.368],[8.2284,11.3748],[8.224,11.3837],[8.2172,11.3927],[8.2082,11.4084],[8.206,11.4197],[8.2037,11.4287],[8.2015,11.4399],[8.2037,11.4534],[8.206,11.4668],[8.2082,11.4713],[8.215,11.4893],[8.2195,11.4983],[8.2262,11.5185],[8.2307,11.532],[8.2262,11.5432],[8.2262,11.5499],[8.2284,11.5567],[8.2329,11.5634],[8.2307,11.5724],[8.2284,11.5814],[8.2262,11.5903],[8.224,11.5993],[8.224,11.6106],[8.2284,11.6173],[8.2329,11.6263],[8.2397,11.633],[8.2487,11.651],[8.2532,11.66],[8.2554,11.6689],[8.2599,11.6802],[8.2644,11.6914],[8.2734,11.7004],[8.2779,11.7071],[8.2801,11.7139],[8.2846,11.7184],[8.2913,11.7273],[8.2936,11.7318],[8.2913,11.7386],[8.2868,11.7475],[8.2891,11.7565],[8.2868,11.7655],[8.2868,11.7745],[8.2779,11.7812],[8.2756,11.7835],[8.2734,11.7857],[8.2689,11.788],[8.2576,11.788],[8.2442,11.7857],[8.2329,11.7835],[8.224,11.7812],[8.2172,11.7835],[8.2037,11.7902],[8.1858,11.7992],[8.179,11.8014],[8.1746,11.7992],[8.1678,11.797],[8.1588,11.7947],[8.1521,11.7902],[8.1454,11.7857],[8.1409,11.7812],[8.1296,11.7745],[8.1207,11.7723],[8.1139,11.77],[8.1072,11.7655],[8.0959,11.7588],[8.0892,11.752],[8.0825,11.7318],[8.0735,11.7116],[8.069,11.6937],[8.069,11.6847],[8.0668,11.6779],[8.0555,11.6712],[8.0443,11.6689],[8.0353,11.6734],[8.0308,11.6757],[8.0218,11.6779],[8.0173,11.6779],[8.0129,11.6734],[8.0106,11.6667],[8.0084,11.6622],[8.0061,11.6555],[7.9994,11.6487],[7.9904,11.6487],[7.9837,11.6465],[7.9792,11.6465],[7.9702,11.6465],[7.9679,11.6442],[7.9702,11.6398]]]}},{"type":"Feature","properties":{"id":"kano/kumbotso","name":"Kumbotso","state":"Kano"},"geometry":{"type":"Polygon","coordinates":[[[8.4216,11.925],[8.4238,11.9205],[8.4306,11.9115],[8.4351,11.9048],[8.4373,11.9003],[8.4463,11.8913],[8.462,11.8823],[8.4665,11.8823],[8.4777,11.8823],[8.4912,11.8823],[8.5047,11.8823],[8.5226,11.8845],[8.5339,11.8823],[8.5451,11.8823],[8.5541,11.8778],[8.5586,11.8733],[8.5698,11.8756],[8.581,11.8756],[8.5968,11.88],[8.6057,11.8845],[8.6147,11.889],[8.6192,11.8958],[8.6259,11.9115],[8.6282,11.9182],[8.6304,11.925],[8.6304,11.9272],[8.6327,11.9317],[8.6304,11.9429],[8.6282,11.9452],[8.6259,11.9474],[8.617,11.9519],[8.6102,11.9542],[8.599,11.9564],[8.5945,11.9609],[8.5923,11.9609],[8.5855,11.9564],[8.5698,11.9497],[8.5608,11.9452],[8.5473,11.9429],[8.5406,11.9407],[8.5339,11.9384],[8.5271,11.9362],[8.5204,11.9317],[8.5092,11.9295],[8.5024,11.9295],[8.4912,11.9339],[8.48,11.9452],[8.4732,11.9519],[8.471,11.9542],[8.471,11.9721],[8.4373,11.9676],[8.4351,11.9586],[8.4306,11.9519],[8.4238,11.9384],[8.4193,11.9317],[8.4171,11.9272],[8.4216,11.925]]]}},{"type":"Feature","properties":{"id":"kano/kunchi","name":"Kunchi","state":"Kano"},"geometry":{"type":"Polygon","coordinates":[[[8.0465,12.3786],[8.0668,12.3674],[8.0757,12.3651],[8.0847,12.3629],[8.0915,12.3606],[8.0937,12.3651],[8.0982,12.3674],[8.1027,12.3696],[8.1162,12.3786],[8.1274,12.3786],[8.1319,12.3764],[8.1454,12.3674],[8.1498,12.3651],[8.1633,12.3584],[8.1723,12.3539],[8.1813,12.3539],[8.188,12.3517],[8.197,12.3472],[8.2037,12.3427],[8.215,12.3404],[8.2217,12.3382],[8.2284,12.3337],[8.2352,12.3292],[8.2442,12.3225],[8.2576,12.3157],[8.2891,12.3022],[8.3003,12.2955],[8.3071,12.3],[8.3138,12.3],[8.3228,12.2955],[8.3318,12.2933],[8.334,12.2865],[8.3452,12.2843],[8.3497,12.2865],[8.3542,12.2933],[8.3587,12.2978],[8.3654,12.3],[8.3789,12.2978],[8.3834,12.2978],[8.3946,12.3045],[8.4081,12.3135],[8.4193,12.3247],[8.4373,12.3404],[8.444,12.3449],[8.4463,12.3494],[8.4351,12.3651],[8.4283,12.3764],[8.4261,12.3831],[8.4171,12.3943],[8.4104,12.3988],[8.4036,12.4033],[8.3969,12.4078],[8.3901,12.4123],[8.3879,12.419],[8.3857,12.4325],[8.3834,12.4437],[8.3812,12.4415],[8.3744,12.4437],[8.3699,12.4505],[8.3677,12.4527],[8.3632,12.4617],[8.3609,12.4639],[8.3609,12.4662],[8.3609,12.4684],[8.3565,12.4752],[8.352,12.4797],[8.3452,12.4819],[8.3385,12.4864],[8.334,12.4909],[8.3228,12.4976],[8.316,12.5044],[8.3138,12.5111],[8.3115,12.5178],[8.3115,12.5403],[8.3115,12.556],[8.3115,12.565],[8.3115,12.5785],[8.3093,12.583],[8.3048,12.5875],[8.3026,12.5897],[8.2981,12.592],[8.2936,12.5942],[8.2891,12.6009],[8.2891,12.5964],[8.2846,12.5897],[8.2801,12.5852],[8.2734,12.583],[8.2711,12.583],[8.2644,12.583],[8.2464,12.5852],[8.2329,12.5852],[8.2262,12.583],[8.2172,12.5785],[8.215,12.5762],[8.2127,12.5717],[8.2082,12.565],[8.2082,12.5583],[8.2082,12.5538],[8.2105,12.5493],[8.2105,12.5403],[8.2037,12.5336],[8.197,12.5246],[8.1948,12.5178],[8.1925,12.5089],[8.1903,12.4999],[8.1903,12.4976],[8.1858,12.4842],[8.1746,12.4684],[8.1678,12.4595],[8.1633,12.4482],[8.1611,12.4392],[8.1566,12.4347],[8.1543,12.4303],[8.1498,12.4258],[8.1386,12.419],[8.1341,12.4123],[8.1319,12.41],[8.1162,12.4056],[8.0937,12.4011],[8.0915,12.4011],[8.0825,12.3988],[8.0668,12.3921],[8.0488,12.3831],[8.0421,12.3831],[8.0465,12.3786]]]}},{"type":"Feature","properties":{"id":"kano/kura","name":"Kura","state":"Kano"},"geometry":{"type":"Polygon","coordinates":[[[8.3991,11.752],[8.4059,11.7543],[8.4081,11.7543],[8.4126,11.7475],[8.4126,11.7408],[8.4148,11.7363],[8.4193,11.7251],[8.4238,11.7184],[8.4351,11.7184],[8.4418,11.7228],[8.4463,11.7228],[8.453,11.7251],[8.4598,11.7228],[8.462,11.7206],[8.4665,11.7161],[8.471,11.7116],[8.4732,11.7026],[8.4845,11.7071],[8.4867,11.7071],[8.4912,11.7116],[8.4979,11.7161],[8.5047,11.7228],[8.5069,11.7341],[8.5069,11.7386],[8.5182,11.7565],[8.5249,11.7633],[8.5271,11.7655],[8.5406,11.7723],[8.5496,11.7745],[8.5563,11.7767],[8.5608,11.7767],[8.5676,11.7745],[8.5765,11.77],[8.5788,11.7655],[8.5833,11.7588],[8.599,11.7431],[8.6102,11.7341],[8.6215,11.7296],[8.6259,11.7296],[8.6327,11.7273],[8.6372,11.7228],[8.6372,11.7318],[8.6372,11.7386],[8.6349,11.7475],[8.6215,11.7655],[8.6102,11.7745],[8.5968,11.7812],[8.5878,11.7925],[8.5788,11.8059],[8.5676,11.8059],[8.5586,11.8104],[8.5473,11.8239],[8.5339,11.8284],[8.5271,11.8329],[8.5249,11.8374],[8.5182,11.8419],[8.5137,11.8441],[8.5047,11.8486],[8.5002,11.8464],[8.4934,11.8441],[8.4912,11.8419],[8.4845,11.8419],[8.4755,11.8441],[8.4665,11.8419],[8.453,11.8351],[8.4463,11.8306],[8.4396,11.8261],[8.4328,11.8194],[8.4283,11.8104],[8.4238,11.8014],[8.4193,11.7947],[8.4081,11.7835],[8.4059,11.7767],[8.4014,11.7678],[8.3924,11.752],[8.3991,11.752]]]}},{"type":"Feature","properties":{"id":"kano/madobi","name":"Madobi","state":"Kano"},"geometry":{"type":"Polygon","coordinates":[[[8.2779,11.7812],[8.2868,11.7745],[8.2868,11.7655],[8.2891,11.7565],[8.2868,11.7475],[8.2913,11.7386],[8.2936,11.7318],[8.3003,11.7228],[8.3071,11.7228],[8.3138,11.7206],[8.3183,11.7184],[8.3183,11.7116],[8.3273,11.7139],[8.3318,11.7139],[8.3385,11.7161],[8.3677,11.7273],[8.3834,11.7386],[8.3857,11.7408],[8.3879,11.7431],[8.3924,11.752],[8.4014,11.7678],[8.4059,11.7767],[8.4081,11.7835],[8.4193,11.7947],[8.4238,11.8014],[8.4283,11.8104],[8.4328,11.8194],[8.4396,11.8261],[8.4463,11.8306],[8.453,11.8351],[8.4665,11.8419],[8.4755,11.8441],[8.4845,11.8419],[8.4912,11.8419],[8.4934,11.8441],[8.5002,11.8464],[8.5047,11.8486],[8.5137,11.8441],[8.5182,11.8419],[8.5226,11.8486],[8.5226,11.8531],[8.5271,11.8598],[8.5339,11.8621],[8.5406,11.8621],[8.5473,11.8643],[8.5518,11.8666],[8.5563,11.8711],[8.5586,11.8733],[8.5541,11.8778],[8.5451,11.8823],[8.5339,11.8823],[8.5226,11.8845],[8.5047,11.8823],[8.4912,11.8823],[8.4777,11.8823],[8.4665,11.8823],[8.462,11.8823],[8.4463,11.8913],[8.4373,11.9003],[8.4351,11.9048],[8.4306,11.9115],[8.4238,11.9205],[8.4216,11.925],[8.4171,11.9272],[8.4171,11.9205],[8.4171,11.916],[8.4036,11.907],[8.3969,11.898],[8.3879,11.8935],[8.3767,11.8823],[8.3699,11.8756],[8.3632,11.8666],[8.3542,11.8598],[8.3385,11.8464],[8.3295,11.8396],[8.325,11.8374],[8.3205,11.8351],[8.3183,11.8261],[8.3138,11.8149],[8.3093,11.8104],[8.3026,11.8014],[8.2936,11.7992],[8.2823,11.7925],[8.2779,11.788],[8.2756,11.7835],[8.2779,11.7812]]]}},{"type":"Feature","properties":{"id":"kano/makoda","name":"Makoda","state":"Kano"},"geometry":{"type":"Polygon","coordinates":[[[8.3857,12.4325],[8.3879,12.419],[8.3901,12.4123],[8.3969,12.4078],[8.4036,12.4033],[8.4104,12.3988],[8.4171,12.3943],[8.4261,12.3831],[8.4283,12.3764],[8.4351,12.3651],[8.4463,12.3494],[8.444,12.3449],[8.4485,12.3427],[8.4598,12.3337],[8.4643,12.327],[8.4687,12.318],[8.4777,12.3112],[8.489,12.3022],[8.4912,12.2955],[8.4957,12.2843],[8.4957,12.2775],[8.4979,12.2731],[8.5002,12.2686],[8.5024,12.2663],[8.5092,12.2596],[8.5182,12.2551],[8.5271,12.2573],[8.5294,12.2551],[8.5316,12.2528],[8.5361,12.2506],[8.5429,12.2484],[8.5496,12.2528],[8.5541,12.2551],[8.5586,12.2641],[8.5586,12.2686],[8.5608,12.2708],[8.5676,12.2753],[8.572,12.282],[8.581,12.2798],[8.5833,12.2731],[8.5855,12.2641],[8.5878,12.2551],[8.5923,12.2484],[8.5968,12.2461],[8.6035,12.2484],[8.6102,12.2506],[8.6102,12.2528],[8.6057,12.2686],[8.599,12.2798],[8.5945,12.2843],[8.59,12.2933],[8.5855,12.3067],[8.5855,12.3112],[8.5833,12.3225],[8.5765,12.3292],[8.5653,12.3359],[8.5563,12.3404],[8.5496,12.3494],[8.5473,12.3561],[8.5451,12.3651],[8.5406,12.3741],[8.5339,12.3831],[8.5294,12.3831],[8.5226,12.3831],[8.5159,12.3809],[8.5114,12.3741],[8.5092,12.3696],[8.5024,12.3606],[8.5002,12.3561],[8.4934,12.3561],[8.489,12.3629],[8.489,12.3696],[8.4934,12.3741],[8.4979,12.3831],[8.5024,12.3921],[8.5047,12.41],[8.5069,12.419],[8.5069,12.4258],[8.5047,12.4325],[8.5047,12.437],[8.5047,12.446],[8.5092,12.4617],[8.5137,12.4729],[8.5294,12.4819],[8.5384,12.4819],[8.5451,12.4842],[8.5563,12.4886],[8.5608,12.4909],[8.5676,12.4954],[8.5653,12.5066],[8.5608,12.5156],[8.5586,12.5201],[8.5473,12.5313],[8.5429,12.5381],[8.5361,12.5448],[8.5339,12.5493],[8.5316,12.5515],[8.5316,12.556],[8.5339,12.5605],[8.5384,12.5628],[8.5451,12.5628],[8.5496,12.5605],[8.5563,12.565],[8.5586,12.5717],[8.5563,12.5785],[8.5518,12.5875],[8.5496,12.5942],[8.5451,12.5942],[8.5294,12.5897],[8.5137,12.5897],[8.5002,12.5852],[8.48,12.5852],[8.471,12.5875],[8.4665,12.5875],[8.462,12.583],[8.4463,12.565],[8.4418,12.5605],[8.4396,12.5538],[8.4351,12.5403],[8.4283,12.5313],[8.4238,12.5223],[8.4216,12.5134],[8.4193,12.5111],[8.4036,12.4909],[8.3924,12.4819],[8.3901,12.4774],[8.3879,12.4752],[8.3857,12.4639],[8.3857,12.4527],[8.3857,12.4482],[8.3834,12.4437],[8.3857,12.4325]]]}},{"type":"Feature","properties":{"id":"kano/minjibir","name":"Minjibir","state":"Kano"},"geometry":{"type":"Polygon","coordinates":[[[8.5316,12.1271],[8.5384,12.1271],[8.5473,12.1248],[8.5586,12.1136],[8.5698,12.1024],[8.5743,12.0934],[8.581,12.0867],[8.5923,12.0799],[8.6012,12.0754],[8.6102,12.0777],[8.6259,12.0844],[8.6349,12.0867],[8.6439,12.0911],[8.6574,12.0934],[8.6641,12.0934],[8.6686,12.0956],[8.6686,12.1001],[8.6754,12.1069],[8.6821,12.1114],[8.6933,12.1203],[8.6933,12.1248],[8.7023,12.1316],[8.7135,12.1383],[8.7203,12.1428],[8.7293,12.154],[8.7293,12.1585],[8.7315,12.1675],[8.7337,12.1787],[8.7337,12.1877],[8.7337,12.1989],[8.7337,12.2079],[8.7293,12.2147],[8.7248,12.2147],[8.7203,12.2169],[8.7203,12.2236],[8.7225,12.2326],[8.7225,12.2349],[8.7248,12.2371],[8.727,12.2484],[8.727,12.2551],[8.727,12.2596],[8.7293,12.2686],[8.7315,12.2708],[8.7248,12.2843],[8.7135,12.3022],[8.709,12.3067],[8.6978,12.3067],[8.6911,12.3045],[8.6821,12.3],[8.6776,12.2978],[8.6754,12.2933],[8.6686,12.2843],[8.6664,12.2775],[8.6641,12.2731],[8.6596,12.2686],[8.6462,12.2641],[8.6282,12.2573],[8.6192,12.2528],[8.6102,12.2506],[8.6035,12.2484],[8.5968,12.2461],[8.5923,12.2484],[8.5878,12.2551],[8.5855,12.2641],[8.5833,12.2731],[8.581,12.2798],[8.572,12.282],[8.5676,12.2753],[8.5608,12.2708],[8.5586,12.2686],[8.5586,12.2641],[8.5541,12.2551],[8.5496,12.2528],[8.5429,12.2484],[8.5361,12.2506],[8.5316,12.2528],[8.5294,12.2551],[8.5271,12.2506],[8.5226,12.2439],[8.5204,12.2394],[8.5182,12.2304],[8.5204,12.2236],[8.5226,12.2169],[8.5226,12.2034],[8.5182,12.1922],[8.5182,12.1675],[8.5182,12.1518],[8.5182,12.1361],[8.5159,12.1271],[8.5316,12.1271]]]}},{"type":"Feature","properties":{"id":"kano/nasarawa","name":"Nasarawa","state":"Kano"},"geometry":{"type":"Polygon","coordinates":[[[8.5496,11.9811],[8.5653,11.9721],[8.572,11.9676],[8.5833,11.9654],[8.59,11.9631],[8.5923,11.9609],[8.5945,11.9609],[8.6012,11.9676],[8.6057,11.9744],[8.608,11.9789],[8.6102,11.9811],[8.6147,11.9834],[8.6147,11.9878],[8.6192,11.9923],[8.6192,11.9968],[8.617,12.0013],[8.6125,12.0058],[8.6102,12.0081],[8.6057,12.0125],[8.5945,12.0193],[8.5878,12.0193],[8.5698,12.0193],[8.5608,12.0193],[8.5608,12.0103],[8.5541,11.9923],[8.5496,11.9856],[8.5451,11.9834],[8.5496,11.9811]]]}},{"type":"Feature","properties":{"id":"kano/rano","name":"Rano","state":"Kano"},"geometry":{"type":"Polygon","coordinates":[[[8.4148,11.4331],[8.4193,11.4242],[8.4171,11.4152],[8.4171,11.4107],[8.4216,11.4084],[8.4306,11.4017],[8.4463,11.3905],[8.4508,11.3837],[8.4598,11.377],[8.4755,11.3658],[8.4845,11.3613],[8.5002,11.359],[8.5159,11.3545],[8.5271,11.3478],[8.5451,11.3388],[8.5563,11.3366],[8.5765,11.3321],[8.5855,11.3321],[8.5923,11.3321],[8.599,11.3321],[8.6057,11.3366],[8.617,11.3456],[8.6102,11.3545],[8.6057,11.359],[8.6012,11.3658],[8.5968,11.3748],[8.5945,11.3815],[8.5923,11.3905],[8.599,11.395],[8.6035,11.3995],[8.6057,11.4039],[8.6035,11.4219],[8.6012,11.4354],[8.5968,11.4489],[8.5923,11.4691],[8.5923,11.4781],[8.5968,11.496],[8.5968,11.5028],[8.6012,11.5117],[8.6125,11.5207],[8.617,11.523],[8.6282,11.5252],[8.6372,11.5364],[8.6439,11.5477],[8.6417,11.5544],[8.6462,11.5656],[8.6484,11.5746],[8.6507,11.5836],[8.6507,11.5926],[8.6551,11.6038],[8.6462,11.6061],[8.6349,11.6083],[8.6282,11.6083],[8.6215,11.6106],[8.6102,11.6061],[8.6035,11.6038],[8.5968,11.5971],[8.5923,11.5903],[8.59,11.5791],[8.581,11.5724],[8.5743,11.5679],[8.5631,11.5746],[8.5608,11.5836],[8.5608,11.5926],[8.5608,11.5971],[8.5496,11.5993],[8.5316,11.5903],[8.5204,11.5814],[8.5137,11.5769],[8.5024,11.5746],[8.4912,11.5701],[8.4867,11.5679],[8.48,11.5701],[8.4732,11.5724],[8.4643,11.5724],[8.4598,11.5679],[8.4575,11.5656],[8.453,11.5656],[8.444,11.5701],[8.4351,11.5724],[8.4306,11.5724],[8.4261,11.5724],[8.4216,11.5701],[8.4216,11.5634],[8.4216,11.5567],[8.4216,11.5477],[8.4238,11.5409],[8.4261,11.532],[8.4306,11.5095],[8.4261,11.4983],[8.4261,11.4915],[8.4238,11.4803],[8.4193,11.4713],[8.4126,11.4601],[8.4126,11.4444],[8.4148,11.4331]]]}},{"type":"Feature","properties":{"id":"kano/rimin-gado","name":"Rimin Gado","state":"Kano"},"geometry":{"type":"Polygon","coordinates":[[[8.1611,11.9766],[8.1656,11.9699],[8.1723,11.9654],[8.179,11.9654],[8.1813,11.9631],[8.206,11.9564],[8.2105,11.9519],[8.215,11.9452],[8.2195,11.9362],[8.2217,11.9295],[8.2262,11.925],[8.2307,11.9182],[8.2374,11.9137],[8.2442,11.9137],[8.2464,11.9227],[8.2487,11.9272],[8.2554,11.9362],[8.2599,11.9384],[8.2666,11.9384],[8.2711,11.9362],[8.2823,11.925],[8.2868,11.916],[8.3003,11.8913],[8.3026,11.8823],[8.3026,11.8778],[8.3003,11.8733],[8.2958,11.8666],[8.2936,11.8643],[8.2868,11.8598],[8.2868,11.8553],[8.2868,11.8486],[8.2891,11.8419],[8.3003,11.8351],[8.3093,11.8351],[8.316,11.8351],[8.3205,11.8351],[8.325,11.8374],[8.3295,11.8396],[8.3385,11.8464],[8.3542,11.8598],[8.3632,11.8666],[8.3699,11.8756],[8.3767,11.8823],[8.3879,11.8935],[8.3969,11.898],[8.4036,11.907],[8.4171,11.916],[8.4171,11.9205],[8.4171,11.9272],[8.4104,11.9295],[8.4014,11.9295],[8.3946,11.9272],[8.3901,11.9272],[8.3834,11.925],[8.3767,11.9227],[8.3722,11.925],[8.3609,11.9317],[8.3542,11.9452],[8.3452,11.9564],[8.3295,11.9699],[8.325,11.9744],[8.3138,11.9856],[8.3003,11.9968],[8.2958,12.0036],[8.2913,12.0058],[8.2689,12.0148],[8.2576,12.0193],[8.2487,12.026],[8.2464,12.0193],[8.2374,12.0125],[8.2307,12.0058],[8.2195,11.9991],[8.2127,11.9968],[8.2015,11.9946],[8.1948,11.9901],[8.1858,11.9901],[8.1746,11.9878],[8.1701,11.9878],[8.1656,11.9834],[8.1588,11.9766],[8.1611,11.9766]]]}},{"type":"Feature","properties":{"id":"kano/rogo","name":"Rogo","state":"Kano"},"geometry":{"type":"Polygon","coordinates":[[[7.6895,11.4736],[7.6917,11.4668],[7.6985,11.4466],[7.6985,11.4444],[7.6985,11.4399],[7.7097,11.4264],[7.7119,11.4197],[7.7276,11.3995],[7.7366,11.386],[7.7523,11.377],[7.7703,11.3748],[7.7771,11.3725],[7.7793,11.3748],[7.7838,11.377],[7.795,11.377],[7.8175,11.377],[7.8242,11.3792],[7.8332,11.377],[7.8399,11.377],[7.8489,11.377],[7.8512,11.377],[7.8557,11.377],[7.8646,11.3792],[7.8669,11.3815],[7.8714,11.386],[7.8759,11.3927],[7.8826,11.3972],[7.8871,11.4017],[7.8983,11.4084],[7.9073,11.4174],[7.9208,11.4264],[7.9298,11.4331],[7.9365,11.4421],[7.9522,11.4511],[7.9657,11.4578],[7.9724,11.4601],[7.9837,11.4691],[7.9904,11.4691],[7.9971,11.4713],[8.0084,11.4781],[8.0331,11.4848],[8.0376,11.4848],[8.0331,11.4915],[8.0353,11.5028],[8.0398,11.5162],[8.0398,11.523],[8.0286,11.5297],[8.0173,11.532],[8.0106,11.5364],[8.0016,11.5477],[7.9994,11.5567],[7.9926,11.5612],[7.9904,11.5679],[7.9904,11.5724],[7.9859,11.5814],[7.9792,11.5859],[7.9747,11.5926],[7.9702,11.5993],[7.9724,11.6106],[7.9724,11.6195],[7.9724,11.6285],[7.9702,11.6398],[7.9679,11.6442],[7.959,11.6442],[7.9522,11.6398],[7.941,11.6375],[7.9365,11.6375],[7.9298,11.6398],[7.923,11.6442],[7.9185,11.6487],[7.9096,11.6532],[7.9073,11.6487],[7.9006,11.6487],[7.8938,11.651],[7.8848,11.651],[7.8781,11.6487],[7.8714,11.6465],[7.8624,11.642],[7.8512,11.6375],[7.8422,11.6353],[7.8242,11.6308],[7.813,11.6285],[7.7973,11.624],[7.7703,11.615],[7.7591,11.6083],[7.7456,11.5993],[7.7344,11.5926],[7.7299,11.5859],[7.7254,11.5791],[7.7254,11.5701],[7.7119,11.5522],[7.7052,11.5432],[7.6985,11.5364],[7.694,11.5252],[7.6895,11.5162],[7.6872,11.5005],[7.685,11.4848],[7.6895,11.4736]]]}},{"type":"Feature","properties":{"id":"kano/shanono","name":"Shanono","state":"Kano"},"geometry":{"type":"Polygon","coordinates":[[[7.8242,12.1832],[7.8287,12.1608],[7.831,12.145],[7.8332,12.1383],[7.8354,12.1338],[7.8399,12.1271],[7.8377,12.1136],[7.8377,12.1001],[7.8377,12.0889],[7.8399,12.0799],[7.8422,12.0732],[7.8399,12.062],[7.8377,12.0597],[7.8354,12.0485],[7.8354,12.0417],[7.8399,12.0373],[7.8422,12.0305],[7.8422,12.0238],[7.8377,12.017],[7.8354,12.0103],[7.8354,12.0058],[7.8377,12.0036],[7.8489,11.9991],[7.8557,11.9946],[7.8646,11.9878],[7.8691,11.9789],[7.8848,11.9699],[7.8916,11.9654],[7.9006,11.9609],[7.9028,11.9586],[7.9028,11.9542],[7.9073,11.9497],[7.9118,11.9452],[7.914,11.9429],[7.923,11.9452],[7.9275,11.9474],[7.9343,11.9519],[7.941,11.9564],[7.9477,11.9631],[7.9612,11.9631],[7.9769,11.9654],[7.9926,11.9654],[8.0129,11.9564],[8.0308,11.9519],[8.0376,11.9519],[8.0488,11.9497],[8.0578,11.9452],[8.0623,11.9384],[8.0645,11.9407],[8.0712,11.9519],[8.0712,11.9586],[8.0757,11.9654],[8.0802,11.9699],[8.0847,11.9744],[8.087,11.9766],[8.1072,11.9766],[8.1162,11.9721],[8.1229,11.9699],[8.1341,11.9676],[8.1454,11.9676],[8.1498,11.9699],[8.1566,11.9744],[8.1588,11.9766],[8.1566,11.9789],[8.1409,11.9878],[8.1364,11.9923],[8.1319,11.9968],[8.1229,12.0103],[8.1229,12.017],[8.1229,12.026],[8.1229,12.0373],[8.1229,12.044],[8.1139,12.053],[8.1027,12.0575],[8.0892,12.062],[8.0802,12.062],[8.0623,12.062],[8.0465,12.062],[8.0353,12.0642],[8.0308,12.0664],[8.0263,12.0687],[8.0196,12.0777],[8.0173,12.0867],[8.0151,12.0934],[8.0129,12.1046],[8.0129,12.1159],[8.0129,12.1203],[8.0129,12.1338],[8.0151,12.1428],[8.0173,12.1563],[8.0173,12.1608],[8.0173,12.1653],[8.0173,12.1698],[8.0151,12.172],[8.0084,12.1765],[8.0016,12.1765],[7.9926,12.1765],[7.9904,12.172],[7.9792,12.1698],[7.9747,12.1698],[7.9657,12.1787],[7.9522,12.19],[7.9455,12.1945],[7.9365,12.1989],[7.9185,12.2124],[7.9118,12.2169],[7.9073,12.2214],[7.8961,12.2349],[7.8938,12.2394],[7.8916,12.2439],[7.8871,12.2551],[7.8759,12.2686],[7.8624,12.2843],[7.8579,12.2955],[7.8489,12.3022],[7.8444,12.3],[7.8422,12.2978],[7.8399,12.2888],[7.8354,12.2798],[7.8332,12.2686],[7.831,12.2641],[7.8332,12.2551],[7.831,12.2439],[7.8287,12.2394],[7.8242,12.2304],[7.8242,12.2079],[7.822,12.1945],[7.8242,12.1832]]]}},{"type":"Feature","properties":{"id":"kano/sumaila","name":"Sumaila","state":"Kano"},"geometry":{"type":"Polygon","coordinates":[[[8.727,11.2041],[8.7337,11.1928],[8.7405,11.1816],[8.7562,11.1681],[8.7652,11.1592],[8.7787,11.1412],[8.7899,11.1367],[8.8011,11.1232],[8.8056,11.1165],[8.8168,11.1075],[8.8236,11.0985],[8.8281,11.1008],[8.837,11.0985],[8.8438,11.0963],[8.8573,11.0918],[8.8662,11.0895],[8.8752,11.0895],[8.8842,11.0963],[8.8887,11.0985],[8.8954,11.1008],[8.9067,11.112],[8.9089,11.1165],[8.9157,11.1277],[8.9201,11.1322],[8.9246,11.1367],[8.9269,11.1412],[8.9314,11.1502],[8.9404,11.1614],[8.9471,11.1726],[8.9561,11.1771],[8.9628,11.1839],[8.9695,11.1884],[8.9763,11.1906],[8.983,11.1951],[8.9943,11.2086],[9.0032,11.2153],[9.0122,11.2243],[9.0145,11.2288],[9.0212,11.2378],[9.0234,11.24],[9.0234,11.2445],[9.0324,11.2557],[9.0459,11.2647],[9.0549,11.2714],[9.0684,11.2804],[9.0773,11.2849],[9.0908,11.2894],[9.0976,11.2917],[9.1043,11.2962],[9.1065,11.2984],[9.1088,11.3029],[9.111,11.3051],[9.12,11.3096],[9.1268,11.3141],[9.1335,11.3186],[9.1425,11.3276],[9.1425,11.3321],[9.1425,11.3343],[9.1402,11.3411],[9.1335,11.3478],[9.129,11.35],[9.1155,11.3568],[9.1133,11.3635],[9.111,11.3725],[9.111,11.3815],[9.1065,11.3927],[9.0931,11.4129],[9.0863,11.4197],[9.0729,11.4197],[9.0594,11.4219],[9.0504,11.4264],[9.0459,11.4331],[9.0459,11.4376],[9.0459,11.4444],[9.0481,11.4511],[9.0526,11.4534],[9.0549,11.4601],[9.0526,11.4713],[9.0481,11.4758],[9.0392,11.4736],[9.0369,11.4713],[9.0324,11.4691],[9.0324,11.4623],[9.0302,11.4511],[9.0302,11.4444],[9.0302,11.4399],[9.0279,11.4354],[9.019,11.4376],[9.0145,11.4421],[9.0077,11.4421],[9.001,11.4421],[8.9965,11.4466],[8.9943,11.4534],[8.9943,11.4668],[8.9965,11.4713],[9.0032,11.4825],[9.0122,11.4938],[9.0167,11.5005],[9.0122,11.5028],[9.001,11.514],[8.9965,11.523],[8.9898,11.532],[8.9853,11.5432],[8.9785,11.5499],[8.9695,11.5567],[8.9606,11.5634],[8.9561,11.5679],[8.9448,11.5679],[8.9381,11.5656],[8.9336,11.5612],[8.9269,11.5567],[8.9157,11.5499],[8.9022,11.5432],[8.8954,11.5409],[8.8887,11.5364],[8.882,11.5275],[8.882,11.5162],[8.882,11.505],[8.8797,11.496],[8.8752,11.4825],[8.8685,11.4713],[8.864,11.4668],[8.8595,11.4623],[8.8528,11.4511],[8.8528,11.4444],[8.8505,11.4331],[8.8438,11.4152],[8.837,11.4062],[8.8303,11.4017],[8.8213,11.3972],[8.8011,11.3905],[8.7944,11.3882],[8.7944,11.3792],[8.7899,11.3658],[8.7876,11.3568],[8.7854,11.3366],[8.7787,11.3051],[8.7719,11.2872],[8.7607,11.2804],[8.7495,11.2782],[8.7427,11.2759],[8.736,11.2692],[8.7315,11.2602],[8.7225,11.2333],[8.7225,11.2265],[8.7225,11.2131],[8.727,11.2041]]]}},{"type":"Feature","properties":{"id":"kano/takai","name":"Takai","state":"Kano"},"geometry":{"type":"Polygon","coordinates":[[[8.9965,11.4466],[9.001,11.4421],[9.0077,11.4421],[9.0145,11.4421],[9.019,11.4376],[9.0279,11.4354],[9.0302,11.4399],[9.0302,11.4444],[9.0302,11.4511],[9.0324,11.4623],[9.0324,11.4691],[9.0369,11.4713],[9.0392,11.4736],[9.0481,11.4758],[9.0526,11.4713],[9.0549,11.4601],[9.0526,11.4534],[9.0481,11.4511],[9.0459,11.4444],[9.0459,11.4376],[9.0459,11.4331],[9.0504,11.4264],[9.0594,11.4219],[9.0729,11.4197],[9.0863,11.4197],[9.0931,11.4129],[9.1065,11.3927],[9.111,11.3815],[9.111,11.3725],[9.1133,11.3635],[9.1155,11.3568],[9.129,11.35],[9.1335,11.3478],[9.1402,11.3411],[9.1425,11.3343],[9.1425,11.3321],[9.1447,11.3298],[9.1492,11.3276],[9.1559,11.3298],[9.1604,11.3321],[9.1941,11.35],[9.1941,11.3545],[9.1941,11.359],[9.1941,11.3613],[9.1919,11.3658],[9.1919,11.368],[9.1941,11.3748],[9.1964,11.3815],[9.1964,11.386],[9.1986,11.3905],[9.2031,11.3995],[9.2098,11.4084],[9.2121,11.4152],[9.2166,11.4264],[9.2188,11.4376],[9.2211,11.4466],[9.2233,11.4534],[9.2233,11.4578],[9.2233,11.4623],[9.2233,11.4691],[9.2233,11.4713],[9.2256,11.4736],[9.2278,11.4758],[9.2345,11.4781],[9.2413,11.4781],[9.2503,11.4803],[9.2682,11.487],[9.2795,11.4915],[9.284,11.4938],[9.2907,11.4983],[9.2952,11.5028],[9.3019,11.5073],[9.3109,11.5095],[9.3176,11.5117],[9.3244,11.5117],[9.3289,11.5207],[9.3311,11.523],[9.3311,11.5252],[9.3311,11.5275],[9.3311,11.5342],[9.3334,11.5364],[9.3356,11.5387],[9.3379,11.5409],[9.3423,11.5454],[9.3468,11.5477],[9.3513,11.5477],[9.3558,11.5499],[9.3603,11.5522],[9.3626,11.5567],[9.3648,11.5589],[9.3626,11.5634],[9.3558,11.5589],[9.3513,11.5544],[9.3379,11.5544],[9.3334,11.5567],[9.3221,11.5567],[9.3154,11.5522],[9.3064,11.5544],[9.2974,11.5612],[9.2884,11.5679],[9.2795,11.5634],[9.2682,11.5612],[9.2458,11.5544],[9.2413,11.5544],[9.2278,11.5544],[9.2233,11.5589],[9.2166,11.5679],[9.2143,11.5746],[9.2166,11.5836],[9.2188,11.5903],[9.2211,11.5971],[9.2166,11.6083],[9.2098,11.6106],[9.1829,11.615],[9.1739,11.6128],[9.1649,11.6195],[9.1627,11.624],[9.1627,11.6308],[9.1717,11.6375],[9.1717,11.642],[9.1649,11.6465],[9.1492,11.6487],[9.1447,11.6487],[9.1357,11.642],[9.1312,11.6398],[9.1268,11.6353],[9.12,11.6308],[9.1133,11.624],[9.1065,11.6218],[9.0976,11.6195],[9.0863,11.6061],[9.0841,11.6016],[9.0818,11.5903],[9.0751,11.5814],[9.0729,11.5724],[9.0706,11.5612],[9.0661,11.5499],[9.0616,11.532],[9.0571,11.523],[9.0526,11.523],[9.0459,11.5275],[9.0392,11.5297],[9.0414,11.5185],[9.0459,11.5117],[9.0414,11.5028],[9.0347,11.496],[9.0279,11.4983],[9.019,11.5005],[9.0167,11.5005],[9.0122,11.4938],[9.0032,11.4825],[8.9965,11.4713],[8.9943,11.4668],[8.9943,11.4534],[8.9965,11.4466]]]}},{"type":"Feature","properties":{"id":"kano/tarauni","name":"Tarauni","state":"Kano"},"geometry":{"type":"Polygon","coordinates":[[[8.5024,11.9295],[8.5092,11.9295],[8.5204,11.9317],[8.5271,11.9362],[8.5339,11.9384],[8.5406,11.9407],[8.5473,11.9429],[8.5608,11.9452],[8.5698,11.9497],[8.5855,11.9564],[8.5923,11.9609],[8.59,11.9631],[8.5833,11.9654],[8.572,11.9676],[8.5653,11.9721],[8.5496,11.9811],[8.5451,11.9834],[8.5406,11.9856],[8.5361,11.9901],[8.5316,11.9901],[8.5316,11.9766],[8.5316,11.9721],[8.5271,11.9631],[8.5204,11.9564],[8.5182,11.9519],[8.5114,11.9474],[8.5024,11.9384],[8.4912,11.9339],[8.5024,11.9295]]]}},{"type":"Feature","properties":{"id":"kano/tofa","name":"Tofa","state":"Kano"},"geometry":{"type":"Polygon","coordinates":[[[8.2442,12.1001],[8.2464,12.0911],[8.2442,12.0867],[8.2464,12.0799],[8.2487,12.0687],[8.2509,12.053],[8.2509,12.0283],[8.2487,12.026],[8.2576,12.0193],[8.2689,12.0148],[8.2913,12.0058],[8.2958,12.0036],[8.3003,11.9968],[8.3138,11.9856],[8.325,11.9744],[8.3295,11.9699],[8.3452,11.9564],[8.3542,11.9452],[8.3609,11.9317],[8.3722,11.925],[8.3767,11.9227],[8.3834,11.925],[8.3901,11.9272],[8.3946,11.9272],[8.4014,11.9295],[8.4104,11.9295],[8.4171,11.9272],[8.4193,11.9317],[8.4238,11.9384],[8.4306,11.9519],[8.4351,11.9586],[8.4373,11.9676],[8.4396,11.9811],[8.4328,11.9834],[8.4193,11.9878],[8.4126,11.9968],[8.4059,12.0058],[8.3924,12.0193],[8.3857,12.0238],[8.3767,12.0283],[8.3722,12.035],[8.3677,12.0417],[8.3632,12.0485],[8.3542,12.0575],[8.352,12.0597],[8.334,12.0732],[8.3273,12.0754],[8.316,12.0777],[8.3071,12.0777],[8.3026,12.0799],[8.3003,12.0867],[8.2936,12.0889],[8.2913,12.0911],[8.2846,12.0956],[8.2801,12.0956],[8.2734,12.0979],[8.2644,12.1001],[8.2532,12.1046],[8.2509,12.1091],[8.2487,12.1091],[8.2397,12.1114],[8.2442,12.1001]]]}},{"type":"Feature","properties":{"id":"kano/tsanyawa","name":"Tsanyawa","state":"Kano"},"geometry":{"type":"Polygon","coordinates":[[[7.8579,12.2955],[7.8624,12.2843],[7.8759,12.2686],[7.8871,12.2551],[7.8916,12.2439],[7.8938,12.2394],[7.8961,12.2349],[7.9073,12.2214],[7.9118,12.2169],[7.9185,12.2124],[7.9365,12.1989],[7.9455,12.1945],[7.9522,12.19],[7.9657,12.1787],[7.9747,12.1698],[7.9792,12.1698],[7.9904,12.172],[7.9926,12.1765],[8.0016,12.1765],[8.0084,12.1765],[8.0151,12.172],[8.0173,12.1698],[8.0173,12.1653],[8.0286,12.163],[8.0353,12.154],[8.0421,12.1518],[8.0465,12.1518],[8.0533,12.1585],[8.0555,12.1675],[8.06,12.172],[8.0668,12.1765],[8.0757,12.1765],[8.0825,12.172],[8.0892,12.1698],[8.0982,12.172],[8.1094,12.181],[8.1117,12.1877],[8.1207,12.1945],[8.1274,12.1989],[8.1364,12.2034],[8.1341,12.2057],[8.1251,12.2147],[8.1229,12.2214],[8.1207,12.2259],[8.1207,12.2304],[8.1207,12.2371],[8.1207,12.2439],[8.1184,12.2528],[8.1139,12.2618],[8.1094,12.2641],[8.1072,12.2753],[8.1072,12.2865],[8.1072,12.2933],[8.0982,12.318],[8.0915,12.3314],[8.087,12.3359],[8.0825,12.3427],[8.0825,12.3472],[8.0825,12.3517],[8.0847,12.3561],[8.087,12.3584],[8.0915,12.3606],[8.0847,12.3629],[8.0757,12.3651],[8.0668,12.3674],[8.0465,12.3786],[8.0421,12.3831],[8.0353,12.3786],[8.0286,12.3741],[8.0196,12.3741],[8.0061,12.3696],[8.0039,12.3674],[7.9971,12.3674],[7.9882,12.3674],[7.9814,12.3651],[7.9702,12.3606],[7.9634,12.3584],[7.9567,12.3561],[7.9455,12.3539],[7.941,12.3539],[7.9275,12.3494],[7.9253,12.3472],[7.914,12.3404],[7.9096,12.3404],[7.9051,12.3404],[7.8961,12.3382],[7.8893,12.3359],[7.8781,12.3314],[7.8646,12.3225],[7.8624,12.3202],[7.8601,12.318],[7.8534,12.309],[7.8489,12.3022],[7.8579,12.2955]]]}},{"type":"Feature","properties":{"id":"kano/tudun-wada","name":"Tudun Wada","state":"Kano"},"geometry":{"type":"Polygon","coordinates":[[[8.2756,11.2714],[8.2823,11.267],[8.2891,11.2625],[8.2936,11.2557],[8.3026,11.24],[8.3071,11.2333],[8.3205,11.2175],[8.3295,11.2131],[8.3385,11.2131],[8.3452,11.2153],[8.3587,11.222],[8.3654,11.2198],[8.3744,11.2198],[8.3834,11.2243],[8.3901,11.2265],[8.3991,11.2288],[8.4148,11.231],[8.4351,11.2198],[8.4418,11.2131],[8.4508,11.2041],[8.4598,11.1951],[8.471,11.1884],[8.4755,11.1749],[8.4822,11.1637],[8.489,11.1592],[8.5069,11.1524],[8.5137,11.1524],[8.5159,11.1547],[8.5204,11.1547],[8.5249,11.1569],[8.5271,11.1569],[8.5406,11.1637],[8.5451,11.1659],[8.5496,11.1681],[8.5541,11.1704],[8.5631,11.1726],[8.5676,11.1816],[8.5788,11.1906],[8.5878,11.1996],[8.5923,11.2063],[8.6035,11.2175],[8.6102,11.2243],[8.6192,11.231],[8.6282,11.2355],[8.6394,11.2333],[8.6462,11.2288],[8.6529,11.2131],[8.6551,11.2041],[8.6596,11.1839],[8.6619,11.1659],[8.6619,11.1479],[8.6596,11.1389],[8.6619,11.1322],[8.6641,11.1142],[8.6731,11.103],[8.6798,11.094],[8.6888,11.0873],[8.6956,11.0828],[8.7023,11.0783],[8.7068,11.0693],[8.709,11.0559],[8.709,11.0469],[8.709,11.0379],[8.7113,11.0267],[8.718,11.0154],[8.727,11.0109],[8.7382,11.0064],[8.7405,11.0064],[8.745,11.002],[8.7517,10.9975],[8.7562,10.984],[8.7629,10.9728],[8.7674,10.966],[8.7719,10.957],[8.7809,10.9503],[8.7876,10.9413],[8.7899,10.9481],[8.7876,10.9548],[8.7876,10.9638],[8.7832,10.975],[8.7809,10.9862],[8.7787,11.0042],[8.7787,11.0109],[8.7809,11.0222],[8.7832,11.0379],[8.7876,11.0491],[8.7921,11.0603],[8.7966,11.0671],[8.8011,11.0783],[8.8056,11.0851],[8.8101,11.0895],[8.8168,11.0963],[8.8213,11.0985],[8.8236,11.0985],[8.8168,11.1075],[8.8056,11.1165],[8.8011,11.1232],[8.7899,11.1367],[8.7787,11.1412],[8.7652,11.1592],[8.7562,11.1681],[8.7405,11.1816],[8.7337,11.1928],[8.727,11.2041],[8.7225,11.2131],[8.7225,11.2265],[8.7225,11.2333],[8.7315,11.2602],[8.736,11.2692],[8.7427,11.2759],[8.7495,11.2782],[8.7607,11.2804],[8.7719,11.2872],[8.7787,11.3051],[8.7854,11.3366],[8.7876,11.3568],[8.7899,11.3658],[8.7944,11.3792],[8.7944,11.3882],[8.7921,11.3972],[8.7921,11.4062],[8.7854,11.4152],[8.7787,11.4219],[8.7764,11.4264],[8.7764,11.4331],[8.7719,11.4489],[8.7697,11.4534],[8.7652,11.4578],[8.7607,11.4623],[8.7562,11.4556],[8.7495,11.4399],[8.7472,11.4354],[8.7405,11.4287],[8.7248,11.4242],[8.718,11.4152],[8.7045,11.4017],[8.6888,11.3882],[8.6619,11.3725],[8.6507,11.3658],[8.6394,11.3613],[8.6304,11.3568],[8.617,11.3456],[8.6057,11.3366],[8.599,11.3321],[8.5923,11.3321],[8.5855,11.3321],[8.5765,11.3321],[8.5563,11.3366],[8.5451,11.3388],[8.5271,11.3478],[8.5159,11.3545],[8.5002,11.359],[8.4845,11.3613],[8.4755,11.3658],[8.4598,11.377],[8.4508,11.3837],[8.4463,11.3905],[8.4306,11.4017],[8.4216,11.4084],[8.4171,11.4107],[8.4148,11.3995],[8.4081,11.3927],[8.3991,11.3882],[8.3901,11.3815],[8.3834,11.377],[8.3722,11.368],[8.3632,11.3568],[8.3587,11.3523],[8.3497,11.35],[8.3407,11.3433],[8.3362,11.3388],[8.334,11.3343],[8.3295,11.3298],[8.3205,11.3276],[8.316,11.3231],[8.3115,11.3186],[8.3048,11.3164],[8.2936,11.3096],[8.2823,11.3074],[8.2756,11.3029],[8.2756,11.3006],[8.2734,11.2939],[8.2734,11.2782],[8.2756,11.2714]]]}},{"type":"Feature","properties":{"id":"kano/ungogo","name":"Ungogo","state":"Kano"},"geometry":{"type":"Polygon","coordinates":[[[8.4373,12.0058],[8.4396,11.9856],[8.4396,11.9811],[8.4373,11.9676],[8.471,11.9721],[8.471,11.9789],[8.471,11.9923],[8.4643,11.9991],[8.4643,12.0036],[8.4687,12.0081],[8.4687,12.0103],[8.4755,12.0125],[8.4777,12.0148],[8.4822,12.0215],[8.4845,12.0238],[8.4912,12.0305],[8.4957,12.035],[8.5024,12.0395],[8.5092,12.0417],[8.5226,12.0417],[8.5339,12.0328],[8.5406,12.0283],[8.5451,12.0238],[8.5496,12.0215],[8.5563,12.0193],[8.5608,12.0193],[8.5698,12.0193],[8.5878,12.0193],[8.5945,12.0193],[8.6057,12.0125],[8.6057,12.017],[8.6057,12.0215],[8.608,12.026],[8.6125,12.0283],[8.6215,12.0305],[8.6282,12.0328],[8.6327,12.0328],[8.6417,12.035],[8.6462,12.0373],[8.6529,12.0395],[8.6619,12.044],[8.6641,12.0485],[8.6664,12.0552],[8.6664,12.0597],[8.6619,12.0777],[8.6619,12.0844],[8.6574,12.0934],[8.6439,12.0911],[8.6349,12.0867],[8.6259,12.0844],[8.6102,12.0777],[8.6012,12.0754],[8.5923,12.0799],[8.581,12.0867],[8.5743,12.0934],[8.5698,12.1024],[8.5586,12.1136],[8.5473,12.1248],[8.5384,12.1271],[8.5316,12.1271],[8.5159,12.1271],[8.5137,12.1271],[8.5047,12.1226],[8.4979,12.1181],[8.489,12.1024],[8.4822,12.0934],[8.4732,12.0822],[8.4687,12.0732],[8.462,12.0687],[8.4575,12.0642],[8.4485,12.0597],[8.4418,12.0575],[8.4396,12.0485],[8.4328,12.0305],[8.4328,12.0238],[8.4373,12.0058]]]}},{"type":"Feature","properties":{"id":"kano/warawa","name":"Warawa","state":"Kano"},"geometry":{"type":"Polygon","coordinates":[[[8.599,11.9564],[8.6102,11.9542],[8.617,11.9519],[8.6259,11.9474],[8.6282,11.9452],[8.6304,11.9429],[8.6327,11.9317],[8.6304,11.9272],[8.6372,11.925],[8.6417,11.9205],[8.6462,11.916],[8.6507,11.9092],[8.6596,11.8958],[8.6664,11.889],[8.6731,11.8868],[8.6956,11.8711],[8.7001,11.8688],[8.7068,11.8621],[8.7113,11.8531],[8.7158,11.8486],[8.7203,11.8419],[8.727,11.8329],[8.7293,11.8261],[8.736,11.8217],[8.7427,11.8217],[8.7652,11.8217],[8.7787,11.8217],[8.7921,11.8239],[8.8056,11.8217],[8.8191,11.8149],[8.8281,11.8059],[8.8326,11.797],[8.8348,11.7992],[8.837,11.8037],[8.8415,11.8127],[8.8415,11.8261],[8.8415,11.8329],[8.846,11.8441],[8.8505,11.8464],[8.864,11.8531],[8.8662,11.8621],[8.8685,11.8711],[8.8685,11.8823],[8.8707,11.8958],[8.8707,11.9003],[8.8685,11.9048],[8.8685,11.9205],[8.864,11.9317],[8.8595,11.9452],[8.8618,11.9519],[8.864,11.9631],[8.8662,11.9699],[8.8595,11.9744],[8.855,11.9766],[8.8483,11.9789],[8.8438,11.9789],[8.837,11.9789],[8.8326,11.9811],[8.8258,11.9789],[8.8123,11.9744],[8.8079,11.9721],[8.7899,11.9609],[8.7809,11.9564],[8.7719,11.9519],[8.7584,11.9564],[8.7517,11.9609],[8.7405,11.9721],[8.736,11.9766],[8.727,11.9856],[8.7203,11.9878],[8.7158,11.9901],[8.7113,11.9901],[8.7023,11.9878],[8.6933,11.9856],[8.6888,11.9834],[8.6776,11.9766],[8.6731,11.9699],[8.6686,11.9676],[8.6619,11.9631],[8.6551,11.9609],[8.6507,11.9609],[8.6372,11.9631],[8.6327,11.9654],[8.6282,11.9676],[8.6192,11.9744],[8.617,11.9789],[8.6147,11.9834],[8.6102,11.9811],[8.608,11.9789],[8.6057,11.9744],[8.6012,11.9676],[8.5945,11.9609],[8.599,11.9564]]]}},{"type":"Feature","properties":{"id":"kano/wudil","name":"Wudil","state":"Kano"},"geometry":{"type":"Polygon","coordinates":[[[8.7629,11.7094],[8.7629,11.7049],[8.7697,11.7071],[8.7787,11.7116],[8.7832,11.7094],[8.7876,11.7004],[8.7921,11.6959],[8.7989,11.6937],[8.8101,11.6959],[8.8146,11.6959],[8.8191,11.6892],[8.8236,11.6802],[8.8281,11.6712],[8.8326,11.6667],[8.837,11.6645],[8.8438,11.6645],[8.8505,11.6667],[8.855,11.6689],[8.8595,11.6645],[8.864,11.6577],[8.8685,11.651],[8.8752,11.6465],[8.8797,11.6465],[8.8797,11.6555],[8.8775,11.6622],[8.8775,11.6689],[8.8842,11.6667],[8.8909,11.6577],[8.8977,11.6487],[8.8999,11.642],[8.9022,11.6398],[8.9022,11.6353],[8.8999,11.6285],[8.8954,11.624],[8.8887,11.6195],[8.8842,11.6173],[8.8775,11.615],[8.8752,11.6106],[8.8797,11.6016],[8.8842,11.5993],[8.8954,11.5948],[8.9022,11.5948],[8.9112,11.5971],[8.9179,11.5993],[8.9448,11.6038],[8.9538,11.6061],[8.9516,11.6083],[8.9471,11.615],[8.9426,11.6308],[8.9426,11.6353],[8.9493,11.6465],[8.9561,11.6487],[8.9673,11.651],[8.9695,11.6532],[8.9718,11.6577],[8.974,11.6689],[8.9718,11.6712],[8.9695,11.6779],[8.9538,11.6959],[8.9426,11.7071],[8.9359,11.7161],[8.9291,11.7251],[8.9201,11.7341],[8.9179,11.7408],[8.9134,11.7475],[8.9067,11.7565],[8.9022,11.7723],[8.8999,11.779],[8.8954,11.788],[8.8954,11.8037],[8.8999,11.8104],[8.9044,11.8149],[8.9157,11.8284],[8.9224,11.8374],[8.9336,11.8464],[8.9426,11.8553],[8.9493,11.8598],[8.9583,11.8688],[8.9583,11.8756],[8.9583,11.8845],[8.9493,11.8935],[8.9471,11.8935],[8.9246,11.8935],[8.9157,11.898],[8.9112,11.9048],[8.9112,11.9115],[8.9067,11.9182],[8.9022,11.9227],[8.8932,11.9227],[8.8865,11.9115],[8.882,11.9048],[8.8775,11.9025],[8.8707,11.9003],[8.8707,11.8958],[8.8685,11.8823],[8.8685,11.8711],[8.8662,11.8621],[8.864,11.8531],[8.8505,11.8464],[8.846,11.8441],[8.8415,11.8329],[8.8415,11.8261],[8.8415,11.8127],[8.837,11.8037],[8.8348,11.7992],[8.8326,11.797],[8.8303,11.797],[8.8101,11.7745],[8.8034,11.7655],[8.7899,11.7543],[8.7832,11.7498],[8.7719,11.7453],[8.7652,11.7386],[8.7629,11.7341],[8.7629,11.7273],[8.7629,11.7228],[8.7607,11.7206],[8.7629,11.7094]]]}}]}