{"type":"FeatureCollection","features":[{"type":"Feature","properties":{"id":"katsina/bakori","name":"Bakori","state":"Katsina"},"geometry":{"type":"Polygon","coordinates":[[[7.2852,11.7633],[7.2875,11.7633],[7.292,11.761],[7.2987,11.761],[7.3054,11.7565],[7.3144,11.7453],[7.3167,11.7408],[7.3234,11.7296],[7.3257,11.7228],[7.3279,11.7184],[7.3279,11.7094],[7.3279,11.7026],[7.3279,11.6824],[7.3279,11.6734],[7.3279,11.6667],[7.3257,11.651],[7.3212,11.6308],[7.3257,11.6218],[7.3279,11.6173],[7.3301,11.615],[7.3414,11.6016],[7.3436,11.5948],[7.3481,11.5881],[7.3504,11.5746],[7.3504,11.5679],[7.3526,11.5544],[7.3504,11.5499],[7.3526,11.5364],[7.3526,11.5275],[7.3526,11.523],[7.3526,11.5185],[7.3549,11.5162],[7.3593,11.5073],[7.3638,11.496],[7.3728,11.4893],[7.3796,11.4803],[7.3885,11.487],[7.3998,11.496],[7.4132,11.5073],[7.429,11.5185],[7.4357,11.523],[7.4379,11.5252],[7.4447,11.5252],[7.4537,11.5275],[7.4582,11.532],[7.4626,11.532],[7.4694,11.5342],[7.4806,11.5342],[7.4851,11.532],[7.4896,11.5297],[7.4918,11.5275],[7.5008,11.505],[7.5053,11.496],[7.5053,11.4938],[7.5008,11.4848],[7.4986,11.4825],[7.4963,11.4803],[7.4941,11.4758],[7.4941,11.4713],[7.4941,11.4691],[7.4963,11.4646],[7.5008,11.4578],[7.5053,11.4534],[7.521,11.4444],[7.5255,11.4421],[7.5323,11.4399],[7.539,11.4376],[7.5547,11.4331],[7.566,11.4331],[7.5749,11.4354],[7.5727,11.4399],[7.5704,11.4444],[7.5682,11.4466],[7.5682,11.4511],[7.566,11.4578],[7.566,11.4601],[7.5637,11.4668],[7.5615,11.4713],[7.5615,11.4781],[7.557,11.4848],[7.5547,11.4915],[7.5547,11.496],[7.557,11.5028],[7.5592,11.5073],[7.5637,11.5162],[7.5682,11.5207],[7.5704,11.5252],[7.5727,11.5297],[7.5749,11.5432],[7.5704,11.5477],[7.5637,11.5522],[7.5592,11.5589],[7.557,11.5656],[7.5547,11.5701],[7.5547,11.5746],[7.5525,11.5791],[7.5457,11.5814],[7.539,11.5859],[7.5323,11.5903],[7.5278,11.5948],[7.5233,11.5993],[7.5233,11.6038],[7.5233,11.6061],[7.5278,11.6128],[7.53,11.6173],[7.5323,11.6218],[7.5278,11.6263],[7.5278,11.6308],[7.5278,11.633],[7.5323,11.6487],[7.5345,11.6555],[7.539,11.6734],[7.539,11.6847],[7.539,11.6869],[7.5345,11.6847],[7.5278,11.6779],[7.5188,11.6734],[7.5143,11.6712],[7.5121,11.6712],[7.5076,11.6734],[7.5053,11.6734],[7.4941,11.6802],[7.4896,11.6892],[7.4873,11.6981],[7.4829,11.7026],[7.4829,11.7049],[7.4739,11.7116],[7.4671,11.7161],[7.4604,11.7273],[7.4582,11.7296],[7.4582,11.7318],[7.4559,11.7341],[7.4537,11.7363],[7.4469,11.7408],[7.4424,11.7408],[7.4379,11.7431],[7.4312,11.7453],[7.429,11.7475],[7.4222,11.7543],[7.4177,11.761],[7.4132,11.7678],[7.4087,11.788],[7.4043,11.8037],[7.402,11.8082],[7.3998,11.8104],[7.3953,11.8149],[7.3885,11.8194],[7.3751,11.8172],[7.3638,11.8127],[7.3414,11.8104],[7.3212,11.8082],[7.3099,11.8082],[7.3032,11.8082],[7.2987,11.8082],[7.2965,11.8037],[7.292,11.7925],[7.283,11.7723],[7.283,11.7678],[7.2852,11.7633]]]}},{"type":"Feature","properties":{"id":"katsina/batagarawa","name":"Batagarawa","state":"Katsina"},"geometry":{"type":"Polygon","coordinates":[[[7.3661,12.8637],[7.3683,12.8592],[7.3706,12.857],[7.3728,12.8547],[7.3773,12.857],[7.3863,12.8592],[7.3953,12.857],[7.3975,12.8547],[7.4065,12.848],[7.411,12.8457],[7.4155,12.8457],[7.429,12.8435],[7.4357,12.8412],[7.4402,12.8412],[7.4514,12.8412],[7.4626,12.8457],[7.4671,12.8502],[7.4761,12.8547],[7.4918,12.8614],[7.4986,12.8637],[7.5098,12.8659],[7.5233,12.8704],[7.5412,12.8772],[7.548,12.8794],[7.5547,12.8817],[7.557,12.8817],[7.566,12.8772],[7.5682,12.8749],[7.5727,12.8727],[7.5772,12.8682],[7.5794,12.8659],[7.5839,12.8592],[7.5839,12.857],[7.5839,12.8525],[7.5817,12.8412],[7.5794,12.8345],[7.5794,12.8322],[7.5749,12.8322],[7.566,12.8255],[7.5615,12.8233],[7.5592,12.821],[7.5502,12.8075],[7.5368,12.7873],[7.5345,12.7851],[7.53,12.7739],[7.5278,12.7671],[7.5255,12.7626],[7.5233,12.7581],[7.521,12.7536],[7.5165,12.7469],[7.5143,12.7447],[7.5098,12.7402],[7.5076,12.7334],[7.5076,12.7312],[7.5076,12.72],[7.5076,12.7155],[7.5076,12.7132],[7.5098,12.7087],[7.5143,12.7042],[7.5188,12.7042],[7.5233,12.7042],[7.53,12.7065],[7.5323,12.7087],[7.5345,12.711],[7.5368,12.7132],[7.5368,12.7155],[7.5412,12.7177],[7.5457,12.7222],[7.548,12.7245],[7.5525,12.7289],[7.5547,12.7357],[7.5615,12.7536],[7.5704,12.7649],[7.5749,12.7761],[7.5749,12.7784],[7.5772,12.7873],[7.5794,12.7963],[7.5862,12.8053],[7.5884,12.8098],[7.5974,12.8188],[7.6086,12.8278],[7.6131,12.8322],[7.6131,12.8367],[7.6154,12.839],[7.6176,12.8435],[7.6243,12.8525],[7.6288,12.857],[7.6311,12.8614],[7.6356,12.8659],[7.6378,12.8727],[7.649,12.8839],[7.6603,12.8929],[7.667,12.8974],[7.6805,12.9041],[7.7029,12.9221],[7.7119,12.9288],[7.7142,12.9311],[7.7209,12.9356],[7.7276,12.9378],[7.7366,12.9423],[7.7411,12.9468],[7.7501,12.9535],[7.7523,12.9558],[7.7591,12.9625],[7.7613,12.967],[7.7636,12.9692],[7.7658,12.976],[7.7591,12.9827],[7.7546,12.9872],[7.7479,12.9895],[7.7389,12.9917],[7.7299,12.9939],[7.7254,12.9962],[7.7187,12.9984],[7.7164,12.9984],[7.7142,13.0007],[7.7119,13.0029],[7.7097,13.0074],[7.7097,13.0097],[7.7119,13.0164],[7.7119,13.0186],[7.7142,13.0209],[7.7187,13.0231],[7.7209,13.0231],[7.7232,13.0276],[7.7276,13.0344],[7.7276,13.0411],[7.7254,13.0478],[7.7209,13.0456],[7.7164,13.0433],[7.7142,13.0389],[7.7119,13.0344],[7.7074,13.0299],[7.7029,13.0254],[7.6962,13.0231],[7.685,13.0254],[7.6805,13.0254],[7.6827,13.0231],[7.676,13.0097],[7.6693,13.0007],[7.6625,12.9939],[7.6535,12.9872],[7.6446,12.9827],[7.6378,12.9782],[7.6333,12.976],[7.6311,12.9715],[7.6311,12.9692],[7.6311,12.9625],[7.6288,12.9558],[7.6288,12.9535],[7.6266,12.9513],[7.6221,12.9468],[7.6176,12.9423],[7.6154,12.94],[7.6131,12.94],[7.6064,12.9378],[7.6041,12.9378],[7.5884,12.94],[7.5794,12.94],[7.5749,12.9423],[7.5592,12.9535],[7.557,12.9558],[7.5547,12.9625],[7.5547,12.9715],[7.548,12.9692],[7.53,12.9603],[7.521,12.9535],[7.5098,12.9468],[7.4963,12.9356],[7.4806,12.9243],[7.4739,12.9221],[7.4626,12.9176],[7.4335,12.9041],[7.4222,12.8974],[7.3998,12.8974],[7.384,12.8996],[7.3796,12.9041],[7.3751,12.9086],[7.3683,12.9131],[7.3661,12.9153],[7.3661,12.9041],[7.3661,12.8906],[7.3638,12.8861],[7.3638,12.8704],[7.3661,12.8637]]]}},{"type":"Feature","properties":{"id":"katsina/batsari","name":"Batsari","state":"Katsina"},"geometry":{"type":"Polygon","coordinates":[[[7.0315,12.7536],[7.0315,12.7514],[7.0337,12.7379],[7.036,12.7245],[7.0404,12.702],[7.0427,12.693],[7.0427,12.6885],[7.0427,12.675],[7.0449,12.6571],[7.0449,12.6526],[7.0472,12.6459],[7.0472,12.6391],[7.0472,12.6369],[7.0517,12.6369],[7.0539,12.6346],[7.0674,12.6391],[7.0741,12.6414],[7.0809,12.6414],[7.0943,12.6459],[7.1078,12.6503],[7.119,12.6571],[7.1258,12.6593],[7.1303,12.6593],[7.1437,12.6593],[7.1505,12.6616],[7.1662,12.6638],[7.1797,12.6593],[7.1909,12.6571],[7.1999,12.6548],[7.2111,12.6481],[7.2268,12.6436],[7.2448,12.6369],[7.2493,12.6369],[7.2718,12.6391],[7.2762,12.6414],[7.2807,12.6414],[7.2875,12.6436],[7.3032,12.6526],[7.3099,12.6548],[7.3167,12.6593],[7.3234,12.6638],[7.3279,12.6661],[7.3324,12.6638],[7.3391,12.6638],[7.3414,12.6661],[7.3481,12.6728],[7.3571,12.675],[7.3683,12.6728],[7.3751,12.6706],[7.3796,12.6683],[7.384,12.6661],[7.3908,12.6706],[7.402,12.6773],[7.4065,12.6795],[7.4087,12.684],[7.4087,12.6885],[7.4065,12.693],[7.4043,12.6997],[7.4043,12.7222],[7.4043,12.7289],[7.4065,12.7312],[7.4087,12.7334],[7.4132,12.7424],[7.4222,12.7581],[7.4177,12.7626],[7.42,12.7671],[7.4245,12.7761],[7.429,12.7828],[7.4335,12.8031],[7.4335,12.8098],[7.429,12.8233],[7.4245,12.8278],[7.42,12.83],[7.4132,12.8345],[7.3998,12.8367],[7.3863,12.839],[7.3728,12.848],[7.3706,12.8525],[7.3706,12.857],[7.3683,12.8592],[7.3661,12.8637],[7.3638,12.8704],[7.3638,12.8861],[7.3661,12.8906],[7.3661,12.9041],[7.3661,12.9153],[7.3638,12.9176],[7.3616,12.9221],[7.3593,12.9266],[7.3481,12.9288],[7.3436,12.9288],[7.3391,12.9333],[7.3369,12.9356],[7.3346,12.94],[7.3257,12.9513],[7.3234,12.9625],[7.3189,12.9737],[7.3167,12.976],[7.3099,12.9805],[7.2942,12.9895],[7.2875,12.9872],[7.2807,12.9895],[7.274,12.9917],[7.2718,12.9962],[7.2673,13.0007],[7.2583,13.0074],[7.256,13.0052],[7.2493,13.0074],[7.2448,13.0097],[7.2381,13.0119],[7.2336,13.0164],[7.2246,13.0186],[7.2179,13.0209],[7.2134,13.0142],[7.2111,13.0097],[7.2111,13.0052],[7.2134,12.9917],[7.2156,12.985],[7.2246,12.967],[7.2268,12.958],[7.2313,12.949],[7.2381,12.9423],[7.2426,12.94],[7.2583,12.9153],[7.2605,12.9108],[7.2673,12.8974],[7.2673,12.8929],[7.2673,12.8906],[7.265,12.8817],[7.265,12.8749],[7.2628,12.8704],[7.2605,12.8659],[7.2538,12.8659],[7.2493,12.8637],[7.2471,12.8637],[7.2291,12.8704],[7.2201,12.8749],[7.2179,12.8772],[7.2066,12.8839],[7.1976,12.8906],[7.1707,12.9064],[7.155,12.9153],[7.1527,12.9153],[7.1437,12.9131],[7.1325,12.9086],[7.1258,12.8951],[7.1235,12.8861],[7.119,12.8749],[7.1168,12.8704],[7.1078,12.857],[7.1033,12.8457],[7.0966,12.8345],[7.0943,12.8278],[7.0854,12.812],[7.0786,12.8075],[7.0741,12.8053],[7.0629,12.8008],[7.0449,12.7941],[7.0315,12.7896],[7.0292,12.7873],[7.0292,12.7739],[7.0315,12.7536]]]}},{"type":"Feature","properties":{"id":"katsina/baure","name":"Baure","state":"Katsina"},"geometry":{"type":"Polygon","coordinates":[[[8.59,12.812],[8.5923,12.8075],[8.5945,12.7986],[8.6012,12.7873],[8.6057,12.7828],[8.6057,12.7784],[8.6035,12.7739],[8.6012,12.7694],[8.599,12.7649],[8.6057,12.7604],[8.6102,12.7536],[8.608,12.7492],[8.608,12.7402],[8.6125,12.7334],[8.617,12.7334],[8.6237,12.7334],[8.6349,12.7334],[8.6507,12.7312],[8.6574,12.7245],[8.6619,12.7222],[8.6709,12.7087],[8.6798,12.702],[8.6821,12.6975],[8.6888,12.6975],[8.6956,12.7042],[8.7023,12.7087],[8.7203,12.7042],[8.7337,12.6975],[8.7405,12.6953],[8.7472,12.6953],[8.7517,12.6953],[8.7517,12.6885],[8.754,12.684],[8.7584,12.6818],[8.7674,12.684],[8.7832,12.693],[8.7876,12.693],[8.7921,12.693],[8.7966,12.6885],[8.8011,12.6863],[8.8101,12.6885],[8.8146,12.6885],[8.8236,12.693],[8.8303,12.6953],[8.8415,12.6975],[8.8505,12.6997],[8.8662,12.702],[8.8707,12.702],[8.8932,12.711],[8.9044,12.7132],[8.9134,12.7177],[8.9224,12.72],[8.9269,12.7222],[8.9314,12.7245],[8.9381,12.7289],[8.9426,12.7334],[8.9471,12.7402],[8.9538,12.7536],[8.9583,12.7604],[8.9606,12.7671],[8.9606,12.7716],[8.9651,12.7806],[8.9673,12.7986],[8.9673,12.8053],[8.9695,12.8098],[8.9763,12.8165],[8.9808,12.8188],[8.992,12.821],[8.9987,12.8188],[9.0055,12.8188],[9.01,12.8165],[9.019,12.8165],[9.0324,12.8143],[9.0369,12.8143],[9.0414,12.8143],[9.0459,12.8165],[9.0481,12.8188],[9.0504,12.821],[9.0504,12.8255],[9.0481,12.8278],[9.0459,12.8367],[9.0437,12.8367],[9.0145,12.839],[9.0055,12.839],[8.9965,12.8412],[8.9898,12.839],[8.983,12.839],[8.9785,12.8367],[8.9763,12.8345],[8.9695,12.8322],[8.9628,12.8367],[8.9561,12.839],[8.9493,12.8412],[8.9404,12.8457],[8.9381,12.8457],[8.9336,12.848],[8.9291,12.848],[8.9246,12.8502],[8.9224,12.8502],[8.882,12.8637],[8.8775,12.8659],[8.8707,12.8704],[8.8662,12.8704],[8.8618,12.8704],[8.8528,12.8727],[8.846,12.8749],[8.837,12.8794],[8.8303,12.8817],[8.8236,12.8817],[8.8168,12.8839],[8.8101,12.8884],[8.8034,12.8906],[8.7944,12.8906],[8.7876,12.8929],[8.7809,12.8974],[8.7719,12.8974],[8.7607,12.8996],[8.754,12.9019],[8.7472,12.9041],[8.7405,12.9064],[8.7337,12.9108],[8.7248,12.9131],[8.7203,12.9131],[8.7158,12.9153],[8.709,12.9131],[8.709,12.9108],[8.7113,12.9064],[8.7135,12.8996],[8.718,12.8951],[8.7203,12.8906],[8.7248,12.8772],[8.7248,12.8727],[8.7225,12.8592],[8.718,12.8547],[8.7068,12.8525],[8.6956,12.8525],[8.6821,12.8502],[8.6686,12.8525],[8.6596,12.857],[8.6529,12.8592],[8.6439,12.8592],[8.6417,12.857],[8.6394,12.8525],[8.6349,12.8457],[8.6259,12.839],[8.6215,12.8345],[8.608,12.8322],[8.5945,12.83],[8.59,12.8278],[8.5878,12.8233],[8.5833,12.8165],[8.59,12.812]]]}},{"type":"Feature","properties":{"id":"katsina/bindawa","name":"Bindawa","state":"Katsina"},"geometry":{"type":"Polygon","coordinates":[[[7.7434,12.6728],[7.7479,12.6683],[7.7546,12.6638],[7.7613,12.6638],[7.7658,12.6638],[7.7703,12.6638],[7.7748,12.6616],[7.786,12.6571],[7.7905,12.6548],[7.7973,12.6459],[7.7995,12.6414],[7.7995,12.6369],[7.7995,12.6324],[7.813,12.6234],[7.8152,12.6211],[7.8197,12.6211],[7.8287,12.6211],[7.8399,12.6189],[7.8422,12.6167],[7.8444,12.6167],[7.8534,12.6144],[7.8579,12.6122],[7.8691,12.6122],[7.8714,12.6122],[7.8759,12.6122],[7.8826,12.6122],[7.8938,12.6099],[7.8961,12.6099],[7.8983,12.6032],[7.9006,12.6009],[7.9051,12.5987],[7.9073,12.5964],[7.923,12.592],[7.9298,12.5897],[7.9343,12.5875],[7.941,12.5785],[7.941,12.5762],[7.9432,12.574],[7.9545,12.5717],[7.9567,12.5717],[7.9612,12.5717],[7.959,12.5762],[7.9567,12.592],[7.9567,12.5987],[7.9567,12.6032],[7.9522,12.6189],[7.9477,12.6301],[7.9387,12.6391],[7.9365,12.6436],[7.932,12.6459],[7.9253,12.6459],[7.9185,12.6459],[7.9073,12.6459],[7.8916,12.6503],[7.8893,12.6526],[7.8871,12.6571],[7.8893,12.6616],[7.8916,12.6706],[7.8938,12.6885],[7.8938,12.693],[7.8961,12.6975],[7.8983,12.7065],[7.9028,12.7155],[7.9028,12.7222],[7.9051,12.7289],[7.9073,12.7424],[7.9096,12.7514],[7.9163,12.7626],[7.9208,12.7649],[7.923,12.7649],[7.9275,12.7649],[7.9298,12.7649],[7.932,12.7626],[7.9455,12.7536],[7.9567,12.7424],[7.9634,12.7402],[7.9679,12.7402],[7.9702,12.7424],[7.9724,12.7469],[7.9747,12.7559],[7.9769,12.7626],[7.9769,12.7694],[7.9792,12.7761],[7.9792,12.7851],[7.9747,12.7918],[7.9724,12.7941],[7.9612,12.8008],[7.9522,12.8031],[7.9477,12.8053],[7.941,12.8075],[7.9365,12.8098],[7.932,12.8188],[7.9298,12.8233],[7.9253,12.8255],[7.9185,12.83],[7.914,12.8322],[7.9073,12.8322],[7.9028,12.83],[7.8983,12.8255],[7.8916,12.8233],[7.8826,12.821],[7.8759,12.8188],[7.8714,12.8188],[7.8669,12.8188],[7.8624,12.8188],[7.8332,12.8188],[7.8152,12.8165],[7.8085,12.812],[7.8062,12.8098],[7.7973,12.8053],[7.7928,12.8053],[7.786,12.8031],[7.7771,12.7986],[7.7726,12.7963],[7.7726,12.7918],[7.7726,12.7873],[7.7703,12.7828],[7.7703,12.7784],[7.7703,12.7514],[7.7703,12.7357],[7.7703,12.7312],[7.7703,12.7267],[7.7681,12.7222],[7.7613,12.7087],[7.7523,12.6997],[7.7501,12.6997],[7.7479,12.6997],[7.7434,12.693],[7.7411,12.6885],[7.7389,12.6818],[7.7434,12.6728]]]}},{"type":"Feature","properties":{"id":"katsina/charanchi","name":"Charanchi","state":"Katsina"},"geometry":{"type":"Polygon","coordinates":[[[7.5457,12.7177],[7.5525,12.711],[7.557,12.7065],[7.557,12.7042],[7.566,12.6818],[7.5727,12.6616],[7.5749,12.6593],[7.5794,12.6526],[7.5862,12.6414],[7.5862,12.6391],[7.5929,12.6346],[7.5951,12.6324],[7.6041,12.6301],[7.6086,12.6301],[7.6109,12.6301],[7.6176,12.6279],[7.6243,12.6189],[7.6243,12.6144],[7.6221,12.6032],[7.6198,12.5987],[7.6176,12.5942],[7.6154,12.5875],[7.6131,12.583],[7.6176,12.5695],[7.6221,12.5605],[7.6266,12.556],[7.6288,12.5515],[7.6266,12.547],[7.6243,12.5425],[7.6243,12.5403],[7.6266,12.5336],[7.6266,12.5291],[7.6288,12.5246],[7.6311,12.5201],[7.6311,12.5178],[7.6356,12.5044],[7.6356,12.4954],[7.6356,12.4909],[7.6333,12.4864],[7.6266,12.4797],[7.6221,12.4797],[7.6198,12.4729],[7.6221,12.4729],[7.6221,12.4707],[7.6266,12.4684],[7.6311,12.4707],[7.6333,12.4707],[7.6378,12.4707],[7.6423,12.4684],[7.6446,12.4684],[7.6603,12.4595],[7.6625,12.455],[7.6648,12.4527],[7.6648,12.4482],[7.6648,12.4415],[7.6648,12.437],[7.6648,12.428],[7.667,12.4235],[7.6693,12.419],[7.6737,12.4168],[7.676,12.4145],[7.6782,12.4145],[7.6827,12.4145],[7.694,12.4168],[7.6985,12.419],[7.7007,12.4213],[7.7119,12.4437],[7.7119,12.4505],[7.7119,12.4572],[7.7074,12.4617],[7.7052,12.4617],[7.7029,12.4639],[7.7007,12.4639],[7.6985,12.4662],[7.7007,12.4707],[7.7074,12.4819],[7.7119,12.4886],[7.7142,12.4931],[7.7209,12.4954],[7.7276,12.4999],[7.7299,12.5021],[7.7299,12.5111],[7.7254,12.5223],[7.7232,12.5268],[7.7209,12.5313],[7.7209,12.5425],[7.7254,12.547],[7.7366,12.5628],[7.7389,12.565],[7.7479,12.5695],[7.7546,12.5717],[7.7591,12.5762],[7.7613,12.583],[7.7658,12.5852],[7.7771,12.5852],[7.7838,12.5875],[7.7905,12.592],[7.7928,12.5987],[7.795,12.6009],[7.795,12.6054],[7.7973,12.6099],[7.7973,12.6234],[7.7995,12.6324],[7.7995,12.6369],[7.7995,12.6414],[7.7973,12.6459],[7.7905,12.6548],[7.786,12.6571],[7.7748,12.6616],[7.7703,12.6638],[7.7658,12.6638],[7.7613,12.6638],[7.7546,12.6638],[7.7479,12.6683],[7.7434,12.6728],[7.7389,12.6818],[7.7411,12.6885],[7.7434,12.693],[7.7479,12.6997],[7.7501,12.6997],[7.7479,12.702],[7.7321,12.7087],[7.7254,12.7065],[7.7187,12.7065],[7.7142,12.7065],[7.7119,12.7087],[7.7029,12.7132],[7.6895,12.7177],[7.6827,12.7155],[7.6715,12.7155],[7.6558,12.7177],[7.6468,12.7177],[7.6401,12.72],[7.6356,12.72],[7.6333,12.7222],[7.6243,12.7222],[7.6109,12.7245],[7.5996,12.7245],[7.5929,12.7267],[7.5862,12.7312],[7.5794,12.7312],[7.5749,12.7312],[7.5682,12.7334],[7.557,12.7357],[7.5547,12.7357],[7.5525,12.7289],[7.548,12.7245],[7.5457,12.7222],[7.5412,12.7177],[7.5457,12.7177]]]}},{"type":"Feature","properties":{"id":"katsina/dan-musa","name":"Dan Musa","state":"Katsina"},"geometry":{"type":"Polygon","coordinates":[[[7.1056,12.2955],[7.1056,12.2888],[7.1078,12.2865],[7.1123,12.282],[7.1146,12.2753],[7.1168,12.2708],[7.128,12.2528],[7.1303,12.2506],[7.1348,12.2506],[7.1393,12.2484],[7.146,12.2461],[7.155,12.2394],[7.1774,12.2259],[7.1819,12.2214],[7.1864,12.2079],[7.1864,12.2057],[7.1954,12.1877],[7.2044,12.1742],[7.2066,12.1675],[7.2179,12.1563],[7.2246,12.1473],[7.2313,12.1428],[7.2358,12.1406],[7.2403,12.1406],[7.2515,12.1406],[7.2583,12.1428],[7.265,12.1428],[7.2695,12.1428],[7.2987,12.1428],[7.3077,12.1428],[7.3122,12.1428],[7.3167,12.1406],[7.3212,12.1383],[7.3279,12.1338],[7.3324,12.1316],[7.3414,12.1293],[7.3459,12.1293],[7.3526,12.1248],[7.3593,12.1203],[7.3638,12.1159],[7.3706,12.1114],[7.3818,12.1091],[7.3885,12.1091],[7.393,12.1091],[7.3998,12.1091],[7.4132,12.1091],[7.4245,12.1091],[7.4312,12.1091],[7.4379,12.1069],[7.4424,12.1069],[7.4424,12.1046],[7.4492,12.1046],[7.4537,12.1046],[7.4582,12.1046],[7.4604,12.1069],[7.4649,12.1091],[7.4739,12.1159],[7.4851,12.1248],[7.4941,12.1293],[7.5008,12.1338],[7.5098,12.1406],[7.5188,12.145],[7.5255,12.1473],[7.5345,12.1495],[7.5412,12.1495],[7.5435,12.1495],[7.5457,12.1495],[7.5435,12.154],[7.5412,12.1563],[7.5368,12.1585],[7.5323,12.163],[7.5278,12.1742],[7.5233,12.181],[7.521,12.1855],[7.521,12.19],[7.5188,12.2012],[7.5165,12.2102],[7.5188,12.2304],[7.5143,12.2484],[7.5143,12.2528],[7.5143,12.2573],[7.5076,12.2573],[7.5031,12.2573],[7.4896,12.2573],[7.4829,12.2551],[7.4761,12.2551],[7.4671,12.2551],[7.4626,12.2573],[7.4604,12.2573],[7.4559,12.2596],[7.4537,12.2663],[7.4447,12.2865],[7.4447,12.2933],[7.4379,12.2955],[7.4312,12.2955],[7.4245,12.2933],[7.4177,12.2933],[7.4087,12.2933],[7.3953,12.2955],[7.393,12.2978],[7.3908,12.3],[7.3885,12.3022],[7.3638,12.309],[7.3593,12.309],[7.3481,12.3112],[7.3436,12.3202],[7.3414,12.327],[7.3391,12.3292],[7.3324,12.3337],[7.3257,12.3359],[7.3099,12.3382],[7.3032,12.3359],[7.2897,12.3382],[7.2852,12.3382],[7.2807,12.3404],[7.2718,12.3427],[7.2695,12.3427],[7.2605,12.3404],[7.2493,12.3404],[7.2471,12.3404],[7.2426,12.3427],[7.2381,12.3449],[7.2336,12.3472],[7.2246,12.3517],[7.2201,12.3517],[7.2156,12.3539],[7.2066,12.3517],[7.2021,12.3517],[7.1954,12.3472],[7.1797,12.3382],[7.1685,12.3292],[7.1595,12.3225],[7.1437,12.3135],[7.1258,12.3067],[7.1213,12.3067],[7.1123,12.3022],[7.1033,12.2978],[7.1056,12.2955]]]}},{"type":"Feature","properties":{"id":"katsina/dandume","name":"Dandume","state":"Katsina"},"geometry":{"type":"Polygon","coordinates":[[[7.0899,11.4331],[7.0988,11.4174],[7.1078,11.4084],[7.1123,11.4039],[7.1235,11.3972],[7.1325,11.3905],[7.1415,11.3815],[7.146,11.377],[7.1482,11.3725],[7.1505,11.368],[7.1527,11.359],[7.155,11.3545],[7.1595,11.3478],[7.1617,11.3411],[7.1662,11.3388],[7.1707,11.3343],[7.1752,11.3321],[7.1842,11.3298],[7.1887,11.3276],[7.1932,11.3231],[7.1976,11.3186],[7.2044,11.3029],[7.2044,11.3006],[7.2066,11.2939],[7.2066,11.2872],[7.2066,11.2849],[7.2089,11.2849],[7.2156,11.2894],[7.2268,11.2962],[7.2336,11.2984],[7.2426,11.2984],[7.265,11.2984],[7.2695,11.2984],[7.274,11.3006],[7.2807,11.2984],[7.2987,11.2917],[7.3077,11.2894],[7.3144,11.2849],[7.3189,11.2827],[7.3257,11.2782],[7.3279,11.2782],[7.3279,11.2804],[7.3257,11.2962],[7.3257,11.3029],[7.3234,11.3119],[7.3189,11.3209],[7.3144,11.3231],[7.3054,11.3298],[7.301,11.3298],[7.2987,11.3321],[7.292,11.3433],[7.292,11.3545],[7.2897,11.3613],[7.2897,11.368],[7.2875,11.3725],[7.2875,11.3748],[7.2875,11.3815],[7.2875,11.3882],[7.2897,11.3927],[7.292,11.3972],[7.292,11.3995],[7.2852,11.4197],[7.283,11.4242],[7.2807,11.4287],[7.265,11.4511],[7.2515,11.4668],[7.2336,11.487],[7.2336,11.4915],[7.2336,11.496],[7.2336,11.5005],[7.2313,11.505],[7.2268,11.5073],[7.2201,11.5117],[7.2111,11.5117],[7.2089,11.5117],[7.1909,11.5095],[7.1797,11.5095],[7.1707,11.5095],[7.1662,11.5117],[7.1617,11.5162],[7.1595,11.5207],[7.1595,11.523],[7.1595,11.532],[7.1572,11.5364],[7.155,11.5387],[7.1527,11.5409],[7.1482,11.5454],[7.1437,11.5477],[7.1393,11.5454],[7.137,11.5499],[7.1303,11.5499],[7.1235,11.5477],[7.1168,11.5454],[7.1123,11.5409],[7.1033,11.5342],[7.0988,11.5275],[7.0966,11.5185],[7.0921,11.5095],[7.0899,11.5028],[7.0876,11.5005],[7.0854,11.487],[7.0876,11.4848],[7.0921,11.4803],[7.0921,11.4758],[7.0921,11.4713],[7.0876,11.4646],[7.0854,11.4556],[7.0854,11.4489],[7.0854,11.4399],[7.0899,11.4331]]]}},{"type":"Feature","properties":{"id":"katsina/danja","name":"Danja","state":"Katsina"},"geometry":{"type":"Polygon","coordinates":[[[7.3661,11.4421],[7.3683,11.4354],[7.3751,11.4287],[7.3818,11.4219],[7.3908,11.4129],[7.393,11.4084],[7.3975,11.3995],[7.3998,11.3972],[7.3998,11.395],[7.3998,11.3927],[7.402,11.3882],[7.4132,11.3927],[7.4155,11.395],[7.4245,11.4017],[7.4312,11.4039],[7.4402,11.4084],[7.4469,11.4084],[7.4694,11.4107],[7.4784,11.4084],[7.4829,11.4062],[7.4896,11.4017],[7.4918,11.3972],[7.4918,11.3905],[7.4941,11.3837],[7.5008,11.3703],[7.5053,11.359],[7.5076,11.3568],[7.5121,11.3568],[7.5188,11.3568],[7.5233,11.359],[7.53,11.3613],[7.5412,11.359],[7.5502,11.3545],[7.557,11.3478],[7.5615,11.3411],[7.5682,11.3343],[7.5772,11.3298],[7.5862,11.3276],[7.5929,11.3253],[7.5996,11.3209],[7.6041,11.3164],[7.6109,11.3074],[7.6154,11.2984],[7.6243,11.2872],[7.6266,11.2849],[7.6288,11.2827],[7.6356,11.2827],[7.6468,11.2827],[7.6558,11.2872],[7.6648,11.2894],[7.6737,11.2962],[7.6805,11.3006],[7.6962,11.3096],[7.7119,11.3141],[7.7164,11.3141],[7.7299,11.3141],[7.7344,11.3141],[7.7389,11.3141],[7.7456,11.3164],[7.7523,11.3231],[7.7523,11.3276],[7.7546,11.3366],[7.7523,11.3411],[7.7523,11.3478],[7.7523,11.3523],[7.7568,11.3568],[7.7636,11.3613],[7.7748,11.368],[7.7771,11.3725],[7.7703,11.3748],[7.7523,11.377],[7.7366,11.386],[7.7276,11.3995],[7.7119,11.4197],[7.7097,11.4264],[7.7007,11.4264],[7.6895,11.4287],[7.6693,11.4309],[7.6603,11.4287],[7.6513,11.4242],[7.6468,11.4242],[7.6311,11.4264],[7.6041,11.4309],[7.5884,11.4331],[7.5772,11.4354],[7.5749,11.4354],[7.566,11.4331],[7.5547,11.4331],[7.539,11.4376],[7.5323,11.4399],[7.5255,11.4421],[7.521,11.4444],[7.5053,11.4534],[7.5008,11.4578],[7.4963,11.4646],[7.4941,11.4691],[7.4941,11.4713],[7.4941,11.4758],[7.4963,11.4803],[7.4986,11.4825],[7.5008,11.4848],[7.5053,11.4938],[7.5053,11.496],[7.5008,11.505],[7.4918,11.5275],[7.4896,11.5297],[7.4851,11.532],[7.4806,11.5342],[7.4694,11.5342],[7.4626,11.532],[7.4582,11.532],[7.4537,11.5275],[7.4447,11.5252],[7.4379,11.5252],[7.4357,11.523],[7.429,11.5185],[7.4132,11.5073],[7.3998,11.496],[7.3885,11.487],[7.3796,11.4803],[7.3773,11.4758],[7.3728,11.4736],[7.3638,11.4601],[7.3638,11.4534],[7.3638,11.4489],[7.3661,11.4421]]]}},{"type":"Feature","properties":{"id":"katsina/daura","name":"Daura","state":"Katsina"},"geometry":{"type":"Polygon","coordinates":[[[8.1588,13.0433],[8.1656,13.0366],[8.1656,13.0344],[8.1656,13.0321],[8.1701,13.0186],[8.1723,13.0029],[8.1746,12.9962],[8.1746,12.9895],[8.1768,12.9737],[8.1746,12.9692],[8.1768,12.9647],[8.1858,12.958],[8.1903,12.9513],[8.1948,12.9378],[8.197,12.9356],[8.1993,12.9333],[8.2037,12.9311],[8.206,12.9243],[8.2105,12.9153],[8.2105,12.9108],[8.2127,12.9064],[8.2172,12.8906],[8.2195,12.8861],[8.224,12.8749],[8.224,12.8727],[8.2262,12.8682],[8.2284,12.8659],[8.2307,12.8704],[8.2352,12.8727],[8.2509,12.8772],[8.2621,12.8839],[8.2734,12.8906],[8.2779,12.8951],[8.2801,12.8951],[8.2913,12.8996],[8.3026,12.9041],[8.3071,12.9064],[8.3093,12.9108],[8.316,12.9221],[8.3183,12.9288],[8.3183,12.9311],[8.3183,12.9356],[8.3183,12.9378],[8.3183,12.9468],[8.316,12.9513],[8.316,12.9535],[8.316,12.9603],[8.3183,12.967],[8.3228,12.976],[8.3407,12.9895],[8.3497,12.9939],[8.3542,12.9962],[8.3542,13.0029],[8.3542,13.0119],[8.352,13.0186],[8.352,13.0344],[8.3497,13.0366],[8.3452,13.0389],[8.3407,13.0411],[8.334,13.0411],[8.3295,13.0411],[8.3205,13.0411],[8.3048,13.0478],[8.2801,13.0546],[8.2756,13.0546],[8.2711,13.0568],[8.2689,13.0591],[8.2644,13.0636],[8.2599,13.0681],[8.2532,13.0725],[8.2487,13.077],[8.2352,13.086],[8.2172,13.0905],[8.2127,13.0905],[8.2037,13.086],[8.1948,13.0815],[8.188,13.0748],[8.1813,13.0703],[8.179,13.0681],[8.1746,13.0658],[8.1588,13.0591],[8.1521,13.0546],[8.1498,13.0478],[8.1588,13.0433]]]}},{"type":"Feature","properties":{"id":"katsina/dutsi","name":"Dutsi","state":"Katsina"},"geometry":{"type":"Polygon","coordinates":[[[8.051,12.9962],[8.0533,12.9939],[8.0555,12.9895],[8.0578,12.9895],[8.06,12.9872],[8.0623,12.9827],[8.0735,12.9647],[8.078,12.9535],[8.0847,12.9468],[8.0892,12.9423],[8.0937,12.9333],[8.0959,12.9221],[8.1004,12.9064],[8.0982,12.8906],[8.0915,12.8727],[8.087,12.8637],[8.0847,12.8592],[8.078,12.8525],[8.0735,12.8435],[8.0735,12.8412],[8.0825,12.8188],[8.0847,12.8165],[8.0892,12.8143],[8.0937,12.8143],[8.0959,12.8143],[8.0982,12.812],[8.1049,12.812],[8.1184,12.8098],[8.1409,12.8031],[8.1498,12.8031],[8.1611,12.8031],[8.1678,12.8031],[8.1656,12.8075],[8.1633,12.8188],[8.1701,12.8322],[8.1723,12.8345],[8.1768,12.8367],[8.179,12.839],[8.1835,12.839],[8.1993,12.839],[8.2195,12.8367],[8.2374,12.839],[8.2374,12.8457],[8.2307,12.8614],[8.2307,12.8637],[8.2284,12.8659],[8.2262,12.8682],[8.224,12.8727],[8.224,12.8749],[8.2195,12.8861],[8.2172,12.8906],[8.2127,12.9064],[8.2105,12.9108],[8.2105,12.9153],[8.206,12.9243],[8.2037,12.9311],[8.1993,12.9333],[8.197,12.9356],[8.1948,12.9378],[8.1903,12.9513],[8.1858,12.958],[8.1768,12.9647],[8.1746,12.9692],[8.1768,12.9737],[8.1746,12.9895],[8.1746,12.9962],[8.1723,13.0029],[8.1701,13.0186],[8.1656,13.0321],[8.1656,13.0344],[8.1588,13.0299],[8.1543,13.0276],[8.1498,13.0254],[8.1409,13.0254],[8.1296,13.0231],[8.1139,13.0186],[8.1049,13.0097],[8.1027,13.0052],[8.1027,13.0007],[8.1027,12.9962],[8.1004,12.9939],[8.0915,12.9895],[8.0892,12.9895],[8.078,12.9895],[8.0757,12.9939],[8.0712,12.9984],[8.0668,13.0029],[8.0578,13.0052],[8.0533,13.0052],[8.0488,13.0029],[8.0488,13.0007],[8.051,12.9962]]]}},{"type":"Feature","properties":{"id":"katsina/dutsin-ma","name":"Dutsin-Ma","state":"Katsina"},"geometry":{"type":"Polygon","coordinates":[[[7.4043,12.5605],[7.4087,12.5425],[7.4177,12.5134],[7.4267,12.4954],[7.429,12.4864],[7.4335,12.4752],[7.4447,12.4527],[7.4559,12.437],[7.4604,12.428],[7.4626,12.4213],[7.4626,12.419],[7.4626,12.4011],[7.4559,12.3876],[7.4514,12.3764],[7.4492,12.3719],[7.4469,12.3696],[7.4424,12.3651],[7.4357,12.3494],[7.4335,12.3404],[7.4335,12.3359],[7.4357,12.3292],[7.4424,12.3022],[7.4447,12.2933],[7.4447,12.2865],[7.4537,12.2663],[7.4559,12.2596],[7.4604,12.2573],[7.4626,12.2573],[7.4671,12.2551],[7.4761,12.2551],[7.4829,12.2551],[7.4896,12.2573],[7.5031,12.2573],[7.5076,12.2573],[7.5143,12.2573],[7.5165,12.2641],[7.5165,12.2731],[7.5165,12.2865],[7.5143,12.2978],[7.5143,12.3045],[7.5143,12.3112],[7.521,12.3157],[7.53,12.3225],[7.53,12.3292],[7.53,12.3382],[7.5278,12.3449],[7.5255,12.3517],[7.5255,12.3629],[7.5278,12.3674],[7.5323,12.3719],[7.5345,12.3719],[7.539,12.3719],[7.5457,12.3719],[7.5525,12.3696],[7.566,12.3629],[7.5817,12.3561],[7.5907,12.3539],[7.5929,12.3539],[7.5974,12.3561],[7.5951,12.3606],[7.5884,12.3786],[7.5862,12.3831],[7.5862,12.3898],[7.5862,12.3943],[7.5862,12.4011],[7.5839,12.4123],[7.5817,12.4145],[7.5817,12.4213],[7.5817,12.4235],[7.5839,12.4347],[7.5884,12.4415],[7.5974,12.4527],[7.5996,12.4572],[7.6041,12.4617],[7.6109,12.4662],[7.6198,12.4729],[7.6221,12.4797],[7.6266,12.4797],[7.6333,12.4864],[7.6356,12.4909],[7.6356,12.4954],[7.6356,12.5044],[7.6311,12.5178],[7.6311,12.5201],[7.6288,12.5246],[7.6266,12.5291],[7.6266,12.5336],[7.6243,12.5403],[7.6243,12.5425],[7.6266,12.547],[7.6288,12.5515],[7.6266,12.556],[7.6221,12.5605],[7.6176,12.5695],[7.6131,12.583],[7.6154,12.5875],[7.6176,12.5942],[7.6131,12.592],[7.6019,12.5852],[7.5862,12.5807],[7.5817,12.5762],[7.566,12.565],[7.5615,12.5628],[7.557,12.5605],[7.5502,12.5583],[7.5457,12.5583],[7.5345,12.5583],[7.53,12.5605],[7.521,12.5605],[7.5098,12.5628],[7.5053,12.5628],[7.4986,12.5605],[7.4941,12.5605],[7.4761,12.565],[7.4694,12.5672],[7.4626,12.5695],[7.4492,12.574],[7.4379,12.574],[7.4335,12.574],[7.4312,12.5717],[7.4245,12.5695],[7.4177,12.5672],[7.4132,12.5695],[7.4087,12.5695],[7.4065,12.5695],[7.402,12.5672],[7.4043,12.5605]]]}},{"type":"Feature","properties":{"id":"katsina/faskari","name":"Faskari","state":"Katsina"},"geometry":{"type":"Polygon","coordinates":[[[6.854,11.6061],[6.854,11.5948],[6.8563,11.5881],[6.8675,11.5769],[6.8765,11.5746],[6.8855,11.5679],[6.9035,11.5544],[6.9035,11.5522],[6.9079,11.5297],[6.9057,11.523],[6.9035,11.5207],[6.9012,11.514],[6.8967,11.505],[6.9035,11.487],[6.9079,11.4758],[6.9012,11.4623],[6.9012,11.4578],[6.8945,11.4466],[6.8922,11.4421],[6.8877,11.4309],[6.8855,11.4174],[6.8877,11.3972],[6.8877,11.3837],[6.8877,11.3815],[6.8945,11.3792],[6.8967,11.3837],[6.9012,11.3905],[6.9214,11.4039],[6.9282,11.4084],[6.9304,11.4107],[6.9349,11.4107],[6.9371,11.4107],[6.9416,11.4152],[6.9461,11.4174],[6.9551,11.4287],[6.9574,11.4354],[6.9618,11.4421],[6.9663,11.4466],[6.9731,11.4534],[6.9821,11.4601],[6.9865,11.4623],[7.0045,11.4713],[7.0068,11.4713],[7.009,11.4713],[7.0112,11.4713],[7.018,11.4713],[7.0382,11.4668],[7.0427,11.4668],[7.0472,11.4668],[7.0539,11.4713],[7.0584,11.4758],[7.0629,11.4803],[7.0696,11.4825],[7.0764,11.4803],[7.0786,11.4803],[7.0876,11.4848],[7.0854,11.487],[7.0876,11.5005],[7.0899,11.5028],[7.0921,11.5095],[7.0966,11.5185],[7.0988,11.5275],[7.1033,11.5342],[7.1123,11.5409],[7.1168,11.5454],[7.1235,11.5477],[7.1303,11.5499],[7.137,11.5499],[7.146,11.5499],[7.1482,11.5522],[7.1617,11.5589],[7.164,11.5612],[7.1752,11.5701],[7.1954,11.5769],[7.2066,11.5791],[7.2134,11.5814],[7.2156,11.5859],[7.2179,11.5881],[7.2246,11.5971],[7.2336,11.6016],[7.2381,11.6016],[7.2471,11.5993],[7.2583,11.5971],[7.265,11.5971],[7.2785,11.5993],[7.2965,11.5993],[7.3077,11.5993],[7.3189,11.5993],[7.3257,11.5993],[7.3301,11.5993],[7.3414,11.6016],[7.3301,11.615],[7.3279,11.6173],[7.3257,11.6218],[7.3212,11.6308],[7.3257,11.651],[7.3279,11.6667],[7.3279,11.6734],[7.3279,11.6824],[7.3279,11.7026],[7.3279,11.7094],[7.3279,11.7184],[7.3257,11.7228],[7.3234,11.7296],[7.3167,11.7408],[7.3144,11.7453],[7.3054,11.7565],[7.2987,11.761],[7.292,11.761],[7.2875,11.7633],[7.2852,11.7633],[7.283,11.7678],[7.283,11.7723],[7.292,11.7925],[7.2965,11.8037],[7.2987,11.8082],[7.2965,11.8104],[7.2942,11.8149],[7.292,11.8194],[7.2897,11.8261],[7.2897,11.8419],[7.2875,11.8576],[7.2852,11.8666],[7.2785,11.8733],[7.2762,11.8756],[7.274,11.8823],[7.2718,11.8913],[7.2583,11.9092],[7.2515,11.9115],[7.2426,11.9182],[7.2358,11.925],[7.2358,11.9272],[7.2313,11.925],[7.2179,11.916],[7.1999,11.907],[7.1909,11.907],[7.1707,11.9115],[7.164,11.9115],[7.155,11.9182],[7.1437,11.9115],[7.1437,11.898],[7.1437,11.8868],[7.1415,11.8778],[7.1303,11.8643],[7.1146,11.8509],[7.1056,11.8464],[7.1033,11.8441],[7.0921,11.8351],[7.0854,11.8284],[7.0831,11.8261],[7.0741,11.8172],[7.0719,11.8082],[7.0539,11.8014],[7.0472,11.8014],[7.027,11.8082],[7.0202,11.8127],[7.0157,11.8172],[7.0023,11.8217],[6.9888,11.8194],[6.9731,11.8172],[6.9529,11.8149],[6.9394,11.8082],[6.9192,11.8037],[6.9079,11.8014],[6.8967,11.7947],[6.8922,11.7835],[6.89,11.779],[6.89,11.77],[6.89,11.7633],[6.89,11.7588],[6.89,11.7565],[6.89,11.7386],[6.89,11.7273],[6.881,11.7071],[6.8765,11.6959],[6.872,11.6847],[6.8698,11.6779],[6.8653,11.6622],[6.8563,11.642],[6.8518,11.6218],[6.8518,11.6173],[6.854,11.6061]]]}},{"type":"Feature","properties":{"id":"katsina/funtua","name":"Funtua","state":"Katsina"},"geometry":{"type":"Polygon","coordinates":[[[7.1393,11.5454],[7.1437,11.5477],[7.1482,11.5454],[7.1527,11.5409],[7.155,11.5387],[7.1572,11.5364],[7.1595,11.532],[7.1595,11.523],[7.1595,11.5207],[7.1617,11.5162],[7.1662,11.5117],[7.1707,11.5095],[7.1797,11.5095],[7.1909,11.5095],[7.2089,11.5117],[7.2111,11.5117],[7.2201,11.5117],[7.2268,11.5073],[7.2313,11.505],[7.2336,11.5005],[7.2336,11.496],[7.2336,11.4915],[7.2336,11.487],[7.2515,11.4668],[7.265,11.4511],[7.2807,11.4287],[7.283,11.4242],[7.2852,11.4197],[7.292,11.3995],[7.292,11.3972],[7.2897,11.3927],[7.2875,11.3882],[7.2875,11.3815],[7.2875,11.3748],[7.2875,11.3725],[7.2897,11.368],[7.2897,11.3613],[7.292,11.3545],[7.292,11.3433],[7.2987,11.3321],[7.301,11.3298],[7.3054,11.3298],[7.3144,11.3231],[7.3189,11.3209],[7.3234,11.3119],[7.3257,11.3029],[7.3257,11.2962],[7.3279,11.2804],[7.3279,11.2782],[7.3324,11.2759],[7.3436,11.2737],[7.3549,11.2737],[7.3593,11.2737],[7.3638,11.2939],[7.3638,11.2984],[7.3638,11.3051],[7.3638,11.3119],[7.3661,11.3231],[7.3706,11.3321],[7.3728,11.3388],[7.3773,11.3433],[7.3796,11.35],[7.384,11.3545],[7.3885,11.3658],[7.393,11.3748],[7.3998,11.3837],[7.402,11.3882],[7.3998,11.3927],[7.3998,11.395],[7.3998,11.3972],[7.3975,11.3995],[7.393,11.4084],[7.3908,11.4129],[7.3818,11.4219],[7.3751,11.4287],[7.3683,11.4354],[7.3661,11.4421],[7.3638,11.4489],[7.3638,11.4534],[7.3638,11.4601],[7.3728,11.4736],[7.3773,11.4758],[7.3796,11.4803],[7.3728,11.4893],[7.3638,11.496],[7.3593,11.5073],[7.3549,11.5162],[7.3526,11.5185],[7.3526,11.523],[7.3526,11.5275],[7.3526,11.5364],[7.3504,11.5499],[7.3526,11.5544],[7.3504,11.5679],[7.3504,11.5746],[7.3481,11.5881],[7.3436,11.5948],[7.3414,11.6016],[7.3301,11.5993],[7.3257,11.5993],[7.3189,11.5993],[7.3077,11.5993],[7.2965,11.5993],[7.2785,11.5993],[7.265,11.5971],[7.2583,11.5971],[7.2471,11.5993],[7.2381,11.6016],[7.2336,11.6016],[7.2246,11.5971],[7.2179,11.5881],[7.2156,11.5859],[7.2134,11.5814],[7.2066,11.5791],[7.1954,11.5769],[7.1752,11.5701],[7.164,11.5612],[7.1617,11.5589],[7.1482,11.5522],[7.146,11.5499],[7.137,11.5499],[7.1393,11.5454]]]}},{"type":"Feature","properties":{"id":"katsina/ingawa","name":"Ingawa","state":"Katsina"},"geometry":{"type":"Polygon","coordinates":[[[7.8893,12.6526],[7.8916,12.6503],[7.9073,12.6459],[7.9185,12.6459],[7.9253,12.6459],[7.932,12.6459],[7.9365,12.6436],[7.9387,12.6391],[7.9477,12.6301],[7.9522,12.6189],[7.9567,12.6032],[7.9567,12.5987],[7.9567,12.592],[7.959,12.5762],[7.9612,12.5717],[7.9612,12.5695],[7.9702,12.5672],[7.9747,12.5672],[7.9769,12.5672],[7.9814,12.5717],[7.9859,12.5762],[7.9882,12.5807],[7.9904,12.5807],[8.0016,12.583],[8.0084,12.5785],[8.0196,12.5695],[8.0286,12.5672],[8.0331,12.5672],[8.0353,12.565],[8.0376,12.5605],[8.0488,12.547],[8.0488,12.5448],[8.0488,12.5336],[8.0488,12.5223],[8.0533,12.5156],[8.0555,12.5134],[8.0555,12.5089],[8.0533,12.5021],[8.051,12.4999],[8.0533,12.4886],[8.06,12.4819],[8.069,12.4729],[8.0735,12.4662],[8.0757,12.4617],[8.078,12.455],[8.078,12.4482],[8.078,12.4325],[8.0825,12.4235],[8.0847,12.4168],[8.087,12.4078],[8.0892,12.4033],[8.0915,12.4011],[8.0937,12.4011],[8.1162,12.4056],[8.1319,12.41],[8.1341,12.4123],[8.1386,12.419],[8.1498,12.4258],[8.1543,12.4303],[8.1566,12.4347],[8.1611,12.4392],[8.1633,12.4482],[8.1678,12.4595],[8.1746,12.4684],[8.1858,12.4842],[8.1903,12.4976],[8.1903,12.4999],[8.1925,12.5089],[8.1948,12.5178],[8.197,12.5246],[8.2037,12.5336],[8.2105,12.5403],[8.2105,12.5493],[8.2082,12.5538],[8.2082,12.5583],[8.2082,12.565],[8.2127,12.5717],[8.215,12.5762],[8.2172,12.5785],[8.2262,12.583],[8.2329,12.5852],[8.2464,12.5852],[8.2644,12.583],[8.2711,12.583],[8.2734,12.583],[8.2801,12.5852],[8.2846,12.5897],[8.2891,12.5964],[8.2891,12.6009],[8.2913,12.6054],[8.2913,12.6122],[8.2913,12.6211],[8.2868,12.6391],[8.2823,12.6414],[8.2756,12.6414],[8.2711,12.6369],[8.2666,12.6346],[8.2599,12.6346],[8.2509,12.6369],[8.2487,12.6391],[8.2442,12.6481],[8.2374,12.6481],[8.2307,12.6459],[8.2262,12.6436],[8.2217,12.6414],[8.215,12.6391],[8.206,12.6391],[8.2015,12.6414],[8.1993,12.6436],[8.197,12.6481],[8.1925,12.6526],[8.1858,12.6548],[8.179,12.6548],[8.1656,12.6593],[8.1611,12.6616],[8.1543,12.6638],[8.1498,12.6638],[8.1454,12.6638],[8.1431,12.6706],[8.1454,12.6818],[8.1454,12.6863],[8.1476,12.6908],[8.1498,12.6997],[8.1498,12.702],[8.1498,12.7042],[8.1521,12.7132],[8.1521,12.72],[8.1588,12.7312],[8.1656,12.7424],[8.1701,12.7581],[8.1746,12.7716],[8.1723,12.7873],[8.1723,12.7941],[8.1678,12.8031],[8.1611,12.8031],[8.1498,12.8031],[8.1409,12.8031],[8.1184,12.8098],[8.1049,12.812],[8.0982,12.812],[8.0959,12.8143],[8.0959,12.8098],[8.0915,12.7941],[8.0825,12.7851],[8.0645,12.7671],[8.0533,12.7559],[8.0488,12.7514],[8.0376,12.7357],[8.0331,12.7312],[8.0263,12.7289],[8.0151,12.7222],[8.0084,12.72],[7.9994,12.7155],[7.9882,12.7177],[7.9769,12.7245],[7.9747,12.7289],[7.9724,12.7334],[7.9702,12.7379],[7.9702,12.7424],[7.9679,12.7402],[7.9634,12.7402],[7.9567,12.7424],[7.9455,12.7536],[7.932,12.7626],[7.9298,12.7649],[7.9275,12.7649],[7.923,12.7649],[7.9208,12.7649],[7.9163,12.7626],[7.9096,12.7514],[7.9073,12.7424],[7.9051,12.7289],[7.9028,12.7222],[7.9028,12.7155],[7.8983,12.7065],[7.8961,12.6975],[7.8938,12.693],[7.8938,12.6885],[7.8916,12.6706],[7.8893,12.6616],[7.8871,12.6571],[7.8893,12.6526]]]}},{"type":"Feature","properties":{"id":"katsina/jibia","name":"Jibia","state":"Katsina"},"geometry":{"type":"Polygon","coordinates":[[[7.0292,12.8165],[7.0292,12.8098],[7.0292,12.8031],[7.027,12.7986],[7.0292,12.7873],[7.0315,12.7896],[7.0449,12.7941],[7.0629,12.8008],[7.0741,12.8053],[7.0786,12.8075],[7.0854,12.812],[7.0943,12.8278],[7.0966,12.8345],[7.1033,12.8457],[7.1078,12.857],[7.1168,12.8704],[7.119,12.8749],[7.1235,12.8861],[7.1258,12.8951],[7.1325,12.9086],[7.1437,12.9131],[7.1527,12.9153],[7.155,12.9153],[7.1707,12.9064],[7.1976,12.8906],[7.2066,12.8839],[7.2179,12.8772],[7.2201,12.8749],[7.2291,12.8704],[7.2471,12.8637],[7.2493,12.8637],[7.2538,12.8659],[7.2605,12.8659],[7.2628,12.8704],[7.265,12.8749],[7.265,12.8817],[7.2673,12.8906],[7.2673,12.8929],[7.2673,12.8974],[7.2605,12.9108],[7.2583,12.9153],[7.2426,12.94],[7.2381,12.9423],[7.2313,12.949],[7.2268,12.958],[7.2246,12.967],[7.2156,12.985],[7.2134,12.9917],[7.2111,13.0052],[7.2111,13.0097],[7.2134,13.0142],[7.2179,13.0209],[7.2246,13.0186],[7.2336,13.0164],[7.2381,13.0119],[7.2448,13.0097],[7.2493,13.0074],[7.256,13.0052],[7.2583,13.0074],[7.2673,13.0007],[7.2718,12.9962],[7.274,12.9917],[7.2807,12.9895],[7.2875,12.9872],[7.2942,12.9895],[7.3099,12.9805],[7.3167,12.976],[7.3189,12.9737],[7.3234,12.9625],[7.3257,12.9513],[7.3346,12.94],[7.3369,12.9356],[7.3391,12.9333],[7.3436,12.9288],[7.3481,12.9288],[7.3593,12.9266],[7.3616,12.9221],[7.3638,12.9176],[7.3661,12.9153],[7.3683,12.9131],[7.3751,12.9086],[7.3796,12.9041],[7.384,12.8996],[7.3998,12.8974],[7.4222,12.8974],[7.4335,12.9041],[7.4626,12.9176],[7.4739,12.9221],[7.4806,12.9243],[7.4963,12.9356],[7.5098,12.9468],[7.521,12.9535],[7.53,12.9603],[7.548,12.9692],[7.5547,12.9715],[7.557,12.976],[7.557,12.9827],[7.5547,12.9962],[7.5547,13.0007],[7.5525,13.0074],[7.5502,13.0119],[7.548,13.0186],[7.5368,13.0231],[7.5345,13.0276],[7.5278,13.0366],[7.5165,13.0501],[7.5143,13.0568],[7.5076,13.0636],[7.5031,13.0703],[7.4986,13.0725],[7.4963,13.0748],[7.4941,13.0793],[7.4941,13.0838],[7.4941,13.0928],[7.4986,13.1017],[7.5008,13.1062],[7.5076,13.1152],[7.5165,13.122],[7.5188,13.1242],[7.5233,13.1264],[7.5278,13.1332],[7.5345,13.1399],[7.5368,13.1444],[7.5233,13.1669],[7.5188,13.1646],[7.5121,13.1601],[7.5053,13.1556],[7.5031,13.1511],[7.4986,13.1511],[7.4941,13.1489],[7.4896,13.1444],[7.4851,13.1422],[7.4784,13.1399],[7.4739,13.1377],[7.4694,13.1354],[7.4626,13.1309],[7.4582,13.1264],[7.4537,13.1242],[7.4492,13.122],[7.4424,13.1197],[7.4335,13.1152],[7.4267,13.1107],[7.3998,13.1017],[7.384,13.0995],[7.3706,13.0995],[7.3638,13.0995],[7.3571,13.0995],[7.3481,13.0995],[7.3391,13.1017],[7.3324,13.1017],[7.3234,13.1017],[7.3167,13.104],[7.3099,13.104],[7.3032,13.104],[7.2942,13.1062],[7.2875,13.1062],[7.2807,13.1062],[7.265,13.1085],[7.2583,13.1085],[7.2515,13.1107],[7.2448,13.1107],[7.2358,13.1107],[7.2268,13.1107],[7.2246,13.1085],[7.2224,13.104],[7.2201,13.1017],[7.2179,13.1017],[7.2134,13.095],[7.2089,13.0928],[7.1976,13.0815],[7.1932,13.077],[7.1864,13.0703],[7.1842,13.0658],[7.1797,13.0613],[7.1527,13.0321],[7.1437,13.0254],[7.137,13.0231],[7.1303,13.0209],[7.1258,13.0209],[7.1168,13.0186],[7.1078,13.0142],[7.1011,13.0119],[7.0943,13.0097],[7.0854,13.0074],[7.0786,13.0052],[7.0696,13.0029],[7.0629,13.0007],[7.0562,13.0007],[7.0517,12.9984],[7.0494,12.9984],[7.0449,12.9984],[7.0382,12.9984],[7.0315,12.9962],[7.0337,12.985],[7.0382,12.9625],[7.0382,12.958],[7.0404,12.949],[7.0404,12.9423],[7.0404,12.9378],[7.0382,12.9288],[7.0337,12.8929],[7.0315,12.8884],[7.0315,12.8839],[7.027,12.8682],[7.0225,12.8322],[7.0292,12.8165]]]}},{"type":"Feature","properties":{"id":"katsina/kafur","name":"Kafur","state":"Katsina"},"geometry":{"type":"Polygon","coordinates":[[[7.5278,11.5948],[7.5323,11.5903],[7.539,11.5859],[7.5457,11.5814],[7.5525,11.5791],[7.5547,11.5746],[7.5547,11.5701],[7.557,11.5656],[7.5592,11.5589],[7.5637,11.5522],[7.5704,11.5477],[7.5749,11.5432],[7.5727,11.5297],[7.5704,11.5252],[7.5682,11.5207],[7.5637,11.5162],[7.5592,11.5073],[7.557,11.5028],[7.5547,11.496],[7.5547,11.4915],[7.557,11.4848],[7.5615,11.4781],[7.5615,11.4713],[7.5637,11.4668],[7.566,11.4601],[7.566,11.4578],[7.5682,11.4511],[7.5682,11.4466],[7.5704,11.4444],[7.5727,11.4399],[7.5749,11.4354],[7.5772,11.4354],[7.5884,11.4331],[7.6041,11.4309],[7.6311,11.4264],[7.6468,11.4242],[7.6513,11.4242],[7.6603,11.4287],[7.6693,11.4309],[7.6895,11.4287],[7.7007,11.4264],[7.7097,11.4264],[7.6985,11.4399],[7.6985,11.4444],[7.6985,11.4466],[7.6917,11.4668],[7.6895,11.4736],[7.685,11.4848],[7.6872,11.5005],[7.6895,11.5162],[7.694,11.5252],[7.6985,11.5364],[7.7052,11.5432],[7.7119,11.5522],[7.7254,11.5701],[7.7254,11.5791],[7.7299,11.5859],[7.7344,11.5926],[7.7456,11.5993],[7.7591,11.6083],[7.7703,11.615],[7.7973,11.624],[7.813,11.6285],[7.8242,11.6308],[7.8422,11.6353],[7.8512,11.6375],[7.8624,11.642],[7.8714,11.6465],[7.8781,11.6487],[7.8848,11.651],[7.8938,11.651],[7.9006,11.6487],[7.9073,11.6487],[7.9096,11.6532],[7.9118,11.6622],[7.9096,11.6757],[7.9028,11.6869],[7.8961,11.7026],[7.8893,11.7116],[7.8804,11.7251],[7.8826,11.7475],[7.8804,11.761],[7.8759,11.779],[7.8736,11.7947],[7.8736,11.7992],[7.8736,11.8082],[7.8736,11.8217],[7.8736,11.8329],[7.8691,11.8441],[7.8646,11.8598],[7.8601,11.8711],[7.8557,11.8778],[7.8489,11.8935],[7.8467,11.898],[7.8444,11.8935],[7.8467,11.8845],[7.8422,11.8845],[7.8354,11.8823],[7.8175,11.8778],[7.795,11.8666],[7.7793,11.8553],[7.7726,11.8509],[7.7613,11.8441],[7.7568,11.8396],[7.7523,11.8351],[7.7479,11.8329],[7.7344,11.8284],[7.7097,11.8172],[7.7007,11.8149],[7.6985,11.8127],[7.6872,11.7992],[7.6827,11.7857],[7.6827,11.7812],[7.6805,11.7767],[7.6782,11.7723],[7.6737,11.7678],[7.6693,11.7655],[7.658,11.761],[7.649,11.7565],[7.6423,11.7543],[7.6356,11.7498],[7.6311,11.7475],[7.6221,11.7453],[7.6176,11.7431],[7.6086,11.7408],[7.6041,11.7363],[7.6019,11.7341],[7.5996,11.7318],[7.5951,11.7273],[7.5817,11.7251],[7.5727,11.7251],[7.5682,11.7251],[7.5615,11.7251],[7.557,11.7228],[7.5502,11.7161],[7.5457,11.7049],[7.5435,11.6959],[7.5435,11.6937],[7.5412,11.6892],[7.539,11.6869],[7.539,11.6847],[7.539,11.6734],[7.5345,11.6555],[7.5323,11.6487],[7.5278,11.633],[7.5278,11.6308],[7.5278,11.6263],[7.5323,11.6218],[7.53,11.6173],[7.5278,11.6128],[7.5233,11.6061],[7.5233,11.6038],[7.5233,11.5993],[7.5278,11.5948]]]}},{"type":"Feature","properties":{"id":"katsina/kaita","name":"Kaita","state":"Katsina"},"geometry":{"type":"Polygon","coordinates":[[[7.4963,13.0748],[7.4986,13.0725],[7.5031,13.0703],[7.5076,13.0636],[7.5143,13.0568],[7.5165,13.0501],[7.5278,13.0366],[7.5345,13.0276],[7.5368,13.0231],[7.548,13.0186],[7.5547,13.0186],[7.5615,13.0254],[7.566,13.0321],[7.5682,13.0366],[7.5749,13.0456],[7.5817,13.0568],[7.5839,13.0613],[7.5884,13.0658],[7.5907,13.0681],[7.5974,13.0748],[7.6019,13.0748],[7.6109,13.0748],[7.6221,13.0725],[7.6378,13.0703],[7.6423,13.0658],[7.6535,13.0591],[7.658,13.0546],[7.6625,13.0478],[7.6648,13.0456],[7.676,13.0321],[7.6805,13.0254],[7.685,13.0254],[7.6962,13.0231],[7.7029,13.0254],[7.7074,13.0299],[7.7119,13.0344],[7.7142,13.0389],[7.7164,13.0433],[7.7209,13.0456],[7.7254,13.0478],[7.7299,13.0501],[7.7366,13.0523],[7.7389,13.0523],[7.7501,13.0523],[7.7546,13.0501],[7.7681,13.0411],[7.7748,13.0366],[7.7771,13.0344],[7.7838,13.0321],[7.795,13.0321],[7.8107,13.0366],[7.8152,13.0389],[7.8175,13.0411],[7.822,13.0456],[7.8242,13.0546],[7.8265,13.0613],[7.8332,13.0793],[7.8399,13.095],[7.8444,13.1017],[7.8512,13.1085],[7.8557,13.1107],[7.8579,13.1107],[7.8601,13.1152],[7.8646,13.1242],[7.8714,13.1309],[7.8848,13.1422],[7.8916,13.1489],[7.8938,13.1511],[7.8961,13.1579],[7.8983,13.1646],[7.9028,13.1803],[7.9051,13.1848],[7.9051,13.1938],[7.9051,13.2028],[7.9096,13.2073],[7.9118,13.2118],[7.9118,13.2185],[7.9073,13.2297],[7.9006,13.2432],[7.8961,13.2522],[7.8938,13.2545],[7.8938,13.2634],[7.8871,13.2769],[7.8804,13.2971],[7.8804,13.3016],[7.8804,13.3106],[7.8804,13.3151],[7.8804,13.3218],[7.8804,13.3241],[7.8759,13.3308],[7.8759,13.3331],[7.8669,13.3331],[7.8579,13.3331],[7.8489,13.3331],[7.8399,13.3375],[7.8354,13.3375],[7.8332,13.3375],[7.8242,13.3398],[7.8197,13.3398],[7.8152,13.3375],[7.8107,13.3375],[7.804,13.3353],[7.7973,13.3308],[7.7883,13.3263],[7.7815,13.3218],[7.7748,13.3173],[7.7703,13.3151],[7.7636,13.3106],[7.7568,13.3061],[7.7523,13.3039],[7.7501,13.3016],[7.7456,13.2994],[7.7411,13.2971],[7.7344,13.2926],[7.7276,13.2881],[7.7187,13.2836],[7.7142,13.2792],[7.7029,13.2724],[7.6962,13.2702],[7.6962,13.2679],[7.6895,13.2634],[7.6827,13.2589],[7.676,13.2567],[7.6693,13.2522],[7.6603,13.2477],[7.658,13.2432],[7.6535,13.241],[7.649,13.2387],[7.6468,13.2387],[7.6401,13.2342],[7.6356,13.2297],[7.6311,13.2275],[7.6266,13.2253],[7.6221,13.223],[7.6198,13.2208],[7.6154,13.2185],[7.6131,13.2185],[7.6019,13.2118],[7.5951,13.2073],[7.5884,13.2028],[7.5839,13.2006],[7.5794,13.1983],[7.5727,13.1938],[7.566,13.1916],[7.5525,13.1826],[7.5233,13.1669],[7.5368,13.1444],[7.5345,13.1399],[7.5278,13.1332],[7.5233,13.1264],[7.5188,13.1242],[7.5165,13.122],[7.5076,13.1152],[7.5008,13.1062],[7.4986,13.1017],[7.4941,13.0928],[7.4941,13.0838],[7.4941,13.0793],[7.4963,13.0748]]]}},{"type":"Feature","properties":{"id":"katsina/kankara","name":"Kankara","state":"Katsina"},"geometry":{"type":"Polygon","coordinates":[[[7.1056,12.0462],[7.1123,12.0395],[7.1258,12.0305],[7.1437,12.0148],[7.1505,12.0103],[7.1527,12.0103],[7.1729,12.0013],[7.1774,11.9991],[7.1909,11.9923],[7.2021,11.9878],[7.2089,11.9856],[7.2134,11.9789],[7.2134,11.9654],[7.2179,11.9586],[7.2246,11.9497],[7.2336,11.9452],[7.2358,11.9452],[7.2403,11.9407],[7.2426,11.9339],[7.2358,11.9272],[7.2358,11.925],[7.2426,11.9182],[7.2515,11.9115],[7.2583,11.9092],[7.2718,11.8913],[7.274,11.8823],[7.2762,11.8756],[7.2785,11.8733],[7.2852,11.8666],[7.2875,11.8576],[7.2897,11.8419],[7.2897,11.8261],[7.292,11.8194],[7.2942,11.8149],[7.2965,11.8104],[7.2987,11.8082],[7.3032,11.8082],[7.3099,11.8082],[7.3212,11.8082],[7.3414,11.8104],[7.3638,11.8127],[7.3751,11.8172],[7.3885,11.8194],[7.3953,11.8149],[7.3998,11.8104],[7.402,11.8082],[7.4043,11.8037],[7.4087,11.788],[7.4132,11.7678],[7.4177,11.761],[7.4222,11.7543],[7.429,11.7475],[7.4312,11.7453],[7.4379,11.7431],[7.4424,11.7408],[7.4469,11.7408],[7.4537,11.7363],[7.4559,11.7341],[7.4582,11.7318],[7.4582,11.7296],[7.4604,11.7273],[7.4671,11.7161],[7.4739,11.7116],[7.4829,11.7049],[7.4829,11.7026],[7.4873,11.6981],[7.4896,11.7026],[7.4918,11.7071],[7.4963,11.7273],[7.4963,11.7498],[7.4986,11.7678],[7.5008,11.7745],[7.5008,11.7767],[7.5053,11.779],[7.5098,11.7857],[7.5143,11.7902],[7.5188,11.7992],[7.5188,11.8037],[7.5255,11.8082],[7.5323,11.8127],[7.5502,11.8261],[7.557,11.8329],[7.5615,11.8464],[7.5794,11.88],[7.5839,11.889],[7.5884,11.8935],[7.5907,11.8958],[7.5929,11.898],[7.5974,11.9003],[7.6041,11.9092],[7.6154,11.9227],[7.6198,11.9317],[7.6176,11.9407],[7.6109,11.9474],[7.6064,11.9497],[7.5974,11.9497],[7.5929,11.9497],[7.5839,11.9519],[7.5817,11.9586],[7.5749,11.9542],[7.5682,11.9497],[7.548,11.9362],[7.5412,11.9317],[7.5323,11.9295],[7.5278,11.9295],[7.5233,11.9272],[7.5188,11.9317],[7.5165,11.9362],[7.5143,11.9407],[7.5098,11.9474],[7.4941,11.9497],[7.4829,11.9474],[7.4784,11.9474],[7.4739,11.9497],[7.4716,11.9519],[7.4739,11.9586],[7.4806,11.9609],[7.5165,11.9789],[7.5233,11.9834],[7.5278,11.9856],[7.5278,11.9878],[7.5368,11.9923],[7.5457,11.9991],[7.548,12.0013],[7.5525,12.0058],[7.5547,12.0125],[7.557,12.0193],[7.557,12.0215],[7.5525,12.0305],[7.5502,12.0373],[7.5457,12.0417],[7.5435,12.0485],[7.5412,12.0552],[7.5323,12.0687],[7.5278,12.0709],[7.5255,12.0732],[7.5233,12.0732],[7.5188,12.0754],[7.4963,12.0867],[7.4896,12.0889],[7.4829,12.0911],[7.4784,12.0934],[7.4739,12.0934],[7.4716,12.0956],[7.4671,12.1001],[7.4626,12.1046],[7.4604,12.1069],[7.4582,12.1046],[7.4537,12.1046],[7.4492,12.1046],[7.4424,12.1046],[7.4424,12.1069],[7.4379,12.1069],[7.4312,12.1091],[7.4245,12.1091],[7.4132,12.1091],[7.3998,12.1091],[7.393,12.1091],[7.3885,12.1091],[7.3818,12.1091],[7.3706,12.1114],[7.3638,12.1159],[7.3593,12.1203],[7.3526,12.1248],[7.3459,12.1293],[7.3414,12.1293],[7.3324,12.1316],[7.3279,12.1338],[7.3212,12.1383],[7.3167,12.1406],[7.3122,12.1428],[7.3077,12.1428],[7.2987,12.1428],[7.2695,12.1428],[7.265,12.1428],[7.2583,12.1428],[7.2515,12.1406],[7.2403,12.1406],[7.2358,12.1406],[7.2313,12.1428],[7.2246,12.1473],[7.2179,12.1563],[7.2066,12.1675],[7.2044,12.1742],[7.1954,12.1877],[7.1864,12.2057],[7.1864,12.2079],[7.1819,12.2214],[7.1774,12.2259],[7.155,12.2394],[7.146,12.2461],[7.1393,12.2484],[7.1348,12.2506],[7.1303,12.2506],[7.137,12.2349],[7.1415,12.2259],[7.146,12.2057],[7.1482,12.1967],[7.1505,12.1877],[7.1527,12.1855],[7.1527,12.181],[7.1505,12.1698],[7.1505,12.1653],[7.1505,12.1585],[7.1415,12.1383],[7.1393,12.1316],[7.137,12.1293],[7.1258,12.1136],[7.1235,12.1069],[7.1213,12.1024],[7.1146,12.0867],[7.1123,12.0867],[7.1078,12.0822],[7.1033,12.0799],[7.0966,12.0709],[7.0899,12.0642],[7.1056,12.0462]]]}},{"type":"Feature","properties":{"id":"katsina/kankia","name":"Kankia","state":"Katsina"},"geometry":{"type":"Polygon","coordinates":[[[7.5839,12.4123],[7.5862,12.4011],[7.5862,12.3943],[7.5862,12.3898],[7.5862,12.3831],[7.5884,12.3786],[7.5951,12.3606],[7.5974,12.3561],[7.6041,12.3584],[7.6064,12.3606],[7.6109,12.3629],[7.6154,12.3651],[7.6221,12.3674],[7.6333,12.3674],[7.6378,12.3674],[7.6513,12.3674],[7.6625,12.3651],[7.6693,12.3651],[7.676,12.3651],[7.6917,12.3539],[7.6962,12.3472],[7.6985,12.3404],[7.7007,12.3382],[7.7119,12.3247],[7.7187,12.3157],[7.7209,12.3135],[7.7299,12.309],[7.7389,12.3067],[7.7434,12.3067],[7.7546,12.3067],[7.7591,12.3045],[7.7703,12.2955],[7.7748,12.2933],[7.7793,12.291],[7.7838,12.2865],[7.7928,12.2843],[7.804,12.2775],[7.8085,12.2708],[7.8197,12.2686],[7.8265,12.2663],[7.831,12.2641],[7.8332,12.2686],[7.8354,12.2798],[7.8399,12.2888],[7.8422,12.2978],[7.8444,12.3],[7.8489,12.3022],[7.8534,12.309],[7.8601,12.318],[7.8624,12.3202],[7.8646,12.3225],[7.8781,12.3314],[7.8893,12.3359],[7.8961,12.3382],[7.9051,12.3404],[7.9096,12.3404],[7.9073,12.3449],[7.9051,12.3584],[7.9006,12.3696],[7.8983,12.3809],[7.8983,12.3898],[7.8938,12.4011],[7.8916,12.4056],[7.8848,12.4303],[7.8804,12.4392],[7.8759,12.4505],[7.8759,12.4639],[7.8826,12.4707],[7.8916,12.4752],[7.8961,12.4774],[7.8983,12.4797],[7.9051,12.4797],[7.914,12.4842],[7.9185,12.4864],[7.932,12.4954],[7.9343,12.5066],[7.9365,12.5089],[7.9365,12.5246],[7.9365,12.5381],[7.932,12.5493],[7.9298,12.5538],[7.932,12.565],[7.9343,12.574],[7.941,12.5785],[7.9343,12.5875],[7.9298,12.5897],[7.923,12.592],[7.9073,12.5964],[7.9051,12.5987],[7.9006,12.6009],[7.8983,12.6032],[7.8961,12.6099],[7.8938,12.6099],[7.8826,12.6122],[7.8759,12.6122],[7.8714,12.6122],[7.8691,12.6122],[7.8579,12.6122],[7.8534,12.6144],[7.8444,12.6167],[7.8422,12.6167],[7.8399,12.6189],[7.8287,12.6211],[7.8197,12.6211],[7.8152,12.6211],[7.813,12.6234],[7.7995,12.6324],[7.7973,12.6234],[7.7973,12.6099],[7.795,12.6054],[7.795,12.6009],[7.7928,12.5987],[7.7905,12.592],[7.7838,12.5875],[7.7771,12.5852],[7.7658,12.5852],[7.7613,12.583],[7.7591,12.5762],[7.7546,12.5717],[7.7479,12.5695],[7.7389,12.565],[7.7366,12.5628],[7.7254,12.547],[7.7209,12.5425],[7.7209,12.5313],[7.7232,12.5268],[7.7254,12.5223],[7.7299,12.5111],[7.7299,12.5021],[7.7276,12.4999],[7.7209,12.4954],[7.7142,12.4931],[7.7119,12.4886],[7.7074,12.4819],[7.7007,12.4707],[7.6985,12.4662],[7.7007,12.4639],[7.7029,12.4639],[7.7052,12.4617],[7.7074,12.4617],[7.7119,12.4572],[7.7119,12.4505],[7.7119,12.4437],[7.7007,12.4213],[7.6985,12.419],[7.694,12.4168],[7.6827,12.4145],[7.6782,12.4145],[7.676,12.4145],[7.6737,12.4168],[7.6693,12.419],[7.667,12.4235],[7.6648,12.428],[7.6648,12.437],[7.6648,12.4415],[7.6648,12.4482],[7.6648,12.4527],[7.6625,12.455],[7.6603,12.4595],[7.6446,12.4684],[7.6423,12.4684],[7.6378,12.4707],[7.6333,12.4707],[7.6311,12.4707],[7.6266,12.4684],[7.6221,12.4707],[7.6221,12.4729],[7.6109,12.4662],[7.6041,12.4617],[7.5996,12.4572],[7.5974,12.4527],[7.5884,12.4415],[7.5839,12.4347],[7.5817,12.4235],[7.5817,12.4213],[7.5817,12.4145],[7.5839,12.4123]]]}},{"type":"Feature","properties":{"id":"katsina/katsina","name":"Katsina","state":"Katsina"},"geometry":{"type":"Polygon","coordinates":[[[7.5502,13.0119],[7.5525,13.0074],[7.5547,13.0007],[7.5547,12.9962],[7.557,12.9827],[7.557,12.976],[7.5547,12.9715],[7.5547,12.9625],[7.557,12.9558],[7.5592,12.9535],[7.5749,12.9423],[7.5794,12.94],[7.5884,12.94],[7.6041,12.9378],[7.6064,12.9378],[7.6131,12.94],[7.6154,12.94],[7.6176,12.9423],[7.6221,12.9468],[7.6266,12.9513],[7.6288,12.9535],[7.6288,12.9558],[7.6311,12.9625],[7.6311,12.9692],[7.6311,12.9715],[7.6333,12.976],[7.6378,12.9782],[7.6446,12.9827],[7.6535,12.9872],[7.6625,12.9939],[7.6693,13.0007],[7.676,13.0097],[7.6827,13.0231],[7.6805,13.0254],[7.676,13.0321],[7.6648,13.0456],[7.6625,13.0478],[7.658,13.0546],[7.6535,13.0591],[7.6423,13.0658],[7.6378,13.0703],[7.6221,13.0725],[7.6109,13.0748],[7.6019,13.0748],[7.5974,13.0748],[7.5907,13.0681],[7.5884,13.0658],[7.5839,13.0613],[7.5817,13.0568],[7.5749,13.0456],[7.5682,13.0366],[7.566,13.0321],[7.5615,13.0254],[7.5547,13.0186],[7.548,13.0186],[7.5502,13.0119]]]}},{"type":"Feature","properties":{"id":"katsina/kurfi","name":"Kurfi","state":"Katsina"},"geometry":{"type":"Polygon","coordinates":[[[7.3706,12.6369],[7.3706,12.6346],[7.3728,12.6324],[7.3751,12.6301],[7.3818,12.6189],[7.384,12.6144],[7.384,12.6099],[7.3863,12.6032],[7.3908,12.5964],[7.393,12.5942],[7.3953,12.5897],[7.3998,12.574],[7.402,12.5672],[7.4065,12.5695],[7.4087,12.5695],[7.4132,12.5695],[7.4177,12.5672],[7.4245,12.5695],[7.4312,12.5717],[7.4335,12.574],[7.4379,12.574],[7.4492,12.574],[7.4626,12.5695],[7.4694,12.5672],[7.4761,12.565],[7.4941,12.5605],[7.4986,12.5605],[7.5053,12.5628],[7.5098,12.5628],[7.521,12.5605],[7.53,12.5605],[7.5345,12.5583],[7.5457,12.5583],[7.5502,12.5583],[7.557,12.5605],[7.5615,12.5628],[7.566,12.565],[7.5817,12.5762],[7.5862,12.5807],[7.6019,12.5852],[7.6131,12.592],[7.6176,12.5942],[7.6198,12.5987],[7.6221,12.6032],[7.6243,12.6144],[7.6243,12.6189],[7.6176,12.6279],[7.6109,12.6301],[7.6086,12.6301],[7.6041,12.6301],[7.5951,12.6324],[7.5929,12.6346],[7.5862,12.6391],[7.5862,12.6414],[7.5794,12.6526],[7.5749,12.6593],[7.5727,12.6616],[7.566,12.6818],[7.557,12.7042],[7.557,12.7065],[7.5525,12.711],[7.5457,12.7177],[7.5412,12.7177],[7.5368,12.7155],[7.5368,12.7132],[7.5345,12.711],[7.5323,12.7087],[7.53,12.7065],[7.5233,12.7042],[7.5188,12.7042],[7.5143,12.7042],[7.5098,12.7087],[7.5076,12.7132],[7.5076,12.7155],[7.5076,12.72],[7.5076,12.7312],[7.5076,12.7334],[7.5098,12.7402],[7.5143,12.7447],[7.5165,12.7469],[7.521,12.7536],[7.5233,12.7581],[7.5255,12.7626],[7.5278,12.7671],[7.53,12.7739],[7.5345,12.7851],[7.5368,12.7873],[7.5502,12.8075],[7.5592,12.821],[7.5615,12.8233],[7.566,12.8255],[7.5749,12.8322],[7.5794,12.8322],[7.5794,12.8345],[7.5817,12.8412],[7.5839,12.8525],[7.5839,12.857],[7.5839,12.8592],[7.5794,12.8659],[7.5772,12.8682],[7.5727,12.8727],[7.5682,12.8749],[7.566,12.8772],[7.557,12.8817],[7.5547,12.8817],[7.548,12.8794],[7.5412,12.8772],[7.5233,12.8704],[7.5098,12.8659],[7.4986,12.8637],[7.4918,12.8614],[7.4761,12.8547],[7.4671,12.8502],[7.4626,12.8457],[7.4514,12.8412],[7.4402,12.8412],[7.4357,12.8412],[7.429,12.8435],[7.4155,12.8457],[7.411,12.8457],[7.4065,12.848],[7.3975,12.8547],[7.3953,12.857],[7.3863,12.8592],[7.3773,12.857],[7.3728,12.8547],[7.3706,12.857],[7.3706,12.8525],[7.3728,12.848],[7.3863,12.839],[7.3998,12.8367],[7.4132,12.8345],[7.42,12.83],[7.4245,12.8278],[7.429,12.8233],[7.4335,12.8098],[7.4335,12.8031],[7.429,12.7828],[7.4245,12.7761],[7.42,12.7671],[7.4177,12.7626],[7.4222,12.7581],[7.4132,12.7424],[7.4087,12.7334],[7.4065,12.7312],[7.4043,12.7289],[7.4043,12.7222],[7.4043,12.6997],[7.4065,12.693],[7.4087,12.6885],[7.4087,12.684],[7.4065,12.6795],[7.402,12.6773],[7.3908,12.6706],[7.384,12.6661],[7.3796,12.6683],[7.3796,12.6638],[7.3773,12.6616],[7.3751,12.6548],[7.3728,12.6503],[7.3728,12.6481],[7.3706,12.6459],[7.3683,12.6414],[7.3706,12.6369]]]}},{"type":"Feature","properties":{"id":"katsina/kusada","name":"Kusada","state":"Katsina"},"geometry":{"type":"Polygon","coordinates":[[[7.8804,12.4392],[7.8848,12.4303],[7.8916,12.4056],[7.8938,12.4011],[7.8983,12.3898],[7.8983,12.3809],[7.9006,12.3696],[7.9051,12.3584],[7.9073,12.3449],[7.9096,12.3404],[7.914,12.3404],[7.9253,12.3472],[7.9275,12.3494],[7.941,12.3539],[7.9455,12.3539],[7.9567,12.3561],[7.9634,12.3584],[7.9702,12.3606],[7.9814,12.3651],[7.9882,12.3674],[7.9971,12.3674],[8.0039,12.3674],[8.0061,12.3696],[8.0196,12.3741],[8.0286,12.3741],[8.0353,12.3786],[8.0421,12.3831],[8.0488,12.3831],[8.0668,12.3921],[8.0825,12.3988],[8.0915,12.4011],[8.0892,12.4033],[8.087,12.4078],[8.0847,12.4168],[8.0825,12.4235],[8.078,12.4325],[8.078,12.4482],[8.078,12.455],[8.0757,12.4617],[8.0735,12.4662],[8.069,12.4729],[8.06,12.4819],[8.0533,12.4886],[8.051,12.4999],[8.0533,12.5021],[8.0555,12.5089],[8.0555,12.5134],[8.0533,12.5156],[8.0488,12.5223],[8.0488,12.5336],[8.0488,12.5448],[8.0488,12.547],[8.0376,12.5605],[8.0353,12.565],[8.0331,12.5672],[8.0286,12.5672],[8.0196,12.5695],[8.0084,12.5785],[8.0016,12.583],[7.9904,12.5807],[7.9882,12.5807],[7.9859,12.5762],[7.9814,12.5717],[7.9769,12.5672],[7.9747,12.5672],[7.9702,12.5672],[7.9612,12.5695],[7.9612,12.5717],[7.9567,12.5717],[7.9545,12.5717],[7.9432,12.574],[7.941,12.5762],[7.941,12.5785],[7.9343,12.574],[7.932,12.565],[7.9298,12.5538],[7.932,12.5493],[7.9365,12.5381],[7.9365,12.5246],[7.9365,12.5089],[7.9343,12.5066],[7.932,12.4954],[7.9185,12.4864],[7.914,12.4842],[7.9051,12.4797],[7.8983,12.4797],[7.8961,12.4774],[7.8916,12.4752],[7.8826,12.4707],[7.8759,12.4639],[7.8759,12.4505],[7.8804,12.4392]]]}},{"type":"Feature","properties":{"id":"katsina/mai-adua","name":"Mai'Adua","state":"Katsina"},"geometry":{"type":"Polygon","coordinates":[[[8.0645,13.2522],[8.069,13.2455],[8.0757,13.232],[8.0757,13.2253],[8.078,13.2185],[8.078,13.2073],[8.0757,13.2028],[8.0802,13.1916],[8.087,13.1781],[8.0937,13.1714],[8.0937,13.1691],[8.0959,13.1601],[8.0982,13.1534],[8.1004,13.1489],[8.1027,13.1444],[8.1072,13.1422],[8.1117,13.1354],[8.1139,13.1309],[8.1162,13.1175],[8.1162,13.1062],[8.1162,13.1017],[8.1207,13.0883],[8.1251,13.0815],[8.1274,13.0793],[8.1296,13.0748],[8.1296,13.0703],[8.1296,13.0681],[8.1386,13.0568],[8.1454,13.0478],[8.1498,13.0478],[8.1521,13.0546],[8.1588,13.0591],[8.1746,13.0658],[8.179,13.0681],[8.1813,13.0703],[8.188,13.0748],[8.1948,13.0815],[8.2037,13.086],[8.2127,13.0905],[8.2172,13.0905],[8.2352,13.086],[8.2487,13.077],[8.2532,13.0725],[8.2599,13.0681],[8.2644,13.0636],[8.2689,13.0591],[8.2711,13.0568],[8.2756,13.0546],[8.2801,13.0546],[8.3048,13.0478],[8.3205,13.0411],[8.3295,13.0411],[8.334,13.0411],[8.3407,13.0411],[8.3452,13.0389],[8.3497,13.0366],[8.352,13.0344],[8.352,13.0186],[8.3542,13.0119],[8.3542,13.0029],[8.3542,12.9962],[8.3542,12.9939],[8.3609,12.9895],[8.3654,12.9872],[8.3699,12.9872],[8.3812,12.9917],[8.4014,12.9984],[8.4036,12.9962],[8.4036,13.0007],[8.4036,13.0052],[8.4036,13.0164],[8.4059,13.0231],[8.4059,13.0344],[8.4036,13.0591],[8.4014,13.0703],[8.3946,13.0748],[8.3879,13.0793],[8.3879,13.0815],[8.3812,13.0838],[8.3767,13.0883],[8.3722,13.0928],[8.3654,13.0972],[8.3632,13.104],[8.3587,13.1085],[8.3565,13.1152],[8.352,13.1175],[8.3475,13.1197],[8.3407,13.1242],[8.334,13.1287],[8.3273,13.1332],[8.316,13.1467],[8.3115,13.1534],[8.3071,13.1601],[8.3003,13.1646],[8.2936,13.1669],[8.2868,13.1714],[8.2823,13.1781],[8.2779,13.1826],[8.2734,13.1893],[8.2666,13.1938],[8.2621,13.2006],[8.2599,13.2028],[8.2599,13.205],[8.2554,13.2073],[8.2464,13.2095],[8.2374,13.2118],[8.2284,13.214],[8.2195,13.2163],[8.2127,13.2185],[8.1993,13.2253],[8.197,13.2297],[8.1925,13.232],[8.1903,13.232],[8.1835,13.2387],[8.1768,13.2455],[8.1701,13.2522],[8.1656,13.2589],[8.1588,13.2612],[8.1566,13.2634],[8.1498,13.2679],[8.1454,13.2724],[8.1386,13.2747],[8.1319,13.2769],[8.1207,13.2836],[8.1139,13.2859],[8.1072,13.2904],[8.1004,13.2926],[8.0937,13.2926],[8.0847,13.2949],[8.0825,13.2971],[8.078,13.2971],[8.0735,13.2994],[8.0668,13.3016],[8.0645,13.3016],[8.0623,13.2994],[8.0668,13.2904],[8.0668,13.2881],[8.0645,13.2792],[8.0623,13.2679],[8.0623,13.2612],[8.0645,13.2522]]]}},{"type":"Feature","properties":{"id":"katsina/malumfashi","name":"Malumfashi","state":"Katsina"},"geometry":{"type":"Polygon","coordinates":[[[7.4896,11.6892],[7.4941,11.6802],[7.5053,11.6734],[7.5076,11.6734],[7.5121,11.6712],[7.5143,11.6712],[7.5188,11.6734],[7.5278,11.6779],[7.5345,11.6847],[7.539,11.6869],[7.5412,11.6892],[7.5435,11.6937],[7.5435,11.6959],[7.5457,11.7049],[7.5502,11.7161],[7.557,11.7228],[7.5615,11.7251],[7.5682,11.7251],[7.5727,11.7251],[7.5817,11.7251],[7.5951,11.7273],[7.5996,11.7318],[7.6019,11.7341],[7.6041,11.7363],[7.6086,11.7408],[7.6176,11.7431],[7.6221,11.7453],[7.6311,11.7475],[7.6356,11.7498],[7.6423,11.7543],[7.649,11.7565],[7.658,11.761],[7.6693,11.7655],[7.6737,11.7678],[7.6782,11.7723],[7.6805,11.7767],[7.6827,11.7812],[7.6827,11.7857],[7.6872,11.7992],[7.6985,11.8127],[7.7007,11.8149],[7.7097,11.8172],[7.7344,11.8284],[7.7479,11.8329],[7.7523,11.8351],[7.7568,11.8396],[7.7613,11.8441],[7.7726,11.8509],[7.7793,11.8553],[7.795,11.8666],[7.8175,11.8778],[7.8354,11.8823],[7.8422,11.8845],[7.8467,11.8845],[7.8444,11.8935],[7.8467,11.898],[7.8444,11.9003],[7.8422,11.907],[7.8422,11.9182],[7.8399,11.9227],[7.8399,11.9272],[7.8377,11.9362],[7.8354,11.9519],[7.8332,11.9654],[7.831,11.9609],[7.813,11.9654],[7.7815,11.9609],[7.7771,11.9609],[7.7703,11.9586],[7.7636,11.9586],[7.7546,11.9609],[7.7523,11.9654],[7.7501,11.9699],[7.7501,11.9766],[7.7479,11.9856],[7.7456,11.9968],[7.7366,12.0013],[7.7254,12.0058],[7.7097,12.0081],[7.6962,12.0058],[7.685,12.0013],[7.6737,11.9991],[7.6648,12.0013],[7.6535,12.0036],[7.6446,12.0013],[7.6401,11.9991],[7.6356,11.9991],[7.6288,12.0013],[7.6221,12.0036],[7.6131,12.0058],[7.6041,12.0013],[7.5951,11.9946],[7.5862,11.9923],[7.5817,11.9901],[7.5749,11.9811],[7.5772,11.9744],[7.5794,11.9699],[7.5817,11.9654],[7.5817,11.9586],[7.5839,11.9519],[7.5929,11.9497],[7.5974,11.9497],[7.6064,11.9497],[7.6109,11.9474],[7.6176,11.9407],[7.6198,11.9317],[7.6154,11.9227],[7.6041,11.9092],[7.5974,11.9003],[7.5929,11.898],[7.5907,11.8958],[7.5884,11.8935],[7.5839,11.889],[7.5794,11.88],[7.5615,11.8464],[7.557,11.8329],[7.5502,11.8261],[7.5323,11.8127],[7.5255,11.8082],[7.5188,11.8037],[7.5188,11.7992],[7.5143,11.7902],[7.5098,11.7857],[7.5053,11.779],[7.5008,11.7767],[7.5008,11.7745],[7.4986,11.7678],[7.4963,11.7498],[7.4963,11.7273],[7.4918,11.7071],[7.4896,11.7026],[7.4873,11.6981],[7.4896,11.6892]]]}},{"type":"Feature","properties":{"id":"katsina/mani","name":"Mani","state":"Katsina"},"geometry":{"type":"Polygon","coordinates":[[[7.7568,12.8165],[7.7636,12.8075],[7.7658,12.8031],[7.7681,12.7986],[7.7726,12.7963],[7.7771,12.7986],[7.786,12.8031],[7.7928,12.8053],[7.7973,12.8053],[7.8062,12.8098],[7.8085,12.812],[7.8152,12.8165],[7.8332,12.8188],[7.8624,12.8188],[7.8669,12.8188],[7.8714,12.8188],[7.8759,12.8188],[7.8826,12.821],[7.8916,12.8233],[7.8983,12.8255],[7.9028,12.83],[7.9073,12.8322],[7.914,12.8322],[7.9185,12.83],[7.9253,12.8255],[7.9298,12.8233],[7.932,12.8188],[7.9365,12.8098],[7.941,12.8075],[7.9477,12.8053],[7.9522,12.8031],[7.9612,12.8008],[7.9724,12.7941],[7.9747,12.7918],[7.9792,12.7851],[7.9792,12.7761],[7.9769,12.7694],[7.9769,12.7626],[7.9747,12.7559],[7.9724,12.7469],[7.9702,12.7424],[7.9702,12.7379],[7.9724,12.7334],[7.9747,12.7289],[7.9769,12.7245],[7.9882,12.7177],[7.9994,12.7155],[8.0084,12.72],[8.0151,12.7222],[8.0263,12.7289],[8.0331,12.7312],[8.0376,12.7357],[8.0488,12.7514],[8.0533,12.7559],[8.0645,12.7671],[8.0825,12.7851],[8.0915,12.7941],[8.0959,12.8098],[8.0959,12.8143],[8.0937,12.8143],[8.0892,12.8143],[8.0847,12.8165],[8.0825,12.8188],[8.0735,12.8412],[8.0735,12.8435],[8.078,12.8525],[8.0847,12.8592],[8.087,12.8637],[8.0915,12.8727],[8.0982,12.8906],[8.1004,12.9064],[8.0959,12.9221],[8.0937,12.9333],[8.0892,12.9423],[8.0847,12.9468],[8.078,12.9535],[8.0735,12.9647],[8.0623,12.9827],[8.06,12.9872],[8.0578,12.9895],[8.0555,12.9895],[8.0533,12.9939],[8.051,12.9962],[8.0488,13.0007],[8.0488,13.0029],[8.0443,13.0007],[8.0376,12.9962],[8.0308,12.967],[8.0286,12.9558],[8.0241,12.9468],[8.0173,12.9423],[8.0106,12.9378],[8.0061,12.9356],[8.0016,12.9356],[7.9971,12.9378],[7.9949,12.9378],[7.9882,12.9423],[7.9837,12.949],[7.9769,12.9535],[7.9724,12.9535],[7.9702,12.9535],[7.9679,12.9513],[7.9612,12.94],[7.959,12.9378],[7.959,12.9333],[7.959,12.9311],[7.9567,12.9288],[7.9522,12.9266],[7.9477,12.9266],[7.9432,12.9266],[7.9343,12.9311],[7.9298,12.9356],[7.9275,12.94],[7.923,12.9468],[7.9185,12.9513],[7.9163,12.9535],[7.9096,12.958],[7.9028,12.9692],[7.9006,12.976],[7.8983,12.9827],[7.8938,12.9895],[7.8893,12.9984],[7.8826,13.0052],[7.8804,13.0074],[7.8804,13.0186],[7.8826,13.0344],[7.8826,13.0389],[7.8804,13.0433],[7.8759,13.0546],[7.8736,13.0613],[7.8691,13.0658],[7.8624,13.0703],[7.8624,13.0725],[7.8579,13.0838],[7.8579,13.104],[7.8579,13.1085],[7.8557,13.1107],[7.8512,13.1085],[7.8444,13.1017],[7.8399,13.095],[7.8332,13.0793],[7.8265,13.0613],[7.8242,13.0546],[7.822,13.0456],[7.8175,13.0411],[7.8152,13.0389],[7.8107,13.0366],[7.795,13.0321],[7.7838,13.0321],[7.7771,13.0344],[7.7748,13.0366],[7.7726,13.0299],[7.7726,13.0209],[7.7726,13.0186],[7.7726,13.0164],[7.7748,13.0074],[7.7748,13.0029],[7.7771,13.0007],[7.7793,12.9962],[7.7815,12.985],[7.7815,12.9827],[7.7815,12.9715],[7.7815,12.967],[7.7771,12.9535],[7.7748,12.9356],[7.7748,12.9266],[7.7703,12.9064],[7.7658,12.8974],[7.7658,12.8906],[7.7658,12.8839],[7.7636,12.8749],[7.7636,12.8704],[7.7591,12.857],[7.7613,12.8502],[7.7613,12.8435],[7.7591,12.839],[7.7546,12.8255],[7.7546,12.821],[7.7568,12.8165]]]}},{"type":"Feature","properties":{"id":"katsina/mashi","name":"Mashi","state":"Katsina"},"geometry":{"type":"Polygon","coordinates":[[[7.8624,13.0725],[7.8624,13.0703],[7.8691,13.0658],[7.8736,13.0613],[7.8759,13.0546],[7.8804,13.0433],[7.8826,13.0389],[7.8826,13.0344],[7.8804,13.0186],[7.8804,13.0074],[7.8826,13.0052],[7.8893,12.9984],[7.8938,12.9895],[7.8983,12.9827],[7.9006,12.976],[7.9028,12.9692],[7.9096,12.958],[7.9163,12.9535],[7.9185,12.9513],[7.923,12.9468],[7.9275,12.94],[7.9298,12.9356],[7.9343,12.9311],[7.9432,12.9266],[7.9477,12.9266],[7.9522,12.9266],[7.9567,12.9288],[7.959,12.9311],[7.959,12.9333],[7.959,12.9378],[7.9612,12.94],[7.9679,12.9513],[7.9702,12.9535],[7.9724,12.9535],[7.9769,12.9535],[7.9837,12.949],[7.9882,12.9423],[7.9949,12.9378],[7.9971,12.9378],[8.0016,12.9356],[8.0061,12.9356],[8.0106,12.9378],[8.0173,12.9423],[8.0241,12.9468],[8.0286,12.9558],[8.0308,12.967],[8.0376,12.9962],[8.0443,13.0007],[8.0488,13.0029],[8.0533,13.0052],[8.0578,13.0052],[8.0668,13.0029],[8.0712,12.9984],[8.0757,12.9939],[8.078,12.9895],[8.0892,12.9895],[8.0915,12.9895],[8.1004,12.9939],[8.1027,12.9962],[8.1027,13.0007],[8.1027,13.0052],[8.1049,13.0097],[8.1139,13.0186],[8.1296,13.0231],[8.1409,13.0254],[8.1498,13.0254],[8.1543,13.0276],[8.1588,13.0299],[8.1656,13.0344],[8.1656,13.0366],[8.1588,13.0433],[8.1498,13.0478],[8.1454,13.0478],[8.1386,13.0568],[8.1296,13.0681],[8.1296,13.0703],[8.1296,13.0748],[8.1274,13.0793],[8.1251,13.0815],[8.1207,13.0883],[8.1162,13.1017],[8.1162,13.1062],[8.1162,13.1175],[8.1139,13.1309],[8.1117,13.1354],[8.1072,13.1422],[8.1027,13.1444],[8.1004,13.1489],[8.0982,13.1534],[8.0959,13.1601],[8.0937,13.1691],[8.0937,13.1714],[8.087,13.1781],[8.0802,13.1916],[8.0757,13.2028],[8.078,13.2073],[8.078,13.2185],[8.0757,13.2253],[8.0757,13.232],[8.069,13.2455],[8.0645,13.2522],[8.0623,13.2612],[8.0623,13.2679],[8.0645,13.2792],[8.0668,13.2881],[8.0668,13.2904],[8.0623,13.2994],[8.0645,13.3016],[8.0623,13.3039],[8.0533,13.3039],[8.0465,13.3061],[8.0421,13.3061],[8.0376,13.3061],[8.0331,13.3083],[8.0263,13.3083],[8.0241,13.3106],[8.0151,13.3128],[8.0061,13.3128],[7.9994,13.3151],[7.9926,13.3151],[7.9859,13.3173],[7.9792,13.3196],[7.9702,13.3196],[7.9634,13.3218],[7.9545,13.3218],[7.9477,13.3241],[7.9387,13.3241],[7.932,13.3241],[7.9253,13.3263],[7.9163,13.3263],[7.9118,13.3286],[7.9051,13.3286],[7.8983,13.3286],[7.8916,13.3308],[7.8871,13.3308],[7.8826,13.3286],[7.8759,13.3308],[7.8804,13.3241],[7.8804,13.3218],[7.8804,13.3151],[7.8804,13.3106],[7.8804,13.3016],[7.8804,13.2971],[7.8871,13.2769],[7.8938,13.2634],[7.8938,13.2545],[7.8961,13.2522],[7.9006,13.2432],[7.9073,13.2297],[7.9118,13.2185],[7.9118,13.2118],[7.9096,13.2073],[7.9051,13.2028],[7.9051,13.1938],[7.9051,13.1848],[7.9028,13.1803],[7.8983,13.1646],[7.8961,13.1579],[7.8938,13.1511],[7.8916,13.1489],[7.8848,13.1422],[7.8714,13.1309],[7.8646,13.1242],[7.8601,13.1152],[7.8579,13.1107],[7.8579,13.1085],[7.8579,13.104],[7.8579,13.0838],[7.8624,13.0725]]]}},{"type":"Feature","properties":{"id":"katsina/matazuu","name":"Matazuu","state":"Katsina"},"geometry":{"type":"Polygon","coordinates":[[[7.5188,12.2304],[7.5165,12.2102],[7.5188,12.2012],[7.521,12.19],[7.521,12.1855],[7.5233,12.181],[7.5278,12.1742],[7.5323,12.163],[7.5368,12.1585],[7.5412,12.1563],[7.5435,12.154],[7.5457,12.1495],[7.548,12.1518],[7.557,12.1518],[7.5637,12.1518],[7.5704,12.1518],[7.5749,12.1518],[7.5862,12.1563],[7.6019,12.1585],[7.6176,12.1653],[7.6288,12.1698],[7.6401,12.172],[7.6558,12.1765],[7.6693,12.1765],[7.6737,12.1765],[7.6895,12.181],[7.7074,12.1877],[7.7142,12.1922],[7.7142,12.1967],[7.7164,12.2012],[7.7187,12.2057],[7.7254,12.2079],[7.7276,12.2102],[7.7321,12.2147],[7.7389,12.2214],[7.7434,12.2349],[7.7434,12.2394],[7.7434,12.2439],[7.7479,12.2484],[7.7546,12.2528],[7.7636,12.2618],[7.7703,12.2731],[7.7748,12.282],[7.7748,12.2865],[7.7771,12.2888],[7.7793,12.291],[7.7748,12.2933],[7.7703,12.2955],[7.7591,12.3045],[7.7546,12.3067],[7.7434,12.3067],[7.7389,12.3067],[7.7299,12.309],[7.7209,12.3135],[7.7187,12.3157],[7.7119,12.3247],[7.7007,12.3382],[7.6985,12.3404],[7.6962,12.3472],[7.6917,12.3539],[7.676,12.3651],[7.6693,12.3651],[7.6625,12.3651],[7.6513,12.3674],[7.6378,12.3674],[7.6333,12.3674],[7.6221,12.3674],[7.6154,12.3651],[7.6109,12.3629],[7.6064,12.3606],[7.6041,12.3584],[7.5974,12.3561],[7.5929,12.3539],[7.5907,12.3539],[7.5817,12.3561],[7.566,12.3629],[7.5525,12.3696],[7.5457,12.3719],[7.539,12.3719],[7.5345,12.3719],[7.5323,12.3719],[7.5278,12.3674],[7.5255,12.3629],[7.5255,12.3517],[7.5278,12.3449],[7.53,12.3382],[7.53,12.3292],[7.53,12.3225],[7.521,12.3157],[7.5143,12.3112],[7.5143,12.3045],[7.5143,12.2978],[7.5165,12.2865],[7.5165,12.2731],[7.5165,12.2641],[7.5143,12.2573],[7.5143,12.2528],[7.5143,12.2484],[7.5188,12.2304]]]}},{"type":"Feature","properties":{"id":"katsina/musawa","name":"Musawa","state":"Katsina"},"geometry":{"type":"Polygon","coordinates":[[[7.4626,12.1046],[7.4671,12.1001],[7.4716,12.0956],[7.4739,12.0934],[7.4784,12.0934],[7.4829,12.0911],[7.4896,12.0889],[7.4963,12.0867],[7.5188,12.0754],[7.5233,12.0732],[7.5255,12.0732],[7.5278,12.0709],[7.5323,12.0687],[7.5412,12.0552],[7.5435,12.0485],[7.5457,12.0417],[7.5502,12.0373],[7.5525,12.0305],[7.557,12.0215],[7.557,12.0193],[7.5547,12.0125],[7.5525,12.0058],[7.548,12.0013],[7.5457,11.9991],[7.5368,11.9923],[7.5278,11.9878],[7.5278,11.9856],[7.5233,11.9834],[7.5165,11.9789],[7.4806,11.9609],[7.4739,11.9586],[7.4716,11.9519],[7.4739,11.9497],[7.4784,11.9474],[7.4829,11.9474],[7.4941,11.9497],[7.5098,11.9474],[7.5143,11.9407],[7.5165,11.9362],[7.5188,11.9317],[7.5233,11.9272],[7.5278,11.9295],[7.5323,11.9295],[7.5412,11.9317],[7.548,11.9362],[7.5682,11.9497],[7.5749,11.9542],[7.5817,11.9586],[7.5817,11.9654],[7.5794,11.9699],[7.5772,11.9744],[7.5749,11.9811],[7.5817,11.9901],[7.5862,11.9923],[7.5951,11.9946],[7.6041,12.0013],[7.6131,12.0058],[7.6221,12.0036],[7.6288,12.0013],[7.6356,11.9991],[7.6401,11.9991],[7.6446,12.0013],[7.6535,12.0036],[7.6648,12.0013],[7.6737,11.9991],[7.685,12.0013],[7.6962,12.0058],[7.7097,12.0081],[7.7254,12.0058],[7.7366,12.0013],[7.7456,11.9968],[7.7479,11.9856],[7.7501,11.9766],[7.7501,11.9699],[7.7523,11.9654],[7.7546,11.9609],[7.7636,11.9586],[7.7703,11.9586],[7.7771,11.9609],[7.7815,11.9609],[7.813,11.9654],[7.831,11.9609],[7.8332,11.9654],[7.8332,11.9699],[7.8377,11.9878],[7.8377,11.9991],[7.8377,12.0036],[7.8354,12.0058],[7.8354,12.0103],[7.8377,12.017],[7.8422,12.0238],[7.8422,12.0305],[7.8399,12.0373],[7.8354,12.0417],[7.8354,12.0485],[7.8377,12.0597],[7.8399,12.062],[7.8422,12.0732],[7.8399,12.0799],[7.8377,12.0889],[7.8377,12.1001],[7.8377,12.1136],[7.8399,12.1271],[7.8354,12.1338],[7.8332,12.1383],[7.831,12.145],[7.8287,12.1608],[7.8242,12.1832],[7.822,12.1945],[7.8242,12.2079],[7.8242,12.2304],[7.8287,12.2394],[7.831,12.2439],[7.8332,12.2551],[7.831,12.2641],[7.8265,12.2663],[7.8197,12.2686],[7.8085,12.2708],[7.804,12.2775],[7.7928,12.2843],[7.7838,12.2865],[7.7793,12.291],[7.7771,12.2888],[7.7748,12.2865],[7.7748,12.282],[7.7703,12.2731],[7.7636,12.2618],[7.7546,12.2528],[7.7479,12.2484],[7.7434,12.2439],[7.7434,12.2394],[7.7434,12.2349],[7.7389,12.2214],[7.7321,12.2147],[7.7276,12.2102],[7.7254,12.2079],[7.7187,12.2057],[7.7164,12.2012],[7.7142,12.1967],[7.7142,12.1922],[7.7074,12.1877],[7.6895,12.181],[7.6737,12.1765],[7.6693,12.1765],[7.6558,12.1765],[7.6401,12.172],[7.6288,12.1698],[7.6176,12.1653],[7.6019,12.1585],[7.5862,12.1563],[7.5749,12.1518],[7.5704,12.1518],[7.5637,12.1518],[7.557,12.1518],[7.548,12.1518],[7.5457,12.1495],[7.5435,12.1495],[7.5412,12.1495],[7.5345,12.1495],[7.5255,12.1473],[7.5188,12.145],[7.5098,12.1406],[7.5008,12.1338],[7.4941,12.1293],[7.4851,12.1248],[7.4739,12.1159],[7.4649,12.1091],[7.4604,12.1069],[7.4626,12.1046]]]}},{"type":"Feature","properties":{"id":"katsina/rimi","name":"Rimi","state":"Katsina"},"geometry":{"type":"Polygon","coordinates":[[[7.557,12.7357],[7.5682,12.7334],[7.5749,12.7312],[7.5794,12.7312],[7.5862,12.7312],[7.5929,12.7267],[7.5996,12.7245],[7.6109,12.7245],[7.6243,12.7222],[7.6333,12.7222],[7.6356,12.72],[7.6401,12.72],[7.6468,12.7177],[7.6558,12.7177],[7.6715,12.7155],[7.6827,12.7155],[7.6895,12.7177],[7.7029,12.7132],[7.7119,12.7087],[7.7142,12.7065],[7.7187,12.7065],[7.7254,12.7065],[7.7321,12.7087],[7.7479,12.702],[7.7501,12.6997],[7.7523,12.6997],[7.7613,12.7087],[7.7681,12.7222],[7.7703,12.7267],[7.7703,12.7312],[7.7703,12.7357],[7.7703,12.7514],[7.7703,12.7784],[7.7703,12.7828],[7.7726,12.7873],[7.7726,12.7918],[7.7726,12.7963],[7.7681,12.7986],[7.7658,12.8031],[7.7636,12.8075],[7.7568,12.8165],[7.7546,12.821],[7.7546,12.8255],[7.7591,12.839],[7.7613,12.8435],[7.7613,12.8502],[7.7591,12.857],[7.7636,12.8704],[7.7636,12.8749],[7.7658,12.8839],[7.7658,12.8906],[7.7658,12.8974],[7.7703,12.9064],[7.7748,12.9266],[7.7748,12.9356],[7.7771,12.9535],[7.7815,12.967],[7.7815,12.9715],[7.7815,12.9827],[7.7815,12.985],[7.7793,12.9962],[7.7771,13.0007],[7.7748,13.0029],[7.7748,13.0074],[7.7726,13.0164],[7.7726,13.0186],[7.7726,13.0209],[7.7726,13.0299],[7.7748,13.0366],[7.7681,13.0411],[7.7546,13.0501],[7.7501,13.0523],[7.7389,13.0523],[7.7366,13.0523],[7.7299,13.0501],[7.7254,13.0478],[7.7276,13.0411],[7.7276,13.0344],[7.7232,13.0276],[7.7209,13.0231],[7.7187,13.0231],[7.7142,13.0209],[7.7119,13.0186],[7.7119,13.0164],[7.7097,13.0097],[7.7097,13.0074],[7.7119,13.0029],[7.7142,13.0007],[7.7164,12.9984],[7.7187,12.9984],[7.7254,12.9962],[7.7299,12.9939],[7.7389,12.9917],[7.7479,12.9895],[7.7546,12.9872],[7.7591,12.9827],[7.7658,12.976],[7.7636,12.9692],[7.7613,12.967],[7.7591,12.9625],[7.7523,12.9558],[7.7501,12.9535],[7.7411,12.9468],[7.7366,12.9423],[7.7276,12.9378],[7.7209,12.9356],[7.7142,12.9311],[7.7119,12.9288],[7.7029,12.9221],[7.6805,12.9041],[7.667,12.8974],[7.6603,12.8929],[7.649,12.8839],[7.6378,12.8727],[7.6356,12.8659],[7.6311,12.8614],[7.6288,12.857],[7.6243,12.8525],[7.6176,12.8435],[7.6154,12.839],[7.6131,12.8367],[7.6131,12.8322],[7.6086,12.8278],[7.5974,12.8188],[7.5884,12.8098],[7.5862,12.8053],[7.5794,12.7963],[7.5772,12.7873],[7.5749,12.7784],[7.5749,12.7761],[7.5704,12.7649],[7.5615,12.7536],[7.5547,12.7357],[7.557,12.7357]]]}},{"type":"Feature","properties":{"id":"katsina/sabuwa","name":"Sabuwa","state":"Katsina"},"geometry":{"type":"Polygon","coordinates":[[[6.899,11.3815],[6.9102,11.3837],[6.9192,11.3837],[6.9237,11.3815],[6.9394,11.3725],[6.9461,11.368],[6.9551,11.3635],[6.9618,11.359],[6.9686,11.3568],[6.9753,11.3568],[6.9821,11.359],[6.9888,11.3613],[7.0023,11.3613],[7.0068,11.3613],[7.0112,11.359],[7.0135,11.3568],[7.0157,11.3523],[7.018,11.3456],[7.0202,11.3411],[7.0247,11.3366],[7.0247,11.3253],[7.0225,11.3186],[7.0225,11.3141],[7.0135,11.3074],[7.009,11.2939],[7.0,11.2827],[6.9978,11.2804],[6.9933,11.2782],[6.9888,11.2759],[6.9865,11.2737],[6.9843,11.2714],[6.9776,11.2647],[6.9731,11.2557],[6.9686,11.249],[6.9686,11.2445],[6.9708,11.2423],[6.9731,11.2423],[6.9798,11.2445],[6.991,11.2445],[7.0045,11.2467],[7.009,11.2445],[7.018,11.24],[7.0225,11.2355],[7.0292,11.231],[7.036,11.2265],[7.0404,11.2288],[7.0449,11.2288],[7.0562,11.2243],[7.0651,11.2198],[7.0741,11.2153],[7.0854,11.2041],[7.0966,11.1973],[7.0966,11.1928],[7.1056,11.1816],[7.1101,11.1771],[7.119,11.1704],[7.128,11.1614],[7.1303,11.1569],[7.1393,11.1479],[7.146,11.1412],[7.1527,11.1389],[7.1572,11.1389],[7.164,11.1389],[7.1685,11.1412],[7.1774,11.1434],[7.1864,11.1502],[7.1999,11.1592],[7.2111,11.1659],[7.2179,11.1704],[7.2201,11.1726],[7.2268,11.1771],[7.2358,11.1861],[7.2358,11.1928],[7.2358,11.1973],[7.2336,11.1996],[7.2291,11.2086],[7.2224,11.2198],[7.2201,11.2243],[7.2156,11.2265],[7.2134,11.231],[7.2044,11.249],[7.1999,11.2557],[7.1976,11.2647],[7.1976,11.2692],[7.1976,11.2714],[7.2021,11.2759],[7.2044,11.2804],[7.2066,11.2849],[7.2066,11.2872],[7.2066,11.2939],[7.2044,11.3006],[7.2044,11.3029],[7.1976,11.3186],[7.1932,11.3231],[7.1887,11.3276],[7.1842,11.3298],[7.1752,11.3321],[7.1707,11.3343],[7.1662,11.3388],[7.1617,11.3411],[7.1595,11.3478],[7.155,11.3545],[7.1527,11.359],[7.1505,11.368],[7.1482,11.3725],[7.146,11.377],[7.1415,11.3815],[7.1325,11.3905],[7.1235,11.3972],[7.1123,11.4039],[7.1078,11.4084],[7.0988,11.4174],[7.0899,11.4331],[7.0854,11.4399],[7.0854,11.4489],[7.0854,11.4556],[7.0876,11.4646],[7.0921,11.4713],[7.0921,11.4758],[7.0921,11.4803],[7.0876,11.4848],[7.0786,11.4803],[7.0764,11.4803],[7.0696,11.4825],[7.0629,11.4803],[7.0584,11.4758],[7.0539,11.4713],[7.0472,11.4668],[7.0427,11.4668],[7.0382,11.4668],[7.018,11.4713],[7.0112,11.4713],[7.009,11.4713],[7.0068,11.4713],[7.0045,11.4713],[6.9865,11.4623],[6.9821,11.4601],[6.9731,11.4534],[6.9663,11.4466],[6.9618,11.4421],[6.9574,11.4354],[6.9551,11.4287],[6.9461,11.4174],[6.9416,11.4152],[6.9371,11.4107],[6.9349,11.4107],[6.9304,11.4107],[6.9282,11.4084],[6.9214,11.4039],[6.9012,11.3905],[6.8967,11.3837],[6.8945,11.3792],[6.899,11.3815]]]}},{"type":"Feature","properties":{"id":"katsina/safana","name":"Safana","state":"Katsina"},"geometry":{"type":"Polygon","coordinates":[[[8.2307,12.8637],[8.2307,12.8614],[8.2374,12.8457],[8.2374,12.839],[8.2464,12.8367],[8.2487,12.8367],[8.2644,12.839],[8.2756,12.8412],[8.2801,12.8435],[8.2846,12.8412],[8.2981,12.8412],[8.316,12.8412],[8.3295,12.8435],[8.3362,12.8412],[8.3407,12.839],[8.3497,12.8345],[8.3609,12.83],[8.3767,12.8255],[8.3834,12.8255],[8.3901,12.8255],[8.3991,12.8278],[8.4059,12.8255],[8.4148,12.8233],[8.4261,12.8233],[8.4373,12.8255],[8.4553,12.83],[8.462,12.83],[8.4575,12.8345],[8.453,12.839],[8.4508,12.8435],[8.4463,12.8525],[8.4418,12.8727],[8.4396,12.8772],[8.4396,12.8817],[8.4396,12.8884],[8.4396,12.8951],[8.4418,12.9019],[8.4396,12.9198],[8.4373,12.9266],[8.4373,12.9356],[8.4373,12.9445],[8.4373,12.9513],[8.4328,12.9603],[8.4306,12.9647],[8.4238,12.9715],[8.4126,12.9805],[8.4104,12.9805],[8.4081,12.9827],[8.4059,12.985],[8.4036,12.9939],[8.4036,12.9962],[8.4014,12.9984],[8.3812,12.9917],[8.3699,12.9872],[8.3654,12.9872],[8.3609,12.9895],[8.3542,12.9939],[8.3542,12.9962],[8.3497,12.9939],[8.3407,12.9895],[8.3228,12.976],[8.3183,12.967],[8.316,12.9603],[8.316,12.9535],[8.316,12.9513],[8.3183,12.9468],[8.3183,12.9378],[8.3183,12.9356],[8.3183,12.9311],[8.3183,12.9288],[8.316,12.9221],[8.3093,12.9108],[8.3071,12.9064],[8.3026,12.9041],[8.2913,12.8996],[8.2801,12.8951],[8.2779,12.8951],[8.2734,12.8906],[8.2621,12.8839],[8.2509,12.8772],[8.2352,12.8727],[8.2307,12.8704],[8.2284,12.8659],[8.2307,12.8637]]]}},{"type":"Feature","properties":{"id":"katsina/sandamu","name":"Sandamu","state":"Katsina"},"geometry":{"type":"Polygon","coordinates":[[[7.0472,12.6099],[7.0494,12.6009],[7.0494,12.5964],[7.0517,12.5897],[7.0517,12.5875],[7.0517,12.5672],[7.0517,12.5448],[7.0517,12.5358],[7.0539,12.5156],[7.0539,12.5111],[7.0562,12.5044],[7.0607,12.4819],[7.0629,12.455],[7.0651,12.4482],[7.0651,12.4392],[7.0651,12.4325],[7.0674,12.4123],[7.0719,12.4056],[7.0764,12.3988],[7.0786,12.3921],[7.0831,12.3831],[7.0854,12.3786],[7.0876,12.3719],[7.0899,12.3674],[7.0921,12.3606],[7.0988,12.3359],[7.0988,12.3337],[7.1011,12.3247],[7.1011,12.3225],[7.1033,12.309],[7.1033,12.3022],[7.1033,12.2978],[7.1123,12.3022],[7.1213,12.3067],[7.1258,12.3067],[7.1437,12.3135],[7.1595,12.3225],[7.1685,12.3292],[7.1797,12.3382],[7.1954,12.3472],[7.2021,12.3517],[7.2066,12.3517],[7.2156,12.3539],[7.2201,12.3517],[7.2246,12.3517],[7.2336,12.3472],[7.2381,12.3449],[7.2426,12.3427],[7.2471,12.3404],[7.2493,12.3404],[7.2605,12.3404],[7.2695,12.3427],[7.2718,12.3427],[7.2807,12.3404],[7.2852,12.3382],[7.2897,12.3382],[7.3032,12.3359],[7.3099,12.3382],[7.3257,12.3359],[7.3324,12.3337],[7.3391,12.3292],[7.3414,12.327],[7.3436,12.3202],[7.3481,12.3112],[7.3593,12.309],[7.3638,12.309],[7.3885,12.3022],[7.3908,12.3],[7.393,12.2978],[7.3953,12.2955],[7.4087,12.2933],[7.4177,12.2933],[7.4245,12.2933],[7.4312,12.2955],[7.4379,12.2955],[7.4447,12.2933],[7.4424,12.3022],[7.4357,12.3292],[7.4335,12.3359],[7.4335,12.3404],[7.4357,12.3494],[7.4424,12.3651],[7.4469,12.3696],[7.4492,12.3719],[7.4514,12.3764],[7.4559,12.3876],[7.4626,12.4011],[7.4626,12.419],[7.4626,12.4213],[7.4604,12.428],[7.4559,12.437],[7.4447,12.4527],[7.4335,12.4752],[7.429,12.4864],[7.4267,12.4954],[7.4177,12.5134],[7.4087,12.5425],[7.4043,12.5605],[7.402,12.5672],[7.3998,12.574],[7.3953,12.5897],[7.393,12.5942],[7.3908,12.5964],[7.3863,12.6032],[7.384,12.6099],[7.384,12.6144],[7.3818,12.6189],[7.3751,12.6301],[7.3728,12.6324],[7.3706,12.6346],[7.3706,12.6369],[7.3683,12.6414],[7.3706,12.6459],[7.3728,12.6481],[7.3728,12.6503],[7.3751,12.6548],[7.3773,12.6616],[7.3796,12.6638],[7.3796,12.6683],[7.3751,12.6706],[7.3683,12.6728],[7.3571,12.675],[7.3481,12.6728],[7.3414,12.6661],[7.3391,12.6638],[7.3324,12.6638],[7.3279,12.6661],[7.3234,12.6638],[7.3167,12.6593],[7.3099,12.6548],[7.3032,12.6526],[7.2875,12.6436],[7.2807,12.6414],[7.2762,12.6414],[7.2718,12.6391],[7.2493,12.6369],[7.2448,12.6369],[7.2268,12.6436],[7.2111,12.6481],[7.1999,12.6548],[7.1909,12.6571],[7.1797,12.6593],[7.1662,12.6638],[7.1505,12.6616],[7.1437,12.6593],[7.1303,12.6593],[7.1258,12.6593],[7.119,12.6571],[7.1078,12.6503],[7.0943,12.6459],[7.0809,12.6414],[7.0741,12.6414],[7.0674,12.6391],[7.0539,12.6346],[7.0517,12.6369],[7.0472,12.6369],[7.0449,12.6189],[7.0472,12.6099]]]}},{"type":"Feature","properties":{"id":"katsina/zango","name":"Zango","state":"Katsina"},"geometry":{"type":"Polygon","coordinates":[[[8.4036,13.0591],[8.4059,13.0344],[8.4059,13.0231],[8.4036,13.0164],[8.4036,13.0052],[8.4036,13.0007],[8.4036,12.9962],[8.4036,12.9939],[8.4059,12.985],[8.4081,12.9827],[8.4104,12.9805],[8.4126,12.9805],[8.4238,12.9715],[8.4306,12.9647],[8.4328,12.9603],[8.4373,12.9513],[8.4373,12.9445],[8.4373,12.9356],[8.4373,12.9266],[8.4396,12.9198],[8.4418,12.9019],[8.4396,12.8951],[8.4396,12.8884],[8.4396,12.8817],[8.4396,12.8772],[8.4418,12.8727],[8.4463,12.8525],[8.4508,12.8435],[8.453,12.839],[8.4575,12.8345],[8.462,12.83],[8.471,12.8322],[8.48,12.8345],[8.489,12.8367],[8.5024,12.8345],[8.5159,12.8345],[8.5361,12.8345],[8.5451,12.8322],[8.5563,12.83],[8.5631,12.8278],[8.5765,12.821],[8.581,12.8188],[8.5833,12.8165],[8.5878,12.8233],[8.59,12.8278],[8.5945,12.83],[8.608,12.8322],[8.6215,12.8345],[8.6259,12.839],[8.6349,12.8457],[8.6394,12.8525],[8.6417,12.857],[8.6439,12.8592],[8.6529,12.8592],[8.6596,12.857],[8.6686,12.8525],[8.6821,12.8502],[8.6956,12.8525],[8.7068,12.8525],[8.718,12.8547],[8.7225,12.8592],[8.7248,12.8727],[8.7248,12.8772],[8.7203,12.8906],[8.718,12.8951],[8.7135,12.8996],[8.7113,12.9064],[8.709,12.9108],[8.709,12.9131],[8.7045,12.9153],[8.6956,12.9176],[8.6911,12.9198],[8.6843,12.9221],[8.6776,12.9243],[8.6664,12.9311],[8.6619,12.9333],[8.6484,12.9378],[8.6439,12.9468],[8.6439,12.9513],[8.6439,12.9558],[8.6394,12.9603],[8.6349,12.9692],[8.6327,12.9782],[8.6259,12.9827],[8.6215,12.9895],[8.617,12.9962],[8.6125,13.0007],[8.6057,13.0052],[8.6012,13.0097],[8.599,13.0119],[8.5923,13.0164],[8.59,13.0209],[8.5855,13.0231],[8.5788,13.0299],[8.572,13.0344],[8.5653,13.0389],[8.5586,13.0411],[8.5518,13.0456],[8.5451,13.0501],[8.5384,13.0523],[8.5316,13.0568],[8.5226,13.0591],[8.5159,13.0636],[8.5069,13.0658],[8.5002,13.0681],[8.4934,13.0681],[8.4867,13.0703],[8.4777,13.0703],[8.4687,13.0681],[8.462,13.0681],[8.4553,13.0658],[8.4485,13.0636],[8.4418,13.0613],[8.4351,13.0591],[8.4283,13.0568],[8.4216,13.0546],[8.4148,13.0546],[8.4104,13.0591],[8.4059,13.0658],[8.4014,13.0703],[8.4036,13.0591]]]}}]}