{"type":"FeatureCollection","features":[{"type":"Feature","properties":{"id":"kebbi/aleiro","name":"Aleiro","state":"Kebbi"},"geometry":{"type":"Polygon","coordinates":[[[4.3321,12.2933],[4.3366,12.2775],[4.3455,12.2573],[4.3545,12.2484],[4.3815,12.2416],[4.4039,12.2349],[4.4264,12.2281],[4.4376,12.2236],[4.4511,12.2236],[4.4735,12.2192],[4.487,12.2147],[4.496,12.2079],[4.5162,12.1989],[4.5319,12.1945],[4.5319,12.1989],[4.5274,12.2147],[4.5185,12.2416],[4.5185,12.2618],[4.5252,12.282],[4.5252,12.2865],[4.5005,12.3135],[4.496,12.327],[4.487,12.3494],[4.4848,12.3629],[4.487,12.3786],[4.487,12.3876],[4.4893,12.3921],[4.4825,12.4033],[4.4758,12.4123],[4.4668,12.419],[4.4488,12.4213],[4.4399,12.4168],[4.4241,12.4145],[4.4084,12.4145],[4.3949,12.4056],[4.3792,12.3966],[4.3657,12.3831],[4.35,12.3584],[4.3478,12.3427],[4.3366,12.3247],[4.3298,12.3112],[4.3298,12.309],[4.3321,12.2933]]]}},{"type":"Feature","properties":{"id":"kebbi/arewa-dandi","name":"Arewa-Dandi","state":"Kebbi"},"geometry":{"type":"Polygon","coordinates":[[[3.6381,12.1271],[3.6381,12.1226],[3.6404,12.1159],[3.6426,12.1091],[3.6516,12.1136],[3.6696,12.1248],[3.6875,12.1293],[3.7033,12.1383],[3.7077,12.1428],[3.71,12.1473],[3.7212,12.1495],[3.7347,12.154],[3.7482,12.1563],[3.7527,12.1653],[3.7527,12.1855],[3.7504,12.2012],[3.7616,12.2236],[3.7751,12.2551],[3.7908,12.2798],[3.7998,12.2933],[3.8223,12.3067],[3.838,12.3135],[3.8447,12.3157],[3.8492,12.318],[3.856,12.327],[3.8605,12.3382],[3.8605,12.3494],[3.856,12.3606],[3.847,12.3719],[3.8447,12.3831],[3.8447,12.3966],[3.8537,12.41],[3.8627,12.4145],[3.8762,12.4145],[3.8829,12.41],[3.8964,12.4056],[3.9076,12.4056],[3.9144,12.41],[3.9368,12.4258],[3.9435,12.4347],[3.9593,12.4482],[3.9683,12.455],[3.9727,12.4729],[3.9885,12.4909],[3.9885,12.4954],[3.9907,12.4976],[3.9952,12.5089],[3.9974,12.5156],[4.0042,12.5246],[4.0087,12.5291],[4.0244,12.5358],[4.0379,12.5403],[4.0491,12.5515],[4.0603,12.565],[4.0716,12.5762],[4.0805,12.5762],[4.094,12.583],[4.1097,12.592],[4.1142,12.6009],[4.121,12.6077],[4.1299,12.6167],[4.1322,12.6256],[4.1367,12.6459],[4.1479,12.6616],[4.1524,12.6638],[4.1591,12.6706],[4.1681,12.6795],[4.1749,12.6818],[4.1883,12.6908],[4.2041,12.7155],[4.2085,12.7289],[4.2153,12.7379],[4.2265,12.7581],[4.2288,12.7671],[4.2332,12.7784],[4.2377,12.7873],[4.2467,12.7896],[4.2535,12.7918],[4.258,12.7963],[4.2849,12.8031],[4.2984,12.8075],[4.3096,12.8165],[4.3208,12.839],[4.3298,12.848],[4.341,12.8614],[4.359,12.8749],[4.3635,12.8772],[4.3657,12.8772],[4.3725,12.8839],[4.3837,12.9019],[4.4062,12.9311],[4.4219,12.9535],[4.4309,12.9692],[4.4354,12.9895],[4.4444,13.0097],[4.4511,13.0142],[4.4646,13.0254],[4.4713,13.0366],[4.478,13.0478],[4.4848,13.0591],[4.496,13.0658],[4.5027,13.0725],[4.5117,13.0793],[4.5252,13.0905],[4.5297,13.0972],[4.5521,13.1152],[4.5499,13.1197],[4.5409,13.1287],[4.5274,13.1399],[4.505,13.1422],[4.4668,13.1511],[4.4466,13.1556],[4.4264,13.1624],[4.3972,13.1646],[4.3792,13.1691],[4.3657,13.1736],[4.3545,13.1848],[4.3523,13.2006],[4.3455,13.214],[4.3343,13.2208],[4.3141,13.2297],[4.2984,13.2297],[4.2871,13.2297],[4.2759,13.2432],[4.2669,13.25],[4.2535,13.2612],[4.2332,13.2702],[4.213,13.2679],[4.2018,13.2589],[4.1838,13.2522],[4.1659,13.2522],[4.1524,13.2522],[4.1344,13.2612],[4.1344,13.2522],[4.1344,13.25],[4.1344,13.2432],[4.1344,13.2365],[4.1344,13.2275],[4.1344,13.2253],[4.1344,13.2185],[4.1344,13.2095],[4.1344,13.2006],[4.1344,13.1916],[4.1344,13.1826],[4.1344,13.1736],[4.1344,13.1646],[4.1299,13.1444],[4.1299,13.1354],[4.1277,13.1287],[4.1255,13.1197],[4.1232,13.1107],[4.1232,13.104],[4.121,13.095],[4.1187,13.0883],[4.1187,13.0815],[4.1165,13.0725],[4.1165,13.0658],[4.1142,13.0546],[4.103,12.9984],[4.0985,12.985],[4.094,12.976],[4.0895,12.9715],[4.085,12.967],[4.0828,12.9625],[4.0738,12.949],[4.0671,12.9423],[4.0626,12.9356],[4.0603,12.9288],[4.0558,12.9243],[4.0536,12.9176],[4.0513,12.9108],[4.0491,12.9041],[4.0446,12.8951],[4.0334,12.8817],[4.0311,12.8772],[4.0244,12.8727],[4.0177,12.8682],[4.0132,12.8614],[4.0087,12.8547],[4.0019,12.8412],[3.984,12.8188],[3.9727,12.8031],[3.9683,12.7963],[3.9638,12.7896],[3.9615,12.7828],[3.957,12.7761],[3.9503,12.7671],[3.9413,12.7559],[3.9346,12.7469],[3.9323,12.7447],[3.9076,12.7245],[3.9009,12.72],[3.8964,12.7155],[3.8896,12.711],[3.8852,12.7065],[3.8784,12.702],[3.8717,12.6953],[3.8537,12.684],[3.8447,12.6773],[3.838,12.6728],[3.838,12.6706],[3.8335,12.6683],[3.829,12.6661],[3.8223,12.6616],[3.8155,12.6548],[3.8088,12.6503],[3.7976,12.6414],[3.7908,12.6369],[3.7863,12.6324],[3.7796,12.6279],[3.7751,12.6234],[3.7706,12.6189],[3.7639,12.6144],[3.7594,12.6099],[3.7527,12.6054],[3.7459,12.6009],[3.7414,12.5942],[3.7369,12.5897],[3.7324,12.5875],[3.7302,12.5852],[3.7235,12.5785],[3.7167,12.574],[3.6988,12.5583],[3.6853,12.547],[3.6785,12.5425],[3.6718,12.5358],[3.6651,12.5313],[3.6628,12.5268],[3.6583,12.5246],[3.6583,12.5201],[3.6583,12.5156],[3.6583,12.5021],[3.6583,12.4931],[3.6583,12.4864],[3.6561,12.4639],[3.6561,12.4572],[3.6561,12.4482],[3.6538,12.4392],[3.6538,12.4303],[3.6538,12.4235],[3.6538,12.41],[3.6538,12.4056],[3.6516,12.3966],[3.6516,12.3876],[3.6516,12.3809],[3.6516,12.3741],[3.6516,12.3696],[3.6516,12.3606],[3.6516,12.3539],[3.6494,12.3472],[3.6494,12.3382],[3.6494,12.3337],[3.6494,12.3292],[3.6494,12.318],[3.6516,12.3],[3.6516,12.2933],[3.6516,12.2843],[3.6516,12.2753],[3.6538,12.2686],[3.6561,12.2596],[3.6561,12.2551],[3.6583,12.2506],[3.6538,12.2394],[3.6516,12.2349],[3.6494,12.2304],[3.6449,12.2236],[3.6449,12.2169],[3.6426,12.2102],[3.6404,12.2034],[3.6404,12.1989],[3.6404,12.1832],[3.6404,12.1765],[3.6381,12.1698],[3.6381,12.1653],[3.6381,12.1608],[3.6381,12.154],[3.6381,12.145],[3.6381,12.1383],[3.6359,12.1293],[3.6381,12.1271]]]}},{"type":"Feature","properties":{"id":"kebbi/argungu","name":"Argungu","state":"Kebbi"},"geometry":{"type":"Polygon","coordinates":[[[4.1726,12.6571],[4.1883,12.6503],[4.1996,12.6414],[4.2041,12.6256],[4.2085,12.6054],[4.2108,12.583],[4.2153,12.574],[4.231,12.5605],[4.2422,12.5583],[4.2535,12.556],[4.2669,12.556],[4.2894,12.5538],[4.3006,12.5538],[4.3119,12.5538],[4.3321,12.5538],[4.3455,12.5515],[4.3613,12.5538],[4.3837,12.5538],[4.3972,12.5515],[4.4107,12.556],[4.4196,12.5628],[4.4376,12.5672],[4.4578,12.5762],[4.4735,12.5785],[4.4803,12.5785],[4.4825,12.583],[4.4915,12.5897],[4.5027,12.5964],[4.5207,12.5987],[4.5364,12.6009],[4.5454,12.6054],[4.5634,12.6167],[4.5769,12.6279],[4.5858,12.6324],[4.5948,12.6391],[4.6016,12.6414],[4.624,12.6526],[4.642,12.6616],[4.6757,12.6638],[4.7116,12.6728],[4.7363,12.6773],[4.743,12.6818],[4.7632,12.6885],[4.7722,12.6908],[4.7767,12.6908],[4.7767,12.6975],[4.7767,12.7042],[4.7835,12.7155],[4.7857,12.72],[4.7677,12.7267],[4.752,12.7289],[4.7341,12.7245],[4.7228,12.7245],[4.7206,12.7245],[4.7071,12.7267],[4.6891,12.7245],[4.6802,12.7245],[4.6667,12.7289],[4.642,12.7424],[4.6285,12.7469],[4.624,12.7536],[4.6173,12.7581],[4.5971,12.7649],[4.5836,12.7694],[4.5589,12.7716],[4.5454,12.7716],[4.5409,12.7784],[4.5387,12.7873],[4.5342,12.7963],[4.5274,12.8053],[4.5162,12.8188],[4.505,12.8255],[4.4915,12.8278],[4.4668,12.83],[4.4488,12.83],[4.4376,12.83],[4.4286,12.8278],[4.4107,12.8322],[4.4017,12.8367],[4.3949,12.8435],[4.386,12.8547],[4.377,12.8637],[4.3657,12.8727],[4.3635,12.8772],[4.359,12.8749],[4.341,12.8614],[4.3298,12.848],[4.3208,12.839],[4.3096,12.8165],[4.2984,12.8075],[4.2849,12.8031],[4.258,12.7963],[4.2535,12.7918],[4.2467,12.7896],[4.2377,12.7873],[4.2332,12.7784],[4.2288,12.7671],[4.2265,12.7581],[4.2153,12.7379],[4.2085,12.7289],[4.2041,12.7155],[4.1883,12.6908],[4.1749,12.6818],[4.1681,12.6795],[4.1591,12.6706],[4.1524,12.6638],[4.1726,12.6571]]]}},{"type":"Feature","properties":{"id":"kebbi/augie","name":"Augie","state":"Kebbi"},"geometry":{"type":"Polygon","coordinates":[[[4.3657,12.8727],[4.377,12.8637],[4.386,12.8547],[4.3949,12.8435],[4.4017,12.8367],[4.4107,12.8322],[4.4286,12.8278],[4.4376,12.83],[4.4488,12.83],[4.4668,12.83],[4.4915,12.8278],[4.505,12.8255],[4.5162,12.8188],[4.5274,12.8053],[4.5342,12.7963],[4.5387,12.7873],[4.5409,12.7784],[4.5454,12.7716],[4.5589,12.7716],[4.5836,12.7694],[4.5971,12.7649],[4.6173,12.7581],[4.624,12.7536],[4.6285,12.7469],[4.642,12.7424],[4.6667,12.7289],[4.6802,12.7245],[4.6891,12.7245],[4.7071,12.7267],[4.7206,12.7245],[4.7228,12.7245],[4.7341,12.7245],[4.752,12.7289],[4.7677,12.7267],[4.7857,12.72],[4.7924,12.7357],[4.8082,12.7492],[4.8104,12.7536],[4.8149,12.7581],[4.8171,12.7739],[4.8127,12.7873],[4.8014,12.8075],[4.7992,12.8098],[4.7969,12.8188],[4.7969,12.8255],[4.7969,12.8278],[4.7924,12.8367],[4.7902,12.8435],[4.7812,12.8502],[4.7745,12.857],[4.7677,12.857],[4.752,12.8637],[4.743,12.8704],[4.7296,12.8772],[4.7228,12.8794],[4.7161,12.8884],[4.7093,12.8929],[4.7004,12.9041],[4.6891,12.9243],[4.6779,12.94],[4.6622,12.9513],[4.6555,12.958],[4.6487,12.9692],[4.6375,12.985],[4.6397,12.9939],[4.6442,13.0029],[4.6555,13.0164],[4.6622,13.0231],[4.6689,13.0276],[4.6734,13.0321],[4.6779,13.0411],[4.6824,13.0501],[4.6846,13.0681],[4.6869,13.0838],[4.6891,13.095],[4.6914,13.1062],[4.6959,13.1175],[4.7071,13.1444],[4.7093,13.1556],[4.7026,13.1669],[4.6959,13.1691],[4.6846,13.1691],[4.6712,13.1669],[4.6622,13.1556],[4.6555,13.1467],[4.642,13.1242],[4.6307,13.0995],[4.6195,13.0928],[4.6016,13.095],[4.5791,13.104],[4.5701,13.1062],[4.5521,13.1152],[4.5297,13.0972],[4.5252,13.0905],[4.5117,13.0793],[4.5027,13.0725],[4.496,13.0658],[4.4848,13.0591],[4.478,13.0478],[4.4713,13.0366],[4.4646,13.0254],[4.4511,13.0142],[4.4444,13.0097],[4.4354,12.9895],[4.4309,12.9692],[4.4219,12.9535],[4.4062,12.9311],[4.3837,12.9019],[4.3725,12.8839],[4.3657,12.8772],[4.3635,12.8772],[4.3657,12.8727]]]}},{"type":"Feature","properties":{"id":"kebbi/bagudo","name":"Bagudo","state":"Kebbi"},"geometry":{"type":"Polygon","coordinates":[[[3.4764,11.4421],[3.4787,11.4376],[3.4809,11.4331],[3.4877,11.4264],[3.4922,11.4197],[3.4966,11.4107],[3.5011,11.4039],[3.5034,11.4039],[3.5034,11.4017],[3.5079,11.3972],[3.5124,11.3882],[3.5169,11.3815],[3.5236,11.3748],[3.5281,11.3658],[3.5326,11.359],[3.5371,11.3523],[3.5438,11.3433],[3.5483,11.3366],[3.5528,11.3298],[3.5595,11.3209],[3.564,11.3141],[3.5685,11.3074],[3.573,11.3006],[3.5797,11.2917],[3.5842,11.2849],[3.5887,11.2782],[3.5955,11.2692],[3.5999,11.2625],[3.6044,11.2557],[3.6089,11.2467],[3.6157,11.24],[3.6202,11.2333],[3.6246,11.2243],[3.6314,11.2175],[3.6359,11.2108],[3.6404,11.2018],[3.6449,11.1951],[3.6516,11.1884],[3.6561,11.1794],[3.6606,11.1726],[3.6673,11.1659],[3.6718,11.1569],[3.6763,11.1502],[3.6808,11.1434],[3.6875,11.1367],[3.6898,11.1322],[3.692,11.1277],[3.701,11.1277],[3.7077,11.1277],[3.7167,11.1277],[3.719,11.1277],[3.7212,11.1255],[3.7257,11.1255],[3.7257,11.1277],[3.7527,11.1277],[3.7931,11.112],[3.8178,11.0985],[3.8358,11.0873],[3.8919,11.0536],[3.9368,11.0356],[3.993,11.0177],[4.0693,11.0222],[4.1007,11.0267],[4.1322,11.0244],[4.1681,11.0244],[4.1861,11.0334],[4.213,11.0312],[4.2265,11.0177],[4.231,11.0222],[4.2332,11.0334],[4.2332,11.0491],[4.2355,11.0581],[4.2467,11.0738],[4.2557,11.0783],[4.2624,11.0851],[4.2714,11.1075],[4.3029,11.1142],[4.3096,11.1232],[4.3163,11.1434],[4.3208,11.1524],[4.3276,11.1614],[4.3366,11.1749],[4.341,11.1839],[4.35,11.1928],[4.368,11.2063],[4.3792,11.2198],[4.3815,11.222],[4.3635,11.2265],[4.359,11.2265],[4.35,11.231],[4.3455,11.2355],[4.3366,11.2423],[4.3119,11.2423],[4.2939,11.249],[4.2827,11.2557],[4.2647,11.267],[4.2445,11.2737],[4.2265,11.2759],[4.222,11.2804],[4.2288,11.2894],[4.2445,11.3029],[4.2557,11.3141],[4.2737,11.3253],[4.2871,11.3321],[4.2939,11.3366],[4.3029,11.3568],[4.3141,11.377],[4.3208,11.3815],[4.3321,11.395],[4.3343,11.4039],[4.3388,11.4107],[4.35,11.4242],[4.3568,11.4421],[4.3523,11.4578],[4.35,11.4691],[4.3478,11.4736],[4.3321,11.487],[4.3208,11.4893],[4.3163,11.496],[4.3163,11.5073],[4.3074,11.5162],[4.2984,11.5207],[4.2871,11.5252],[4.249,11.5252],[4.2332,11.5297],[4.2288,11.532],[4.2198,11.5409],[4.2175,11.5454],[4.2198,11.5499],[4.2153,11.5589],[4.2085,11.5656],[4.2063,11.5679],[4.1996,11.5791],[4.1973,11.5903],[4.1928,11.6083],[4.1838,11.6083],[4.1749,11.615],[4.1771,11.6218],[4.1659,11.6375],[4.1681,11.642],[4.1614,11.651],[4.1479,11.6555],[4.1389,11.6555],[4.1232,11.6532],[4.1052,11.6442],[4.1007,11.6353],[4.0918,11.6218],[4.0873,11.6195],[4.0805,11.6083],[4.0738,11.5993],[4.0626,11.5859],[4.0603,11.5791],[4.0558,11.5769],[4.0469,11.5769],[4.0334,11.5769],[4.0289,11.5791],[4.0199,11.5881],[4.0132,11.5926],[3.9997,11.5926],[3.9862,11.5926],[3.9705,11.5814],[3.9638,11.5701],[3.9638,11.5612],[3.9615,11.5544],[3.9548,11.5387],[3.9525,11.532],[3.9548,11.5207],[3.9458,11.514],[3.9391,11.5095],[3.9211,11.5073],[3.9076,11.514],[3.8986,11.5207],[3.8784,11.5364],[3.8649,11.5454],[3.856,11.5544],[3.847,11.5612],[3.8358,11.5701],[3.8178,11.5701],[3.811,11.5791],[3.8043,11.5836],[3.7908,11.5881],[3.7706,11.5903],[3.7571,11.5926],[3.728,11.5993],[3.7055,11.6038],[3.6943,11.6106],[3.6808,11.6195],[3.6606,11.6285],[3.6471,11.6398],[3.6426,11.651],[3.6359,11.6577],[3.6269,11.6577],[3.6179,11.6622],[3.6157,11.6712],[3.6179,11.6757],[3.6202,11.6824],[3.6202,11.6914],[3.6134,11.6959],[3.6089,11.7004],[3.6067,11.6981],[3.5887,11.7116],[3.5932,11.7049],[3.5955,11.6981],[3.5999,11.6914],[3.5955,11.6847],[3.591,11.6757],[3.5865,11.6667],[3.5797,11.66],[3.5752,11.6532],[3.5685,11.6465],[3.564,11.6398],[3.5573,11.6308],[3.555,11.624],[3.5505,11.615],[3.546,11.6083],[3.5438,11.5993],[3.5393,11.5926],[3.5348,11.5836],[3.5326,11.5769],[3.5281,11.5679],[3.5236,11.5612],[3.5191,11.5522],[3.5169,11.5432],[3.5124,11.5364],[3.5079,11.5275],[3.5056,11.5207],[3.5011,11.5117],[3.4989,11.5095],[3.4966,11.505],[3.4944,11.496],[3.4899,11.4893],[3.4854,11.4803],[3.4832,11.4736],[3.4787,11.4646],[3.4742,11.4556],[3.4719,11.4489],[3.4764,11.4421]]]}},{"type":"Feature","properties":{"id":"kebbi/birnin-kebbi","name":"Birnin Kebbi","state":"Kebbi"},"geometry":{"type":"Polygon","coordinates":[[[3.993,12.4909],[4.0019,12.4797],[4.0132,12.4527],[4.0177,12.4347],[4.0221,12.4258],[4.0536,12.4011],[4.0738,12.3921],[4.0918,12.3853],[4.1142,12.3831],[4.1299,12.3831],[4.1591,12.3831],[4.1771,12.3764],[4.1883,12.3696],[4.2041,12.3561],[4.2085,12.3404],[4.2198,12.3247],[4.231,12.3112],[4.2512,12.3],[4.2669,12.2933],[4.2692,12.2933],[4.2894,12.2978],[4.3074,12.3045],[4.3208,12.3067],[4.3298,12.3112],[4.3366,12.3247],[4.3478,12.3427],[4.35,12.3584],[4.3657,12.3831],[4.3792,12.3966],[4.3949,12.4056],[4.4084,12.4145],[4.4241,12.4145],[4.4399,12.4168],[4.4488,12.4213],[4.4668,12.419],[4.4758,12.4123],[4.4825,12.4033],[4.4893,12.3921],[4.496,12.3943],[4.5027,12.4011],[4.5072,12.4145],[4.5252,12.4303],[4.5409,12.437],[4.5499,12.437],[4.5769,12.4392],[4.5903,12.4505],[4.5926,12.4595],[4.5858,12.4684],[4.5701,12.4864],[4.5477,12.5021],[4.5454,12.5134],[4.5409,12.5381],[4.5319,12.556],[4.514,12.5672],[4.5005,12.574],[4.4803,12.5785],[4.4735,12.5785],[4.4578,12.5762],[4.4376,12.5672],[4.4196,12.5628],[4.4107,12.556],[4.3972,12.5515],[4.3837,12.5538],[4.3613,12.5538],[4.3455,12.5515],[4.3321,12.5538],[4.3119,12.5538],[4.3006,12.5538],[4.2894,12.5538],[4.2669,12.556],[4.2535,12.556],[4.2422,12.5583],[4.231,12.5605],[4.2153,12.574],[4.2108,12.583],[4.2085,12.6054],[4.2041,12.6256],[4.1996,12.6414],[4.1883,12.6503],[4.1726,12.6571],[4.1524,12.6638],[4.1479,12.6616],[4.1367,12.6459],[4.1322,12.6256],[4.1299,12.6167],[4.121,12.6077],[4.1142,12.6009],[4.1097,12.592],[4.094,12.583],[4.0805,12.5762],[4.0716,12.5762],[4.0603,12.565],[4.0491,12.5515],[4.0379,12.5403],[4.0244,12.5358],[4.0087,12.5291],[4.0042,12.5246],[3.9974,12.5156],[3.9952,12.5089],[3.9907,12.4976],[3.9885,12.4954],[3.993,12.4909]]]}},{"type":"Feature","properties":{"id":"kebbi/bunza","name":"Bunza","state":"Kebbi"},"geometry":{"type":"Polygon","coordinates":[[[3.7504,12.1383],[3.7527,12.1271],[3.7706,12.1024],[3.7774,12.0979],[3.7886,12.0956],[3.7998,12.0889],[3.8155,12.0867],[3.829,12.0799],[3.8582,12.0732],[3.8807,12.0687],[3.8964,12.062],[3.9076,12.0417],[3.9099,12.0328],[3.9166,12.0103],[3.9211,11.9991],[3.9301,11.9923],[3.9391,11.9878],[3.9413,11.9923],[3.948,11.9991],[3.966,12.0036],[3.9727,12.0081],[3.9772,12.0148],[3.984,12.0238],[3.993,12.026],[4.0087,12.0305],[4.0221,12.0395],[4.0356,12.044],[4.0469,12.053],[4.0558,12.0575],[4.0738,12.0642],[4.0805,12.0664],[4.085,12.0732],[4.094,12.0732],[4.0985,12.0777],[4.0985,12.0822],[4.0985,12.0867],[4.0918,12.0934],[4.0918,12.1046],[4.0873,12.1159],[4.085,12.1248],[4.0873,12.1293],[4.0918,12.1361],[4.094,12.1473],[4.0828,12.1698],[4.0716,12.1855],[4.0648,12.1989],[4.0536,12.2124],[4.0446,12.2192],[4.0266,12.2236],[4.0154,12.2259],[4.0019,12.2304],[3.993,12.2416],[3.9817,12.2596],[3.9705,12.2798],[3.9638,12.2888],[3.9548,12.2955],[3.9323,12.3045],[3.9233,12.3045],[3.9121,12.3067],[3.9009,12.3067],[3.8784,12.309],[3.8649,12.3135],[3.8492,12.318],[3.8447,12.3157],[3.838,12.3135],[3.8223,12.3067],[3.7998,12.2933],[3.7908,12.2798],[3.7751,12.2551],[3.7616,12.2236],[3.7504,12.2012],[3.7527,12.1855],[3.7527,12.1653],[3.7482,12.1563],[3.7504,12.1563],[3.7482,12.1495],[3.7504,12.1383]]]}},{"type":"Feature","properties":{"id":"kebbi/dandi","name":"Dandi","state":"Kebbi"},"geometry":{"type":"Polygon","coordinates":[[[3.6134,11.6959],[3.6202,11.6914],[3.6202,11.6824],[3.6179,11.6757],[3.6157,11.6712],[3.6179,11.6622],[3.6269,11.6577],[3.6359,11.6577],[3.6426,11.651],[3.6471,11.6398],[3.6606,11.6285],[3.6808,11.6195],[3.6943,11.6106],[3.7055,11.6038],[3.728,11.5993],[3.7571,11.5926],[3.7706,11.5903],[3.7908,11.5881],[3.8043,11.5836],[3.811,11.5791],[3.8133,11.5814],[3.8178,11.5859],[3.8268,11.5903],[3.8425,11.5903],[3.8582,11.5903],[3.8672,11.5926],[3.8762,11.5881],[3.8964,11.5926],[3.9099,11.6016],[3.9233,11.6016],[3.9368,11.6061],[3.9548,11.6083],[3.9615,11.615],[3.9795,11.6195],[3.9907,11.6308],[3.9974,11.6465],[4.0019,11.6555],[4.0064,11.6712],[4.0042,11.6824],[4.0064,11.7004],[4.0064,11.7094],[4.0109,11.7161],[4.0132,11.7228],[4.0132,11.7318],[4.0109,11.7588],[4.0064,11.7745],[3.9974,11.7947],[3.9907,11.8127],[3.9862,11.8284],[3.9817,11.8531],[3.9772,11.8688],[3.9727,11.8845],[3.9615,11.9025],[3.9593,11.9137],[3.9593,11.9205],[3.957,11.9317],[3.9548,11.9429],[3.9503,11.9542],[3.9458,11.9789],[3.9391,11.9878],[3.9301,11.9923],[3.9211,11.9991],[3.9166,12.0103],[3.9099,12.0328],[3.9076,12.0417],[3.8964,12.062],[3.8807,12.0687],[3.8582,12.0732],[3.829,12.0799],[3.8155,12.0867],[3.7998,12.0889],[3.7886,12.0956],[3.7774,12.0979],[3.7706,12.1024],[3.7527,12.1271],[3.7504,12.1383],[3.7482,12.1495],[3.7504,12.1563],[3.7482,12.1563],[3.7347,12.154],[3.7212,12.1495],[3.71,12.1473],[3.7077,12.1428],[3.7033,12.1383],[3.6875,12.1293],[3.6696,12.1248],[3.6516,12.1136],[3.6426,12.1091],[3.6449,12.1024],[3.6471,12.0934],[3.6494,12.0867],[3.6516,12.0799],[3.6538,12.0709],[3.6561,12.0642],[3.6583,12.0552],[3.6606,12.0507],[3.6651,12.0373],[3.6673,12.0305],[3.6696,12.0215],[3.6718,12.0125],[3.6741,12.0058],[3.6763,11.9991],[3.6741,11.9901],[3.6718,11.9811],[3.6673,11.9744],[3.6628,11.9676],[3.6561,11.9631],[3.6516,11.9586],[3.6471,11.9542],[3.6426,11.9474],[3.6359,11.9407],[3.6314,11.9362],[3.6246,11.9295],[3.6202,11.925],[3.6179,11.916],[3.6202,11.8688],[3.6224,11.8531],[3.6269,11.8396],[3.6336,11.8306],[3.6404,11.8284],[3.6449,11.8239],[3.6494,11.8217],[3.6561,11.8172],[3.6606,11.8149],[3.6651,11.8104],[3.6696,11.8059],[3.6718,11.7992],[3.6718,11.7947],[3.6741,11.7857],[3.6763,11.779],[3.6785,11.7723],[3.6785,11.7633],[3.6785,11.7588],[3.6741,11.7543],[3.6673,11.7498],[3.6606,11.7431],[3.6538,11.7386],[3.6494,11.7341],[3.6426,11.7296],[3.6381,11.7251],[3.6336,11.7206],[3.6269,11.7161],[3.6269,11.7139],[3.6224,11.7116],[3.6157,11.7071],[3.6112,11.7026],[3.6089,11.7004],[3.6134,11.6959]]]}},{"type":"Feature","properties":{"id":"kebbi/fakai","name":"Fakai","state":"Kebbi"},"geometry":{"type":"Polygon","coordinates":[[[4.4915,11.5724],[4.505,11.5522],[4.505,11.5454],[4.5117,11.5364],[4.5252,11.5342],[4.5409,11.532],[4.5499,11.5387],[4.5544,11.5409],[4.5679,11.5454],[4.5858,11.5432],[4.6038,11.5387],[4.6218,11.5252],[4.6307,11.5117],[4.6487,11.4983],[4.6734,11.4825],[4.6802,11.4713],[4.6869,11.4646],[4.6959,11.4556],[4.7004,11.4489],[4.7116,11.4376],[4.7251,11.4309],[4.7385,11.4264],[4.7498,11.4219],[4.7565,11.4197],[4.7588,11.4129],[4.761,11.4062],[4.7565,11.3995],[4.7565,11.3927],[4.761,11.386],[4.7722,11.3815],[4.779,11.3748],[4.7812,11.3635],[4.7767,11.3568],[4.761,11.3231],[4.761,11.3141],[4.7655,11.3051],[4.7835,11.3119],[4.8059,11.3209],[4.8194,11.3298],[4.8261,11.3366],[4.8374,11.3366],[4.8486,11.3433],[4.8643,11.35],[4.871,11.3523],[4.88,11.3613],[4.8913,11.3703],[4.9047,11.3725],[4.9182,11.3703],[4.9227,11.3635],[4.9294,11.3568],[4.9339,11.3545],[4.9429,11.3568],[4.9474,11.3635],[4.9519,11.3703],[4.9586,11.3703],[4.9654,11.3613],[4.9699,11.3523],[4.9721,11.3478],[4.9721,11.3388],[4.9766,11.3298],[4.9811,11.3186],[4.9856,11.3051],[4.9878,11.2917],[4.9901,11.2872],[5.0013,11.2827],[5.008,11.2804],[5.0103,11.2737],[5.0103,11.2714],[5.008,11.267],[5.0058,11.2625],[5.0058,11.258],[5.0125,11.2512],[5.017,11.2512],[5.026,11.2557],[5.0327,11.2602],[5.035,11.2647],[5.0417,11.2714],[5.0462,11.2737],[5.053,11.2737],[5.0574,11.2714],[5.0619,11.2625],[5.0642,11.2535],[5.0619,11.2445],[5.053,11.231],[5.0485,11.2288],[5.0485,11.2198],[5.0485,11.2108],[5.053,11.2063],[5.0574,11.2041],[5.0619,11.2086],[5.0664,11.2175],[5.0709,11.2265],[5.0709,11.231],[5.0709,11.2378],[5.0799,11.2557],[5.0889,11.2647],[5.1001,11.2804],[5.1068,11.3006],[5.1068,11.3141],[5.1046,11.3231],[5.1024,11.3298],[5.1001,11.3388],[5.1001,11.3456],[5.1046,11.3523],[5.1181,11.3545],[5.1338,11.3523],[5.1405,11.3523],[5.1518,11.3478],[5.154,11.3456],[5.1563,11.368],[5.154,11.3995],[5.1563,11.4107],[5.1675,11.4197],[5.1742,11.4399],[5.1697,11.4444],[5.1675,11.4646],[5.1697,11.4713],[5.1742,11.4781],[5.1832,11.4825],[5.1877,11.4915],[5.1877,11.5028],[5.1787,11.5162],[5.1607,11.532],[5.1473,11.5409],[5.1338,11.5454],[5.1203,11.5544],[5.1113,11.5567],[5.1046,11.5656],[5.0934,11.5769],[5.0866,11.5903],[5.0799,11.6038],[5.0754,11.6128],[5.0664,11.6263],[5.0597,11.6442],[5.0574,11.66],[5.0552,11.6779],[5.0552,11.7004],[5.0485,11.7094],[5.0462,11.7116],[5.0372,11.7139],[5.0327,11.7139],[5.0238,11.7184],[5.0215,11.7206],[5.0103,11.7341],[5.0035,11.7386],[4.9923,11.7408],[4.9766,11.7408],[4.9699,11.7363],[4.9586,11.7341],[4.9429,11.7341],[4.9429,11.7318],[4.9407,11.7251],[4.9317,11.7206],[4.9249,11.7206],[4.9115,11.7206],[4.9047,11.7139],[4.8935,11.7116],[4.889,11.7184],[4.8868,11.7251],[4.8755,11.7296],[4.8666,11.7273],[4.8598,11.7206],[4.8508,11.7139],[4.8396,11.7116],[4.8329,11.7161],[4.8239,11.7228],[4.8059,11.7273],[4.7947,11.7251],[4.788,11.7116],[4.7857,11.7026],[4.7835,11.6981],[4.779,11.6937],[4.77,11.6914],[4.7655,11.6892],[4.7588,11.6802],[4.7543,11.6757],[4.7498,11.6734],[4.7385,11.6757],[4.7273,11.6757],[4.7138,11.6689],[4.7004,11.66],[4.6891,11.6577],[4.6779,11.6577],[4.6689,11.6645],[4.6577,11.6689],[4.6442,11.6712],[4.6397,11.6712],[4.6285,11.6667],[4.6218,11.6577],[4.6128,11.6555],[4.606,11.6555],[4.5903,11.66],[4.5836,11.6622],[4.5769,11.66],[4.5589,11.6465],[4.5477,11.633],[4.5432,11.6195],[4.5319,11.6083],[4.5185,11.5993],[4.505,11.5859],[4.4982,11.5814],[4.487,11.5836],[4.4915,11.5724]]]}},{"type":"Feature","properties":{"id":"kebbi/gwandu","name":"Gwandu","state":"Kebbi"},"geometry":{"type":"Polygon","coordinates":[[[4.5005,12.574],[4.514,12.5672],[4.5319,12.556],[4.5409,12.5381],[4.5454,12.5134],[4.5477,12.5021],[4.5701,12.4864],[4.5858,12.4684],[4.5926,12.4595],[4.5903,12.4505],[4.5769,12.4392],[4.5499,12.437],[4.5409,12.437],[4.5252,12.4303],[4.5072,12.4145],[4.5027,12.4011],[4.496,12.3943],[4.4893,12.3921],[4.487,12.3876],[4.487,12.3786],[4.4848,12.3629],[4.487,12.3494],[4.496,12.327],[4.5005,12.3135],[4.5252,12.2865],[4.5319,12.2933],[4.5409,12.3067],[4.5611,12.3202],[4.5724,12.3225],[4.5993,12.3427],[4.606,12.3584],[4.6083,12.3651],[4.6083,12.3831],[4.6105,12.4011],[4.6128,12.4213],[4.6173,12.4347],[4.624,12.446],[4.6442,12.4482],[4.6667,12.4437],[4.6779,12.4325],[4.6891,12.4213],[4.6959,12.4168],[4.7116,12.4078],[4.7161,12.3943],[4.7183,12.3606],[4.7206,12.3449],[4.7251,12.3247],[4.7363,12.3157],[4.752,12.3112],[4.7767,12.3292],[4.7835,12.3517],[4.7812,12.3831],[4.7812,12.4011],[4.7835,12.4145],[4.7947,12.4347],[4.8104,12.4415],[4.8261,12.455],[4.8374,12.4662],[4.8508,12.4797],[4.8598,12.4999],[4.8688,12.5156],[4.871,12.5336],[4.8688,12.5425],[4.8643,12.547],[4.8576,12.5538],[4.8396,12.5695],[4.8284,12.5785],[4.8149,12.5875],[4.8014,12.5987],[4.788,12.6211],[4.779,12.6391],[4.7767,12.6773],[4.7767,12.6908],[4.7722,12.6908],[4.7632,12.6885],[4.743,12.6818],[4.7363,12.6773],[4.7116,12.6728],[4.6757,12.6638],[4.642,12.6616],[4.624,12.6526],[4.6016,12.6414],[4.5948,12.6391],[4.5858,12.6324],[4.5769,12.6279],[4.5634,12.6167],[4.5454,12.6054],[4.5364,12.6009],[4.5207,12.5987],[4.5027,12.5964],[4.4915,12.5897],[4.4825,12.583],[4.4803,12.5785],[4.5005,12.574]]]}},{"type":"Feature","properties":{"id":"kebbi/jega","name":"Jega","state":"Kebbi"},"geometry":{"type":"Polygon","coordinates":[[[4.2759,12.2551],[4.2827,12.2349],[4.2871,12.2169],[4.2916,12.2057],[4.3096,12.1787],[4.3208,12.163],[4.3298,12.145],[4.3343,12.1248],[4.3321,12.1181],[4.3343,12.1203],[4.3366,12.1114],[4.341,12.0979],[4.3478,12.0844],[4.359,12.0732],[4.3635,12.062],[4.3657,12.0485],[4.3613,12.0373],[4.35,12.0305],[4.341,12.026],[4.3366,12.0193],[4.341,11.9968],[4.3455,11.9811],[4.35,11.9721],[4.3568,11.9609],[4.359,11.9497],[4.3657,11.9384],[4.3792,11.9272],[4.3972,11.9227],[4.4152,11.9182],[4.4286,11.916],[4.4399,11.9092],[4.4533,11.9025],[4.4668,11.898],[4.4803,11.8935],[4.4915,11.8868],[4.5005,11.88],[4.505,11.8778],[4.523,11.8688],[4.5319,11.8666],[4.5342,11.8643],[4.5409,11.8756],[4.5566,11.898],[4.5611,11.9295],[4.5611,11.9586],[4.5611,11.9789],[4.5611,11.9923],[4.5566,12.0238],[4.5566,12.0283],[4.5544,12.0597],[4.5521,12.0844],[4.5521,12.1024],[4.5521,12.1114],[4.5499,12.1271],[4.5432,12.145],[4.5387,12.1608],[4.5319,12.1945],[4.5162,12.1989],[4.496,12.2079],[4.487,12.2147],[4.4735,12.2192],[4.4511,12.2236],[4.4376,12.2236],[4.4264,12.2281],[4.4039,12.2349],[4.3815,12.2416],[4.3545,12.2484],[4.3455,12.2573],[4.3366,12.2775],[4.3321,12.2933],[4.3298,12.309],[4.3298,12.3112],[4.3208,12.3067],[4.3074,12.3045],[4.2894,12.2978],[4.2692,12.2933],[4.2669,12.2933],[4.2669,12.2798],[4.2759,12.2551]]]}},{"type":"Feature","properties":{"id":"kebbi/kalgo","name":"Kalgo","state":"Kebbi"},"geometry":{"type":"Polygon","coordinates":[[[3.847,12.3719],[3.856,12.3606],[3.8605,12.3494],[3.8605,12.3382],[3.856,12.327],[3.8492,12.318],[3.8649,12.3135],[3.8784,12.309],[3.9009,12.3067],[3.9121,12.3067],[3.9233,12.3045],[3.9323,12.3045],[3.9548,12.2955],[3.9638,12.2888],[3.9705,12.2798],[3.9817,12.2596],[3.993,12.2416],[4.0019,12.2304],[4.0154,12.2259],[4.0266,12.2236],[4.0446,12.2192],[4.0536,12.2124],[4.0648,12.1989],[4.0716,12.1855],[4.0828,12.1698],[4.094,12.1473],[4.0918,12.1361],[4.0873,12.1293],[4.085,12.1248],[4.0873,12.1159],[4.0918,12.1046],[4.0918,12.0934],[4.0985,12.0867],[4.0985,12.0822],[4.103,12.0799],[4.1232,12.0664],[4.1389,12.0597],[4.1614,12.0552],[4.1704,12.0507],[4.1861,12.0575],[4.2041,12.062],[4.24,12.0709],[4.258,12.0799],[4.2759,12.0867],[4.3006,12.0956],[4.3321,12.1181],[4.3343,12.1248],[4.3298,12.145],[4.3208,12.163],[4.3096,12.1787],[4.2916,12.2057],[4.2871,12.2169],[4.2827,12.2349],[4.2759,12.2551],[4.2669,12.2798],[4.2669,12.2933],[4.2512,12.3],[4.231,12.3112],[4.2198,12.3247],[4.2085,12.3404],[4.2041,12.3561],[4.1883,12.3696],[4.1771,12.3764],[4.1591,12.3831],[4.1299,12.3831],[4.1142,12.3831],[4.0918,12.3853],[4.0738,12.3921],[4.0536,12.4011],[4.0221,12.4258],[4.0177,12.4347],[4.0132,12.4527],[4.0019,12.4797],[3.993,12.4909],[3.9885,12.4954],[3.9885,12.4909],[3.9727,12.4729],[3.9683,12.455],[3.9593,12.4482],[3.9435,12.4347],[3.9368,12.4258],[3.9144,12.41],[3.9076,12.4056],[3.8964,12.4056],[3.8829,12.41],[3.8762,12.4145],[3.8627,12.4145],[3.8537,12.41],[3.8447,12.3966],[3.8447,12.3831],[3.847,12.3719]]]}},{"type":"Feature","properties":{"id":"kebbi/koko-besse","name":"Koko/Besse","state":"Kebbi"},"geometry":{"type":"Polygon","coordinates":[[[4.1771,11.6218],[4.1749,11.615],[4.1838,11.6083],[4.1928,11.6083],[4.1973,11.5903],[4.1996,11.5791],[4.2063,11.5679],[4.2085,11.5656],[4.2153,11.5589],[4.2198,11.5499],[4.2175,11.5454],[4.2198,11.5409],[4.2288,11.532],[4.2332,11.5297],[4.249,11.5252],[4.2871,11.5252],[4.2984,11.5207],[4.3074,11.5162],[4.3163,11.5073],[4.3163,11.496],[4.3208,11.4893],[4.3321,11.487],[4.3478,11.4736],[4.35,11.4691],[4.3523,11.4578],[4.3568,11.4421],[4.35,11.4242],[4.3388,11.4107],[4.3343,11.4039],[4.3321,11.395],[4.3208,11.3815],[4.3141,11.377],[4.3029,11.3568],[4.2939,11.3366],[4.2871,11.3321],[4.2737,11.3253],[4.2557,11.3141],[4.2445,11.3029],[4.2288,11.2894],[4.222,11.2804],[4.2265,11.2759],[4.2445,11.2737],[4.2647,11.267],[4.2827,11.2557],[4.2939,11.249],[4.3119,11.2423],[4.3366,11.2423],[4.3455,11.2355],[4.35,11.231],[4.359,11.2265],[4.3635,11.2265],[4.3815,11.222],[4.386,11.2153],[4.3905,11.2108],[4.3994,11.2063],[4.4129,11.2086],[4.4376,11.1973],[4.4601,11.1884],[4.4758,11.1839],[4.4893,11.1726],[4.4893,11.1839],[4.487,11.1996],[4.487,11.2086],[4.4825,11.2243],[4.4803,11.24],[4.478,11.2512],[4.4735,11.2647],[4.4691,11.2917],[4.4668,11.3029],[4.4713,11.3209],[4.478,11.3388],[4.4848,11.3613],[4.5005,11.377],[4.5185,11.3882],[4.5409,11.4039],[4.5454,11.4197],[4.5611,11.4444],[4.5566,11.4646],[4.5566,11.4893],[4.5566,11.5095],[4.5499,11.5297],[4.5499,11.5387],[4.5409,11.532],[4.5252,11.5342],[4.5117,11.5364],[4.505,11.5454],[4.505,11.5522],[4.4915,11.5724],[4.487,11.5836],[4.4713,11.5948],[4.4488,11.6195],[4.4354,11.6308],[4.4107,11.6555],[4.4017,11.6689],[4.3994,11.6757],[4.3994,11.6802],[4.3949,11.6802],[4.386,11.6824],[4.3747,11.6937],[4.3725,11.7026],[4.3613,11.7116],[4.3545,11.7116],[4.3433,11.7094],[4.341,11.7049],[4.3321,11.7004],[4.3298,11.7004],[4.3231,11.7049],[4.3163,11.7116],[4.3096,11.7161],[4.3029,11.7161],[4.2961,11.7116],[4.2849,11.7026],[4.2804,11.7026],[4.2714,11.7026],[4.2669,11.7004],[4.2647,11.6937],[4.2624,11.6869],[4.258,11.6802],[4.2557,11.6689],[4.2535,11.66],[4.2467,11.6645],[4.24,11.6645],[4.2377,11.6555],[4.2265,11.6577],[4.2153,11.6577],[4.213,11.6645],[4.213,11.6712],[4.2085,11.6712],[4.2041,11.6667],[4.1973,11.66],[4.1973,11.6555],[4.1973,11.6487],[4.1928,11.6465],[4.1816,11.642],[4.1726,11.642],[4.1681,11.642],[4.1659,11.6375],[4.1771,11.6218]]]}},{"type":"Feature","properties":{"id":"kebbi/maiyama","name":"Maiyama","state":"Kebbi"},"geometry":{"type":"Polygon","coordinates":[[[4.1861,12.0417],[4.1973,12.0193],[4.2018,11.9968],[4.2108,11.9878],[4.2198,11.9654],[4.2198,11.9429],[4.222,11.9272],[4.222,11.907],[4.2265,11.889],[4.2265,11.8711],[4.2265,11.8598],[4.2265,11.8419],[4.2288,11.8306],[4.2265,11.8217],[4.231,11.8104],[4.2288,11.797],[4.2265,11.77],[4.2243,11.7543],[4.2243,11.7363],[4.222,11.7228],[4.2243,11.7049],[4.2332,11.6892],[4.2355,11.6757],[4.24,11.6645],[4.2467,11.6645],[4.2535,11.66],[4.2557,11.6689],[4.258,11.6802],[4.2624,11.6869],[4.2647,11.6937],[4.2669,11.7004],[4.2714,11.7026],[4.2804,11.7026],[4.2849,11.7026],[4.2961,11.7116],[4.3029,11.7161],[4.3096,11.7161],[4.3163,11.7116],[4.3231,11.7049],[4.3298,11.7004],[4.3321,11.7004],[4.341,11.7049],[4.3433,11.7094],[4.3545,11.7116],[4.3613,11.7116],[4.3725,11.7026],[4.3747,11.6937],[4.386,11.6824],[4.3949,11.6802],[4.3994,11.6802],[4.3994,11.6847],[4.4062,11.6959],[4.4219,11.7071],[4.4331,11.7206],[4.4578,11.7386],[4.4758,11.7453],[4.4938,11.7588],[4.5027,11.7678],[4.5207,11.7767],[4.5319,11.7925],[4.5364,11.8037],[4.5387,11.8172],[4.5387,11.8239],[4.5364,11.8621],[4.5342,11.8643],[4.5319,11.8666],[4.523,11.8688],[4.505,11.8778],[4.5005,11.88],[4.4915,11.8868],[4.4803,11.8935],[4.4668,11.898],[4.4533,11.9025],[4.4399,11.9092],[4.4286,11.916],[4.4152,11.9182],[4.3972,11.9227],[4.3792,11.9272],[4.3657,11.9384],[4.359,11.9497],[4.3568,11.9609],[4.35,11.9721],[4.3455,11.9811],[4.341,11.9968],[4.3366,12.0193],[4.341,12.026],[4.35,12.0305],[4.3613,12.0373],[4.3657,12.0485],[4.3635,12.062],[4.359,12.0732],[4.3478,12.0844],[4.341,12.0979],[4.3366,12.1114],[4.3343,12.1203],[4.3321,12.1181],[4.3006,12.0956],[4.2759,12.0867],[4.258,12.0799],[4.24,12.0709],[4.2041,12.062],[4.1861,12.0575],[4.1726,12.0507],[4.1861,12.0417]]]}},{"type":"Feature","properties":{"id":"kebbi/ngaski","name":"Ngaski","state":"Kebbi"},"geometry":{"type":"Polygon","coordinates":[[[4.487,10.3687],[4.4848,10.3417],[4.4825,10.3282],[4.4915,10.3148],[4.5185,10.299],[4.5409,10.2878],[4.5589,10.2676],[4.5656,10.2564],[4.5679,10.2451],[4.5679,10.2227],[4.5521,10.1957],[4.5274,10.1441],[4.5274,10.1149],[4.5387,10.1171],[4.5791,10.1328],[4.6105,10.1351],[4.6352,10.1284],[4.6442,10.1216],[4.6689,10.1126],[4.6891,10.1149],[4.7004,10.1194],[4.7116,10.1306],[4.7138,10.1576],[4.7138,10.162],[4.7049,10.1733],[4.6936,10.18],[4.6779,10.198],[4.6712,10.2115],[4.6689,10.2272],[4.6779,10.2294],[4.6959,10.2406],[4.7049,10.2519],[4.7026,10.2721],[4.7026,10.2945],[4.7049,10.3013],[4.7138,10.3103],[4.7318,10.3148],[4.7498,10.3058],[4.7767,10.2945],[4.8037,10.2968],[4.8149,10.3058],[4.8284,10.3148],[4.8351,10.3327],[4.8396,10.3664],[4.8441,10.3889],[4.8463,10.4203],[4.8531,10.445],[4.8531,10.4607],[4.8441,10.4787],[4.8329,10.4877],[4.8261,10.4944],[4.8194,10.5079],[4.8194,10.5214],[4.8194,10.5371],[4.8216,10.5595],[4.8284,10.5708],[4.8239,10.5955],[4.8149,10.6045],[4.8014,10.6134],[4.7969,10.6292],[4.8037,10.6516],[4.8127,10.6628],[4.8149,10.6741],[4.8059,10.692],[4.8104,10.6988],[4.8149,10.7055],[4.8306,10.7033],[4.8374,10.701],[4.8441,10.6988],[4.8463,10.7055],[4.8621,10.7078],[4.8688,10.701],[4.8823,10.7033],[4.8913,10.701],[4.8935,10.6943],[4.9092,10.6876],[4.916,10.6876],[4.9227,10.6943],[4.9317,10.6876],[4.9407,10.6876],[4.9474,10.6943],[4.9474,10.701],[4.9564,10.7055],[4.9654,10.7078],[4.9743,10.71],[4.9766,10.7145],[4.9788,10.7167],[4.9946,10.719],[5.008,10.7212],[5.008,10.7347],[5.0125,10.7414],[5.0193,10.7459],[5.026,10.7482],[5.0305,10.7437],[5.0395,10.737],[5.0507,10.737],[5.0574,10.7392],[5.0642,10.7482],[5.0754,10.7482],[5.0799,10.7549],[5.0979,10.7617],[5.1001,10.7594],[5.1024,10.7729],[5.1068,10.7864],[5.1091,10.7953],[5.1001,10.8088],[5.0844,10.8178],[5.0597,10.8201],[5.0462,10.8245],[5.0395,10.8358],[5.0282,10.8582],[5.026,10.8717],[5.026,10.8897],[5.035,10.8987],[5.0552,10.9054],[5.0754,10.9144],[5.0821,10.9278],[5.0821,10.9503],[5.0687,10.9907],[5.0619,11.0132],[5.0462,11.0424],[5.0417,11.0514],[5.0103,11.0334],[4.9878,11.0199],[4.9496,10.9975],[4.9137,10.9683],[4.889,10.9503],[4.8733,10.9436],[4.8553,10.9368],[4.8418,10.9301],[4.8149,10.9256],[4.8082,10.9189],[4.8014,10.9009],[4.7947,10.8739],[4.7812,10.8582],[4.7588,10.8335],[4.7453,10.8201],[4.7453,10.7886],[4.7453,10.7684],[4.7385,10.7212],[4.7341,10.701],[4.7251,10.6943],[4.7116,10.6898],[4.7004,10.6943],[4.6981,10.6673],[4.6891,10.6426],[4.6622,10.6202],[4.6285,10.5932],[4.606,10.5753],[4.5858,10.564],[4.5477,10.5506],[4.5252,10.5416],[4.5095,10.5348],[4.4982,10.5169],[4.4848,10.4697],[4.4803,10.4203],[4.487,10.3687]]]}},{"type":"Feature","properties":{"id":"kebbi/sakaba","name":"Sakaba","state":"Kebbi"},"geometry":{"type":"Polygon","coordinates":[[[5.3337,11.3568],[5.3359,11.3478],[5.3359,11.3411],[5.3382,11.3321],[5.3382,11.3276],[5.3449,11.3164],[5.3516,11.2962],[5.3539,11.2759],[5.3539,11.2714],[5.3539,11.258],[5.3561,11.249],[5.3584,11.2333],[5.3584,11.2265],[5.3696,11.2063],[5.3741,11.1928],[5.3808,11.1861],[5.3943,11.1794],[5.4078,11.1704],[5.4213,11.1659],[5.428,11.1592],[5.4415,11.1389],[5.4437,11.1255],[5.4415,11.1053],[5.4392,11.0963],[5.4325,11.0761],[5.4302,11.0603],[5.428,11.0401],[5.4302,11.0199],[5.4302,11.0177],[5.437,11.0064],[5.4392,10.9975],[5.4415,10.9862],[5.4437,10.9728],[5.4527,10.957],[5.4594,10.9526],[5.4662,10.9548],[5.4729,10.957],[5.4931,10.9593],[5.5156,10.9615],[5.5268,10.9615],[5.5335,10.9615],[5.5627,10.9638],[5.574,10.966],[5.5897,10.9638],[5.6099,10.966],[5.6234,10.9615],[5.6368,10.9615],[5.6571,10.966],[5.6638,10.9728],[5.6795,10.975],[5.6907,10.9817],[5.7042,10.9907],[5.7222,10.9952],[5.7424,11.0042],[5.7559,11.0177],[5.7649,11.0289],[5.7806,11.0356],[5.7963,11.0446],[5.8053,11.0446],[5.8075,11.0469],[5.803,11.0491],[5.7963,11.0536],[5.7828,11.0536],[5.7693,11.0559],[5.7626,11.0581],[5.7604,11.0693],[5.7581,11.0828],[5.7581,11.0918],[5.7559,11.0963],[5.7491,11.1075],[5.7379,11.1142],[5.7312,11.1142],[5.7177,11.1142],[5.7065,11.1098],[5.702,11.1142],[5.6997,11.121],[5.6997,11.13],[5.702,11.1389],[5.7042,11.1434],[5.7087,11.1502],[5.711,11.1614],[5.711,11.1726],[5.711,11.1928],[5.7042,11.2063],[5.6975,11.2175],[5.6907,11.2243],[5.6818,11.2243],[5.6728,11.2243],[5.6548,11.222],[5.6279,11.2288],[5.6166,11.231],[5.5942,11.2467],[5.5717,11.2557],[5.556,11.267],[5.5268,11.2849],[5.5043,11.2962],[5.4707,11.3119],[5.4482,11.3253],[5.428,11.3366],[5.41,11.3545],[5.4055,11.3635],[5.3943,11.377],[5.3876,11.386],[5.3831,11.3972],[5.3786,11.4084],[5.3763,11.4107],[5.3696,11.4039],[5.3629,11.4017],[5.3516,11.395],[5.3449,11.386],[5.3427,11.3792],[5.3292,11.3635],[5.3337,11.3568]]]}},{"type":"Feature","properties":{"id":"kebbi/shanga","name":"Shanga","state":"Kebbi"},"geometry":{"type":"Polygon","coordinates":[[[4.4691,11.2917],[4.4735,11.2647],[4.478,11.2512],[4.4803,11.24],[4.4825,11.2243],[4.487,11.2086],[4.487,11.1996],[4.4893,11.1839],[4.4893,11.1726],[4.5117,11.1614],[4.5387,11.1434],[4.5724,11.1165],[4.5948,11.0851],[4.615,11.0648],[4.6442,11.0424],[4.6667,11.0289],[4.6824,11.0109],[4.7026,11.0087],[4.7273,11.0042],[4.7385,10.9952],[4.7588,10.984],[4.7767,10.975],[4.7969,10.9705],[4.8216,10.966],[4.8531,10.957],[4.8666,10.9503],[4.8733,10.9436],[4.889,10.9503],[4.9137,10.9683],[4.9496,10.9975],[4.9878,11.0199],[5.0103,11.0334],[5.0417,11.0514],[5.035,11.0514],[5.0215,11.0536],[5.0103,11.0514],[4.9968,11.0536],[4.9901,11.0603],[4.9923,11.0693],[4.9788,11.0806],[4.9609,11.0828],[4.9339,11.0851],[4.9092,11.0828],[4.898,11.0873],[4.8755,11.0918],[4.8643,11.1008],[4.8598,11.103],[4.8508,11.1075],[4.8396,11.1142],[4.8171,11.1187],[4.8149,11.1165],[4.8037,11.1142],[4.788,11.1187],[4.7857,11.1232],[4.779,11.1322],[4.7655,11.1367],[4.7565,11.1434],[4.7453,11.1479],[4.7206,11.1771],[4.7093,11.1794],[4.7026,11.1928],[4.7004,11.2041],[4.6981,11.222],[4.7026,11.2288],[4.7363,11.249],[4.752,11.2602],[4.7655,11.2759],[4.7655,11.2827],[4.7632,11.2939],[4.7677,11.3029],[4.7655,11.3051],[4.761,11.3141],[4.761,11.3231],[4.7767,11.3568],[4.7812,11.3635],[4.779,11.3748],[4.7722,11.3815],[4.761,11.386],[4.7565,11.3927],[4.7565,11.3995],[4.761,11.4062],[4.7588,11.4129],[4.7565,11.4197],[4.7498,11.4219],[4.7385,11.4264],[4.7251,11.4309],[4.7116,11.4376],[4.7004,11.4489],[4.6959,11.4556],[4.6869,11.4646],[4.6802,11.4713],[4.6734,11.4825],[4.6487,11.4983],[4.6307,11.5117],[4.6218,11.5252],[4.6038,11.5387],[4.5858,11.5432],[4.5679,11.5454],[4.5544,11.5409],[4.5499,11.5387],[4.5499,11.5297],[4.5566,11.5095],[4.5566,11.4893],[4.5566,11.4646],[4.5611,11.4444],[4.5454,11.4197],[4.5409,11.4039],[4.5185,11.3882],[4.5005,11.377],[4.4848,11.3613],[4.478,11.3388],[4.4713,11.3209],[4.4668,11.3029],[4.4691,11.2917]]]}},{"type":"Feature","properties":{"id":"kebbi/suru","name":"Suru","state":"Kebbi"},"geometry":{"type":"Polygon","coordinates":[[[3.8178,11.5701],[3.8358,11.5701],[3.847,11.5612],[3.856,11.5544],[3.8649,11.5454],[3.8784,11.5364],[3.8986,11.5207],[3.9076,11.514],[3.9211,11.5073],[3.9391,11.5095],[3.9458,11.514],[3.9548,11.5207],[3.9525,11.532],[3.9548,11.5387],[3.9615,11.5544],[3.9638,11.5612],[3.9638,11.5701],[3.9705,11.5814],[3.9862,11.5926],[3.9997,11.5926],[4.0132,11.5926],[4.0199,11.5881],[4.0289,11.5791],[4.0334,11.5769],[4.0469,11.5769],[4.0558,11.5769],[4.0603,11.5791],[4.0626,11.5859],[4.0738,11.5993],[4.0805,11.6083],[4.0873,11.6195],[4.0918,11.6218],[4.1007,11.6353],[4.1052,11.6442],[4.1232,11.6532],[4.1389,11.6555],[4.1479,11.6555],[4.1614,11.651],[4.1681,11.642],[4.1726,11.642],[4.1816,11.642],[4.1928,11.6465],[4.1973,11.6487],[4.1973,11.6555],[4.1973,11.66],[4.2041,11.6667],[4.2085,11.6712],[4.213,11.6712],[4.213,11.6645],[4.2153,11.6577],[4.2265,11.6577],[4.2377,11.6555],[4.24,11.6645],[4.2355,11.6757],[4.2332,11.6892],[4.2243,11.7049],[4.222,11.7228],[4.2243,11.7363],[4.2243,11.7543],[4.2265,11.77],[4.2288,11.797],[4.231,11.8104],[4.2265,11.8217],[4.2288,11.8306],[4.2265,11.8419],[4.2265,11.8598],[4.2265,11.8711],[4.2265,11.889],[4.222,11.907],[4.222,11.9272],[4.2198,11.9429],[4.2198,11.9654],[4.2108,11.9878],[4.2018,11.9968],[4.1973,12.0193],[4.1861,12.0417],[4.1726,12.0507],[4.1704,12.0507],[4.1614,12.0552],[4.1389,12.0597],[4.1232,12.0664],[4.103,12.0799],[4.0985,12.0822],[4.0985,12.0777],[4.094,12.0732],[4.085,12.0732],[4.0805,12.0664],[4.0738,12.0642],[4.0558,12.0575],[4.0469,12.053],[4.0356,12.044],[4.0221,12.0395],[4.0087,12.0305],[3.993,12.026],[3.984,12.0238],[3.9772,12.0148],[3.9727,12.0081],[3.966,12.0036],[3.948,11.9991],[3.9413,11.9923],[3.9391,11.9878],[3.9458,11.9789],[3.9503,11.9542],[3.9548,11.9429],[3.957,11.9317],[3.9593,11.9205],[3.9593,11.9137],[3.9615,11.9025],[3.9727,11.8845],[3.9772,11.8688],[3.9817,11.8531],[3.9862,11.8284],[3.9907,11.8127],[3.9974,11.7947],[4.0064,11.7745],[4.0109,11.7588],[4.0132,11.7318],[4.0132,11.7228],[4.0109,11.7161],[4.0064,11.7094],[4.0064,11.7004],[4.0042,11.6824],[4.0064,11.6712],[4.0019,11.6555],[3.9974,11.6465],[3.9907,11.6308],[3.9795,11.6195],[3.9615,11.615],[3.9548,11.6083],[3.9368,11.6061],[3.9233,11.6016],[3.9099,11.6016],[3.8964,11.5926],[3.8762,11.5881],[3.8672,11.5926],[3.8582,11.5903],[3.8425,11.5903],[3.8268,11.5903],[3.8178,11.5859],[3.8133,11.5814],[3.811,11.5791],[3.8178,11.5701]]]}},{"type":"Feature","properties":{"id":"kebbi/wasagu-danko","name":"Wasagu/Danko","state":"Kebbi"},"geometry":{"type":"MultiPolygon","coordinates":[[[[5.0552,11.7004],[5.0552,11.6779],[5.0574,11.66],[5.0597,11.6442],[5.0664,11.6263],[5.0754,11.6128],[5.0799,11.6038],[5.0866,11.5903],[5.0934,11.5769],[5.1046,11.5656],[5.1113,11.5567],[5.1203,11.5544],[5.1293,11.5567],[5.1495,11.5522],[5.1585,11.5477],[5.1854,11.5477],[5.1967,11.5477],[5.2146,11.5544],[5.2281,11.5522],[5.2371,11.5432],[5.2483,11.5342],[5.2708,11.5342],[5.291,11.5342],[5.3022,11.5364],[5.3292,11.5477],[5.3359,11.5612],[5.3449,11.5881],[5.3539,11.6061],[5.3606,11.6308],[5.3606,11.6487],[5.3651,11.66],[5.3651,11.6734],[5.3651,11.6802],[5.3696,11.6959],[5.3718,11.7049],[5.3629,11.7094],[5.3539,11.7049],[5.3449,11.7116],[5.3449,11.7206],[5.3404,11.7296],[5.3314,11.7386],[5.3314,11.7475],[5.3224,11.761],[5.3179,11.7655],[5.3112,11.77],[5.309,11.7767],[5.3067,11.7835],[5.3045,11.7835],[5.2977,11.7857],[5.291,11.7812],[5.2888,11.7745],[5.2798,11.77],[5.2596,11.77],[5.2349,11.77],[5.2304,11.761],[5.2259,11.7565],[5.2214,11.7543],[5.2102,11.761],[5.2057,11.77],[5.1832,11.7812],[5.172,11.7835],[5.1652,11.779],[5.163,11.7723],[5.1697,11.7633],[5.1742,11.7588],[5.1765,11.7498],[5.172,11.7408],[5.1652,11.7386],[5.1495,11.7341],[5.1383,11.7228],[5.1181,11.7206],[5.1001,11.7273],[5.0866,11.7251],[5.0754,11.7228],[5.0664,11.7161],[5.0619,11.7094],[5.0552,11.7071],[5.0485,11.7094],[5.0552,11.7004]]],[[[5.3718,11.4376],[5.3763,11.4174],[5.3763,11.4107],[5.3786,11.4084],[5.3831,11.3972],[5.3876,11.386],[5.3943,11.377],[5.4055,11.3635],[5.41,11.3545],[5.428,11.3366],[5.4482,11.3253],[5.4707,11.3119],[5.5043,11.2962],[5.5268,11.2849],[5.556,11.267],[5.5717,11.2557],[5.5942,11.2467],[5.6166,11.231],[5.6279,11.2288],[5.6548,11.222],[5.6728,11.2243],[5.6818,11.2243],[5.6907,11.2243],[5.6975,11.2175],[5.7042,11.2063],[5.711,11.1928],[5.711,11.1726],[5.711,11.1614],[5.7087,11.1502],[5.7042,11.1434],[5.702,11.1389],[5.6997,11.13],[5.6997,11.121],[5.702,11.1142],[5.7065,11.1098],[5.7177,11.1142],[5.7312,11.1142],[5.7379,11.1142],[5.7491,11.1075],[5.7559,11.0963],[5.7581,11.0918],[5.7581,11.0828],[5.7604,11.0693],[5.7626,11.0581],[5.7693,11.0559],[5.7828,11.0536],[5.7963,11.0536],[5.803,11.0491],[5.8075,11.0469],[5.821,11.0536],[5.8322,11.0559],[5.8457,11.0559],[5.8637,11.0581],[5.8749,11.0603],[5.8929,11.0626],[5.9108,11.0648],[5.9221,11.0716],[5.9265,11.0761],[5.9355,11.0895],[5.9445,11.1008],[5.9513,11.1075],[5.9602,11.1187],[5.9557,11.13],[5.9513,11.1524],[5.949,11.2018],[5.9445,11.2131],[5.9535,11.2333],[5.9647,11.2467],[5.9692,11.2602],[5.9625,11.2782],[5.9602,11.2872],[5.9557,11.2939],[5.949,11.3051],[5.9378,11.3096],[5.931,11.3209],[5.9378,11.3298],[5.949,11.3298],[5.9625,11.3298],[5.9804,11.3276],[5.9894,11.3209],[6.0119,11.3209],[6.0321,11.3231],[6.0478,11.3343],[6.0523,11.368],[6.0501,11.3927],[6.0433,11.4197],[6.0343,11.4466],[6.0186,11.4736],[6.0029,11.4915],[5.976,11.505],[5.9557,11.5207],[5.9355,11.5409],[5.9221,11.5544],[5.9063,11.5769],[5.8839,11.5993],[5.8771,11.6218],[5.8569,11.6398],[5.8322,11.6487],[5.8188,11.6487],[5.8075,11.6577],[5.7828,11.6757],[5.7649,11.6937],[5.7581,11.6869],[5.7581,11.6824],[5.7446,11.6802],[5.7379,11.6892],[5.7312,11.6937],[5.7244,11.6914],[5.7199,11.6847],[5.7065,11.6757],[5.693,11.6667],[5.6728,11.66],[5.6593,11.6689],[5.6458,11.6622],[5.6391,11.6622],[5.6166,11.6667],[5.6054,11.6689],[5.5942,11.6689],[5.5897,11.6712],[5.565,11.6824],[5.5605,11.6869],[5.556,11.6824],[5.556,11.6757],[5.5448,11.6734],[5.5425,11.6667],[5.5246,11.6622],[5.5111,11.6689],[5.5021,11.6689],[5.4864,11.6689],[5.4774,11.6689],[5.4707,11.6689],[5.4617,11.6667],[5.4639,11.6622],[5.4594,11.6532],[5.4482,11.6353],[5.437,11.6061],[5.428,11.5791],[5.4168,11.5679],[5.4055,11.5589],[5.3876,11.523],[5.3741,11.5073],[5.3696,11.4893],[5.3696,11.4691],[5.3718,11.4376]]]]}},{"type":"Feature","properties":{"id":"kebbi/yauri","name":"Yauri","state":"Kebbi"},"geometry":{"type":"Polygon","coordinates":[[[4.24,11.0064],[4.2557,10.9862],[4.2624,10.9817],[4.2782,10.9862],[4.2871,10.9795],[4.2849,10.9526],[4.2849,10.9368],[4.2871,10.9278],[4.3096,10.9211],[4.3186,10.9144],[4.341,10.9166],[4.3433,10.9121],[4.3478,10.9121],[4.3568,10.9099],[4.3702,10.9009],[4.3792,10.9009],[4.3972,10.8964],[4.4196,10.8942],[4.4421,10.8987],[4.4646,10.9009],[4.4713,10.9031],[4.4915,10.9099],[4.523,10.9166],[4.5409,10.9189],[4.5544,10.9144],[4.5679,10.9076],[4.5881,10.9054],[4.6016,10.9121],[4.6263,10.9144],[4.6375,10.9278],[4.6465,10.9413],[4.6577,10.9548],[4.6644,10.957],[4.6824,10.9526],[4.6891,10.9458],[4.6936,10.9346],[4.7071,10.9189],[4.7161,10.9166],[4.7318,10.8964],[4.743,10.8739],[4.7385,10.8515],[4.7206,10.8156],[4.7138,10.7706],[4.7071,10.7414],[4.7004,10.7055],[4.7004,10.6943],[4.7116,10.6898],[4.7251,10.6943],[4.7341,10.701],[4.7385,10.7212],[4.7453,10.7684],[4.7453,10.7886],[4.7453,10.8201],[4.7588,10.8335],[4.7812,10.8582],[4.7947,10.8739],[4.8014,10.9009],[4.8082,10.9189],[4.8149,10.9256],[4.8418,10.9301],[4.8553,10.9368],[4.8733,10.9436],[4.8666,10.9503],[4.8531,10.957],[4.8216,10.966],[4.7969,10.9705],[4.7767,10.975],[4.7588,10.984],[4.7385,10.9952],[4.7273,11.0042],[4.7026,11.0087],[4.6824,11.0109],[4.6667,11.0289],[4.6442,11.0424],[4.615,11.0648],[4.5948,11.0851],[4.5724,11.1165],[4.5387,11.1434],[4.5117,11.1614],[4.4893,11.1726],[4.4758,11.1839],[4.4601,11.1884],[4.4376,11.1973],[4.4129,11.2086],[4.3994,11.2063],[4.3905,11.2108],[4.386,11.2153],[4.3815,11.222],[4.3792,11.2198],[4.368,11.2063],[4.35,11.1928],[4.341,11.1839],[4.3366,11.1749],[4.3276,11.1614],[4.3208,11.1524],[4.3163,11.1434],[4.3096,11.1232],[4.3029,11.1142],[4.2714,11.1075],[4.2624,11.0851],[4.2557,11.0783],[4.2467,11.0738],[4.2355,11.0581],[4.2332,11.0491],[4.2332,11.0334],[4.231,11.0222],[4.2265,11.0177],[4.24,11.0064]]]}},{"type":"Feature","properties":{"id":"kebbi/zuru","name":"Zuru","state":"Kebbi"},"geometry":{"type":"Polygon","coordinates":[[[5.1338,11.5454],[5.1473,11.5409],[5.1607,11.532],[5.1787,11.5162],[5.1877,11.5028],[5.1877,11.4915],[5.1832,11.4825],[5.1742,11.4781],[5.1697,11.4713],[5.1675,11.4646],[5.1697,11.4444],[5.1742,11.4399],[5.1675,11.4197],[5.1563,11.4107],[5.154,11.3995],[5.1563,11.368],[5.154,11.3456],[5.163,11.3433],[5.1765,11.3411],[5.1854,11.3388],[5.2034,11.3298],[5.2102,11.3231],[5.2169,11.2984],[5.2169,11.2939],[5.2169,11.2894],[5.2169,11.2849],[5.2169,11.2804],[5.2169,11.2737],[5.2191,11.2692],[5.2214,11.2647],[5.2236,11.2625],[5.2281,11.2602],[5.2326,11.2602],[5.2371,11.2625],[5.2393,11.2714],[5.2393,11.2804],[5.2393,11.2894],[5.2326,11.2962],[5.2281,11.3096],[5.2259,11.3253],[5.2281,11.3321],[5.2393,11.3433],[5.2483,11.3456],[5.2596,11.3568],[5.2663,11.359],[5.2798,11.3635],[5.2955,11.368],[5.3067,11.368],[5.3179,11.368],[5.3292,11.3635],[5.3427,11.3792],[5.3449,11.386],[5.3516,11.395],[5.3629,11.4017],[5.3696,11.4039],[5.3763,11.4107],[5.3763,11.4174],[5.3718,11.4376],[5.3696,11.4691],[5.3696,11.4893],[5.3741,11.5073],[5.3876,11.523],[5.4055,11.5589],[5.4168,11.5679],[5.428,11.5791],[5.437,11.6061],[5.4482,11.6353],[5.4594,11.6532],[5.4639,11.6622],[5.4617,11.6667],[5.4572,11.6712],[5.4549,11.6802],[5.4504,11.6981],[5.4437,11.7026],[5.4302,11.7049],[5.4235,11.7026],[5.4078,11.7026],[5.3988,11.7049],[5.3898,11.7071],[5.3763,11.7094],[5.3718,11.7094],[5.3718,11.7049],[5.3696,11.6959],[5.3651,11.6802],[5.3651,11.6734],[5.3651,11.66],[5.3606,11.6487],[5.3606,11.6308],[5.3539,11.6061],[5.3449,11.5881],[5.3359,11.5612],[5.3292,11.5477],[5.3022,11.5364],[5.291,11.5342],[5.2708,11.5342],[5.2483,11.5342],[5.2371,11.5432],[5.2281,11.5522],[5.2146,11.5544],[5.1967,11.5477],[5.1854,11.5477],[5.1585,11.5477],[5.1495,11.5522],[5.1293,11.5567],[5.1203,11.5544],[5.1338,11.5454]]]}}]}