{"type":"FeatureCollection","features":[{"type":"Feature","properties":{"id":"kogi/adavi","name":"Adavi","state":"Kogi"},"geometry":{"type":"Polygon","coordinates":[[[6.1287,7.5682],[6.1309,7.5637],[6.1332,7.557],[6.1332,7.5525],[6.1489,7.557],[6.1736,7.5704],[6.1983,7.5772],[6.2163,7.5727],[6.2342,7.5637],[6.2477,7.5525],[6.2567,7.548],[6.2634,7.5457],[6.2746,7.5412],[6.2769,7.5345],[6.2836,7.53],[6.2904,7.53],[6.2949,7.5255],[6.2993,7.5143],[6.3196,7.5031],[6.3263,7.5008],[6.3398,7.5008],[6.3577,7.4986],[6.3667,7.4963],[6.3869,7.4986],[6.4004,7.5143],[6.4094,7.5278],[6.4094,7.5457],[6.4139,7.5682],[6.4229,7.5817],[6.4318,7.5929],[6.4341,7.6109],[6.4543,7.6266],[6.4925,7.6535],[6.506,7.6625],[6.5217,7.6715],[6.5374,7.6805],[6.5441,7.6872],[6.5599,7.6985],[6.5711,7.7029],[6.5801,7.7142],[6.5935,7.7254],[6.607,7.7276],[6.6182,7.7344],[6.6317,7.7456],[6.6407,7.7479],[6.6519,7.7568],[6.6654,7.7658],[6.6766,7.7726],[6.6879,7.7815],[6.7103,7.7838],[6.7103,7.786],[6.7036,7.7995],[6.6901,7.8152],[6.6789,7.8242],[6.6699,7.8332],[6.6609,7.8444],[6.6542,7.8489],[6.6362,7.8489],[6.616,7.8557],[6.6025,7.8601],[6.5846,7.8691],[6.5711,7.8691],[6.5688,7.8669],[6.5643,7.8489],[6.5621,7.8399],[6.5464,7.8242],[6.5396,7.813],[6.5262,7.7995],[6.5104,7.7838],[6.4992,7.7771],[6.4902,7.7703],[6.4835,7.7636],[6.4768,7.7613],[6.4678,7.7523],[6.4588,7.7434],[6.4476,7.7344],[6.4363,7.7321],[6.4251,7.7232],[6.4184,7.7142],[6.4071,7.7029],[6.3982,7.6985],[6.3914,7.6827],[6.3824,7.6715],[6.36,7.6446],[6.3443,7.6378],[6.3106,7.6311],[6.2993,7.6266],[6.2701,7.6154],[6.2499,7.6198],[6.2365,7.6243],[6.223,7.6221],[6.205,7.6176],[6.1893,7.6064],[6.1713,7.5974],[6.1309,7.5817],[6.1264,7.5749],[6.1287,7.5682]]]}},{"type":"Feature","properties":{"id":"kogi/ajaokuta","name":"Ajaokuta","state":"Kogi"},"geometry":{"type":"Polygon","coordinates":[[[6.4116,7.5255],[6.4184,7.5233],[6.4363,7.5053],[6.4476,7.4896],[6.4565,7.4851],[6.461,7.4806],[6.4678,7.4716],[6.4768,7.4537],[6.488,7.4357],[6.4902,7.4132],[6.4902,7.3975],[6.488,7.384],[6.4902,7.3728],[6.488,7.3571],[6.4857,7.3414],[6.4947,7.3346],[6.4992,7.3234],[6.4992,7.3054],[6.4992,7.292],[6.5015,7.2875],[6.5037,7.2852],[6.506,7.2807],[6.5082,7.2762],[6.5082,7.274],[6.5082,7.2695],[6.5104,7.2673],[6.5149,7.2673],[6.5262,7.2718],[6.5307,7.2718],[6.5441,7.274],[6.5554,7.274],[6.5688,7.2762],[6.6317,7.292],[6.6385,7.2942],[6.6699,7.2403],[6.6744,7.2336],[6.6856,7.2246],[6.6901,7.2201],[6.6946,7.2426],[6.6924,7.2583],[6.6901,7.2762],[6.6924,7.2942],[6.6991,7.3212],[6.7036,7.3481],[6.7081,7.3683],[6.7036,7.3953],[6.7036,7.4514],[6.7058,7.4739],[6.7081,7.4896],[6.7126,7.5121],[6.7103,7.539],[6.6991,7.5749],[6.6991,7.5907],[6.7103,7.6176],[6.7215,7.6378],[6.735,7.6513],[6.744,7.6715],[6.7485,7.6895],[6.753,7.7074],[6.7552,7.7299],[6.7507,7.7344],[6.7238,7.7591],[6.7171,7.7726],[6.7148,7.7815],[6.7103,7.786],[6.7103,7.7838],[6.6879,7.7815],[6.6766,7.7726],[6.6654,7.7658],[6.6519,7.7568],[6.6407,7.7479],[6.6317,7.7456],[6.6182,7.7344],[6.607,7.7276],[6.5935,7.7254],[6.5801,7.7142],[6.5711,7.7029],[6.5599,7.6985],[6.5441,7.6872],[6.5374,7.6805],[6.5217,7.6715],[6.506,7.6625],[6.4925,7.6535],[6.4543,7.6266],[6.4341,7.6109],[6.4318,7.5929],[6.4229,7.5817],[6.4139,7.5682],[6.4094,7.5457],[6.4094,7.5278],[6.4116,7.5255]]]}},{"type":"Feature","properties":{"id":"kogi/ankpa","name":"Ankpa","state":"Kogi"},"geometry":{"type":"Polygon","coordinates":[[[7.42,7.2965],[7.429,7.2942],[7.4402,7.2942],[7.4492,7.292],[7.4559,7.2897],[7.4649,7.2897],[7.4739,7.292],[7.4829,7.292],[7.4918,7.2875],[7.5076,7.2897],[7.5188,7.2897],[7.5323,7.2897],[7.5435,7.2897],[7.5525,7.2965],[7.5615,7.3032],[7.5704,7.3099],[7.5862,7.3189],[7.5974,7.3234],[7.6243,7.3212],[7.6288,7.3189],[7.6356,7.3144],[7.6446,7.3077],[7.658,7.3032],[7.6693,7.3032],[7.6872,7.2987],[7.7007,7.2942],[7.7097,7.2897],[7.7232,7.2897],[7.7366,7.2942],[7.7456,7.2965],[7.7568,7.2987],[7.7636,7.2987],[7.7681,7.301],[7.7793,7.301],[7.7905,7.2965],[7.8107,7.2897],[7.8197,7.2875],[7.8265,7.3099],[7.8377,7.3346],[7.8489,7.3593],[7.8557,7.3728],[7.8624,7.384],[7.8646,7.393],[7.8669,7.4043],[7.8601,7.4132],[7.8489,7.42],[7.8354,7.4177],[7.813,7.4155],[7.7928,7.4155],[7.7771,7.42],[7.7681,7.4267],[7.7636,7.4335],[7.7613,7.4514],[7.7591,7.4784],[7.7591,7.4918],[7.7546,7.5053],[7.7546,7.5121],[7.7568,7.53],[7.7546,7.5435],[7.7523,7.5637],[7.7501,7.5951],[7.7523,7.6243],[7.7523,7.6468],[7.7276,7.649],[7.7164,7.6446],[7.7052,7.6423],[7.6782,7.6378],[7.6693,7.6378],[7.658,7.6378],[7.6513,7.6333],[7.6333,7.6311],[7.6154,7.6266],[7.5974,7.6221],[7.5817,7.6064],[7.5727,7.5996],[7.566,7.5862],[7.557,7.5749],[7.5525,7.5637],[7.539,7.5547],[7.5255,7.5345],[7.5233,7.5278],[7.5165,7.5233],[7.5076,7.5188],[7.4918,7.5143],[7.4829,7.5076],[7.4829,7.5031],[7.4829,7.4941],[7.4784,7.4829],[7.4784,7.4626],[7.4784,7.4492],[7.4784,7.4379],[7.4739,7.4155],[7.4761,7.4065],[7.4739,7.4043],[7.4739,7.3975],[7.4716,7.3908],[7.4716,7.384],[7.4716,7.3751],[7.4716,7.3706],[7.4649,7.3571],[7.4582,7.3504],[7.4469,7.3369],[7.4402,7.3301],[7.4335,7.3279],[7.4312,7.3279],[7.4177,7.3257],[7.4087,7.3234],[7.4043,7.3144],[7.402,7.3077],[7.402,7.301],[7.42,7.2965]]]}},{"type":"Feature","properties":{"id":"kogi/bassa","name":"Bassa","state":"Kogi"},"geometry":{"type":"Polygon","coordinates":[[[6.7103,7.539],[6.7126,7.5121],[6.7081,7.4896],[6.7193,7.4873],[6.7238,7.4873],[6.7305,7.4873],[6.735,7.4829],[6.7395,7.4806],[6.7552,7.4806],[6.7597,7.4784],[6.7665,7.4671],[6.7687,7.4582],[6.7754,7.4514],[6.7844,7.4447],[6.7957,7.4424],[6.8069,7.4447],[6.8136,7.4537],[6.8159,7.4649],[6.8136,7.4761],[6.8136,7.4986],[6.8136,7.5143],[6.8159,7.5255],[6.8159,7.5368],[6.8204,7.548],[6.8204,7.5525],[6.8204,7.5615],[6.8204,7.5704],[6.8249,7.5817],[6.8316,7.5907],[6.8406,7.6019],[6.854,7.6086],[6.8765,7.6198],[6.9102,7.6243],[6.9394,7.6333],[6.9484,7.6423],[6.9618,7.658],[6.9686,7.6625],[6.9731,7.6715],[6.9776,7.6782],[6.9888,7.6895],[7.0,7.6962],[7.009,7.6962],[7.0337,7.6962],[7.0517,7.6962],[7.0854,7.6962],[7.1033,7.6985],[7.1146,7.7029],[7.128,7.7119],[7.137,7.7164],[7.1482,7.7254],[7.1595,7.7411],[7.1774,7.7636],[7.1797,7.7681],[7.1976,7.7815],[7.2066,7.7838],[7.2179,7.7883],[7.2358,7.7905],[7.2493,7.795],[7.2605,7.7995],[7.274,7.804],[7.2875,7.804],[7.2965,7.8107],[7.3144,7.8197],[7.3234,7.8242],[7.3346,7.8332],[7.3459,7.8422],[7.3481,7.8467],[7.3481,7.8601],[7.3459,7.8759],[7.3504,7.9006],[7.3593,7.914],[7.3706,7.9275],[7.3773,7.9365],[7.384,7.95],[7.3908,7.9612],[7.3975,7.9747],[7.4087,7.9904],[7.4177,8.0084],[7.4245,8.0151],[7.4312,8.0218],[7.4447,8.0443],[7.4335,8.0465],[7.4043,8.0421],[7.393,8.0421],[7.3054,8.0263],[7.2538,8.0151],[7.1954,7.9926],[7.1168,7.959],[7.0719,7.9432],[7.036,7.923],[7.0068,7.9028],[6.9798,7.8871],[6.9663,7.8781],[6.9641,7.8804],[6.9169,7.8646],[6.8832,7.8579],[6.8496,7.8489],[6.8249,7.8332],[6.8001,7.8242],[6.7889,7.8107],[6.7687,7.7995],[6.7687,7.7928],[6.7575,7.7523],[6.7552,7.7299],[6.753,7.7074],[6.7485,7.6895],[6.744,7.6715],[6.735,7.6513],[6.7215,7.6378],[6.7103,7.6176],[6.6991,7.5907],[6.6991,7.5749],[6.7103,7.539]]]}},{"type":"Feature","properties":{"id":"kogi/dekina","name":"Dekina","state":"Kogi"},"geometry":{"type":"Polygon","coordinates":[[[6.8181,7.4514],[6.8226,7.4492],[6.8338,7.4402],[6.8451,7.429],[6.8473,7.4245],[6.8496,7.4222],[6.863,7.4132],[6.872,7.4087],[6.8765,7.411],[6.8855,7.4132],[6.8967,7.4132],[6.9147,7.42],[6.9282,7.4155],[6.9349,7.411],[6.9439,7.4132],[6.9551,7.4155],[6.9641,7.4155],[6.9663,7.4132],[6.9753,7.4132],[6.9821,7.4177],[6.9933,7.4155],[7.0023,7.4132],[7.0135,7.4132],[7.0202,7.4177],[7.0292,7.4335],[7.0292,7.4447],[7.0449,7.4649],[7.0539,7.4761],[7.0696,7.4829],[7.0831,7.4873],[7.0921,7.4851],[7.1011,7.4784],[7.1011,7.4716],[7.1011,7.4582],[7.0988,7.4514],[7.1011,7.4424],[7.1033,7.429],[7.1078,7.4177],[7.1146,7.411],[7.119,7.4065],[7.1258,7.3953],[7.1303,7.384],[7.1325,7.3751],[7.137,7.3706],[7.1482,7.3549],[7.164,7.3526],[7.1797,7.3504],[7.1976,7.3504],[7.2134,7.3526],[7.2336,7.3638],[7.2426,7.3728],[7.2471,7.384],[7.2471,7.3908],[7.2493,7.402],[7.2538,7.4065],[7.274,7.4132],[7.2785,7.411],[7.2965,7.4043],[7.3077,7.3998],[7.3144,7.3998],[7.3301,7.402],[7.3369,7.402],[7.3526,7.3975],[7.3616,7.3975],[7.3661,7.3975],[7.3683,7.3998],[7.3751,7.3998],[7.3953,7.3998],[7.4065,7.3975],[7.4245,7.3998],[7.4357,7.3998],[7.4447,7.3998],[7.4514,7.3998],[7.4649,7.402],[7.4739,7.4043],[7.4761,7.4065],[7.4739,7.4155],[7.4784,7.4379],[7.4784,7.4492],[7.4784,7.4626],[7.4784,7.4829],[7.4829,7.4941],[7.4829,7.5031],[7.4829,7.5076],[7.4829,7.5188],[7.4761,7.539],[7.4716,7.5502],[7.4671,7.5592],[7.4537,7.5749],[7.4537,7.5884],[7.4469,7.6086],[7.4402,7.6311],[7.4424,7.6535],[7.4424,7.667],[7.4424,7.6872],[7.4357,7.7007],[7.429,7.7164],[7.4132,7.7366],[7.402,7.7613],[7.3885,7.786],[7.3773,7.8018],[7.3661,7.8107],[7.3549,7.8265],[7.3481,7.8467],[7.3459,7.8422],[7.3346,7.8332],[7.3234,7.8242],[7.3144,7.8197],[7.2965,7.8107],[7.2875,7.804],[7.274,7.804],[7.2605,7.7995],[7.2493,7.795],[7.2358,7.7905],[7.2179,7.7883],[7.2066,7.7838],[7.1976,7.7815],[7.1797,7.7681],[7.1774,7.7636],[7.1595,7.7411],[7.1482,7.7254],[7.137,7.7164],[7.128,7.7119],[7.1146,7.7029],[7.1033,7.6985],[7.0854,7.6962],[7.0517,7.6962],[7.0337,7.6962],[7.009,7.6962],[7.0,7.6962],[6.9888,7.6895],[6.9776,7.6782],[6.9731,7.6715],[6.9686,7.6625],[6.9618,7.658],[6.9484,7.6423],[6.9394,7.6333],[6.9102,7.6243],[6.8765,7.6198],[6.854,7.6086],[6.8406,7.6019],[6.8316,7.5907],[6.8249,7.5817],[6.8204,7.5704],[6.8204,7.5615],[6.8204,7.5525],[6.8204,7.548],[6.8159,7.5368],[6.8159,7.5255],[6.8136,7.5143],[6.8136,7.4986],[6.8136,7.4761],[6.8159,7.4649],[6.8136,7.4537],[6.8181,7.4514]]]}},{"type":"Feature","properties":{"id":"kogi/ibaji","name":"Ibaji","state":"Kogi"},"geometry":{"type":"Polygon","coordinates":[[[6.6138,6.8159],[6.616,6.8091],[6.6205,6.8001],[6.6227,6.7934],[6.6227,6.7912],[6.6272,6.7822],[6.6317,6.7687],[6.6272,6.7485],[6.6272,6.7305],[6.6205,6.7215],[6.6182,6.7058],[6.6272,6.6744],[6.6519,6.634],[6.6609,6.6093],[6.6609,6.5733],[6.6609,6.5531],[6.6654,6.5329],[6.6834,6.5441],[6.7171,6.5509],[6.744,6.5576],[6.7642,6.5643],[6.7934,6.5733],[6.8091,6.5801],[6.8091,6.598],[6.8091,6.616],[6.8046,6.6362],[6.8024,6.6564],[6.8001,6.6699],[6.7979,6.6789],[6.8001,6.6924],[6.8069,6.7036],[6.8204,6.7126],[6.8338,6.7215],[6.8428,6.7305],[6.854,6.744],[6.8608,6.753],[6.8675,6.7552],[6.8787,6.7597],[6.8832,6.7687],[6.8855,6.7732],[6.8967,6.7934],[6.9124,6.8001],[6.9237,6.8024],[6.9304,6.7889],[6.9326,6.7687],[6.9394,6.7732],[6.9484,6.7889],[6.9529,6.8091],[6.9529,6.8271],[6.9618,6.8406],[6.9618,6.8496],[6.9641,6.8608],[6.9618,6.872],[6.9618,6.89],[6.9618,6.9057],[6.9618,6.9282],[6.9574,6.9349],[6.9506,6.9439],[6.9416,6.9529],[6.9371,6.9574],[6.9214,6.9686],[6.9192,6.9708],[6.9012,6.9821],[6.8945,6.9888],[6.8922,6.9933],[6.8945,6.9978],[6.9012,7.0023],[6.9057,7.0068],[6.9057,7.0135],[6.9012,7.0157],[6.8922,7.0157],[6.8877,7.0157],[6.8832,7.0157],[6.872,7.0225],[6.8698,7.0225],[6.8675,7.0157],[6.863,7.0112],[6.8473,7.0135],[6.8361,7.018],[6.8159,7.0202],[6.8024,7.0225],[6.7912,7.0247],[6.7844,7.027],[6.7687,7.0337],[6.7575,7.036],[6.7485,7.0382],[6.7373,7.0382],[6.7328,7.0404],[6.7305,7.0404],[6.7215,7.0427],[6.7148,7.0449],[6.7103,7.0472],[6.7058,7.0494],[6.6924,7.0494],[6.6879,7.0494],[6.6834,7.0517],[6.6766,7.0337],[6.6766,7.009],[6.6789,6.9933],[6.6789,6.9731],[6.6789,6.9686],[6.6721,6.9349],[6.6519,6.9079],[6.6452,6.8855],[6.634,6.8653],[6.6227,6.8406],[6.6138,6.8316],[6.6115,6.8226],[6.6138,6.8159]]]}},{"type":"Feature","properties":{"id":"kogi/idah","name":"Idah","state":"Kogi"},"geometry":{"type":"Polygon","coordinates":[[[6.6879,7.0494],[6.6924,7.0494],[6.7058,7.0494],[6.7103,7.0472],[6.7148,7.0449],[6.7215,7.0427],[6.7305,7.0404],[6.7328,7.0404],[6.7328,7.0449],[6.7328,7.0584],[6.7328,7.0696],[6.7328,7.0719],[6.735,7.0854],[6.7373,7.0876],[6.7395,7.0943],[6.744,7.0966],[6.7463,7.1011],[6.7485,7.1056],[6.7485,7.1101],[6.744,7.1146],[6.7418,7.119],[6.7193,7.1235],[6.7148,7.1235],[6.7148,7.1213],[6.7126,7.1056],[6.6901,7.0674],[6.6834,7.0517],[6.6879,7.0494]]]}},{"type":"Feature","properties":{"id":"kogi/igalamela-odolu","name":"Igalamela-Odolu","state":"Kogi"},"geometry":{"type":"Polygon","coordinates":[[[6.7081,7.1595],[6.7126,7.1482],[6.7148,7.1348],[6.7148,7.1235],[6.7193,7.1235],[6.7418,7.119],[6.744,7.1146],[6.7485,7.1101],[6.7485,7.1056],[6.7463,7.1011],[6.744,7.0966],[6.7395,7.0943],[6.7373,7.0876],[6.735,7.0854],[6.7328,7.0719],[6.7328,7.0696],[6.7328,7.0584],[6.7328,7.0449],[6.7328,7.0404],[6.7373,7.0382],[6.7485,7.0382],[6.7575,7.036],[6.7687,7.0337],[6.7844,7.027],[6.7912,7.0247],[6.8024,7.0225],[6.8159,7.0202],[6.8361,7.018],[6.8473,7.0135],[6.863,7.0112],[6.8675,7.0157],[6.8698,7.0225],[6.872,7.0225],[6.8832,7.0157],[6.8877,7.0157],[6.8922,7.0157],[6.9012,7.0157],[6.9057,7.0135],[6.9057,7.0068],[6.9012,7.0023],[6.8945,6.9978],[6.8922,6.9933],[6.8945,6.9888],[6.9012,6.9821],[6.9192,6.9708],[6.9214,6.9686],[6.9371,6.9574],[6.9416,6.9529],[6.9506,6.9439],[6.9574,6.9349],[6.9618,6.9282],[6.9618,6.9057],[6.9618,6.89],[6.9618,6.872],[6.9641,6.8608],[6.9618,6.8496],[6.9618,6.8406],[6.9641,6.8451],[6.9776,6.8496],[6.9865,6.8451],[6.991,6.8338],[6.991,6.8226],[6.9865,6.8136],[6.9843,6.7979],[6.9865,6.7889],[6.991,6.7844],[7.0045,6.7844],[7.0202,6.7889],[7.0292,6.7844],[7.0427,6.7822],[7.0562,6.7867],[7.0607,6.7957],[7.0741,6.7979],[7.0809,6.8001],[7.0921,6.8204],[7.1011,6.8293],[7.1123,6.8383],[7.119,6.8473],[7.1348,6.854],[7.146,6.8653],[7.1527,6.8765],[7.1572,6.8832],[7.1707,6.8832],[7.1752,6.8967],[7.1887,6.9012],[7.2089,6.9035],[7.2201,6.9057],[7.2358,6.9102],[7.2426,6.9282],[7.2381,6.9416],[7.2381,6.9574],[7.2403,6.9708],[7.2583,6.9798],[7.2942,6.9933],[7.3099,7.0045],[7.3122,7.0045],[7.3279,7.0247],[7.3549,7.0337],[7.3661,7.0404],[7.3683,7.0494],[7.3683,7.0562],[7.3661,7.0696],[7.3616,7.0809],[7.3549,7.0876],[7.3481,7.0921],[7.3279,7.1011],[7.3122,7.1011],[7.292,7.1056],[7.2897,7.1078],[7.2852,7.1123],[7.283,7.1168],[7.2852,7.1213],[7.2875,7.1258],[7.2897,7.1348],[7.292,7.1437],[7.2942,7.1482],[7.2987,7.1662],[7.301,7.1729],[7.3077,7.1842],[7.2987,7.1842],[7.2875,7.1819],[7.2695,7.1819],[7.265,7.1842],[7.2515,7.1909],[7.2381,7.2089],[7.2201,7.2268],[7.2134,7.2358],[7.2021,7.2381],[7.1887,7.2403],[7.1774,7.2403],[7.1662,7.2403],[7.155,7.2381],[7.1415,7.2381],[7.1213,7.2403],[7.1033,7.2448],[7.0921,7.2471],[7.0764,7.2515],[7.0719,7.2538],[7.0651,7.2538],[7.0517,7.2628],[7.0472,7.2628],[7.0449,7.2605],[7.0427,7.2493],[7.0449,7.2403],[7.0427,7.2246],[7.0404,7.2179],[7.0382,7.2111],[7.0315,7.2066],[7.0202,7.2021],[7.009,7.1999],[6.9843,7.1954],[6.9731,7.1954],[6.9618,7.1954],[6.9484,7.1932],[6.9416,7.1932],[6.9326,7.1976],[6.9192,7.1999],[6.9012,7.2089],[6.89,7.2179],[6.8765,7.2246],[6.863,7.2291],[6.8451,7.2358],[6.8383,7.2358],[6.8271,7.2426],[6.8181,7.2448],[6.8114,7.2471],[6.8069,7.2471],[6.7957,7.2538],[6.7912,7.2605],[6.7754,7.274],[6.771,7.2807],[6.7642,7.2875],[6.753,7.2897],[6.7463,7.2897],[6.744,7.283],[6.744,7.274],[6.7418,7.265],[6.7395,7.2583],[6.7373,7.2448],[6.7373,7.2336],[6.7305,7.2246],[6.7215,7.2134],[6.7193,7.2066],[6.7193,7.1954],[6.7103,7.1752],[6.7036,7.1707],[6.7081,7.1595]]]}},{"type":"Feature","properties":{"id":"kogi/ijumu","name":"Ijumu","state":"Kogi"},"geometry":{"type":"Polygon","coordinates":[[[5.7402,7.813],[5.7469,7.804],[5.7559,7.795],[5.7671,7.7883],[5.7918,7.7815],[5.7738,7.7479],[5.7806,7.7456],[5.8008,7.7344],[5.8165,7.7276],[5.8188,7.7321],[5.8232,7.7321],[5.8277,7.7344],[5.8322,7.7321],[5.8367,7.7299],[5.8435,7.7276],[5.8502,7.7276],[5.8569,7.7299],[5.8659,7.7344],[5.8771,7.7389],[5.8906,7.7434],[5.9041,7.7479],[5.9086,7.7479],[5.9198,7.7501],[5.9288,7.7456],[5.931,7.7456],[5.931,7.7411],[5.9288,7.7366],[5.9288,7.7344],[5.9265,7.7321],[5.9243,7.7232],[5.9221,7.7164],[5.9243,7.7074],[5.931,7.6917],[5.9355,7.667],[5.9355,7.6603],[5.9378,7.649],[5.94,7.6446],[5.9445,7.6378],[5.9535,7.6243],[5.9602,7.6154],[5.9647,7.6109],[5.9692,7.6064],[5.9782,7.5884],[5.9917,7.5682],[5.9962,7.5592],[5.9984,7.5547],[6.0007,7.5502],[6.0052,7.5345],[6.0052,7.53],[6.0119,7.5345],[6.0164,7.539],[6.0231,7.548],[6.0254,7.5547],[6.0254,7.5592],[6.0276,7.5615],[6.0299,7.566],[6.0366,7.5727],[6.0433,7.5772],[6.0478,7.5794],[6.0995,7.5884],[6.0995,7.5951],[6.104,7.6064],[6.104,7.6154],[6.1085,7.6221],[6.1152,7.6356],[6.1219,7.6468],[6.1219,7.6693],[6.1219,7.6782],[6.1174,7.6872],[6.1062,7.6962],[6.0972,7.7052],[6.0972,7.7097],[6.095,7.7187],[6.0882,7.7321],[6.0838,7.7456],[6.077,7.7546],[6.0703,7.7658],[6.0568,7.7838],[6.0456,7.7995],[6.0411,7.8018],[6.0366,7.8152],[6.0299,7.822],[6.0209,7.8399],[6.0276,7.8534],[6.0366,7.8669],[6.0388,7.8759],[6.0501,7.8983],[6.0568,7.9185],[6.0546,7.9298],[6.0568,7.941],[6.0613,7.959],[6.0658,7.9702],[6.0703,7.9882],[6.077,8.0016],[6.0793,8.0129],[6.077,8.0241],[6.0748,8.0421],[6.0658,8.0555],[6.0635,8.0668],[6.0501,8.0959],[6.0411,8.1162],[6.0388,8.1296],[6.0299,8.1454],[6.0276,8.1543],[6.0254,8.1543],[6.0096,8.1454],[5.9984,8.1386],[5.9917,8.1341],[5.9894,8.1296],[5.9872,8.1229],[5.9827,8.1162],[5.9782,8.1072],[5.9715,8.1049],[5.958,8.0959],[5.949,8.0847],[5.9445,8.069],[5.9378,8.0623],[5.931,8.0465],[5.9198,8.0308],[5.9131,8.0106],[5.9086,7.9994],[5.8974,7.9859],[5.8906,7.9814],[5.8861,7.9702],[5.8749,7.9545],[5.8659,7.9455],[5.8592,7.9387],[5.8435,7.9275],[5.8345,7.923],[5.8322,7.923],[5.8277,7.9163],[5.8277,7.9051],[5.821,7.8961],[5.812,7.8893],[5.8008,7.8781],[5.7896,7.8624],[5.7806,7.8557],[5.7716,7.8444],[5.7604,7.8332],[5.7514,7.8287],[5.7379,7.8242],[5.7379,7.822],[5.7402,7.813]]]}},{"type":"Feature","properties":{"id":"kogi/kabba-bunu","name":"Kabba/Bunu","state":"Kogi"},"geometry":{"type":"Polygon","coordinates":[[[6.0299,7.822],[6.0366,7.8152],[6.0411,7.8018],[6.0456,7.7995],[6.0568,7.7838],[6.0703,7.7658],[6.077,7.7546],[6.0838,7.7456],[6.0882,7.7321],[6.095,7.7187],[6.0972,7.7097],[6.0972,7.7052],[6.1062,7.6962],[6.1174,7.6872],[6.1219,7.6782],[6.1264,7.6827],[6.1332,7.6917],[6.1511,7.7007],[6.1601,7.7052],[6.1736,7.7142],[6.1871,7.7187],[6.2028,7.7209],[6.223,7.7187],[6.2342,7.7187],[6.2432,7.7119],[6.2589,7.7074],[6.2679,7.7074],[6.2701,7.7164],[6.2724,7.7299],[6.2701,7.7456],[6.2679,7.7523],[6.2701,7.7636],[6.2701,7.7748],[6.2679,7.7838],[6.2724,7.7928],[6.2769,7.8018],[6.2949,7.813],[6.2993,7.822],[6.3128,7.831],[6.3151,7.8332],[6.324,7.8444],[6.324,7.8557],[6.324,7.8759],[6.324,7.8871],[6.3263,7.8938],[6.3308,7.9028],[6.3263,7.9163],[6.3196,7.9298],[6.3083,7.941],[6.3016,7.941],[6.2949,7.9432],[6.2926,7.9545],[6.2881,7.9612],[6.2791,7.9657],[6.2701,7.9702],[6.2589,7.9814],[6.2499,7.9971],[6.2432,8.0106],[6.2432,8.0218],[6.241,8.0331],[6.2387,8.0376],[6.2297,8.0465],[6.2207,8.069],[6.2207,8.0757],[6.2275,8.087],[6.2297,8.0959],[6.2387,8.1004],[6.2522,8.1004],[6.2679,8.1004],[6.2859,8.0959],[6.2949,8.087],[6.3106,8.0757],[6.3308,8.0623],[6.3398,8.0421],[6.3488,8.0331],[6.36,8.0263],[6.3667,8.0196],[6.3779,8.0084],[6.3869,8.0016],[6.4026,7.9769],[6.4116,7.9679],[6.4184,7.9612],[6.4318,7.9545],[6.4453,7.9455],[6.4565,7.941],[6.4633,7.9432],[6.4678,7.9477],[6.4678,7.9567],[6.4678,7.9679],[6.461,7.9769],[6.4633,7.9926],[6.4633,8.0061],[6.4521,8.0241],[6.4453,8.0353],[6.4476,8.0488],[6.4476,8.0623],[6.4521,8.078],[6.4565,8.0937],[6.47,8.1117],[6.479,8.1251],[6.4835,8.1364],[6.4925,8.1454],[6.497,8.1633],[6.4925,8.1768],[6.488,8.188],[6.4813,8.197],[6.4723,8.2172],[6.461,8.2284],[6.4498,8.2419],[6.4431,8.2554],[6.4341,8.2666],[6.4251,8.2823],[6.4116,8.3003],[6.4026,8.3138],[6.4004,8.3228],[6.3959,8.3295],[6.3779,8.3497],[6.3667,8.3609],[6.3555,8.3744],[6.3465,8.3857],[6.3263,8.4036],[6.3151,8.4126],[6.2993,8.4283],[6.2679,8.4485],[6.241,8.4598],[6.214,8.4643],[6.1938,8.4643],[6.1781,8.4598],[6.1624,8.4508],[6.1377,8.444],[6.1129,8.4418],[6.1107,8.4306],[6.0972,8.4148],[6.0838,8.4014],[6.0815,8.3901],[6.0793,8.3767],[6.077,8.3699],[6.0793,8.3632],[6.086,8.3542],[6.086,8.343],[6.0882,8.3362],[6.0882,8.3295],[6.0882,8.325],[6.086,8.3071],[6.0838,8.3003],[6.077,8.2913],[6.0725,8.2823],[6.0658,8.2644],[6.0658,8.2599],[6.0725,8.2442],[6.0725,8.2329],[6.0725,8.2284],[6.0635,8.2195],[6.0546,8.2105],[6.0546,8.1925],[6.059,8.1813],[6.068,8.1678],[6.0725,8.1633],[6.0635,8.1588],[6.059,8.1588],[6.0478,8.1611],[6.0388,8.1566],[6.0276,8.1543],[6.0299,8.1454],[6.0388,8.1296],[6.0411,8.1162],[6.0501,8.0959],[6.0635,8.0668],[6.0658,8.0555],[6.0748,8.0421],[6.077,8.0241],[6.0793,8.0129],[6.077,8.0016],[6.0703,7.9882],[6.0658,7.9702],[6.0613,7.959],[6.0568,7.941],[6.0546,7.9298],[6.0568,7.9185],[6.0501,7.8983],[6.0388,7.8759],[6.0366,7.8669],[6.0276,7.8534],[6.0209,7.8399],[6.0299,7.822]]]}},{"type":"Feature","properties":{"id":"kogi/kogi","name":"Kogi","state":"Kogi"},"geometry":{"type":"Polygon","coordinates":[[[6.7013,8.1633],[6.7081,8.1498],[6.7171,8.1341],[6.7305,8.1207],[6.7463,8.1027],[6.762,8.0892],[6.7799,8.0443],[6.7799,8.0263],[6.7777,7.9971],[6.7777,7.9904],[6.7822,7.9679],[6.7844,7.9545],[6.7912,7.9365],[6.7912,7.914],[6.7912,7.8848],[6.7844,7.8646],[6.7754,7.8287],[6.7687,7.7995],[6.7889,7.8107],[6.8001,7.8242],[6.8249,7.8332],[6.8496,7.8489],[6.8832,7.8579],[6.9169,7.8646],[6.9641,7.8804],[6.9618,7.8871],[6.9596,7.8961],[6.9551,7.9051],[6.9529,7.9185],[6.9574,7.9298],[6.9618,7.9432],[6.9641,7.9612],[6.9776,7.9859],[6.9798,8.0016],[6.9731,8.0196],[6.9708,8.0308],[6.9776,8.051],[6.9865,8.078],[6.9865,8.0915],[6.9843,8.1162],[6.9978,8.1543],[7.0023,8.1678],[7.0,8.1813],[6.9933,8.1948],[6.9798,8.2105],[6.9731,8.224],[6.9708,8.2442],[6.9641,8.2644],[6.9596,8.2756],[6.9529,8.2846],[6.9416,8.2936],[6.9349,8.3003],[6.9349,8.3115],[6.9416,8.3228],[6.9506,8.3452],[6.9551,8.3587],[6.9574,8.3744],[6.9686,8.3924],[6.9843,8.4598],[6.8271,8.4575],[6.8249,8.4328],[6.8316,8.4261],[6.8316,8.4171],[6.8249,8.4036],[6.8338,8.4014],[6.8383,8.3969],[6.8361,8.3924],[6.8316,8.3857],[6.8271,8.3789],[6.8271,8.3744],[6.8226,8.3677],[6.8136,8.3565],[6.8069,8.343],[6.7912,8.3318],[6.7799,8.3318],[6.7732,8.3362],[6.771,8.3318],[6.7687,8.3183],[6.7665,8.3093],[6.7597,8.3048],[6.7507,8.3048],[6.7485,8.3003],[6.762,8.2936],[6.7642,8.2823],[6.762,8.2734],[6.7552,8.2689],[6.7485,8.2644],[6.744,8.2644],[6.7305,8.2846],[6.7193,8.2756],[6.7215,8.2599],[6.7238,8.2487],[6.7171,8.2442],[6.7148,8.2284],[6.7126,8.2015],[6.6991,8.188],[6.6924,8.1835],[6.7013,8.1633]]]}},{"type":"Feature","properties":{"id":"kogi/lokoja","name":"Lokoja","state":"Kogi"},"geometry":{"type":"Polygon","coordinates":[[[6.1377,8.444],[6.1624,8.4508],[6.1781,8.4598],[6.1938,8.4643],[6.214,8.4643],[6.241,8.4598],[6.2679,8.4485],[6.2993,8.4283],[6.3151,8.4126],[6.3263,8.4036],[6.3465,8.3857],[6.3555,8.3744],[6.3667,8.3609],[6.3779,8.3497],[6.3959,8.3295],[6.4004,8.3228],[6.4026,8.3138],[6.4116,8.3003],[6.4251,8.2823],[6.4341,8.2666],[6.4431,8.2554],[6.4498,8.2419],[6.461,8.2284],[6.4723,8.2172],[6.4813,8.197],[6.488,8.188],[6.4925,8.1768],[6.497,8.1633],[6.4925,8.1454],[6.4835,8.1364],[6.479,8.1251],[6.47,8.1117],[6.4565,8.0937],[6.4521,8.078],[6.4476,8.0623],[6.4476,8.0488],[6.4453,8.0353],[6.4521,8.0241],[6.4633,8.0061],[6.4633,7.9926],[6.461,7.9769],[6.4678,7.9679],[6.4678,7.9567],[6.4678,7.9477],[6.4633,7.9432],[6.4565,7.941],[6.4453,7.9455],[6.4318,7.9545],[6.4184,7.9612],[6.4116,7.9679],[6.4026,7.9769],[6.3869,8.0016],[6.3779,8.0084],[6.3667,8.0196],[6.36,8.0263],[6.3488,8.0331],[6.3398,8.0421],[6.3308,8.0623],[6.3106,8.0757],[6.2949,8.087],[6.2859,8.0959],[6.2679,8.1004],[6.2522,8.1004],[6.2387,8.1004],[6.2297,8.0959],[6.2275,8.087],[6.2207,8.0757],[6.2207,8.069],[6.2297,8.0465],[6.2387,8.0376],[6.241,8.0331],[6.2432,8.0218],[6.2432,8.0106],[6.2499,7.9971],[6.2589,7.9814],[6.2701,7.9702],[6.2791,7.9657],[6.2881,7.9612],[6.2926,7.9545],[6.2949,7.9432],[6.3016,7.941],[6.3083,7.941],[6.3196,7.9298],[6.3263,7.9163],[6.3308,7.9028],[6.3263,7.8938],[6.324,7.8871],[6.324,7.8759],[6.324,7.8557],[6.324,7.8444],[6.3151,7.8332],[6.324,7.8287],[6.3353,7.8197],[6.3398,7.8107],[6.3443,7.8085],[6.3555,7.8085],[6.3735,7.8107],[6.3869,7.8107],[6.4094,7.8242],[6.4251,7.8332],[6.4341,7.8444],[6.4453,7.8534],[6.4565,7.8579],[6.4813,7.8601],[6.497,7.8691],[6.5127,7.8736],[6.5284,7.8781],[6.5374,7.8826],[6.5464,7.8871],[6.5599,7.8848],[6.5688,7.8736],[6.5711,7.8691],[6.5846,7.8691],[6.6025,7.8601],[6.616,7.8557],[6.6362,7.8489],[6.6542,7.8489],[6.6609,7.8444],[6.6699,7.8332],[6.6789,7.8242],[6.6901,7.8152],[6.7036,7.7995],[6.7103,7.786],[6.7148,7.7815],[6.7171,7.7726],[6.7238,7.7591],[6.7507,7.7344],[6.7552,7.7299],[6.7575,7.7523],[6.7687,7.7928],[6.7687,7.7995],[6.7754,7.8287],[6.7844,7.8646],[6.7912,7.8848],[6.7912,7.914],[6.7912,7.9365],[6.7844,7.9545],[6.7822,7.9679],[6.7777,7.9904],[6.7777,7.9971],[6.7799,8.0263],[6.7799,8.0443],[6.762,8.0892],[6.7463,8.1027],[6.7305,8.1207],[6.7171,8.1341],[6.7081,8.1498],[6.7013,8.1633],[6.6924,8.1835],[6.6901,8.1858],[6.6879,8.2015],[6.6834,8.2127],[6.6721,8.2195],[6.6654,8.2262],[6.6587,8.2352],[6.6407,8.2554],[6.6317,8.2756],[6.6272,8.2868],[6.6138,8.3003],[6.6093,8.3138],[6.598,8.325],[6.589,8.325],[6.5801,8.3318],[6.5711,8.343],[6.5621,8.3542],[6.5509,8.3699],[6.5284,8.3767],[6.5127,8.3991],[6.5037,8.4126],[6.4813,8.4261],[6.4521,8.4485],[6.4498,8.4598],[6.4386,8.4934],[6.4318,8.5182],[6.4251,8.5496],[6.4139,8.581],[6.4071,8.6035],[6.4049,8.6125],[6.3982,8.6304],[6.3847,8.6439],[6.3802,8.6484],[6.3757,8.6619],[6.3577,8.6843],[6.342,8.6978],[6.324,8.7135],[6.3016,8.727],[6.2679,8.7382],[6.2477,8.7382],[6.2252,8.736],[6.2095,8.7315],[6.1848,8.6866],[6.1691,8.6619],[6.1624,8.6372],[6.1534,8.617],[6.1489,8.5968],[6.1332,8.5676],[6.1242,8.5563],[6.1242,8.5384],[6.1197,8.5114],[6.1174,8.4822],[6.1129,8.462],[6.1129,8.444],[6.1129,8.4418],[6.1377,8.444]]]}},{"type":"Feature","properties":{"id":"kogi/mopa-muro","name":"Mopa-Muro","state":"Kogi"},"geometry":{"type":"Polygon","coordinates":[[[5.7604,8.0016],[5.7649,7.9949],[5.7693,7.9747],[5.7851,7.9657],[5.7985,7.959],[5.8053,7.95],[5.8143,7.9455],[5.8277,7.941],[5.83,7.9365],[5.8345,7.923],[5.8435,7.9275],[5.8592,7.9387],[5.8659,7.9455],[5.8749,7.9545],[5.8861,7.9702],[5.8906,7.9814],[5.8974,7.9859],[5.9086,7.9994],[5.9131,8.0106],[5.9198,8.0308],[5.931,8.0465],[5.9378,8.0623],[5.9445,8.069],[5.949,8.0847],[5.958,8.0959],[5.9715,8.1049],[5.9782,8.1072],[5.9827,8.1162],[5.9872,8.1229],[5.9894,8.1296],[5.9917,8.1341],[5.9984,8.1386],[6.0096,8.1454],[6.0254,8.1543],[6.0276,8.1543],[6.0388,8.1566],[6.0478,8.1611],[6.059,8.1588],[6.0635,8.1588],[6.0725,8.1633],[6.068,8.1678],[6.059,8.1813],[6.0546,8.1925],[6.0546,8.2105],[6.0635,8.2195],[6.0725,8.2284],[6.0725,8.2329],[6.0725,8.2442],[6.0658,8.2599],[6.0658,8.2644],[6.0725,8.2823],[6.077,8.2913],[6.0838,8.3003],[6.086,8.3071],[6.0882,8.325],[6.0882,8.3295],[6.0882,8.3362],[6.086,8.343],[6.086,8.3542],[6.0635,8.3542],[6.0501,8.352],[6.0276,8.3452],[6.0096,8.334],[5.9872,8.3228],[5.9625,8.3138],[5.9468,8.3071],[5.9355,8.3048],[5.9243,8.2981],[5.9131,8.2891],[5.8929,8.2779],[5.8771,8.2711],[5.8547,8.2554],[5.8435,8.2374],[5.8367,8.2262],[5.8277,8.224],[5.8232,8.215],[5.8188,8.2037],[5.812,8.197],[5.7963,8.179],[5.7806,8.1498],[5.7716,8.1251],[5.7581,8.1072],[5.7559,8.087],[5.7559,8.0623],[5.7536,8.0376],[5.7536,8.0263],[5.7604,8.0016]]]}},{"type":"Feature","properties":{"id":"kogi/ofu","name":"Ofu","state":"Kogi"},"geometry":{"type":"Polygon","coordinates":[[[6.6924,7.2179],[6.6968,7.2044],[6.7013,7.1774],[6.7036,7.1707],[6.7103,7.1752],[6.7193,7.1954],[6.7193,7.2066],[6.7215,7.2134],[6.7305,7.2246],[6.7373,7.2336],[6.7373,7.2448],[6.7395,7.2583],[6.7418,7.265],[6.744,7.274],[6.744,7.283],[6.7463,7.2897],[6.753,7.2897],[6.7642,7.2875],[6.771,7.2807],[6.7754,7.274],[6.7912,7.2605],[6.7957,7.2538],[6.8069,7.2471],[6.8114,7.2471],[6.8181,7.2448],[6.8271,7.2426],[6.8383,7.2358],[6.8451,7.2358],[6.863,7.2291],[6.8765,7.2246],[6.89,7.2179],[6.9012,7.2089],[6.9192,7.1999],[6.9326,7.1976],[6.9416,7.1932],[6.9484,7.1932],[6.9618,7.1954],[6.9731,7.1954],[6.9843,7.1954],[7.009,7.1999],[7.0202,7.2021],[7.0315,7.2066],[7.0382,7.2111],[7.0404,7.2179],[7.0427,7.2246],[7.0449,7.2403],[7.0427,7.2493],[7.0449,7.2605],[7.0472,7.2628],[7.0517,7.2628],[7.0651,7.2538],[7.0719,7.2538],[7.0764,7.2515],[7.0921,7.2471],[7.1033,7.2448],[7.1213,7.2403],[7.1415,7.2381],[7.155,7.2381],[7.1662,7.2403],[7.1774,7.2403],[7.1887,7.2403],[7.2021,7.2381],[7.2134,7.2358],[7.2201,7.2268],[7.2381,7.2089],[7.2515,7.1909],[7.265,7.1842],[7.2695,7.1819],[7.2875,7.1819],[7.2987,7.1842],[7.3077,7.1842],[7.3122,7.1887],[7.3167,7.1932],[7.3257,7.1999],[7.3301,7.2066],[7.3346,7.2179],[7.3391,7.2313],[7.3414,7.2403],[7.3459,7.2538],[7.3481,7.265],[7.3526,7.274],[7.3571,7.2785],[7.3683,7.2807],[7.3728,7.2875],[7.3773,7.292],[7.384,7.2965],[7.3885,7.2965],[7.3953,7.2965],[7.402,7.301],[7.402,7.3077],[7.4043,7.3144],[7.4087,7.3234],[7.4177,7.3257],[7.4312,7.3279],[7.4335,7.3279],[7.4402,7.3301],[7.4469,7.3369],[7.4582,7.3504],[7.4649,7.3571],[7.4716,7.3706],[7.4716,7.3751],[7.4716,7.384],[7.4716,7.3908],[7.4739,7.3975],[7.4739,7.4043],[7.4649,7.402],[7.4514,7.3998],[7.4447,7.3998],[7.4357,7.3998],[7.4245,7.3998],[7.4065,7.3975],[7.3953,7.3998],[7.3751,7.3998],[7.3683,7.3998],[7.3661,7.3975],[7.3616,7.3975],[7.3526,7.3975],[7.3369,7.402],[7.3301,7.402],[7.3144,7.3998],[7.3077,7.3998],[7.2965,7.4043],[7.2785,7.411],[7.274,7.4132],[7.2538,7.4065],[7.2493,7.402],[7.2471,7.3908],[7.2471,7.384],[7.2426,7.3728],[7.2336,7.3638],[7.2134,7.3526],[7.1976,7.3504],[7.1797,7.3504],[7.164,7.3526],[7.1482,7.3549],[7.137,7.3706],[7.1325,7.3751],[7.1303,7.384],[7.1258,7.3953],[7.119,7.4065],[7.1146,7.411],[7.1078,7.4177],[7.1033,7.429],[7.1011,7.4424],[7.0988,7.4514],[7.1011,7.4582],[7.1011,7.4716],[7.1011,7.4784],[7.0921,7.4851],[7.0831,7.4873],[7.0696,7.4829],[7.0539,7.4761],[7.0449,7.4649],[7.0292,7.4447],[7.0292,7.4335],[7.0202,7.4177],[7.0135,7.4132],[7.0023,7.4132],[6.9933,7.4155],[6.9821,7.4177],[6.9753,7.4132],[6.9663,7.4132],[6.9641,7.4155],[6.9551,7.4155],[6.9439,7.4132],[6.9349,7.411],[6.9282,7.4155],[6.9147,7.42],[6.8967,7.4132],[6.8855,7.4132],[6.8765,7.411],[6.872,7.4087],[6.863,7.4132],[6.8496,7.4222],[6.8473,7.4245],[6.8451,7.429],[6.8338,7.4402],[6.8226,7.4492],[6.8181,7.4514],[6.8136,7.4537],[6.8069,7.4447],[6.7957,7.4424],[6.7844,7.4447],[6.7754,7.4514],[6.7687,7.4582],[6.7665,7.4671],[6.7597,7.4784],[6.7552,7.4806],[6.7395,7.4806],[6.735,7.4829],[6.7305,7.4873],[6.7238,7.4873],[6.7193,7.4873],[6.7081,7.4896],[6.7058,7.4739],[6.7036,7.4514],[6.7036,7.3953],[6.7081,7.3683],[6.7036,7.3481],[6.6991,7.3212],[6.6924,7.2942],[6.6901,7.2762],[6.6924,7.2583],[6.6946,7.2426],[6.6901,7.2201],[6.6924,7.2179]]]}},{"type":"Feature","properties":{"id":"kogi/ogori-mangongo","name":"Ogori/Mangongo","state":"Kogi"},"geometry":{"type":"Polygon","coordinates":[[[6.1107,7.4582],[6.1107,7.4559],[6.1129,7.4492],[6.1197,7.4469],[6.1287,7.4469],[6.1377,7.4469],[6.1421,7.4492],[6.1534,7.4492],[6.1601,7.4469],[6.1624,7.4469],[6.1713,7.4447],[6.1736,7.4402],[6.1736,7.4379],[6.1758,7.4335],[6.1803,7.429],[6.1826,7.429],[6.1871,7.4335],[6.1871,7.4357],[6.1871,7.4379],[6.1893,7.4402],[6.2005,7.4469],[6.2095,7.4492],[6.2185,7.4559],[6.2207,7.4604],[6.223,7.4649],[6.2252,7.4694],[6.2185,7.4694],[6.214,7.4694],[6.2073,7.4694],[6.2028,7.4806],[6.1983,7.4963],[6.1848,7.5098],[6.1713,7.5188],[6.1579,7.5278],[6.1534,7.5233],[6.1511,7.5188],[6.1466,7.5165],[6.1309,7.5076],[6.1287,7.5053],[6.1219,7.5031],[6.1174,7.5008],[6.1152,7.4986],[6.1129,7.4963],[6.1107,7.4941],[6.1085,7.4896],[6.1085,7.4851],[6.1085,7.4626],[6.1107,7.4582]]]}},{"type":"Feature","properties":{"id":"kogi/okehi","name":"Okehi","state":"Kogi"},"geometry":{"type":"Polygon","coordinates":[[[6.1197,7.5907],[6.1219,7.5839],[6.1264,7.5749],[6.1309,7.5817],[6.1713,7.5974],[6.1893,7.6064],[6.205,7.6176],[6.223,7.6221],[6.2365,7.6243],[6.2499,7.6198],[6.2701,7.6154],[6.2993,7.6266],[6.3106,7.6311],[6.3443,7.6378],[6.36,7.6446],[6.3824,7.6715],[6.3914,7.6827],[6.3982,7.6985],[6.4071,7.7029],[6.4184,7.7142],[6.4251,7.7232],[6.4363,7.7321],[6.4476,7.7344],[6.4588,7.7434],[6.4678,7.7523],[6.4768,7.7613],[6.4835,7.7636],[6.4902,7.7703],[6.4992,7.7771],[6.5104,7.7838],[6.5262,7.7995],[6.5396,7.813],[6.5464,7.8242],[6.5621,7.8399],[6.5643,7.8489],[6.5688,7.8669],[6.5711,7.8691],[6.5688,7.8736],[6.5599,7.8848],[6.5464,7.8871],[6.5374,7.8826],[6.5284,7.8781],[6.5127,7.8736],[6.497,7.8691],[6.4813,7.8601],[6.4565,7.8579],[6.4453,7.8534],[6.4341,7.8444],[6.4251,7.8332],[6.4094,7.8242],[6.3869,7.8107],[6.3735,7.8107],[6.3555,7.8085],[6.3443,7.8085],[6.3398,7.8107],[6.3353,7.8197],[6.324,7.8287],[6.3151,7.8332],[6.3128,7.831],[6.2993,7.822],[6.2949,7.813],[6.2769,7.8018],[6.2724,7.7928],[6.2679,7.7838],[6.2701,7.7748],[6.2701,7.7636],[6.2679,7.7523],[6.2701,7.7456],[6.2724,7.7299],[6.2701,7.7164],[6.2679,7.7074],[6.2589,7.7074],[6.2432,7.7119],[6.2342,7.7187],[6.223,7.7187],[6.2028,7.7209],[6.1871,7.7187],[6.1736,7.7142],[6.1601,7.7052],[6.1511,7.7007],[6.1332,7.6917],[6.1264,7.6827],[6.1219,7.6782],[6.1219,7.6693],[6.1219,7.6468],[6.1152,7.6356],[6.1085,7.6221],[6.104,7.6154],[6.104,7.6064],[6.0995,7.5951],[6.0995,7.5884],[6.1197,7.5907]]]}},{"type":"Feature","properties":{"id":"kogi/okene","name":"Okene","state":"Kogi"},"geometry":{"type":"Polygon","coordinates":[[[6.1377,7.5502],[6.1421,7.5502],[6.1489,7.5502],[6.1534,7.5502],[6.1646,7.5502],[6.1668,7.548],[6.1668,7.5457],[6.1646,7.539],[6.1624,7.5345],[6.1601,7.53],[6.1579,7.5278],[6.1713,7.5188],[6.1848,7.5098],[6.1983,7.4963],[6.2028,7.4806],[6.2073,7.4694],[6.214,7.4694],[6.2185,7.4694],[6.2252,7.4694],[6.2275,7.4716],[6.2342,7.4739],[6.2387,7.4761],[6.2454,7.4761],[6.2522,7.4784],[6.2589,7.4784],[6.2634,7.4806],[6.2679,7.4829],[6.2701,7.4851],[6.2724,7.4873],[6.2724,7.4896],[6.2746,7.4918],[6.2769,7.4963],[6.2836,7.4986],[6.2904,7.4986],[6.2949,7.4986],[6.2993,7.4963],[6.3577,7.4132],[6.3779,7.3975],[6.4229,7.4177],[6.4274,7.4155],[6.4274,7.411],[6.4318,7.402],[6.4318,7.3975],[6.4229,7.3885],[6.4229,7.3863],[6.4274,7.3818],[6.4318,7.3796],[6.4341,7.3773],[6.4341,7.3728],[6.4341,7.3683],[6.4363,7.3593],[6.4386,7.3571],[6.4431,7.3571],[6.4498,7.3549],[6.4543,7.3571],[6.4588,7.3616],[6.4633,7.3638],[6.4678,7.3661],[6.47,7.3638],[6.4723,7.3616],[6.4768,7.3549],[6.4768,7.3526],[6.4813,7.3481],[6.4857,7.3414],[6.488,7.3571],[6.4902,7.3728],[6.488,7.384],[6.4902,7.3975],[6.4902,7.4132],[6.488,7.4357],[6.4768,7.4537],[6.4678,7.4716],[6.461,7.4806],[6.4565,7.4851],[6.4476,7.4896],[6.4363,7.5053],[6.4184,7.5233],[6.4116,7.5255],[6.4094,7.5278],[6.4004,7.5143],[6.3869,7.4986],[6.3667,7.4963],[6.3577,7.4986],[6.3398,7.5008],[6.3263,7.5008],[6.3196,7.5031],[6.2993,7.5143],[6.2949,7.5255],[6.2904,7.53],[6.2836,7.53],[6.2769,7.5345],[6.2746,7.5412],[6.2634,7.5457],[6.2567,7.548],[6.2477,7.5525],[6.2342,7.5637],[6.2163,7.5727],[6.1983,7.5772],[6.1736,7.5704],[6.1489,7.557],[6.1332,7.5525],[6.1377,7.5502]]]}},{"type":"Feature","properties":{"id":"kogi/olamaboro","name":"Olamaboro","state":"Kogi"},"geometry":{"type":"Polygon","coordinates":[[[7.2852,7.1123],[7.2897,7.1078],[7.292,7.1056],[7.3122,7.1011],[7.3279,7.1011],[7.3481,7.0921],[7.3549,7.0876],[7.3616,7.0809],[7.3661,7.0696],[7.3683,7.0562],[7.3683,7.0494],[7.3661,7.0404],[7.3706,7.0404],[7.384,7.0517],[7.3885,7.0651],[7.3885,7.0831],[7.3975,7.0899],[7.4155,7.0899],[7.429,7.0899],[7.4447,7.0966],[7.4559,7.1033],[7.4694,7.0988],[7.4784,7.0899],[7.4918,7.0741],[7.5031,7.0696],[7.5165,7.0494],[7.5255,7.036],[7.53,7.0315],[7.5435,7.0404],[7.5817,7.027],[7.5929,7.018],[7.6019,7.0157],[7.6086,7.018],[7.6109,7.0225],[7.6109,7.027],[7.6109,7.0315],[7.6064,7.0404],[7.6041,7.0539],[7.5996,7.0786],[7.6019,7.0899],[7.6109,7.1011],[7.6176,7.1078],[7.6221,7.1123],[7.6288,7.1258],[7.6378,7.1325],[7.658,7.146],[7.676,7.155],[7.6962,7.164],[7.7029,7.164],[7.7074,7.1662],[7.7232,7.1662],[7.7299,7.1729],[7.7389,7.1797],[7.7726,7.1932],[7.7771,7.1976],[7.7838,7.2044],[7.7905,7.2179],[7.7928,7.2268],[7.7973,7.2336],[7.8062,7.2538],[7.8197,7.2875],[7.8107,7.2897],[7.7905,7.2965],[7.7793,7.301],[7.7681,7.301],[7.7636,7.2987],[7.7568,7.2987],[7.7456,7.2965],[7.7366,7.2942],[7.7232,7.2897],[7.7097,7.2897],[7.7007,7.2942],[7.6872,7.2987],[7.6693,7.3032],[7.658,7.3032],[7.6446,7.3077],[7.6356,7.3144],[7.6288,7.3189],[7.6243,7.3212],[7.5974,7.3234],[7.5862,7.3189],[7.5704,7.3099],[7.5615,7.3032],[7.5525,7.2965],[7.5435,7.2897],[7.5323,7.2897],[7.5188,7.2897],[7.5076,7.2897],[7.4918,7.2875],[7.4829,7.292],[7.4739,7.292],[7.4649,7.2897],[7.4559,7.2897],[7.4492,7.292],[7.4402,7.2942],[7.429,7.2942],[7.42,7.2965],[7.402,7.301],[7.3953,7.2965],[7.3885,7.2965],[7.384,7.2965],[7.3773,7.292],[7.3728,7.2875],[7.3683,7.2807],[7.3571,7.2785],[7.3526,7.274],[7.3481,7.265],[7.3459,7.2538],[7.3414,7.2403],[7.3391,7.2313],[7.3346,7.2179],[7.3301,7.2066],[7.3257,7.1999],[7.3167,7.1932],[7.3122,7.1887],[7.3077,7.1842],[7.301,7.1729],[7.2987,7.1662],[7.2942,7.1482],[7.292,7.1437],[7.2897,7.1348],[7.2875,7.1258],[7.2852,7.1213],[7.283,7.1168],[7.2852,7.1123]]]}},{"type":"Feature","properties":{"id":"kogi/omala","name":"Omala","state":"Kogi"},"geometry":{"type":"Polygon","coordinates":[[[7.3481,7.8601],[7.3481,7.8467],[7.3549,7.8265],[7.3661,7.8107],[7.3773,7.8018],[7.3885,7.786],[7.402,7.7613],[7.4132,7.7366],[7.429,7.7164],[7.4357,7.7007],[7.4424,7.6872],[7.4424,7.667],[7.4424,7.6535],[7.4402,7.6311],[7.4469,7.6086],[7.4537,7.5884],[7.4537,7.5749],[7.4671,7.5592],[7.4716,7.5502],[7.4761,7.539],[7.4829,7.5188],[7.4829,7.5076],[7.4918,7.5143],[7.5076,7.5188],[7.5165,7.5233],[7.5233,7.5278],[7.5255,7.5345],[7.539,7.5547],[7.5525,7.5637],[7.557,7.5749],[7.566,7.5862],[7.5727,7.5996],[7.5817,7.6064],[7.5974,7.6221],[7.6154,7.6266],[7.6333,7.6311],[7.6513,7.6333],[7.658,7.6378],[7.6693,7.6378],[7.6782,7.6378],[7.7052,7.6423],[7.7164,7.6446],[7.7276,7.649],[7.7523,7.6468],[7.7546,7.6468],[7.7546,7.6603],[7.7546,7.6805],[7.7523,7.7074],[7.7523,7.7434],[7.7456,7.7681],[7.7276,7.7928],[7.694,7.8377],[7.6693,7.8848],[7.6625,7.9051],[7.6648,7.9343],[7.6715,7.9837],[7.676,8.0151],[7.6782,8.0173],[7.6648,8.0196],[7.6243,8.0286],[7.5839,8.0376],[7.5435,8.0421],[7.5053,8.0465],[7.4514,8.0465],[7.4447,8.0443],[7.4312,8.0218],[7.4245,8.0151],[7.4177,8.0084],[7.4087,7.9904],[7.3975,7.9747],[7.3908,7.9612],[7.384,7.95],[7.3773,7.9365],[7.3706,7.9275],[7.3593,7.914],[7.3504,7.9006],[7.3459,7.8759],[7.3481,7.8601]]]}},{"type":"Feature","properties":{"id":"kogi/yagba-east","name":"Yagba East","state":"Kogi"},"geometry":{"type":"Polygon","coordinates":[[[5.6009,7.9432],[5.6032,7.9275],[5.6077,7.9118],[5.6121,7.8759],[5.6144,7.8646],[5.6234,7.8422],[5.6301,7.8354],[5.6436,7.8287],[5.6571,7.8287],[5.6593,7.8287],[5.6683,7.8287],[5.6885,7.8287],[5.711,7.831],[5.7289,7.8287],[5.7379,7.822],[5.7379,7.8242],[5.7514,7.8287],[5.7604,7.8332],[5.7716,7.8444],[5.7806,7.8557],[5.7896,7.8624],[5.8008,7.8781],[5.812,7.8893],[5.821,7.8961],[5.8277,7.9051],[5.8277,7.9163],[5.8322,7.923],[5.8345,7.923],[5.83,7.9365],[5.8277,7.941],[5.8143,7.9455],[5.8053,7.95],[5.7985,7.959],[5.7851,7.9657],[5.7693,7.9747],[5.7649,7.9949],[5.7604,8.0016],[5.7536,8.0263],[5.7536,8.0376],[5.7559,8.0623],[5.7559,8.087],[5.7581,8.1072],[5.7716,8.1251],[5.7806,8.1498],[5.7963,8.179],[5.812,8.197],[5.8188,8.2037],[5.8232,8.215],[5.8277,8.224],[5.8367,8.2262],[5.8435,8.2374],[5.8547,8.2554],[5.8771,8.2711],[5.8929,8.2779],[5.9131,8.2891],[5.9243,8.2981],[5.9355,8.3048],[5.9468,8.3071],[5.9625,8.3138],[5.9872,8.3228],[6.0096,8.334],[6.0276,8.3452],[6.0501,8.352],[6.0635,8.3542],[6.086,8.3542],[6.0793,8.3632],[6.077,8.3699],[6.0793,8.3767],[6.0815,8.3901],[6.0838,8.4014],[6.077,8.3969],[6.059,8.3946],[6.0411,8.3924],[6.0209,8.3969],[6.0141,8.4014],[5.9917,8.4014],[5.9782,8.4059],[5.9557,8.4081],[5.9423,8.4126],[5.9243,8.4171],[5.9131,8.4238],[5.8974,8.4238],[5.8839,8.4238],[5.8659,8.4238],[5.8502,8.4216],[5.83,8.4261],[5.8188,8.4261],[5.8053,8.4261],[5.7828,8.4283],[5.7671,8.4328],[5.7491,8.4373],[5.7199,8.444],[5.7042,8.4463],[5.6885,8.453],[5.6907,8.4418],[5.6885,8.4261],[5.6885,8.4148],[5.693,8.3969],[5.6952,8.3857],[5.6952,8.3699],[5.6975,8.3542],[5.6975,8.3407],[5.6975,8.3273],[5.6997,8.3183],[5.702,8.3048],[5.702,8.2936],[5.693,8.2779],[5.6863,8.2711],[5.6863,8.2554],[5.6818,8.2442],[5.6683,8.2217],[5.6616,8.215],[5.6526,8.1993],[5.6436,8.188],[5.6368,8.1678],[5.6368,8.1498],[5.6346,8.1296],[5.6324,8.1207],[5.6368,8.1072],[5.6368,8.0982],[5.6368,8.0915],[5.6436,8.0735],[5.6481,8.0735],[5.6571,8.0757],[5.6593,8.069],[5.6548,8.0645],[5.6458,8.06],[5.6436,8.06],[5.6391,8.0533],[5.6436,8.0488],[5.6481,8.0421],[5.6481,8.0331],[5.6503,8.0241],[5.6571,8.0196],[5.6616,8.0151],[5.6683,8.0084],[5.6683,8.0016],[5.6571,7.9949],[5.6503,7.9904],[5.6481,7.9859],[5.6481,7.9747],[5.6481,7.9657],[5.6458,7.9634],[5.6346,7.959],[5.6279,7.9567],[5.6144,7.9612],[5.6099,7.9657],[5.6009,7.9634],[5.5987,7.959],[5.5987,7.9522],[5.6009,7.9432]]]}},{"type":"Feature","properties":{"id":"kogi/yagba-west","name":"Yagba West","state":"Kogi"},"geometry":{"type":"Polygon","coordinates":[[[5.3247,8.334],[5.3314,8.3318],[5.3359,8.3295],[5.3427,8.3205],[5.3539,8.3093],[5.3539,8.3048],[5.3539,8.2981],[5.3539,8.2868],[5.3561,8.2756],[5.3629,8.2734],[5.3718,8.2734],[5.3808,8.2779],[5.3876,8.2823],[5.3966,8.2913],[5.4055,8.2913],[5.419,8.2846],[5.4213,8.2734],[5.4213,8.2509],[5.419,8.2352],[5.4213,8.2284],[5.4325,8.224],[5.4415,8.2172],[5.4572,8.206],[5.4662,8.2015],[5.4774,8.206],[5.4954,8.215],[5.5133,8.2172],[5.5246,8.215],[5.5313,8.2105],[5.538,8.206],[5.5403,8.1993],[5.5403,8.1903],[5.5358,8.1566],[5.5335,8.1476],[5.5268,8.1386],[5.5178,8.1319],[5.5043,8.1229],[5.4976,8.1139],[5.4976,8.1117],[5.5066,8.1117],[5.5133,8.1117],[5.5156,8.1049],[5.5133,8.0847],[5.5133,8.0757],[5.5066,8.0465],[5.5043,8.0286],[5.5043,8.0241],[5.5066,8.0196],[5.5088,8.0173],[5.5156,8.0218],[5.5268,8.0308],[5.538,8.0398],[5.5515,8.051],[5.5582,8.0578],[5.5717,8.069],[5.5762,8.0712],[5.5987,8.0735],[5.6256,8.0735],[5.6391,8.0735],[5.6436,8.0735],[5.6368,8.0915],[5.6368,8.0982],[5.6368,8.1072],[5.6324,8.1207],[5.6346,8.1296],[5.6368,8.1498],[5.6368,8.1678],[5.6436,8.188],[5.6526,8.1993],[5.6616,8.215],[5.6683,8.2217],[5.6818,8.2442],[5.6863,8.2554],[5.6863,8.2711],[5.693,8.2779],[5.702,8.2936],[5.702,8.3048],[5.6997,8.3183],[5.6975,8.3273],[5.6975,8.3407],[5.6975,8.3542],[5.6952,8.3699],[5.6952,8.3857],[5.693,8.3969],[5.6885,8.4148],[5.6885,8.4261],[5.6907,8.4418],[5.6885,8.453],[5.6593,8.4598],[5.6436,8.462],[5.5987,8.489],[5.5874,8.4979],[5.574,8.5069],[5.5538,8.5114],[5.5448,8.5226],[5.5335,8.5294],[5.5246,8.5361],[5.5133,8.5384],[5.5111,8.5361],[5.5021,8.5339],[5.4954,8.5294],[5.4909,8.5182],[5.4774,8.5002],[5.4662,8.4934],[5.4527,8.4867],[5.446,8.48],[5.4325,8.4665],[5.4123,8.453],[5.3966,8.4373],[5.3808,8.4216],[5.3718,8.4104],[5.3584,8.3946],[5.3471,8.3834],[5.3427,8.3744],[5.3314,8.3565],[5.3224,8.3452],[5.3224,8.3407],[5.3247,8.334]]]}}]}