{"type":"FeatureCollection","features":[{"type":"Feature","properties":{"id":"kwara/asa","name":"Asa","state":"Kwara"},"geometry":{"type":"Polygon","coordinates":[[[4.2108,8.6911],[4.213,8.6821],[4.2085,8.6798],[4.2602,8.5743],[4.3478,8.3901],[4.3927,8.3048],[4.4174,8.2734],[4.4421,8.2532],[4.4601,8.2352],[4.478,8.2172],[4.4848,8.2037],[4.4893,8.1813],[4.4938,8.1678],[4.4938,8.1498],[4.4938,8.1341],[4.496,8.1229],[4.505,8.1251],[4.5274,8.1319],[4.5364,8.1341],[4.5589,8.1476],[4.5769,8.1543],[4.5836,8.1588],[4.5926,8.1678],[4.5948,8.1701],[4.5971,8.1858],[4.5926,8.1993],[4.5881,8.2037],[4.5858,8.2127],[4.5836,8.2195],[4.5836,8.2284],[4.5836,8.2352],[4.5858,8.2397],[4.5903,8.2509],[4.6016,8.2644],[4.6218,8.2823],[4.624,8.2891],[4.6285,8.3026],[4.6285,8.3093],[4.6375,8.3273],[4.642,8.3362],[4.651,8.3475],[4.6555,8.3497],[4.6644,8.3565],[4.6487,8.3722],[4.6442,8.3767],[4.6285,8.3812],[4.6307,8.3744],[4.6285,8.3722],[4.6263,8.3767],[4.6218,8.3834],[4.615,8.3924],[4.5903,8.4036],[4.5679,8.4104],[4.5521,8.4126],[4.5364,8.4148],[4.5185,8.4238],[4.5117,8.4373],[4.505,8.444],[4.5005,8.4575],[4.496,8.4777],[4.4893,8.489],[4.4848,8.5069],[4.478,8.5361],[4.4758,8.5496],[4.478,8.5608],[4.478,8.5653],[4.4735,8.5765],[4.4556,8.59],[4.4421,8.608],[4.4196,8.6304],[4.3949,8.6551],[4.368,8.6731],[4.3433,8.6911],[4.3298,8.6933],[4.3074,8.6956],[4.2804,8.6978],[4.249,8.7001],[4.2265,8.7023],[4.2063,8.7045],[4.2108,8.6911]]]}},{"type":"Feature","properties":{"id":"kwara/baruten","name":"Baruten","state":"Kwara"},"geometry":{"type":"Polygon","coordinates":[[[2.7308,8.7652],[2.7331,8.7584],[2.7376,8.7517],[2.7421,8.7472],[2.7443,8.745],[2.7443,8.7405],[2.7466,8.736],[2.7466,8.727],[2.7443,8.718],[2.7466,8.7113],[2.7466,8.709],[2.7488,8.7045],[2.7488,8.7023],[2.7511,8.7001],[2.7466,8.6933],[2.7443,8.6866],[2.7421,8.6843],[2.7421,8.6821],[2.7421,8.6776],[2.7443,8.6731],[2.7443,8.6709],[2.7466,8.6664],[2.7398,8.6619],[2.7376,8.6574],[2.7376,8.6551],[2.7398,8.6507],[2.7466,8.6462],[2.7488,8.6394],[2.7488,8.6349],[2.7511,8.6282],[2.7511,8.6215],[2.7511,8.6192],[2.7511,8.617],[2.7511,8.6125],[2.7488,8.6057],[2.7488,8.599],[2.7488,8.5923],[2.7488,8.5855],[2.7488,8.5833],[2.7511,8.5788],[2.7533,8.572],[2.7555,8.5676],[2.7623,8.572],[2.7758,8.59],[2.8027,8.6102],[2.8409,8.6102],[2.888,8.608],[2.9217,8.6125],[2.9419,8.6372],[3.0138,8.7113],[3.052,8.7293],[3.1036,8.7495],[3.1306,8.7787],[3.1643,8.8079],[3.1845,8.8123],[3.198,8.7966],[3.2384,8.7832],[3.281,8.8034],[3.3394,8.8258],[3.3888,8.8415],[3.4158,8.8595],[3.5258,8.9291],[3.6044,8.9606],[3.6561,8.9808],[3.683,8.9943],[3.719,9.0122],[3.7437,9.0459],[3.7527,9.0863],[3.7549,9.12],[3.7706,9.147],[3.7953,9.1649],[3.811,9.1739],[3.811,9.2054],[3.8155,9.7039],[3.82,10.0565],[3.8223,10.0542],[3.8178,10.0677],[3.7998,10.0722],[3.7976,10.0655],[3.7931,10.0632],[3.7841,10.0632],[3.7796,10.052],[3.7841,10.0453],[3.7886,10.0385],[3.7886,10.034],[3.7841,10.0318],[3.7751,10.034],[3.7729,10.0408],[3.7706,10.0475],[3.7661,10.0542],[3.7616,10.0587],[3.7571,10.0632],[3.7504,10.0677],[3.7459,10.0767],[3.7437,10.0834],[3.7347,10.0879],[3.7347,10.079],[3.7369,10.0745],[3.7369,10.0677],[3.7302,10.0677],[3.7145,10.0902],[3.7145,10.1014],[3.7122,10.1081],[3.7077,10.1171],[3.7077,10.1328],[3.7077,10.1441],[3.7033,10.1531],[3.692,10.1576],[3.6875,10.162],[3.6853,10.171],[3.6785,10.1778],[3.6785,10.1688],[3.6763,10.162],[3.6763,10.1553],[3.6763,10.1486],[3.6741,10.1418],[3.6718,10.1351],[3.6696,10.1284],[3.6673,10.1216],[3.6628,10.1081],[3.6583,10.1037],[3.6516,10.1014],[3.6471,10.1014],[3.6404,10.0969],[3.6359,10.0969],[3.6291,10.0924],[3.6246,10.0879],[3.6202,10.0812],[3.6179,10.0767],[3.6157,10.0767],[3.6157,10.0722],[3.6134,10.07],[3.6112,10.0632],[3.6112,10.0542],[3.6112,10.0453],[3.6112,10.0363],[3.6112,10.0295],[3.6112,10.0206],[3.6112,10.0116],[3.6112,10.0004],[3.6112,9.9959],[3.6089,9.9801],[3.6022,9.9577],[3.5955,9.9465],[3.5887,9.9397],[3.5842,9.9352],[3.5775,9.9307],[3.5708,9.9262],[3.5685,9.9217],[3.564,9.915],[3.564,9.9083],[3.564,9.9015],[3.564,9.8993],[3.5618,9.8948],[3.5595,9.8926],[3.5505,9.8813],[3.5483,9.8791],[3.5393,9.8701],[3.5303,9.8611],[3.5236,9.8611],[3.5191,9.8611],[3.5169,9.8589],[3.5124,9.8566],[3.5034,9.8589],[3.4989,9.8589],[3.4966,9.8589],[3.4899,9.8611],[3.4877,9.8611],[3.4809,9.8611],[3.4742,9.8634],[3.4697,9.8634],[3.463,9.8611],[3.4562,9.8611],[3.4472,9.8589],[3.4405,9.8566],[3.436,9.8544],[3.4315,9.8544],[3.4248,9.8499],[3.4225,9.8499],[3.4158,9.8476],[3.4068,9.8454],[3.3978,9.8409],[3.3911,9.8387],[3.3844,9.8364],[3.3776,9.8342],[3.3641,9.8274],[3.3574,9.8252],[3.3529,9.8207],[3.3462,9.8184],[3.3417,9.814],[3.3417,9.8117],[3.3349,9.805],[3.3305,9.7982],[3.3282,9.7915],[3.326,9.7848],[3.3237,9.7758],[3.3237,9.769],[3.3237,9.7623],[3.3282,9.7466],[3.3327,9.7398],[3.3349,9.7331],[3.3394,9.7264],[3.3394,9.7241],[3.3394,9.7219],[3.3439,9.7151],[3.3462,9.7106],[3.3507,9.7062],[3.3529,9.6972],[3.3484,9.6859],[3.3417,9.6815],[3.3372,9.677],[3.3305,9.6725],[3.326,9.668],[3.3215,9.6612],[3.3147,9.6567],[3.3102,9.6567],[3.3035,9.659],[3.2968,9.6612],[3.2923,9.6612],[3.2855,9.6612],[3.281,9.6612],[3.2721,9.659],[3.2676,9.6567],[3.2631,9.6523],[3.2608,9.6455],[3.2563,9.641],[3.2563,9.6388],[3.2563,9.6343],[3.2563,9.632],[3.2541,9.6253],[3.2541,9.6208],[3.2541,9.6163],[3.2541,9.6096],[3.2496,9.6029],[3.2451,9.5961],[3.2406,9.5894],[3.2361,9.5826],[3.2316,9.5759],[3.2272,9.5714],[3.2227,9.5647],[3.2204,9.5602],[3.2159,9.5534],[3.2114,9.549],[3.2069,9.5445],[3.2047,9.5377],[3.2024,9.5287],[3.198,9.522],[3.198,9.5198],[3.1957,9.5153],[3.1912,9.5108],[3.1867,9.5063],[3.18,9.504],[3.1755,9.5018],[3.1688,9.4995],[3.1643,9.4995],[3.162,9.4973],[3.1598,9.4951],[3.1553,9.4928],[3.1508,9.4883],[3.1485,9.4861],[3.1441,9.4771],[3.1396,9.4704],[3.1373,9.4636],[3.1351,9.4546],[3.1328,9.4479],[3.1306,9.4412],[3.1328,9.4254],[3.1373,9.4187],[3.1396,9.4097],[3.1418,9.4007],[3.1463,9.3918],[3.1485,9.385],[3.1508,9.376],[3.153,9.3693],[3.153,9.3648],[3.153,9.3558],[3.153,9.3491],[3.153,9.3468],[3.1508,9.3401],[3.153,9.3221],[3.153,9.3087],[3.1553,9.3042],[3.1575,9.2974],[3.1575,9.2907],[3.1575,9.2862],[3.1575,9.2817],[3.1508,9.275],[3.1508,9.2727],[3.1441,9.2682],[3.1373,9.2637],[3.1306,9.2593],[3.1261,9.2525],[3.1238,9.2458],[3.1216,9.239],[3.1216,9.2323],[3.1216,9.2256],[3.1216,9.2188],[3.1216,9.2098],[3.1238,9.2009],[3.1238,9.1986],[3.1238,9.1919],[3.1216,9.1896],[3.1216,9.1874],[3.1194,9.1874],[3.1171,9.1806],[3.1126,9.1739],[3.1081,9.1672],[3.1059,9.1604],[3.1014,9.1537],[3.0991,9.1447],[3.0947,9.138],[3.0924,9.129],[3.0902,9.1223],[3.0902,9.1155],[3.0902,9.1088],[3.0879,9.102],[3.0834,9.0976],[3.0767,9.0953],[3.0699,9.0931],[3.0632,9.0908],[3.0565,9.0886],[3.052,9.0863],[3.043,9.0841],[3.0363,9.0818],[3.0273,9.0796],[3.0183,9.0773],[3.0071,9.0729],[3.0003,9.0729],[2.9936,9.0729],[2.9891,9.0729],[2.9846,9.0729],[2.9756,9.0751],[2.9711,9.0773],[2.9644,9.0796],[2.9599,9.0863],[2.9577,9.0908],[2.9554,9.0931],[2.9532,9.0931],[2.9442,9.0908],[2.9374,9.0908],[2.9285,9.0886],[2.9262,9.0886],[2.9217,9.0886],[2.9127,9.0886],[2.9038,9.0863],[2.897,9.0841],[2.8836,9.0751],[2.8813,9.0729],[2.8791,9.0639],[2.8678,9.0616],[2.8611,9.0639],[2.8544,9.0639],[2.8454,9.0639],[2.8364,9.0639],[2.8297,9.0639],[2.8207,9.0639],[2.8139,9.0639],[2.8049,9.0639],[2.796,9.0639],[2.7892,9.0661],[2.7802,9.0661],[2.7802,9.0616],[2.7802,9.0594],[2.778,9.0549],[2.778,9.0526],[2.7825,9.0481],[2.787,9.0459],[2.7847,9.0437],[2.7825,9.0392],[2.7825,9.0369],[2.7825,9.0347],[2.7825,9.0324],[2.778,9.0279],[2.7735,9.0257],[2.7758,9.0234],[2.7825,9.0212],[2.7847,9.019],[2.7825,9.019],[2.7825,9.0167],[2.778,9.0145],[2.7713,9.01],[2.7713,9.0077],[2.7802,9.0055],[2.7825,9.0032],[2.7802,8.9987],[2.778,8.9943],[2.7802,8.992],[2.787,8.9898],[2.7892,8.9875],[2.787,8.9853],[2.7847,8.983],[2.7825,8.983],[2.7825,8.9785],[2.787,8.974],[2.7892,8.9718],[2.7892,8.9695],[2.7847,8.9651],[2.7802,8.9606],[2.7758,8.9583],[2.7758,8.9561],[2.7713,8.9538],[2.778,8.9516],[2.7825,8.9448],[2.778,8.9336],[2.7735,8.9269],[2.7713,8.9201],[2.7713,8.9179],[2.769,8.9179],[2.7645,8.9157],[2.76,8.9112],[2.7578,8.9089],[2.7578,8.9067],[2.7578,8.9044],[2.7623,8.9022],[2.7713,8.9044],[2.7713,8.8999],[2.7713,8.8977],[2.7735,8.8954],[2.7713,8.8842],[2.769,8.873],[2.769,8.8662],[2.7645,8.8662],[2.7623,8.8662],[2.7578,8.864],[2.7578,8.8595],[2.76,8.855],[2.7623,8.8505],[2.76,8.8483],[2.76,8.8438],[2.76,8.837],[2.7578,8.8303],[2.7578,8.8191],[2.76,8.8146],[2.7623,8.8101],[2.7623,8.8079],[2.76,8.8056],[2.7555,8.8034],[2.7511,8.8011],[2.7443,8.7989],[2.7398,8.7944],[2.7376,8.7899],[2.7376,8.7876],[2.7331,8.7832],[2.7331,8.7809],[2.7308,8.7787],[2.7286,8.7719],[2.7308,8.7652]]]}},{"type":"Feature","properties":{"id":"kwara/edu","name":"Edu","state":"Kwara"},"geometry":{"type":"Polygon","coordinates":[[[4.88,9.1515],[4.8845,9.1402],[4.8868,9.1312],[4.8868,9.1245],[4.8913,9.12],[4.898,9.1178],[4.9002,9.1065],[4.9002,9.0998],[4.9002,9.0931],[4.9002,9.0863],[4.898,9.0751],[4.8913,9.0706],[4.8913,9.0639],[4.8935,9.0594],[4.8913,9.0571],[4.8957,9.0437],[4.9025,9.0279],[4.907,9.019],[4.907,9.0032],[4.907,8.9943],[4.9025,8.9853],[4.898,8.9763],[4.898,8.9673],[4.8957,8.9381],[4.8935,8.9067],[4.8935,8.9022],[4.9047,8.882],[4.9249,8.8662],[4.9496,8.8573],[4.9676,8.8483],[4.9856,8.8438],[4.9923,8.837],[4.9968,8.8281],[5.0125,8.8303],[5.0305,8.8258],[5.0507,8.8168],[5.0574,8.8079],[5.0777,8.7674],[5.0821,8.7562],[5.0911,8.7382],[5.0979,8.7293],[5.1091,8.727],[5.1203,8.7158],[5.1405,8.709],[5.1563,8.7001],[5.163,8.6956],[5.1922,8.6888],[5.2079,8.6798],[5.2371,8.6596],[5.2573,8.6551],[5.2753,8.6574],[5.291,8.6686],[5.3045,8.6843],[5.3179,8.6978],[5.3269,8.7045],[5.3382,8.709],[5.3561,8.7135],[5.3718,8.7158],[5.3808,8.7158],[5.4033,8.7045],[5.4078,8.7001],[5.4145,8.6866],[5.4213,8.6596],[5.4235,8.6417],[5.4235,8.6125],[5.4213,8.5923],[5.419,8.5698],[5.4213,8.5496],[5.4213,8.5339],[5.4257,8.5159],[5.4347,8.4912],[5.4415,8.4845],[5.446,8.48],[5.4527,8.4867],[5.4662,8.4934],[5.4774,8.5002],[5.4909,8.5182],[5.4954,8.5294],[5.5021,8.5339],[5.5111,8.5361],[5.5133,8.5384],[5.5178,8.5496],[5.5156,8.5586],[5.5043,8.5788],[5.4864,8.6102],[5.4774,8.6349],[5.4639,8.6664],[5.4572,8.6754],[5.4549,8.7001],[5.4504,8.7203],[5.4549,8.7472],[5.4594,8.7652],[5.4617,8.7832],[5.4617,8.7966],[5.4617,8.8034],[5.4504,8.8258],[5.4482,8.8415],[5.4482,8.8618],[5.4572,8.8685],[5.4729,8.8865],[5.4796,8.8954],[5.4931,8.9067],[5.5066,8.9134],[5.5156,8.9201],[5.5223,8.9314],[5.5246,8.9381],[5.5246,8.9404],[5.5111,8.9448],[5.4976,8.9448],[5.4864,8.9448],[5.4729,8.9471],[5.4662,8.9538],[5.4617,8.9628],[5.4572,8.9695],[5.446,8.9718],[5.437,8.9763],[5.4257,8.9785],[5.4078,8.9785],[5.3921,8.983],[5.3763,8.9898],[5.3696,8.9965],[5.3494,8.9987],[5.3314,8.9965],[5.3224,8.992],[5.3067,9.001],[5.2977,9.0032],[5.2865,9.01],[5.273,9.0145],[5.2551,9.0167],[5.2371,9.019],[5.2259,9.0279],[5.2079,9.0347],[5.1967,9.0549],[5.172,9.0863],[5.1585,9.1065],[5.1316,9.1223],[5.1068,9.1357],[5.0844,9.1515],[5.0642,9.1627],[5.0485,9.1874],[5.0327,9.1986],[5.017,9.2054],[4.9968,9.2076],[4.9721,9.2009],[4.9631,9.1941],[4.9227,9.1762],[4.9115,9.1717],[4.898,9.1694],[4.8868,9.1672],[4.8755,9.1604],[4.8755,9.1582],[4.88,9.1515]]]}},{"type":"Feature","properties":{"id":"kwara/ekiti","name":"Ekiti","state":"Kwara"},"geometry":{"type":"Polygon","coordinates":[[[5.1652,8.0465],[5.1765,8.0398],[5.181,8.0353],[5.1877,8.0286],[5.1922,8.0218],[5.1967,8.0173],[5.2034,8.0173],[5.2191,8.0218],[5.2304,8.0218],[5.2438,8.0196],[5.2573,8.0173],[5.2618,8.0129],[5.2685,8.0106],[5.282,8.0084],[5.2977,8.0084],[5.3179,8.0084],[5.3314,8.0106],[5.3404,8.0151],[5.3449,8.0196],[5.3516,8.0263],[5.3584,8.0331],[5.3584,8.0353],[5.3606,8.0376],[5.3606,8.0443],[5.3606,8.0533],[5.3584,8.0623],[5.3584,8.0735],[5.3606,8.0825],[5.3651,8.0915],[5.3718,8.0959],[5.3876,8.1027],[5.3988,8.1027],[5.4213,8.1049],[5.4482,8.1049],[5.4752,8.1072],[5.4976,8.1117],[5.4976,8.1139],[5.5043,8.1229],[5.5178,8.1319],[5.5268,8.1386],[5.5335,8.1476],[5.5358,8.1566],[5.5403,8.1903],[5.5403,8.1993],[5.538,8.206],[5.5313,8.2105],[5.5246,8.215],[5.5133,8.2172],[5.4954,8.215],[5.4774,8.206],[5.4662,8.2015],[5.4572,8.206],[5.4549,8.197],[5.4347,8.1858],[5.4055,8.179],[5.3674,8.1723],[5.3471,8.1723],[5.3247,8.1678],[5.2955,8.1611],[5.2775,8.1543],[5.2416,8.1431],[5.2057,8.1251],[5.1899,8.1139],[5.1697,8.0802],[5.163,8.0555],[5.163,8.0488],[5.1652,8.0465]]]}},{"type":"Feature","properties":{"id":"kwara/ifelodun","name":"Ifelodun","state":"Kwara"},"geometry":{"type":"Polygon","coordinates":[[[4.6285,8.3812],[4.6442,8.3767],[4.6487,8.3722],[4.6644,8.3565],[4.6734,8.343],[4.6779,8.3362],[4.6914,8.316],[4.7026,8.2936],[4.7071,8.2823],[4.7138,8.2689],[4.7206,8.2554],[4.7296,8.2464],[4.7341,8.2374],[4.7385,8.2307],[4.7453,8.215],[4.7475,8.2105],[4.7565,8.2105],[4.7677,8.215],[4.7767,8.224],[4.7902,8.2329],[4.7969,8.2487],[4.8037,8.2621],[4.8082,8.2779],[4.8059,8.3026],[4.8037,8.316],[4.8037,8.334],[4.8037,8.343],[4.8059,8.3475],[4.8194,8.3587],[4.8576,8.3677],[4.8688,8.3677],[4.8845,8.3699],[4.8913,8.3699],[4.907,8.3699],[4.9205,8.3654],[4.9294,8.3609],[4.9407,8.3565],[4.9564,8.3565],[4.9654,8.3542],[4.9766,8.3497],[4.9856,8.3475],[4.9968,8.3475],[5.026,8.3475],[5.035,8.3497],[5.0485,8.352],[5.0664,8.3587],[5.0866,8.3632],[5.1024,8.3654],[5.1226,8.3654],[5.1338,8.3632],[5.1428,8.3587],[5.1518,8.3452],[5.1675,8.3138],[5.1765,8.2981],[5.1787,8.2936],[5.1765,8.2801],[5.1765,8.2532],[5.1877,8.2464],[5.1989,8.2487],[5.2102,8.2487],[5.2214,8.2487],[5.2349,8.2554],[5.2393,8.2554],[5.2461,8.2576],[5.2551,8.2666],[5.2641,8.2689],[5.2753,8.2711],[5.282,8.2734],[5.2865,8.2779],[5.291,8.2846],[5.3,8.2958],[5.3067,8.3003],[5.3112,8.3093],[5.3202,8.325],[5.3247,8.334],[5.3224,8.3407],[5.3224,8.3452],[5.3314,8.3565],[5.3427,8.3744],[5.3471,8.3834],[5.3584,8.3946],[5.3718,8.4104],[5.3808,8.4216],[5.3966,8.4373],[5.4123,8.453],[5.4325,8.4665],[5.446,8.48],[5.4415,8.4845],[5.4347,8.4912],[5.4257,8.5159],[5.4213,8.5339],[5.4213,8.5496],[5.419,8.5698],[5.4213,8.5923],[5.4235,8.6125],[5.4235,8.6417],[5.4213,8.6596],[5.4145,8.6866],[5.4078,8.7001],[5.4033,8.7045],[5.3808,8.7158],[5.3718,8.7158],[5.3561,8.7135],[5.3382,8.709],[5.3269,8.7045],[5.3179,8.6978],[5.3045,8.6843],[5.291,8.6686],[5.2753,8.6574],[5.2573,8.6551],[5.2371,8.6596],[5.2079,8.6798],[5.1922,8.6888],[5.163,8.6956],[5.1563,8.7001],[5.1405,8.709],[5.1203,8.7158],[5.1091,8.727],[5.0979,8.7293],[5.0911,8.7382],[5.0821,8.7562],[5.0777,8.7674],[5.0574,8.8079],[5.0507,8.8168],[5.0305,8.8258],[5.0125,8.8303],[4.9968,8.8281],[4.9923,8.837],[4.9856,8.8438],[4.9676,8.8483],[4.9496,8.8573],[4.9249,8.8662],[4.9047,8.882],[4.8935,8.9022],[4.8935,8.9067],[4.8957,8.9381],[4.898,8.9673],[4.898,8.9763],[4.9025,8.9853],[4.907,8.9943],[4.907,9.0032],[4.907,9.019],[4.9025,9.0279],[4.8957,9.0437],[4.8913,9.0571],[4.8845,9.0571],[4.8823,9.0549],[4.8778,9.0481],[4.88,9.0437],[4.8778,9.0212],[4.8666,9.019],[4.8576,9.0167],[4.8508,9.0145],[4.8508,9.0077],[4.8508,8.9987],[4.8396,8.992],[4.8284,8.9853],[4.8127,8.974],[4.8037,8.9628],[4.8014,8.9516],[4.8037,8.9291],[4.8082,8.9134],[4.8059,8.8954],[4.8082,8.8797],[4.8127,8.8618],[4.8149,8.846],[4.8261,8.8303],[4.8351,8.8146],[4.8486,8.7989],[4.8621,8.7832],[4.871,8.7652],[4.88,8.7472],[4.8823,8.7427],[4.889,8.727],[4.9182,8.7158],[4.9317,8.709],[4.9429,8.6978],[4.9721,8.6888],[4.9833,8.6754],[4.9811,8.6574],[4.9496,8.6417],[4.9182,8.6259],[4.8778,8.6035],[4.8643,8.5878],[4.8553,8.581],[4.8374,8.5765],[4.8194,8.5743],[4.8059,8.572],[4.7812,8.5653],[4.77,8.5653],[4.7228,8.5496],[4.7026,8.5384],[4.6936,8.5294],[4.6846,8.5182],[4.6779,8.5069],[4.6802,8.5024],[4.6914,8.489],[4.6981,8.4867],[4.7228,8.4777],[4.7273,8.4755],[4.7385,8.462],[4.743,8.4553],[4.7498,8.444],[4.7543,8.4351],[4.7565,8.4148],[4.7543,8.4036],[4.7543,8.3946],[4.7453,8.3924],[4.7318,8.3879],[4.7071,8.3879],[4.6981,8.3946],[4.6869,8.3969],[4.6667,8.3991],[4.6532,8.4036],[4.6375,8.4059],[4.6285,8.4059],[4.624,8.4014],[4.6218,8.3991],[4.6218,8.3946],[4.6285,8.3812]]]}},{"type":"Feature","properties":{"id":"kwara/ilorin-east","name":"Ilorin East","state":"Kwara"},"geometry":{"type":"Polygon","coordinates":[[[4.5342,8.5047],[4.5364,8.4934],[4.5387,8.4822],[4.5454,8.4687],[4.5566,8.453],[4.5724,8.4418],[4.5769,8.4373],[4.5813,8.4373],[4.5881,8.4396],[4.6038,8.4351],[4.6083,8.4351],[4.6195,8.4373],[4.6352,8.4418],[4.6352,8.444],[4.6285,8.453],[4.633,8.4598],[4.633,8.471],[4.6285,8.4777],[4.6083,8.4845],[4.5948,8.489],[4.5881,8.489],[4.5858,8.4912],[4.5836,8.4979],[4.5813,8.5002],[4.5903,8.5047],[4.6038,8.5092],[4.615,8.5069],[4.6397,8.5092],[4.651,8.5069],[4.6689,8.5069],[4.6779,8.5069],[4.6846,8.5182],[4.6936,8.5294],[4.7026,8.5384],[4.7228,8.5496],[4.77,8.5653],[4.7812,8.5653],[4.8059,8.572],[4.8194,8.5743],[4.8374,8.5765],[4.8553,8.581],[4.8643,8.5878],[4.8778,8.6035],[4.9182,8.6259],[4.9496,8.6417],[4.9811,8.6574],[4.9833,8.6754],[4.9721,8.6888],[4.9429,8.6978],[4.9317,8.709],[4.9182,8.7158],[4.889,8.727],[4.8823,8.7427],[4.88,8.7472],[4.8621,8.7382],[4.8463,8.7248],[4.8396,8.7135],[4.8261,8.6933],[4.8082,8.6821],[4.7812,8.6619],[4.7655,8.6462],[4.7408,8.6304],[4.7228,8.6147],[4.7138,8.6057],[4.7071,8.599],[4.6914,8.5855],[4.6802,8.5743],[4.6644,8.5608],[4.651,8.5563],[4.6195,8.5541],[4.5971,8.5563],[4.5724,8.5586],[4.5589,8.5586],[4.5499,8.5608],[4.5432,8.5608],[4.5364,8.5586],[4.5342,8.5541],[4.5319,8.5316],[4.5342,8.5047]]]}},{"type":"Feature","properties":{"id":"kwara/ilorin-south","name":"Ilorin South","state":"Kwara"},"geometry":{"type":"Polygon","coordinates":[[[4.5903,8.4036],[4.615,8.3924],[4.6218,8.3834],[4.6263,8.3767],[4.6285,8.3722],[4.6307,8.3744],[4.6285,8.3812],[4.6218,8.3946],[4.6218,8.3991],[4.624,8.4014],[4.6285,8.4059],[4.6375,8.4059],[4.6532,8.4036],[4.6667,8.3991],[4.6869,8.3969],[4.6981,8.3946],[4.7071,8.3879],[4.7318,8.3879],[4.7453,8.3924],[4.7543,8.3946],[4.7543,8.4036],[4.7565,8.4148],[4.7543,8.4351],[4.7498,8.444],[4.743,8.4553],[4.7385,8.462],[4.7273,8.4755],[4.7228,8.4777],[4.6981,8.4867],[4.6914,8.489],[4.6802,8.5024],[4.6779,8.5069],[4.6689,8.5069],[4.651,8.5069],[4.6397,8.5092],[4.615,8.5069],[4.6038,8.5092],[4.5903,8.5047],[4.5813,8.5002],[4.5836,8.4979],[4.5858,8.4912],[4.5881,8.489],[4.5948,8.489],[4.6083,8.4845],[4.6285,8.4777],[4.633,8.471],[4.633,8.4598],[4.6285,8.453],[4.6352,8.444],[4.6352,8.4418],[4.6195,8.4373],[4.6083,8.4351],[4.6038,8.4351],[4.5881,8.4396],[4.5813,8.4373],[4.5903,8.4036]]]}},{"type":"Feature","properties":{"id":"kwara/ilorin-west","name":"Ilorin West","state":"Kwara"},"geometry":{"type":"Polygon","coordinates":[[[4.478,8.5361],[4.4848,8.5069],[4.4893,8.489],[4.496,8.4777],[4.5005,8.4575],[4.505,8.444],[4.5117,8.4373],[4.5185,8.4238],[4.5364,8.4148],[4.5521,8.4126],[4.5679,8.4104],[4.5903,8.4036],[4.5813,8.4373],[4.5769,8.4373],[4.5724,8.4418],[4.5566,8.453],[4.5454,8.4687],[4.5387,8.4822],[4.5364,8.4934],[4.5342,8.5047],[4.5319,8.5316],[4.5342,8.5541],[4.5364,8.5586],[4.5432,8.5608],[4.5499,8.5608],[4.5319,8.5698],[4.523,8.572],[4.5095,8.5698],[4.4982,8.5676],[4.4938,8.5608],[4.4848,8.5586],[4.478,8.5608],[4.4758,8.5496],[4.478,8.5361]]]}},{"type":"Feature","properties":{"id":"kwara/irepodun","name":"Irepodun","state":"Kwara"},"geometry":{"type":"Polygon","coordinates":[[[4.7565,8.1835],[4.7588,8.1768],[4.7632,8.1611],[4.7632,8.1566],[4.77,8.1364],[4.7767,8.1162],[4.779,8.0982],[4.7812,8.0915],[4.7835,8.0892],[4.7947,8.0735],[4.7969,8.069],[4.7992,8.0645],[4.8059,8.0645],[4.8127,8.06],[4.8194,8.0533],[4.8306,8.0555],[4.8441,8.0623],[4.8531,8.069],[4.8576,8.0735],[4.8576,8.0802],[4.8553,8.087],[4.8508,8.0915],[4.8531,8.0959],[4.8621,8.0937],[4.8778,8.0915],[4.8868,8.0915],[4.8957,8.0892],[4.9137,8.0847],[4.9272,8.0802],[4.9384,8.069],[4.9452,8.06],[4.9496,8.0555],[4.9609,8.0533],[4.9676,8.0465],[4.9699,8.0331],[4.9699,8.0241],[4.9676,8.0196],[4.9699,8.0173],[4.9743,8.0173],[4.9878,8.0331],[4.9968,8.0331],[5.0013,8.0331],[5.0058,8.0443],[5.0103,8.051],[5.0148,8.0555],[5.0215,8.06],[5.0327,8.069],[5.0372,8.0712],[5.0395,8.0712],[5.044,8.069],[5.0507,8.0645],[5.053,8.0578],[5.0552,8.0488],[5.0619,8.0533],[5.0664,8.0555],[5.0687,8.0578],[5.0777,8.0668],[5.0934,8.0802],[5.1271,8.1117],[5.1338,8.1184],[5.1518,8.1364],[5.163,8.1431],[5.1675,8.1476],[5.172,8.1521],[5.1765,8.1588],[5.1765,8.1656],[5.181,8.1813],[5.181,8.1925],[5.1742,8.197],[5.1607,8.1993],[5.154,8.1993],[5.1473,8.1993],[5.1383,8.1948],[5.1271,8.1858],[5.1248,8.1813],[5.1203,8.1701],[5.1136,8.1633],[5.1024,8.1588],[5.0956,8.1588],[5.0889,8.1543],[5.0821,8.1476],[5.0732,8.1454],[5.044,8.1454],[5.0125,8.1498],[5.0058,8.1543],[4.9856,8.1701],[4.9788,8.1768],[4.9631,8.1835],[4.9586,8.1925],[4.9339,8.2217],[4.9205,8.2307],[4.9047,8.2532],[4.9002,8.2599],[4.898,8.2711],[4.889,8.2846],[4.8823,8.2958],[4.88,8.3138],[4.88,8.325],[4.8823,8.3385],[4.8845,8.3497],[4.8845,8.3609],[4.8845,8.3654],[4.8845,8.3699],[4.8688,8.3677],[4.8576,8.3677],[4.8194,8.3587],[4.8059,8.3475],[4.8037,8.343],[4.8037,8.334],[4.8037,8.316],[4.8059,8.3026],[4.8082,8.2779],[4.8037,8.2621],[4.7969,8.2487],[4.7902,8.2329],[4.7767,8.224],[4.7677,8.215],[4.7565,8.2105],[4.7475,8.2105],[4.7475,8.2037],[4.7565,8.1835]]]}},{"type":"Feature","properties":{"id":"kwara/isin","name":"Isin","state":"Kwara"},"geometry":{"type":"Polygon","coordinates":[[[4.8823,8.2958],[4.889,8.2846],[4.898,8.2711],[4.9002,8.2599],[4.9047,8.2532],[4.9205,8.2307],[4.9339,8.2217],[4.9586,8.1925],[4.9631,8.1835],[4.9788,8.1768],[4.9856,8.1701],[5.0058,8.1543],[5.0125,8.1498],[5.044,8.1454],[5.0732,8.1454],[5.0821,8.1476],[5.0889,8.1543],[5.0956,8.1588],[5.1024,8.1588],[5.1136,8.1633],[5.1203,8.1701],[5.1248,8.1813],[5.1271,8.1858],[5.1383,8.1948],[5.1473,8.1993],[5.154,8.1993],[5.1607,8.1993],[5.1742,8.197],[5.181,8.1925],[5.1854,8.188],[5.1922,8.1903],[5.1944,8.1948],[5.1944,8.1993],[5.1989,8.215],[5.2079,8.2262],[5.2169,8.2352],[5.2304,8.2442],[5.2393,8.2554],[5.2349,8.2554],[5.2214,8.2487],[5.2102,8.2487],[5.1989,8.2487],[5.1877,8.2464],[5.1765,8.2532],[5.1765,8.2801],[5.1787,8.2936],[5.1765,8.2981],[5.1675,8.3138],[5.1518,8.3452],[5.1428,8.3587],[5.1338,8.3632],[5.1226,8.3654],[5.1024,8.3654],[5.0866,8.3632],[5.0664,8.3587],[5.0485,8.352],[5.035,8.3497],[5.026,8.3475],[4.9968,8.3475],[4.9856,8.3475],[4.9766,8.3497],[4.9654,8.3542],[4.9564,8.3565],[4.9407,8.3565],[4.9294,8.3609],[4.9205,8.3654],[4.907,8.3699],[4.8913,8.3699],[4.8845,8.3699],[4.8845,8.3654],[4.8845,8.3609],[4.8845,8.3497],[4.8823,8.3385],[4.88,8.325],[4.88,8.3138],[4.8823,8.2958]]]}},{"type":"Feature","properties":{"id":"kwara/kaiama","name":"Kaiama","state":"Kwara"},"geometry":{"type":"Polygon","coordinates":[[[3.8268,9.1829],[3.8627,9.1874],[3.9211,9.1739],[3.9435,9.1492],[3.9727,9.0773],[3.9907,9.0481],[4.0132,9.0347],[4.0716,9.0145],[4.1344,8.9943],[4.2108,8.9695],[4.2535,8.9673],[4.2737,8.9785],[4.2894,8.992],[4.3163,8.9987],[4.3253,8.9943],[4.3298,8.9898],[4.3388,8.9943],[4.3478,8.9943],[4.359,8.9987],[4.3747,9.01],[4.3972,9.0234],[4.4286,9.0369],[4.4444,9.0414],[4.4601,9.0459],[4.4713,9.0526],[4.4893,9.0594],[4.5027,9.0684],[4.5252,9.0751],[4.5499,9.0751],[4.5881,9.0818],[4.6038,9.0841],[4.6105,9.0818],[4.6307,9.0818],[4.6555,9.0796],[4.6757,9.0841],[4.7026,9.0931],[4.7183,9.102],[4.7341,9.12],[4.752,9.1402],[4.7655,9.1492],[4.752,9.1806],[4.752,9.1986],[4.7565,9.2233],[4.7543,9.248],[4.7385,9.2682],[4.7138,9.2772],[4.6846,9.2929],[4.6397,9.3087],[4.6173,9.3311],[4.6105,9.3626],[4.5791,9.3873],[4.5005,9.4412],[4.4444,9.5108],[4.3882,9.5624],[4.35,9.5894],[4.2827,9.6949],[4.2063,9.7825],[4.1704,9.8207],[4.1524,9.8611],[4.1412,9.8611],[4.1277,9.8521],[4.1187,9.8566],[4.1232,9.8611],[4.1232,9.8746],[4.1142,9.8813],[4.0963,9.8768],[4.0963,9.8679],[4.0828,9.8521],[4.0805,9.8521],[4.0783,9.8544],[4.0693,9.8566],[4.0581,9.8566],[4.0513,9.8634],[4.0379,9.8656],[4.0266,9.8566],[4.0221,9.8566],[4.0177,9.8679],[4.0132,9.8858],[4.0109,9.8993],[4.0019,9.906],[3.9952,9.8993],[3.9862,9.8926],[3.9817,9.8993],[3.9795,9.906],[3.9683,9.9038],[3.9548,9.9083],[3.9458,9.9083],[3.9368,9.915],[3.9346,9.9285],[3.9435,9.933],[3.9593,9.933],[3.9683,9.942],[3.9705,9.9487],[3.966,9.9577],[3.9593,9.9599],[3.9503,9.9622],[3.9413,9.9622],[3.9346,9.9667],[3.9346,9.9712],[3.9368,9.9734],[3.9413,9.9756],[3.9525,9.9779],[3.9548,9.9824],[3.9503,9.9914],[3.9346,10.0004],[3.9211,10.0004],[3.9099,9.9891],[3.8874,9.9891],[3.8874,10.0048],[3.8896,10.0161],[3.9031,10.0183],[3.8896,10.0295],[3.8829,10.0363],[3.8717,10.043],[3.8649,10.0498],[3.8515,10.0542],[3.8335,10.0475],[3.8223,10.0542],[3.82,10.0565],[3.8155,9.7039],[3.811,9.2054],[3.811,9.1739],[3.8268,9.1829]]]}},{"type":"Feature","properties":{"id":"kwara/moro","name":"Moro","state":"Kwara"},"geometry":{"type":"Polygon","coordinates":[[[4.2018,8.718],[4.2063,8.7045],[4.2265,8.7023],[4.249,8.7001],[4.2804,8.6978],[4.3074,8.6956],[4.3298,8.6933],[4.3433,8.6911],[4.368,8.6731],[4.3949,8.6551],[4.4196,8.6304],[4.4421,8.608],[4.4556,8.59],[4.4735,8.5765],[4.478,8.5653],[4.478,8.5608],[4.4848,8.5586],[4.4938,8.5608],[4.4982,8.5676],[4.5095,8.5698],[4.523,8.572],[4.5319,8.5698],[4.5499,8.5608],[4.5589,8.5586],[4.5724,8.5586],[4.5971,8.5563],[4.6195,8.5541],[4.651,8.5563],[4.6644,8.5608],[4.6802,8.5743],[4.6914,8.5855],[4.7071,8.599],[4.7138,8.6057],[4.7228,8.6147],[4.7408,8.6304],[4.7655,8.6462],[4.7812,8.6619],[4.8082,8.6821],[4.8261,8.6933],[4.8396,8.7135],[4.8463,8.7248],[4.8621,8.7382],[4.88,8.7472],[4.871,8.7652],[4.8621,8.7832],[4.8486,8.7989],[4.8351,8.8146],[4.8261,8.8303],[4.8149,8.846],[4.8127,8.8618],[4.8082,8.8797],[4.8059,8.8954],[4.8082,8.9134],[4.8037,8.9291],[4.8014,8.9516],[4.8037,8.9628],[4.8127,8.974],[4.8284,8.9853],[4.8396,8.992],[4.8508,8.9987],[4.8508,9.0077],[4.8508,9.0145],[4.8576,9.0167],[4.8666,9.019],[4.8778,9.0212],[4.88,9.0437],[4.8778,9.0481],[4.8823,9.0549],[4.8845,9.0571],[4.8913,9.0571],[4.8935,9.0594],[4.8913,9.0639],[4.8913,9.0706],[4.898,9.0751],[4.9002,9.0863],[4.9002,9.0931],[4.9002,9.0998],[4.9002,9.1065],[4.898,9.1178],[4.8913,9.12],[4.8868,9.1245],[4.8868,9.1312],[4.8845,9.1402],[4.88,9.1515],[4.8755,9.1582],[4.871,9.1559],[4.8576,9.1492],[4.8486,9.1402],[4.8284,9.1335],[4.8149,9.1335],[4.8104,9.1357],[4.8014,9.1357],[4.7857,9.1357],[4.7722,9.147],[4.7677,9.1537],[4.7655,9.1492],[4.752,9.1402],[4.7341,9.12],[4.7183,9.102],[4.7026,9.0931],[4.6757,9.0841],[4.6555,9.0796],[4.6307,9.0818],[4.6105,9.0818],[4.6038,9.0841],[4.5881,9.0818],[4.5499,9.0751],[4.5252,9.0751],[4.5027,9.0684],[4.4893,9.0594],[4.4713,9.0526],[4.4601,9.0459],[4.4444,9.0414],[4.4286,9.0369],[4.3972,9.0234],[4.3747,9.01],[4.359,8.9987],[4.3478,8.9943],[4.3388,8.9943],[4.3298,8.9898],[4.3343,8.9808],[4.3343,8.9583],[4.3208,8.9426],[4.258,8.8999],[4.222,8.8618],[4.1951,8.8168],[4.1906,8.754],[4.2018,8.718]]]}},{"type":"Feature","properties":{"id":"kwara/offa","name":"Offa","state":"Kwara"},"geometry":{"type":"Polygon","coordinates":[[[4.624,8.1296],[4.6307,8.1229],[4.633,8.1207],[4.6307,8.1117],[4.633,8.1094],[4.6442,8.1072],[4.6644,8.1117],[4.6734,8.1139],[4.6802,8.1139],[4.6891,8.1117],[4.7026,8.1117],[4.7138,8.1117],[4.7228,8.1139],[4.7296,8.1162],[4.7385,8.1184],[4.7475,8.1229],[4.7453,8.1296],[4.7408,8.1364],[4.7385,8.1386],[4.7318,8.1476],[4.7273,8.1521],[4.7228,8.1588],[4.7183,8.1746],[4.7116,8.188],[4.7093,8.197],[4.7093,8.2015],[4.7093,8.206],[4.7071,8.2105],[4.7049,8.2127],[4.7026,8.215],[4.6981,8.2172],[4.6936,8.2172],[4.6869,8.215],[4.6757,8.206],[4.6689,8.1993],[4.6689,8.1948],[4.6644,8.1813],[4.651,8.1633],[4.6442,8.1588],[4.6397,8.1566],[4.6307,8.1498],[4.624,8.1409],[4.6218,8.1386],[4.624,8.1296]]]}},{"type":"Feature","properties":{"id":"kwara/oke-ero","name":"Oke-Ero","state":"Kwara"},"geometry":{"type":"Polygon","coordinates":[[[5.0574,8.0398],[5.0619,8.0376],[5.0732,8.0308],[5.0754,8.0241],[5.0844,8.0241],[5.0866,8.0286],[5.1046,8.0465],[5.1136,8.0578],[5.1181,8.0623],[5.1271,8.0623],[5.1428,8.0623],[5.1495,8.0555],[5.1563,8.0533],[5.163,8.0488],[5.163,8.0555],[5.1697,8.0802],[5.1899,8.1139],[5.2057,8.1251],[5.2416,8.1431],[5.2775,8.1543],[5.2955,8.1611],[5.3247,8.1678],[5.3471,8.1723],[5.3674,8.1723],[5.4055,8.179],[5.4347,8.1858],[5.4549,8.197],[5.4572,8.206],[5.4415,8.2172],[5.4325,8.224],[5.4213,8.2284],[5.419,8.2352],[5.4213,8.2509],[5.4213,8.2734],[5.419,8.2846],[5.4055,8.2913],[5.3966,8.2913],[5.3876,8.2823],[5.3808,8.2779],[5.3718,8.2734],[5.3629,8.2734],[5.3561,8.2756],[5.3539,8.2868],[5.3539,8.2981],[5.3539,8.3048],[5.3539,8.3093],[5.3427,8.3205],[5.3359,8.3295],[5.3314,8.3318],[5.3247,8.334],[5.3202,8.325],[5.3112,8.3093],[5.3067,8.3003],[5.3,8.2958],[5.291,8.2846],[5.2865,8.2779],[5.282,8.2734],[5.2753,8.2711],[5.2641,8.2689],[5.2551,8.2666],[5.2461,8.2576],[5.2393,8.2554],[5.2304,8.2442],[5.2169,8.2352],[5.2079,8.2262],[5.1989,8.215],[5.1944,8.1993],[5.1944,8.1948],[5.1922,8.1903],[5.1854,8.188],[5.181,8.1925],[5.181,8.1813],[5.1765,8.1656],[5.1765,8.1588],[5.172,8.1521],[5.1675,8.1476],[5.163,8.1431],[5.1518,8.1364],[5.1338,8.1184],[5.1271,8.1117],[5.0934,8.0802],[5.0777,8.0668],[5.0687,8.0578],[5.0664,8.0555],[5.0619,8.0533],[5.0552,8.0488],[5.0574,8.0398]]]}},{"type":"Feature","properties":{"id":"kwara/oyun","name":"Oyun","state":"Kwara"},"geometry":{"type":"Polygon","coordinates":[[[4.505,8.0915],[4.5342,8.0712],[4.5566,8.0578],[4.5701,8.0555],[4.5791,8.0578],[4.5903,8.0623],[4.6038,8.069],[4.6128,8.0735],[4.6218,8.0757],[4.6285,8.0735],[4.633,8.0712],[4.6352,8.069],[4.633,8.0623],[4.633,8.0578],[4.6375,8.0533],[4.642,8.0533],[4.6487,8.0533],[4.6532,8.051],[4.6599,8.0465],[4.6644,8.0443],[4.6734,8.0465],[4.6757,8.0488],[4.6824,8.0555],[4.6869,8.0578],[4.6914,8.0555],[4.6959,8.0533],[4.7004,8.0488],[4.7049,8.0488],[4.7049,8.051],[4.7116,8.06],[4.7206,8.0645],[4.7363,8.0645],[4.7453,8.0645],[4.7543,8.0645],[4.7655,8.069],[4.7745,8.069],[4.779,8.069],[4.7857,8.069],[4.7992,8.0645],[4.7969,8.069],[4.7947,8.0735],[4.7835,8.0892],[4.7812,8.0915],[4.779,8.0982],[4.7767,8.1162],[4.77,8.1364],[4.7632,8.1566],[4.7632,8.1611],[4.7588,8.1768],[4.7565,8.1835],[4.7475,8.2037],[4.7475,8.2105],[4.7453,8.215],[4.7385,8.2307],[4.7341,8.2374],[4.7296,8.2464],[4.7206,8.2554],[4.7138,8.2689],[4.7071,8.2823],[4.7026,8.2936],[4.6914,8.316],[4.6779,8.3362],[4.6734,8.343],[4.6644,8.3565],[4.6555,8.3497],[4.651,8.3475],[4.642,8.3362],[4.6375,8.3273],[4.6285,8.3093],[4.6285,8.3026],[4.624,8.2891],[4.6218,8.2823],[4.6016,8.2644],[4.5903,8.2509],[4.5858,8.2397],[4.5836,8.2352],[4.5836,8.2284],[4.5836,8.2195],[4.5858,8.2127],[4.5881,8.2037],[4.5926,8.1993],[4.5971,8.1858],[4.5948,8.1701],[4.5926,8.1678],[4.5836,8.1588],[4.5769,8.1543],[4.5589,8.1476],[4.5364,8.1341],[4.5274,8.1319],[4.505,8.1251],[4.496,8.1229],[4.496,8.1162],[4.505,8.0915]],[[4.6218,8.1386],[4.624,8.1296],[4.6307,8.1229],[4.633,8.1207],[4.6307,8.1117],[4.633,8.1094],[4.6442,8.1072],[4.6644,8.1117],[4.6734,8.1139],[4.6802,8.1139],[4.6891,8.1117],[4.7026,8.1117],[4.7138,8.1117],[4.7228,8.1139],[4.7296,8.1162],[4.7385,8.1184],[4.7475,8.1229],[4.7453,8.1296],[4.7408,8.1364],[4.7385,8.1386],[4.7318,8.1476],[4.7273,8.1521],[4.7228,8.1588],[4.7183,8.1746],[4.7116,8.188],[4.7093,8.197],[4.7093,8.2015],[4.7093,8.206],[4.7071,8.2105],[4.7049,8.2127],[4.7026,8.215],[4.6981,8.2172],[4.6936,8.2172],[4.6869,8.215],[4.6757,8.206],[4.6689,8.1993],[4.6689,8.1948],[4.6644,8.1813],[4.651,8.1633],[4.6442,8.1588],[4.6397,8.1566],[4.6307,8.1498],[4.624,8.1409],[4.6218,8.1386]]]}},{"type":"Feature","properties":{"id":"kwara/pategi","name":"Pategi","state":"Kwara"},"geometry":{"type":"Polygon","coordinates":[[[5.4504,8.8258],[5.4617,8.8034],[5.4617,8.7966],[5.4617,8.7832],[5.4594,8.7652],[5.4549,8.7472],[5.4504,8.7203],[5.4549,8.7001],[5.4572,8.6754],[5.4639,8.6664],[5.4774,8.6349],[5.4864,8.6102],[5.5043,8.5788],[5.5156,8.5586],[5.5178,8.5496],[5.5133,8.5384],[5.5246,8.5361],[5.5335,8.5294],[5.5448,8.5226],[5.5538,8.5114],[5.574,8.5069],[5.5874,8.4979],[5.5987,8.489],[5.6436,8.462],[5.6593,8.4598],[5.6885,8.453],[5.7042,8.4463],[5.7199,8.444],[5.7491,8.4373],[5.7671,8.4328],[5.7828,8.4283],[5.8053,8.4261],[5.8188,8.4261],[5.83,8.4261],[5.8502,8.4216],[5.8659,8.4238],[5.8839,8.4238],[5.8974,8.4238],[5.9131,8.4238],[5.9243,8.4171],[5.9423,8.4126],[5.9557,8.4081],[5.9782,8.4059],[5.9917,8.4014],[6.0141,8.4014],[6.0209,8.3969],[6.0411,8.3924],[6.059,8.3946],[6.077,8.3969],[6.0838,8.4014],[6.0972,8.4148],[6.1107,8.4306],[6.1129,8.4418],[6.1129,8.444],[6.1129,8.462],[6.1174,8.4822],[6.1197,8.5114],[6.1242,8.5384],[6.1242,8.5563],[6.1332,8.5676],[6.1489,8.5968],[6.1534,8.617],[6.1624,8.6372],[6.1691,8.6619],[6.1848,8.6866],[6.2095,8.7315],[6.2028,8.7337],[6.1848,8.7293],[6.1691,8.7225],[6.1489,8.7203],[6.1444,8.7293],[6.1309,8.7517],[6.1152,8.7584],[6.0838,8.7607],[6.059,8.7584],[6.0343,8.7584],[6.0007,8.7517],[5.9782,8.7495],[5.9737,8.7562],[5.9445,8.7495],[5.9288,8.7427],[5.9018,8.7495],[5.8861,8.7472],[5.8659,8.745],[5.8232,8.7427],[5.7963,8.7427],[5.7738,8.754],[5.7604,8.7742],[5.7424,8.7989],[5.7289,8.8191],[5.7132,8.8281],[5.6907,8.8281],[5.666,8.8303],[5.6413,8.8348],[5.6189,8.8528],[5.6054,8.8685],[5.6009,8.8775],[5.574,8.8932],[5.5627,8.8999],[5.5425,8.9157],[5.5403,8.9314],[5.5246,8.9404],[5.5246,8.9381],[5.5223,8.9314],[5.5156,8.9201],[5.5066,8.9134],[5.4931,8.9067],[5.4796,8.8954],[5.4729,8.8865],[5.4572,8.8685],[5.4482,8.8618],[5.4482,8.8415],[5.4504,8.8258]]]}}]}