{"type":"FeatureCollection","features":[{"type":"Feature","properties":{"id":"lagos/agege","name":"Agege","state":"Lagos"},"geometry":{"type":"Polygon","coordinates":[[[3.3058,6.6115],[3.308,6.6093],[3.3125,6.607],[3.317,6.6048],[3.3215,6.607],[3.326,6.607],[3.3282,6.607],[3.3372,6.6138],[3.3372,6.6182],[3.3349,6.625],[3.3327,6.6227],[3.326,6.6205],[3.317,6.6452],[3.3147,6.6474],[3.308,6.6474],[3.308,6.6452],[3.299,6.625],[3.299,6.6227],[3.3058,6.6115]]]}},{"type":"Feature","properties":{"id":"lagos/ajeromi-ifelodun","name":"Ajeromi-Ifelodun","state":"Lagos"},"geometry":{"type":"Polygon","coordinates":[[[3.3215,6.4453],[3.3237,6.4408],[3.3305,6.4408],[3.3349,6.4386],[3.3394,6.4363],[3.3462,6.4341],[3.3507,6.4363],[3.3507,6.4431],[3.3529,6.4521],[3.3574,6.4521],[3.3574,6.4565],[3.3574,6.4633],[3.3484,6.461],[3.3439,6.4723],[3.3417,6.4745],[3.3394,6.4745],[3.3215,6.461],[3.317,6.4588],[3.317,6.4543],[3.317,6.4521],[3.3215,6.4453]]]}},{"type":"Feature","properties":{"id":"lagos/alimosho","name":"Alimosho","state":"Lagos"},"geometry":{"type":"Polygon","coordinates":[[[3.198,6.5666],[3.2024,6.5554],[3.2047,6.5464],[3.2047,6.5419],[3.2047,6.5396],[3.2047,6.5351],[3.2047,6.5329],[3.2047,6.5284],[3.2047,6.5239],[3.2069,6.5172],[3.2114,6.5127],[3.2159,6.5037],[3.2182,6.4925],[3.2204,6.4925],[3.2406,6.488],[3.2519,6.4813],[3.2496,6.479],[3.2519,6.479],[3.2631,6.4813],[3.281,6.4857],[3.2855,6.4857],[3.2878,6.4947],[3.29,6.4947],[3.29,6.5015],[3.2878,6.506],[3.2855,6.5104],[3.2833,6.5194],[3.2855,6.5239],[3.2878,6.5262],[3.2878,6.5351],[3.2855,6.5464],[3.2878,6.5531],[3.2878,6.5554],[3.3013,6.5621],[3.3058,6.5621],[3.3125,6.5531],[3.317,6.589],[3.3192,6.5935],[3.3192,6.5958],[3.317,6.6048],[3.3125,6.607],[3.308,6.6093],[3.3058,6.6115],[3.299,6.6227],[3.299,6.625],[3.308,6.6452],[3.308,6.6474],[3.2968,6.6542],[3.2945,6.6564],[3.2855,6.6632],[3.2833,6.6632],[3.2743,6.6699],[3.2721,6.6744],[3.2653,6.6856],[3.2608,6.6901],[3.2541,6.6811],[3.2451,6.6654],[3.2429,6.6609],[3.2384,6.6407],[3.2384,6.6317],[3.2406,6.6295],[3.2406,6.625],[3.2406,6.6182],[3.2406,6.616],[3.2339,6.6048],[3.2294,6.6003],[3.2159,6.5958],[3.2069,6.589],[3.2002,6.5801],[3.198,6.5756],[3.1957,6.5733],[3.1957,6.5711],[3.198,6.5666]]]}},{"type":"Feature","properties":{"id":"lagos/amuwo-odofin","name":"Amuwo-Odofin","state":"Lagos"},"geometry":{"type":"Polygon","coordinates":[[[3.2024,6.4139],[3.2047,6.4026],[3.2069,6.4026],[3.2092,6.4026],[3.2137,6.4026],[3.2182,6.4026],[3.2227,6.4026],[3.2249,6.4026],[3.2272,6.4026],[3.2294,6.4026],[3.2339,6.4026],[3.2361,6.4026],[3.2384,6.4026],[3.2406,6.4026],[3.2474,6.4026],[3.2586,6.4026],[3.2698,6.4026],[3.2766,6.4026],[3.281,6.4026],[3.2833,6.4026],[3.2855,6.4026],[3.2878,6.4026],[3.29,6.4026],[3.2923,6.4026],[3.2968,6.4026],[3.299,6.4026],[3.3013,6.4026],[3.3035,6.4026],[3.3058,6.4026],[3.308,6.4026],[3.3147,6.4026],[3.3192,6.4004],[3.3237,6.4004],[3.326,6.4004],[3.3327,6.4004],[3.3349,6.4004],[3.3372,6.4004],[3.3417,6.4004],[3.3462,6.3982],[3.3529,6.3982],[3.3597,6.3982],[3.3709,6.3982],[3.3776,6.3982],[3.3956,6.3982],[3.4023,6.3982],[3.4023,6.4004],[3.4023,6.4026],[3.4001,6.4026],[3.3978,6.4071],[3.4023,6.4274],[3.4001,6.4341],[3.3956,6.4318],[3.3911,6.4318],[3.3821,6.4251],[3.3776,6.4184],[3.3686,6.4161],[3.3507,6.4094],[3.3484,6.4094],[3.3394,6.4139],[3.3372,6.4139],[3.3372,6.4184],[3.3394,6.4206],[3.3507,6.4251],[3.3552,6.4274],[3.3552,6.4296],[3.3507,6.4296],[3.3484,6.4296],[3.3462,6.4274],[3.3439,6.4274],[3.3394,6.4274],[3.3349,6.4274],[3.3327,6.4296],[3.3305,6.4341],[3.3349,6.4363],[3.3394,6.4363],[3.3349,6.4386],[3.3305,6.4408],[3.3237,6.4408],[3.3215,6.4453],[3.317,6.4521],[3.317,6.4543],[3.317,6.4588],[3.3192,6.4633],[3.326,6.4723],[3.3282,6.4768],[3.3282,6.4813],[3.326,6.4857],[3.3237,6.4902],[3.3215,6.4947],[3.3215,6.497],[3.3192,6.4947],[3.317,6.4902],[3.3147,6.488],[3.2923,6.4813],[3.29,6.4947],[3.2878,6.4947],[3.2855,6.4857],[3.281,6.4857],[3.2631,6.4813],[3.2519,6.479],[3.2496,6.479],[3.2429,6.4768],[3.2384,6.4723],[3.2384,6.4565],[3.2294,6.4521],[3.2137,6.4476],[3.2182,6.4408],[3.2204,6.4363],[3.2137,6.4341],[3.2069,6.4341],[3.2047,6.4341],[3.2002,6.4318],[3.2002,6.4296],[3.2002,6.4206],[3.2002,6.4161],[3.2024,6.4139]]]}},{"type":"Feature","properties":{"id":"lagos/apapa","name":"Apapa","state":"Lagos"},"geometry":{"type":"Polygon","coordinates":[[[3.3327,6.4296],[3.3349,6.4274],[3.3394,6.4274],[3.3439,6.4274],[3.3462,6.4274],[3.3484,6.4296],[3.3507,6.4296],[3.3552,6.4296],[3.3552,6.4274],[3.3507,6.4251],[3.3394,6.4206],[3.3372,6.4184],[3.3372,6.4139],[3.3394,6.4139],[3.3484,6.4094],[3.3507,6.4094],[3.3686,6.4161],[3.3776,6.4184],[3.3821,6.4251],[3.3911,6.4318],[3.3956,6.4318],[3.4001,6.4341],[3.3978,6.4363],[3.3933,6.4408],[3.3866,6.4453],[3.3799,6.4498],[3.3776,6.4521],[3.3754,6.4565],[3.3776,6.4588],[3.3799,6.461],[3.3821,6.4633],[3.3799,6.4655],[3.3776,6.4678],[3.3754,6.4678],[3.3686,6.4678],[3.3641,6.4678],[3.3641,6.4723],[3.3641,6.4745],[3.3641,6.4768],[3.3574,6.479],[3.3507,6.479],[3.3462,6.4768],[3.3417,6.4745],[3.3439,6.4723],[3.3484,6.461],[3.3574,6.4633],[3.3574,6.4565],[3.3574,6.4521],[3.3529,6.4521],[3.3507,6.4431],[3.3507,6.4363],[3.3462,6.4341],[3.3394,6.4363],[3.3349,6.4363],[3.3305,6.4341],[3.3327,6.4296]]]}},{"type":"Feature","properties":{"id":"lagos/badagry","name":"Badagry","state":"Lagos"},"geometry":{"type":"Polygon","coordinates":[[[2.7084,6.4184],[2.7084,6.4116],[2.7084,6.4094],[2.7084,6.4004],[2.7084,6.3937],[2.7084,6.3847],[2.7084,6.3779],[2.7084,6.3757],[2.7106,6.3757],[2.7241,6.3779],[2.7308,6.3779],[2.7331,6.3779],[2.7376,6.3802],[2.7421,6.3802],[2.7466,6.3802],[2.7578,6.3824],[2.7802,6.3847],[2.787,6.3847],[2.7982,6.3869],[2.8049,6.3892],[2.8364,6.3937],[2.8633,6.3937],[2.8903,6.3937],[2.9419,6.3959],[2.9734,6.3982],[2.9891,6.3982],[3.0138,6.3982],[3.034,6.3982],[3.0632,6.4004],[3.0744,6.4004],[3.0789,6.4049],[3.0834,6.4094],[3.0857,6.4094],[3.0879,6.4094],[3.0902,6.4094],[3.0947,6.4071],[3.0969,6.4071],[3.1059,6.4094],[3.1081,6.4206],[3.1081,6.4251],[3.1059,6.4386],[3.1014,6.4476],[3.0947,6.4565],[3.0947,6.4588],[3.0924,6.461],[3.0947,6.4678],[3.0969,6.4655],[3.1014,6.4655],[3.1104,6.47],[3.1126,6.47],[3.1149,6.4723],[3.1149,6.4745],[3.1171,6.4768],[3.1171,6.4813],[3.1149,6.4813],[3.1126,6.488],[3.1059,6.4947],[3.1036,6.4992],[3.1014,6.4992],[3.0902,6.4992],[3.0789,6.4992],[3.0699,6.4992],[3.0632,6.4992],[3.0542,6.4992],[3.0497,6.4992],[3.043,6.4992],[3.0273,6.497],[3.0228,6.4992],[3.0205,6.4992],[3.016,6.4992],[3.0048,6.5015],[2.9801,6.5015],[2.9689,6.5015],[2.9464,6.5015],[2.9352,6.5015],[2.9307,6.5015],[2.9172,6.5037],[2.897,6.5015],[2.8925,6.5015],[2.8948,6.4992],[2.897,6.4947],[2.897,6.4925],[2.897,6.488],[2.8925,6.479],[2.8903,6.4768],[2.8791,6.47],[2.8746,6.47],[2.8678,6.4723],[2.8656,6.4723],[2.8588,6.4678],[2.8588,6.461],[2.8544,6.4543],[2.8544,6.4521],[2.8521,6.4498],[2.8431,6.4431],[2.8319,6.4431],[2.8274,6.4476],[2.8229,6.4521],[2.8184,6.4543],[2.8072,6.4588],[2.7982,6.461],[2.7937,6.4588],[2.7892,6.4565],[2.787,6.4543],[2.7847,6.4521],[2.7802,6.4521],[2.7645,6.4521],[2.7488,6.4498],[2.7443,6.4498],[2.7398,6.4543],[2.7353,6.4588],[2.7196,6.4588],[2.7129,6.4588],[2.7106,6.4521],[2.7106,6.4453],[2.7084,6.4431],[2.7084,6.4386],[2.7084,6.4318],[2.7061,6.4251],[2.7084,6.4184]]]}},{"type":"Feature","properties":{"id":"lagos/epe","name":"Epe","state":"Lagos"},"geometry":{"type":"Polygon","coordinates":[[[3.6224,6.4857],[3.6404,6.479],[3.6426,6.479],[3.6449,6.4813],[3.6471,6.4857],[3.6471,6.488],[3.6516,6.4902],[3.6561,6.4925],[3.6606,6.4925],[3.6628,6.4925],[3.7639,6.5351],[3.7976,6.5486],[3.8178,6.5554],[3.8313,6.5599],[3.8492,6.5621],[3.856,6.5621],[3.8605,6.5621],[3.8694,6.5576],[3.8717,6.5554],[3.9233,6.5127],[3.9346,6.5037],[3.948,6.4992],[3.9503,6.4992],[3.9548,6.4992],[3.9593,6.4992],[3.9593,6.4318],[3.9593,6.4274],[3.9705,6.4274],[3.9727,6.4274],[3.975,6.4251],[3.9907,6.4229],[3.9952,6.4229],[3.9974,6.4229],[3.9974,6.4251],[3.9974,6.4902],[3.9997,6.4902],[4.0042,6.4902],[4.0087,6.4902],[4.0087,6.488],[4.0132,6.4768],[4.0154,6.4745],[4.0177,6.4723],[4.0424,6.4633],[4.0536,6.4543],[4.0558,6.4476],[4.0581,6.4453],[4.0693,6.4363],[4.076,6.4341],[4.0873,6.4363],[4.0895,6.4363],[4.094,6.4341],[4.0985,6.4296],[4.1007,6.4274],[4.103,6.4274],[4.1052,6.4274],[4.1075,6.4251],[4.1165,6.4251],[4.1277,6.4296],[4.1412,6.4318],[4.1457,6.4341],[4.1524,6.4318],[4.1591,6.4229],[4.1659,6.4206],[4.1816,6.4206],[4.1861,6.4229],[4.1951,6.4229],[4.2041,6.4184],[4.2108,6.4094],[4.2153,6.4049],[4.24,6.3824],[4.2422,6.3824],[4.2512,6.3802],[4.2602,6.3802],[4.2669,6.3779],[4.2692,6.3779],[4.2737,6.3779],[4.2782,6.3779],[4.2939,6.3779],[4.3051,6.3757],[4.3298,6.3735],[4.3433,6.3712],[4.35,6.3712],[4.35,6.3779],[4.35,6.3892],[4.35,6.4161],[4.35,6.4206],[4.35,6.4274],[4.35,6.4296],[4.3433,6.4363],[4.3366,6.4386],[4.3321,6.4386],[4.3231,6.4386],[4.3163,6.4386],[4.3096,6.4386],[4.3029,6.4386],[4.2984,6.4341],[4.2961,6.4341],[4.2871,6.4363],[4.2849,6.4363],[4.2782,6.4386],[4.2759,6.4386],[4.2759,6.4408],[4.2714,6.4431],[4.2647,6.4431],[4.2602,6.4431],[4.2535,6.4408],[4.2535,6.4386],[4.2535,6.4363],[4.2535,6.4341],[4.249,6.4341],[4.2445,6.4341],[4.2377,6.4386],[4.2288,6.4453],[4.2265,6.4453],[4.222,6.4498],[4.2198,6.4565],[4.2198,6.4588],[4.2175,6.4633],[4.213,6.4655],[4.2085,6.4633],[4.1996,6.4633],[4.1928,6.4633],[4.1838,6.4678],[4.1749,6.4723],[4.1659,6.4745],[4.1591,6.4813],[4.1569,6.4925],[4.1614,6.5015],[4.1749,6.5104],[4.1771,6.5127],[4.1794,6.5149],[4.1816,6.5172],[4.1861,6.5172],[4.1928,6.5194],[4.1951,6.5194],[4.2063,6.5262],[4.2108,6.5284],[4.222,6.5374],[4.2243,6.5441],[4.2265,6.5509],[4.2288,6.5576],[4.222,6.5643],[4.2198,6.5666],[4.2175,6.5733],[4.2153,6.5778],[4.2108,6.5823],[4.1996,6.589],[4.1996,6.5868],[4.1861,6.5846],[4.1794,6.5868],[4.1794,6.589],[4.1726,6.5913],[4.1659,6.5935],[4.1614,6.5913],[4.1591,6.5913],[4.1546,6.5868],[4.1502,6.5801],[4.1434,6.5756],[4.1389,6.5733],[4.1322,6.5711],[4.1299,6.5711],[4.1255,6.5688],[4.1165,6.5643],[4.1097,6.5576],[4.1097,6.5531],[4.1097,6.5464],[4.103,6.5464],[4.1007,6.5464],[4.094,6.5464],[4.094,6.5486],[4.0918,6.5554],[4.0918,6.5576],[4.0873,6.5599],[4.0805,6.5599],[4.0693,6.5643],[4.0603,6.589],[4.0558,6.6025],[4.0513,6.616],[4.0513,6.6182],[4.0581,6.6295],[4.0671,6.634],[4.0738,6.6362],[4.0805,6.6385],[4.085,6.6407],[4.0873,6.6452],[4.0963,6.6519],[4.0918,6.6609],[4.0895,6.6654],[4.0918,6.6676],[4.094,6.6699],[4.0918,6.6789],[4.0783,6.6789],[4.0738,6.6789],[4.0491,6.6811],[3.9705,6.6789],[3.9166,6.6811],[3.8155,6.6811],[3.7077,6.6834],[3.701,6.6834],[3.6965,6.6744],[3.683,6.6429],[3.683,6.6407],[3.683,6.6385],[3.6853,6.634],[3.6853,6.6317],[3.6898,6.6295],[3.6965,6.625],[3.701,6.6182],[3.7055,6.6048],[3.7033,6.6025],[3.6988,6.598],[3.6965,6.5958],[3.6943,6.5913],[3.6898,6.589],[3.6875,6.5868],[3.6718,6.5733],[3.6583,6.5643],[3.6494,6.5599],[3.6494,6.5576],[3.6426,6.5509],[3.6381,6.5396],[3.6381,6.5374],[3.6314,6.5239],[3.6269,6.5149],[3.6291,6.5015],[3.6224,6.4925],[3.6202,6.4925],[3.6202,6.4902],[3.6202,6.488],[3.6224,6.4857]]]}},{"type":"Feature","properties":{"id":"lagos/eti-osa","name":"Eti-Osa","state":"Lagos"},"geometry":{"type":"Polygon","coordinates":[[[3.4001,6.4026],[3.4023,6.4026],[3.4023,6.4049],[3.4046,6.4094],[3.4046,6.4116],[3.4068,6.4139],[3.4091,6.4161],[3.4113,6.4161],[3.4135,6.4184],[3.4158,6.4184],[3.418,6.4184],[3.4225,6.4206],[3.4248,6.4206],[3.427,6.4206],[3.4293,6.4206],[3.4293,6.4229],[3.4315,6.4229],[3.4338,6.4229],[3.4383,6.4206],[3.4405,6.4184],[3.4427,6.4184],[3.4472,6.4184],[3.4495,6.4184],[3.454,6.4184],[3.4562,6.4206],[3.4585,6.4206],[3.4607,6.4206],[3.4674,6.4184],[3.4719,6.4184],[3.4764,6.4184],[3.4809,6.4184],[3.4854,6.4184],[3.4922,6.4184],[3.4966,6.4206],[3.5011,6.4206],[3.5079,6.4184],[3.5169,6.4184],[3.5191,6.4184],[3.5236,6.4206],[3.5438,6.4206],[3.5505,6.4206],[3.5595,6.4206],[3.564,6.4206],[3.5708,6.4206],[3.5752,6.4206],[3.5887,6.4206],[3.5955,6.4206],[3.6022,6.4206],[3.6157,6.4206],[3.6269,6.4229],[3.6291,6.4229],[3.6314,6.4229],[3.6336,6.4251],[3.6741,6.4768],[3.6718,6.4857],[3.6696,6.488],[3.6673,6.4902],[3.6628,6.4925],[3.6606,6.4925],[3.6561,6.4925],[3.6516,6.4902],[3.6471,6.488],[3.6471,6.4857],[3.6449,6.4813],[3.6426,6.479],[3.6404,6.479],[3.6224,6.4857],[3.6202,6.488],[3.6202,6.4902],[3.6202,6.4925],[3.6224,6.4925],[3.6291,6.5015],[3.6269,6.5149],[3.6314,6.5239],[3.6381,6.5374],[3.6314,6.5374],[3.6291,6.5239],[3.6157,6.5127],[3.6067,6.5149],[3.6022,6.5172],[3.5865,6.5149],[3.5775,6.5127],[3.573,6.5127],[3.573,6.5082],[3.5752,6.5037],[3.5775,6.5015],[3.5797,6.5015],[3.5797,6.4992],[3.5797,6.4947],[3.5752,6.488],[3.5708,6.4835],[3.5663,6.479],[3.5618,6.4745],[3.5528,6.4678],[3.5505,6.4678],[3.5505,6.47],[3.5393,6.47],[3.5348,6.4678],[3.5326,6.4655],[3.5326,6.4633],[3.5213,6.4655],[3.5191,6.4678],[3.5124,6.4678],[3.5101,6.4655],[3.5101,6.4633],[3.5101,6.4588],[3.5101,6.4565],[3.5079,6.4565],[3.5056,6.4543],[3.4989,6.4543],[3.4922,6.4498],[3.4877,6.4521],[3.4832,6.4565],[3.4787,6.4633],[3.4764,6.461],[3.4697,6.461],[3.4652,6.461],[3.463,6.461],[3.463,6.4633],[3.4607,6.4633],[3.4607,6.4655],[3.4562,6.4655],[3.454,6.4678],[3.4472,6.4678],[3.445,6.4678],[3.4427,6.4655],[3.436,6.4633],[3.4315,6.4655],[3.4293,6.4655],[3.4203,6.4678],[3.4158,6.4633],[3.4113,6.461],[3.4068,6.461],[3.4091,6.4543],[3.4091,6.4521],[3.4091,6.4476],[3.4068,6.4431],[3.4046,6.4386],[3.4023,6.4363],[3.4001,6.4341],[3.4023,6.4274],[3.3978,6.4071],[3.4001,6.4026]]]}},{"type":"Feature","properties":{"id":"lagos/ibeju-lekki","name":"Ibeju/Lekki","state":"Lagos"},"geometry":{"type":"MultiPolygon","coordinates":[[[[3.6404,6.4229],[3.6628,6.4229],[3.6718,6.4229],[3.6785,6.4229],[3.6875,6.4229],[3.6965,6.4229],[3.7145,6.4251],[3.7212,6.4251],[3.7324,6.4274],[3.7369,6.4274],[3.7504,6.4296],[3.7594,6.4296],[3.7684,6.4318],[3.7706,6.4318],[3.7774,6.4318],[3.7796,6.4318],[3.7908,6.4341],[3.7976,6.4341],[3.8066,6.4363],[3.8133,6.4363],[3.82,6.4363],[3.8313,6.4363],[3.8358,6.4363],[3.8447,6.4363],[3.8537,6.4363],[3.8605,6.4363],[3.8717,6.4341],[3.8739,6.4341],[3.8852,6.4341],[3.8964,6.4341],[3.9099,6.4318],[3.9144,6.4318],[3.9256,6.4318],[3.9413,6.4296],[3.9458,6.4296],[3.9503,6.4296],[3.9548,6.4274],[3.9593,6.4274],[3.9593,6.4318],[3.9593,6.4992],[3.9548,6.4992],[3.9503,6.4992],[3.948,6.4992],[3.9346,6.5037],[3.9233,6.5127],[3.8717,6.5554],[3.8694,6.5576],[3.8605,6.5621],[3.856,6.5621],[3.8492,6.5621],[3.8313,6.5599],[3.8178,6.5554],[3.7976,6.5486],[3.7639,6.5351],[3.6628,6.4925],[3.6673,6.4902],[3.6696,6.488],[3.6718,6.4857],[3.6741,6.4768],[3.6336,6.4251],[3.6314,6.4229],[3.6404,6.4229]]],[[[4.0042,6.4206],[4.0109,6.4206],[4.0244,6.4184],[4.0356,6.4161],[4.0491,6.4139],[4.0536,6.4139],[4.0581,6.4139],[4.0603,6.4139],[4.0671,6.4116],[4.076,6.4116],[4.085,6.4071],[4.0918,6.4071],[4.103,6.4049],[4.1142,6.4026],[4.1187,6.4004],[4.121,6.4004],[4.1255,6.4004],[4.1322,6.4004],[4.1367,6.3982],[4.1479,6.3982],[4.1502,6.3959],[4.1524,6.3959],[4.1861,6.3892],[4.1928,6.3892],[4.1973,6.3869],[4.222,6.3847],[4.24,6.3824],[4.2153,6.4049],[4.2108,6.4094],[4.2041,6.4184],[4.1951,6.4229],[4.1861,6.4229],[4.1816,6.4206],[4.1659,6.4206],[4.1591,6.4229],[4.1524,6.4318],[4.1457,6.4341],[4.1412,6.4318],[4.1277,6.4296],[4.1165,6.4251],[4.1075,6.4251],[4.1052,6.4274],[4.103,6.4274],[4.1007,6.4274],[4.0985,6.4296],[4.094,6.4341],[4.0895,6.4363],[4.0873,6.4363],[4.076,6.4341],[4.0693,6.4363],[4.0581,6.4453],[4.0558,6.4476],[4.0536,6.4543],[4.0424,6.4633],[4.0177,6.4723],[4.0154,6.4745],[4.0132,6.4768],[4.0087,6.488],[4.0087,6.4902],[4.0042,6.4902],[3.9997,6.4902],[3.9974,6.4902],[3.9974,6.4251],[3.9974,6.4229],[4.0042,6.4206]]]]}},{"type":"Feature","properties":{"id":"lagos/ifako-ijaye","name":"Ifako-Ijaye","state":"Lagos"},"geometry":{"type":"Polygon","coordinates":[[[3.2653,6.6856],[3.2721,6.6744],[3.2743,6.6699],[3.2833,6.6632],[3.2855,6.6632],[3.2945,6.6564],[3.2968,6.6542],[3.308,6.6474],[3.3147,6.6474],[3.317,6.6452],[3.326,6.6205],[3.3327,6.6227],[3.3349,6.625],[3.3372,6.625],[3.3417,6.6317],[3.3439,6.634],[3.3439,6.6385],[3.3439,6.6429],[3.3439,6.6452],[3.3439,6.6519],[3.3507,6.6587],[3.3439,6.6654],[3.3372,6.6676],[3.3327,6.6676],[3.3282,6.6676],[3.3215,6.6654],[3.317,6.6676],[3.3125,6.6699],[3.3102,6.6721],[3.308,6.6721],[3.2968,6.6766],[3.29,6.6789],[3.2878,6.6811],[3.2855,6.6811],[3.281,6.6834],[3.2788,6.6856],[3.2766,6.6856],[3.2698,6.6924],[3.2676,6.6946],[3.2653,6.6968],[3.2631,6.6968],[3.2608,6.6901],[3.2653,6.6856]]]}},{"type":"Feature","properties":{"id":"lagos/ikeja","name":"Ikeja","state":"Lagos"},"geometry":{"type":"Polygon","coordinates":[[[3.3192,6.5509],[3.3237,6.5554],[3.3215,6.5599],[3.3215,6.5643],[3.326,6.5643],[3.3282,6.5643],[3.3349,6.5711],[3.3349,6.5801],[3.3327,6.5868],[3.3372,6.589],[3.3394,6.589],[3.3529,6.5554],[3.3686,6.5576],[3.3664,6.5666],[3.3709,6.5733],[3.3754,6.5801],[3.3799,6.5868],[3.3844,6.5935],[3.3821,6.5958],[3.3709,6.6115],[3.3664,6.6182],[3.3641,6.6227],[3.3641,6.625],[3.3664,6.6295],[3.3664,6.6317],[3.3709,6.6385],[3.3709,6.6407],[3.3664,6.6429],[3.3552,6.6519],[3.3507,6.6587],[3.3439,6.6519],[3.3439,6.6452],[3.3439,6.6429],[3.3439,6.6385],[3.3439,6.634],[3.3417,6.6317],[3.3372,6.625],[3.3349,6.625],[3.3372,6.6182],[3.3372,6.6138],[3.3282,6.607],[3.326,6.607],[3.3215,6.607],[3.317,6.6048],[3.3192,6.5958],[3.3192,6.5935],[3.317,6.589],[3.3125,6.5509],[3.3192,6.5509]]]}},{"type":"Feature","properties":{"id":"lagos/ikorodu","name":"Ikorodu","state":"Lagos"},"geometry":{"type":"Polygon","coordinates":[[[3.3821,6.4633],[3.3844,6.4633],[3.3933,6.4633],[3.4046,6.4588],[3.4068,6.461],[3.4113,6.461],[3.4158,6.4633],[3.4203,6.4678],[3.4293,6.4655],[3.4315,6.4655],[3.436,6.4633],[3.4427,6.4655],[3.445,6.4678],[3.4472,6.4678],[3.454,6.4678],[3.4562,6.4655],[3.4607,6.4655],[3.4607,6.4633],[3.463,6.4633],[3.463,6.461],[3.4652,6.461],[3.4697,6.461],[3.4764,6.461],[3.4787,6.4633],[3.4832,6.4565],[3.4877,6.4521],[3.4922,6.4498],[3.4989,6.4543],[3.5056,6.4543],[3.5079,6.4565],[3.5101,6.4565],[3.5101,6.4588],[3.5101,6.4633],[3.5101,6.4655],[3.5124,6.4678],[3.5191,6.4678],[3.5213,6.4655],[3.5326,6.4633],[3.5326,6.4655],[3.5348,6.4678],[3.5393,6.47],[3.5505,6.47],[3.5505,6.4678],[3.5528,6.4678],[3.5618,6.4745],[3.5663,6.479],[3.5708,6.4835],[3.5752,6.488],[3.5797,6.4947],[3.5797,6.4992],[3.5797,6.5015],[3.5775,6.5015],[3.5752,6.5037],[3.573,6.5082],[3.573,6.5127],[3.5775,6.5127],[3.5865,6.5149],[3.6022,6.5172],[3.6067,6.5149],[3.6157,6.5127],[3.6291,6.5239],[3.6314,6.5374],[3.6381,6.5374],[3.6381,6.5396],[3.6426,6.5509],[3.6494,6.5576],[3.6494,6.5599],[3.6583,6.5643],[3.6718,6.5733],[3.6875,6.5868],[3.6898,6.589],[3.6943,6.5913],[3.6965,6.5958],[3.6988,6.598],[3.7033,6.6025],[3.7055,6.6048],[3.701,6.6182],[3.6965,6.625],[3.6898,6.6295],[3.6853,6.6317],[3.6853,6.634],[3.683,6.6385],[3.683,6.6407],[3.683,6.6429],[3.6965,6.6744],[3.701,6.6834],[3.5955,6.6834],[3.463,6.6834],[3.4652,6.6744],[3.4652,6.6654],[3.4585,6.6654],[3.454,6.6721],[3.4472,6.6699],[3.445,6.6676],[3.445,6.6654],[3.4495,6.6587],[3.4517,6.6519],[3.4562,6.6429],[3.4472,6.6407],[3.4338,6.6385],[3.436,6.6205],[3.4405,6.6115],[3.4427,6.607],[3.4338,6.6048],[3.4315,6.6025],[3.4315,6.6003],[3.4293,6.6003],[3.4293,6.598],[3.4293,6.5958],[3.418,6.5913],[3.4113,6.5935],[3.4046,6.5958],[3.4046,6.5935],[3.4046,6.5846],[3.4068,6.5823],[3.418,6.5846],[3.418,6.5823],[3.418,6.5778],[3.4113,6.5756],[3.4091,6.5733],[3.4001,6.5688],[3.4001,6.5666],[3.4023,6.5621],[3.4068,6.5531],[3.4068,6.5509],[3.4068,6.5464],[3.4046,6.5329],[3.4023,6.5351],[3.4001,6.5396],[3.4001,6.5239],[3.4023,6.5194],[3.4023,6.5172],[3.4046,6.5172],[3.4046,6.5149],[3.4046,6.506],[3.4001,6.4947],[3.3978,6.4902],[3.3933,6.488],[3.3888,6.4768],[3.3844,6.47],[3.3844,6.4678],[3.3821,6.4678],[3.3799,6.4655],[3.3821,6.4633]]]}},{"type":"Feature","properties":{"id":"lagos/kosofe","name":"Kosofe","state":"Lagos"},"geometry":{"type":"Polygon","coordinates":[[[3.3664,6.6182],[3.3709,6.6115],[3.3821,6.5958],[3.3844,6.5935],[3.3799,6.5868],[3.3754,6.5801],[3.3709,6.5733],[3.3664,6.5666],[3.3686,6.5576],[3.3799,6.5486],[3.3844,6.5464],[3.3911,6.5486],[3.3956,6.5486],[3.3978,6.5486],[3.4001,6.5396],[3.4023,6.5351],[3.4046,6.5329],[3.4068,6.5464],[3.4068,6.5509],[3.4068,6.5531],[3.4023,6.5621],[3.4001,6.5666],[3.4001,6.5688],[3.4091,6.5733],[3.4113,6.5756],[3.418,6.5778],[3.418,6.5823],[3.418,6.5846],[3.4068,6.5823],[3.4046,6.5846],[3.4046,6.5935],[3.4046,6.5958],[3.4113,6.5935],[3.418,6.5913],[3.4293,6.5958],[3.4293,6.598],[3.4293,6.6003],[3.4315,6.6003],[3.4315,6.6025],[3.4338,6.6048],[3.4427,6.607],[3.4405,6.6115],[3.436,6.6205],[3.4338,6.6385],[3.3776,6.6385],[3.3709,6.6385],[3.3664,6.6317],[3.3664,6.6295],[3.3641,6.625],[3.3641,6.6227],[3.3664,6.6182]]]}},{"type":"Feature","properties":{"id":"lagos/lagos-island","name":"Lagos Island","state":"Lagos"},"geometry":{"type":"Polygon","coordinates":[[[3.3776,6.4521],[3.3799,6.4498],[3.3866,6.4453],[3.3933,6.4408],[3.3978,6.4363],[3.4001,6.4341],[3.4023,6.4363],[3.4046,6.4386],[3.4068,6.4431],[3.4091,6.4476],[3.4091,6.4521],[3.4091,6.4543],[3.4068,6.461],[3.4046,6.4588],[3.3933,6.4633],[3.3844,6.4633],[3.3821,6.4633],[3.3799,6.461],[3.3776,6.4588],[3.3754,6.4565],[3.3776,6.4521]]]}},{"type":"Feature","properties":{"id":"lagos/lagos-mainland","name":"Lagos Mainland","state":"Lagos"},"geometry":{"type":"Polygon","coordinates":[[[3.3686,6.4678],[3.3754,6.4678],[3.3776,6.4678],[3.3799,6.4655],[3.3821,6.4678],[3.3844,6.4678],[3.3844,6.47],[3.3888,6.4768],[3.3933,6.488],[3.3978,6.4902],[3.4001,6.4947],[3.4046,6.506],[3.4046,6.5149],[3.4046,6.5172],[3.4023,6.5172],[3.4023,6.5194],[3.4001,6.5239],[3.3978,6.5239],[3.3888,6.5239],[3.3821,6.5217],[3.3776,6.5217],[3.3754,6.5194],[3.3686,6.5194],[3.3844,6.4813],[3.3799,6.4813],[3.3754,6.4813],[3.3731,6.4813],[3.3686,6.4813],[3.3664,6.479],[3.3664,6.4768],[3.3641,6.4745],[3.3641,6.4723],[3.3641,6.4678],[3.3686,6.4678]]]}},{"type":"Feature","properties":{"id":"lagos/mushin","name":"Mushin","state":"Lagos"},"geometry":{"type":"Polygon","coordinates":[[[3.3282,6.4992],[3.3349,6.5037],[3.3372,6.5082],[3.3417,6.5104],[3.3552,6.5127],[3.3619,6.5149],[3.3664,6.5172],[3.3686,6.5194],[3.3686,6.5576],[3.3529,6.5554],[3.3417,6.5509],[3.3394,6.5486],[3.3372,6.5464],[3.3372,6.5194],[3.3349,6.5149],[3.3305,6.5127],[3.3282,6.5104],[3.326,6.5082],[3.3237,6.5037],[3.3282,6.4992]]]}},{"type":"Feature","properties":{"id":"lagos/ojo","name":"Ojo","state":"Lagos"},"geometry":{"type":"Polygon","coordinates":[[[3.1104,6.3982],[3.1238,6.4004],[3.162,6.4004],[3.171,6.4026],[3.1822,6.4026],[3.2024,6.4026],[3.2047,6.4026],[3.2024,6.4139],[3.2002,6.4161],[3.2002,6.4206],[3.2002,6.4296],[3.2002,6.4318],[3.2047,6.4341],[3.2069,6.4341],[3.2137,6.4341],[3.2204,6.4363],[3.2182,6.4408],[3.2137,6.4476],[3.2294,6.4521],[3.2384,6.4565],[3.2384,6.4723],[3.2429,6.4768],[3.2496,6.479],[3.2519,6.4813],[3.2406,6.488],[3.2204,6.4925],[3.2182,6.4925],[3.2159,6.5037],[3.2114,6.5127],[3.2069,6.5172],[3.2047,6.5239],[3.2047,6.5284],[3.2002,6.5284],[3.1912,6.5239],[3.189,6.5217],[3.1867,6.5194],[3.1822,6.5149],[3.18,6.5104],[3.1777,6.5082],[3.1755,6.5082],[3.1485,6.5037],[3.1194,6.5015],[3.1104,6.5015],[3.1081,6.5015],[3.1036,6.4992],[3.1059,6.4947],[3.1126,6.488],[3.1149,6.4813],[3.1171,6.4813],[3.1171,6.4768],[3.1149,6.4745],[3.1149,6.4723],[3.1126,6.47],[3.1104,6.47],[3.1014,6.4655],[3.0969,6.4655],[3.0947,6.4678],[3.0924,6.461],[3.0947,6.4588],[3.0947,6.4565],[3.1014,6.4476],[3.1059,6.4386],[3.1081,6.4251],[3.1081,6.4206],[3.1059,6.4094],[3.0969,6.4071],[3.0947,6.4071],[3.0902,6.4094],[3.0879,6.4094],[3.0857,6.4094],[3.0834,6.4094],[3.0789,6.4049],[3.0744,6.4004],[3.0722,6.4004],[3.0722,6.3982],[3.1104,6.3982]]]}},{"type":"Feature","properties":{"id":"lagos/oshodi-isolo","name":"Oshodi-Isolo","state":"Lagos"},"geometry":{"type":"Polygon","coordinates":[[[3.2855,6.5104],[3.2878,6.506],[3.29,6.5015],[3.29,6.4947],[3.2923,6.4813],[3.3147,6.488],[3.317,6.4902],[3.3192,6.4947],[3.3215,6.497],[3.3237,6.5015],[3.3237,6.5037],[3.326,6.5082],[3.3282,6.5104],[3.3305,6.5127],[3.3349,6.5149],[3.3372,6.5194],[3.3372,6.5464],[3.3394,6.5486],[3.3417,6.5509],[3.3529,6.5554],[3.3394,6.589],[3.3372,6.589],[3.3327,6.5868],[3.3349,6.5801],[3.3349,6.5711],[3.3282,6.5643],[3.326,6.5643],[3.3215,6.5643],[3.3215,6.5599],[3.3237,6.5554],[3.3192,6.5509],[3.3125,6.5509],[3.3125,6.5531],[3.3058,6.5621],[3.3013,6.5621],[3.2878,6.5554],[3.2878,6.5531],[3.2855,6.5464],[3.2878,6.5351],[3.2878,6.5262],[3.2855,6.5239],[3.2833,6.5194],[3.2855,6.5104]]]}},{"type":"Feature","properties":{"id":"lagos/shomolu","name":"Shomolu","state":"Lagos"},"geometry":{"type":"Polygon","coordinates":[[[3.3754,6.5194],[3.3776,6.5217],[3.3821,6.5217],[3.3888,6.5239],[3.3978,6.5239],[3.4001,6.5239],[3.4001,6.5396],[3.3978,6.5486],[3.3956,6.5486],[3.3911,6.5486],[3.3844,6.5464],[3.3799,6.5486],[3.3686,6.5576],[3.3686,6.5194],[3.3754,6.5194]]]}},{"type":"Feature","properties":{"id":"lagos/surulere","name":"Surulere","state":"Lagos"},"geometry":{"type":"Polygon","coordinates":[[[3.3215,6.461],[3.3394,6.4745],[3.3417,6.4745],[3.3462,6.4768],[3.3507,6.479],[3.3574,6.479],[3.3641,6.4768],[3.3641,6.4745],[3.3664,6.4768],[3.3664,6.479],[3.3686,6.4813],[3.3731,6.4813],[3.3754,6.4813],[3.3799,6.4813],[3.3844,6.4813],[3.3686,6.5194],[3.3664,6.5172],[3.3619,6.5149],[3.3552,6.5127],[3.3417,6.5104],[3.3372,6.5082],[3.3349,6.5037],[3.3282,6.4992],[3.3237,6.5037],[3.3237,6.5015],[3.3215,6.4947],[3.3237,6.4902],[3.326,6.4857],[3.3282,6.4813],[3.3282,6.4768],[3.326,6.4723],[3.3192,6.4633],[3.317,6.4588],[3.3215,6.461]]]}}]}