{"type":"FeatureCollection","features":[{"type":"Feature","properties":{"id":"nasarawa/akwanga","name":"Akwanga","state":"Nasarawa"},"geometry":{"type":"Polygon","coordinates":[[[8.1633,9.0639],[8.1701,9.0526],[8.179,9.0414],[8.1858,9.0324],[8.1835,9.019],[8.1835,9.01],[8.1858,8.9785],[8.1903,8.9695],[8.1925,8.9606],[8.1993,8.9516],[8.2015,8.9404],[8.2105,8.9224],[8.2195,8.9134],[8.2307,8.9022],[8.2419,8.8887],[8.2464,8.8775],[8.2509,8.8573],[8.2509,8.8528],[8.2644,8.8595],[8.2801,8.8707],[8.3026,8.8865],[8.3273,8.8932],[8.3362,8.8954],[8.3677,8.8887],[8.4059,8.8887],[8.4418,8.8909],[8.4687,8.8887],[8.5002,8.8842],[8.5294,8.8842],[8.5294,8.8932],[8.5249,8.9044],[8.5226,8.9089],[8.5204,8.9201],[8.5204,8.9269],[8.5182,8.9336],[8.5182,8.9359],[8.5159,8.9538],[8.5137,8.9606],[8.5092,8.9853],[8.5092,8.9875],[8.5047,9.001],[8.4979,9.0122],[8.4934,9.0234],[8.4912,9.0369],[8.4867,9.0437],[8.48,9.0526],[8.4755,9.0549],[8.4755,9.0706],[8.4732,9.0729],[8.4463,9.1133],[8.4418,9.1155],[8.4373,9.12],[8.4306,9.1268],[8.4126,9.1447],[8.3946,9.1627],[8.3924,9.1672],[8.3879,9.1762],[8.3812,9.1784],[8.3587,9.1784],[8.3475,9.1784],[8.3362,9.1784],[8.3273,9.1806],[8.3183,9.1874],[8.3048,9.1941],[8.3003,9.1941],[8.2891,9.1986],[8.2801,9.1986],[8.2689,9.1964],[8.2509,9.1919],[8.2487,9.1829],[8.2554,9.1784],[8.2509,9.1627],[8.2442,9.1559],[8.2419,9.1492],[8.2397,9.1447],[8.2307,9.1335],[8.215,9.12],[8.2015,9.1043],[8.1858,9.0908],[8.1813,9.0863],[8.1611,9.0661],[8.1633,9.0639]]]}},{"type":"Feature","properties":{"id":"nasarawa/awe","name":"Awe","state":"Nasarawa"},"geometry":{"type":"Polygon","coordinates":[[[8.9448,8.2307],[8.9471,8.2217],[8.9606,8.2082],[8.9651,8.2015],[8.9695,8.197],[8.9763,8.1925],[8.983,8.1903],[8.9898,8.1813],[9.001,8.1656],[9.0077,8.1611],[9.01,8.1566],[9.0234,8.1386],[9.0302,8.1251],[9.0347,8.1162],[9.0414,8.1072],[9.0437,8.1049],[9.0481,8.0982],[9.0526,8.0915],[9.0549,8.087],[9.0571,8.078],[9.0616,8.0735],[9.0684,8.0668],[9.0841,8.0465],[9.0976,8.0286],[9.1155,8.0084],[9.1335,7.9904],[9.1447,7.9702],[9.1627,7.9365],[9.1762,7.9163],[9.1784,7.9073],[9.2211,7.9275],[9.2503,7.9455],[9.2817,7.9567],[9.3064,7.9679],[9.3356,7.9859],[9.3401,7.9904],[9.3468,8.0016],[9.3513,8.0061],[9.3603,8.0129],[9.3693,8.0173],[9.3783,8.0286],[9.3873,8.0331],[9.4052,8.0465],[9.4165,8.0623],[9.4142,8.0712],[9.403,8.0802],[9.3985,8.087],[9.394,8.0937],[9.3918,8.1027],[9.3918,8.1184],[9.3918,8.1319],[9.3873,8.1498],[9.3918,8.1566],[9.4007,8.1588],[9.4052,8.1656],[9.412,8.1768],[9.4052,8.188],[9.3985,8.197],[9.3895,8.2015],[9.3805,8.2082],[9.3715,8.215],[9.3581,8.2217],[9.3536,8.224],[9.3468,8.2262],[9.3289,8.2374],[9.3266,8.2464],[9.3244,8.2532],[9.3266,8.2644],[9.3311,8.2689],[9.3356,8.2756],[9.3423,8.2846],[9.3491,8.3026],[9.3536,8.316],[9.3558,8.3273],[9.3603,8.334],[9.3626,8.3407],[9.367,8.343],[9.376,8.3497],[9.3828,8.3497],[9.3895,8.3497],[9.4007,8.343],[9.4075,8.3385],[9.4209,8.3318],[9.4322,8.3273],[9.4524,8.3183],[9.4659,8.3115],[9.4838,8.3071],[9.4928,8.3048],[9.513,8.3026],[9.5243,8.3026],[9.5355,8.3026],[9.5467,8.3048],[9.5624,8.3026],[9.5849,8.2981],[9.6006,8.2936],[9.6096,8.2913],[9.6163,8.2958],[9.6186,8.3026],[9.6141,8.3183],[9.6118,8.3295],[9.6118,8.3407],[9.6118,8.3497],[9.6141,8.3609],[9.6186,8.3767],[9.6231,8.3834],[9.6186,8.3879],[9.6141,8.3901],[9.5804,8.3969],[9.5737,8.3991],[9.5602,8.4014],[9.549,8.4059],[9.5445,8.4081],[9.5422,8.4104],[9.54,8.4104],[9.5332,8.4148],[9.5287,8.4148],[9.5198,8.4148],[9.5018,8.4193],[9.4883,8.4238],[9.4704,8.4306],[9.4636,8.4351],[9.4412,8.4463],[9.4277,8.453],[9.3962,8.4687],[9.3805,8.4777],[9.367,8.4822],[9.3558,8.4822],[9.3446,8.48],[9.3356,8.4777],[9.3289,8.4732],[9.3109,8.4687],[9.2974,8.4643],[9.2884,8.4598],[9.2727,8.4643],[9.2637,8.4598],[9.2548,8.4598],[9.2166,8.4575],[9.2121,8.4575],[9.2031,8.4598],[9.1851,8.4665],[9.1739,8.4665],[9.1582,8.4575],[9.1515,8.453],[9.1492,8.4463],[9.1447,8.444],[9.1357,8.4351],[9.1335,8.4283],[9.129,8.4306],[9.1245,8.4351],[9.1178,8.4373],[9.111,8.4373],[9.102,8.4396],[9.0976,8.4396],[9.0976,8.4485],[9.0976,8.4553],[9.0998,8.4575],[9.1043,8.4643],[9.102,8.4687],[9.102,8.4732],[9.0886,8.4845],[9.0841,8.4867],[9.0796,8.489],[9.0751,8.4867],[9.0706,8.4867],[9.0594,8.4979],[9.0594,8.5047],[9.0594,8.5114],[9.0504,8.5204],[9.0437,8.5182],[9.0324,8.5137],[9.019,8.5092],[9.0055,8.5137],[8.9965,8.5182],[8.9898,8.5204],[8.9875,8.5226],[8.9853,8.5182],[8.983,8.5114],[8.9808,8.5024],[8.9785,8.4957],[8.9763,8.4845],[8.974,8.4732],[8.9763,8.4643],[8.9808,8.4553],[8.983,8.4485],[8.9898,8.444],[8.992,8.444],[8.9987,8.4396],[9.001,8.4351],[8.9987,8.4261],[9.0032,8.4193],[9.0055,8.4126],[9.0077,8.4059],[9.0077,8.4014],[9.01,8.3924],[9.01,8.3857],[9.01,8.3654],[9.01,8.3632],[9.0122,8.352],[9.0122,8.3452],[9.0122,8.3362],[9.0122,8.3273],[9.0122,8.3205],[9.0122,8.316],[9.01,8.3115],[9.0077,8.3093],[9.0032,8.3071],[9.001,8.3026],[8.9987,8.3003],[8.9943,8.2936],[8.9853,8.2868],[8.974,8.2801],[8.9651,8.2801],[8.9583,8.2823],[8.9606,8.2711],[8.9606,8.2666],[8.9606,8.2599],[8.9606,8.2554],[8.9516,8.2532],[8.9448,8.2509],[8.9426,8.2442],[8.9448,8.2307]]]}},{"type":"Feature","properties":{"id":"nasarawa/doma","name":"Doma","state":"Nasarawa"},"geometry":{"type":"Polygon","coordinates":[[[8.051,8.0084],[8.0533,7.9882],[8.0555,7.9657],[8.06,7.932],[8.0668,7.9118],[8.069,7.8804],[8.0735,7.8781],[8.0959,7.8691],[8.1139,7.8646],[8.1386,7.8624],[8.1588,7.8601],[8.1768,7.8557],[8.1813,7.8534],[8.1835,7.8534],[8.1858,7.8512],[8.1903,7.8489],[8.215,7.8354],[8.2509,7.822],[8.2756,7.8152],[8.3026,7.8018],[8.3295,7.7928],[8.3452,7.7838],[8.3632,7.7748],[8.3722,7.7703],[8.3857,7.7681],[8.4036,7.7658],[8.4126,7.7681],[8.4126,7.7771],[8.4059,7.786],[8.4014,7.795],[8.3946,7.8107],[8.3924,7.8197],[8.3969,7.8287],[8.4036,7.8377],[8.4059,7.8601],[8.3969,7.8804],[8.3789,7.9163],[8.3632,7.9455],[8.3609,7.9612],[8.3609,7.9882],[8.3632,8.0173],[8.3722,8.0465],[8.3901,8.078],[8.4261,8.1117],[8.4665,8.1386],[8.5047,8.1588],[8.5137,8.1588],[8.5159,8.1656],[8.5204,8.1768],[8.5204,8.1858],[8.5159,8.2037],[8.5092,8.2172],[8.5069,8.2374],[8.5092,8.2599],[8.5092,8.2779],[8.5092,8.2913],[8.5092,8.3115],[8.5092,8.3273],[8.5069,8.343],[8.5069,8.3565],[8.5047,8.3879],[8.5024,8.3969],[8.4979,8.4081],[8.4912,8.4193],[8.489,8.4238],[8.48,8.4373],[8.4732,8.444],[8.4687,8.4508],[8.4553,8.4598],[8.444,8.4665],[8.4396,8.4687],[8.4148,8.4822],[8.3991,8.4822],[8.3834,8.4845],[8.3632,8.4845],[8.3318,8.4912],[8.3273,8.4934],[8.3183,8.5002],[8.3138,8.5024],[8.3048,8.5024],[8.2891,8.5002],[8.2711,8.5047],[8.2554,8.5137],[8.2509,8.5182],[8.2397,8.5271],[8.2262,8.5384],[8.2217,8.5451],[8.2172,8.5473],[8.2037,8.5518],[8.2015,8.5518],[8.1903,8.5518],[8.1858,8.5496],[8.179,8.5451],[8.1746,8.5406],[8.1746,8.5384],[8.1768,8.5271],[8.179,8.5182],[8.1858,8.5069],[8.1993,8.4845],[8.2037,8.4732],[8.206,8.4553],[8.2105,8.4418],[8.2127,8.4306],[8.2127,8.4216],[8.2082,8.4081],[8.2037,8.3924],[8.1925,8.3789],[8.1678,8.3677],[8.1566,8.3677],[8.1431,8.3654],[8.1274,8.3654],[8.1027,8.3609],[8.0847,8.352],[8.0645,8.3385],[8.0578,8.325],[8.06,8.3183],[8.078,8.3093],[8.0915,8.3071],[8.1004,8.3093],[8.1162,8.3093],[8.1296,8.3026],[8.1454,8.3003],[8.1566,8.2936],[8.1633,8.2779],[8.1611,8.2576],[8.1656,8.2374],[8.1678,8.2127],[8.1678,8.188],[8.1633,8.1611],[8.1521,8.1521],[8.1341,8.1386],[8.1117,8.1251],[8.0937,8.1094],[8.0847,8.1049],[8.0623,8.0915],[8.06,8.0825],[8.0488,8.0578],[8.0488,8.0286],[8.051,8.0084]]]}},{"type":"Feature","properties":{"id":"nasarawa/karu","name":"Karu","state":"Nasarawa"},"geometry":{"type":"Polygon","coordinates":[[[7.5704,8.7832],[7.5862,8.7742],[7.6064,8.7652],[7.6109,8.7584],[7.6266,8.7472],[7.6446,8.7337],[7.6558,8.7315],[7.6625,8.7248],[7.676,8.7158],[7.6985,8.709],[7.7097,8.7113],[7.7254,8.7135],[7.7434,8.7068],[7.7591,8.7045],[7.7905,8.7001],[7.8062,8.6933],[7.831,8.6798],[7.8377,8.6731],[7.8444,8.6686],[7.8601,8.6686],[7.8759,8.6596],[7.9006,8.6551],[7.914,8.6551],[7.9275,8.6529],[7.9275,8.6596],[7.9298,8.6776],[7.9253,8.6843],[7.923,8.7045],[7.9275,8.7337],[7.932,8.7405],[7.9343,8.7607],[7.9343,8.7764],[7.9343,8.7876],[7.932,8.7989],[7.9275,8.8146],[7.9275,8.8213],[7.9275,8.8281],[7.9275,8.8348],[7.9208,8.837],[7.914,8.8415],[7.9028,8.8393],[7.8938,8.8326],[7.8804,8.8236],[7.8669,8.8101],[7.8624,8.7989],[7.8557,8.7876],[7.8489,8.7764],[7.8332,8.7742],[7.8265,8.7742],[7.813,8.7787],[7.8085,8.7832],[7.8018,8.7899],[7.795,8.7944],[7.7815,8.7966],[7.7748,8.7989],[7.7726,8.8011],[7.7681,8.8079],[7.7658,8.8168],[7.7681,8.8281],[7.7681,8.8393],[7.7726,8.8483],[7.7815,8.8573],[7.786,8.8662],[7.795,8.8752],[7.8018,8.882],[7.804,8.8865],[7.8062,8.8932],[7.8107,8.8977],[7.8107,8.8999],[7.813,8.9089],[7.8197,8.9269],[7.8332,8.9359],[7.8467,8.9426],[7.8871,8.9628],[7.8916,8.9695],[7.9073,8.9898],[7.9163,9.001],[7.9275,9.0257],[7.9365,9.0481],[7.95,9.0661],[7.9702,9.0729],[7.9971,9.0863],[8.0106,9.0931],[8.0173,9.102],[8.0218,9.111],[8.0398,9.1357],[8.0488,9.1402],[8.0645,9.1447],[8.0735,9.147],[8.0847,9.1559],[8.0959,9.1604],[8.0982,9.1627],[8.1004,9.1672],[8.1049,9.1762],[8.1027,9.1964],[8.0959,9.2121],[8.0937,9.2166],[8.0892,9.2278],[8.0825,9.2368],[8.078,9.2458],[8.078,9.2503],[8.0735,9.257],[8.0623,9.2727],[8.06,9.2727],[8.0465,9.2772],[8.0398,9.2817],[8.0016,9.3064],[7.9971,9.3154],[7.9971,9.3176],[7.9971,9.3244],[7.9994,9.3289],[8.0016,9.3401],[7.9994,9.3536],[7.9926,9.3603],[7.9882,9.3648],[7.9814,9.3715],[7.9432,9.3985],[7.9387,9.403],[7.9208,9.4052],[7.914,9.4007],[7.9028,9.3918],[7.9006,9.3895],[7.8893,9.3738],[7.8781,9.3558],[7.8669,9.3379],[7.8579,9.3244],[7.8512,9.3154],[7.8489,9.3109],[7.8422,9.3042],[7.8332,9.2884],[7.8265,9.2772],[7.8242,9.2705],[7.8085,9.266],[7.7995,9.2682],[7.7928,9.275],[7.7883,9.2817],[7.7703,9.2929],[7.7636,9.2952],[7.7591,9.3019],[7.7523,9.3131],[7.7479,9.3221],[7.7299,9.3311],[7.667,9.3042],[7.6041,9.1604],[7.5884,9.129],[7.5929,8.9246],[7.5951,8.8573],[7.5907,8.8348],[7.566,8.7854],[7.5704,8.7832]]]}},{"type":"Feature","properties":{"id":"nasarawa/keana","name":"Keana","state":"Nasarawa"},"geometry":{"type":"Polygon","coordinates":[[[8.5092,8.2172],[8.5159,8.2037],[8.5204,8.1858],[8.5204,8.1768],[8.5159,8.1656],[8.5137,8.1588],[8.5249,8.1566],[8.5608,8.1409],[8.5878,8.1296],[8.6372,8.1162],[8.6956,8.0959],[8.7809,8.0757],[8.8191,8.0712],[8.8415,8.0668],[8.9112,8.0555],[8.9718,8.0578],[9.0257,8.0623],[9.0504,8.0757],[9.0571,8.078],[9.0549,8.087],[9.0526,8.0915],[9.0481,8.0982],[9.0437,8.1049],[9.0414,8.1072],[9.0347,8.1162],[9.0302,8.1251],[9.0234,8.1386],[9.01,8.1566],[9.0077,8.1611],[9.001,8.1656],[8.9898,8.1813],[8.983,8.1903],[8.9763,8.1925],[8.9695,8.197],[8.9651,8.2015],[8.9606,8.2082],[8.9471,8.2217],[8.9448,8.2307],[8.9426,8.2442],[8.9448,8.2509],[8.9516,8.2532],[8.9606,8.2554],[8.9606,8.2599],[8.9606,8.2666],[8.9606,8.2711],[8.9583,8.2823],[8.9538,8.2823],[8.9448,8.2801],[8.9291,8.2756],[8.9157,8.2756],[8.8909,8.2734],[8.8842,8.2756],[8.8707,8.2779],[8.8595,8.2846],[8.8483,8.2868],[8.8281,8.2891],[8.8079,8.2891],[8.7876,8.2779],[8.7674,8.2666],[8.745,8.2599],[8.727,8.2576],[8.6933,8.2599],[8.6619,8.2644],[8.6417,8.2644],[8.6215,8.2599],[8.5945,8.2532],[8.5698,8.2532],[8.5496,8.2554],[8.5384,8.2554],[8.5294,8.2532],[8.5159,8.2599],[8.5092,8.2599],[8.5069,8.2374],[8.5092,8.2172]]]}},{"type":"Feature","properties":{"id":"nasarawa/keffi","name":"Keffi","state":"Nasarawa"},"geometry":{"type":"Polygon","coordinates":[[[7.7681,8.8079],[7.7726,8.8011],[7.7748,8.7989],[7.7815,8.7966],[7.795,8.7944],[7.8018,8.7899],[7.8085,8.7832],[7.813,8.7787],[7.8265,8.7742],[7.8332,8.7742],[7.8489,8.7764],[7.8557,8.7876],[7.8624,8.7989],[7.8669,8.8101],[7.8804,8.8236],[7.8938,8.8326],[7.9028,8.8393],[7.914,8.8415],[7.9118,8.8483],[7.9096,8.8528],[7.9028,8.8618],[7.8983,8.8685],[7.8848,8.8775],[7.8669,8.8842],[7.8512,8.8887],[7.8377,8.8909],[7.831,8.8954],[7.8175,8.8954],[7.8107,8.8999],[7.8107,8.8977],[7.8062,8.8932],[7.804,8.8865],[7.8018,8.882],[7.795,8.8752],[7.786,8.8662],[7.7815,8.8573],[7.7726,8.8483],[7.7681,8.8393],[7.7681,8.8281],[7.7658,8.8168],[7.7681,8.8079]]]}},{"type":"Feature","properties":{"id":"nasarawa/kokona","name":"Kokona","state":"Nasarawa"},"geometry":{"type":"Polygon","coordinates":[[[7.8175,8.8954],[7.831,8.8954],[7.8377,8.8909],[7.8512,8.8887],[7.8669,8.8842],[7.8848,8.8775],[7.8983,8.8685],[7.9028,8.8618],[7.9096,8.8528],[7.9118,8.8483],[7.914,8.8415],[7.9208,8.837],[7.9275,8.8348],[7.9275,8.8281],[7.9275,8.8213],[7.9275,8.8146],[7.932,8.7989],[7.9343,8.7876],[7.9343,8.7764],[7.9343,8.7607],[7.932,8.7405],[7.9275,8.7337],[7.923,8.7045],[7.9253,8.6843],[7.9298,8.6776],[7.9275,8.6596],[7.9275,8.6529],[7.9298,8.6484],[7.9477,8.6394],[7.9545,8.6349],[7.9679,8.6349],[7.9769,8.6327],[7.9859,8.6259],[8.0016,8.6215],[8.0173,8.6147],[8.0263,8.6102],[8.0421,8.6057],[8.0645,8.5945],[8.078,8.5878],[8.0892,8.5788],[8.1004,8.572],[8.1162,8.5676],[8.1296,8.5586],[8.1454,8.5586],[8.1543,8.5496],[8.1678,8.5406],[8.1723,8.5429],[8.1746,8.5451],[8.1768,8.5541],[8.1768,8.5676],[8.179,8.59],[8.1813,8.5945],[8.1813,8.6035],[8.1835,8.608],[8.1858,8.6192],[8.188,8.6259],[8.1903,8.6282],[8.197,8.6462],[8.1993,8.6507],[8.206,8.6619],[8.2105,8.6709],[8.2172,8.6866],[8.2284,8.6956],[8.2329,8.6956],[8.2397,8.6956],[8.2442,8.6956],[8.2464,8.6956],[8.2509,8.6956],[8.2554,8.7023],[8.2599,8.709],[8.2599,8.718],[8.2509,8.718],[8.2419,8.7225],[8.2397,8.7248],[8.2397,8.7382],[8.2397,8.7517],[8.2419,8.7607],[8.2464,8.7719],[8.2464,8.7832],[8.2464,8.7944],[8.2487,8.8034],[8.2532,8.8123],[8.2532,8.8213],[8.2554,8.8438],[8.2509,8.8528],[8.2509,8.8573],[8.2464,8.8775],[8.2419,8.8887],[8.2307,8.9022],[8.2195,8.9134],[8.2105,8.9224],[8.2015,8.9404],[8.1993,8.9516],[8.1925,8.9606],[8.1903,8.9695],[8.1858,8.9785],[8.1835,9.01],[8.1835,9.019],[8.1858,9.0324],[8.179,9.0414],[8.1701,9.0526],[8.1633,9.0639],[8.1611,9.0661],[8.1498,9.0594],[8.1431,9.0549],[8.1409,9.0526],[8.1364,9.0526],[8.1274,9.0481],[8.1072,9.0526],[8.1027,9.0639],[8.1004,9.0751],[8.1004,9.0818],[8.1004,9.0863],[8.1004,9.0953],[8.1004,9.1245],[8.0982,9.147],[8.0982,9.1515],[8.0982,9.1627],[8.0959,9.1604],[8.0847,9.1559],[8.0735,9.147],[8.0645,9.1447],[8.0488,9.1402],[8.0398,9.1357],[8.0218,9.111],[8.0173,9.102],[8.0106,9.0931],[7.9971,9.0863],[7.9702,9.0729],[7.95,9.0661],[7.9365,9.0481],[7.9275,9.0257],[7.9163,9.001],[7.9073,8.9898],[7.8916,8.9695],[7.8871,8.9628],[7.8467,8.9426],[7.8332,8.9359],[7.8197,8.9269],[7.813,8.9089],[7.8107,8.8999],[7.8175,8.8954]]]}},{"type":"Feature","properties":{"id":"nasarawa/lafia","name":"Lafia","state":"Nasarawa"},"geometry":{"type":"Polygon","coordinates":[[[8.179,8.5451],[8.1858,8.5496],[8.1903,8.5518],[8.2015,8.5518],[8.2037,8.5518],[8.2172,8.5473],[8.2217,8.5451],[8.2262,8.5384],[8.2397,8.5271],[8.2509,8.5182],[8.2554,8.5137],[8.2711,8.5047],[8.2891,8.5002],[8.3048,8.5024],[8.3138,8.5024],[8.3183,8.5002],[8.3273,8.4934],[8.3318,8.4912],[8.3632,8.4845],[8.3834,8.4845],[8.3991,8.4822],[8.4148,8.4822],[8.4396,8.4687],[8.444,8.4665],[8.4553,8.4598],[8.4687,8.4508],[8.4732,8.444],[8.48,8.4373],[8.489,8.4238],[8.4912,8.4193],[8.4979,8.4081],[8.5024,8.3969],[8.5092,8.3946],[8.5204,8.3946],[8.5249,8.3969],[8.5316,8.3969],[8.5361,8.3991],[8.5429,8.4014],[8.5451,8.4014],[8.5541,8.4036],[8.5586,8.4036],[8.5653,8.4036],[8.59,8.4126],[8.5923,8.4171],[8.6035,8.4328],[8.608,8.4396],[8.608,8.4463],[8.6102,8.4553],[8.6147,8.4665],[8.617,8.471],[8.6237,8.4755],[8.6327,8.48],[8.6372,8.48],[8.6394,8.48],[8.6417,8.48],[8.6507,8.4777],[8.6574,8.4777],[8.6641,8.4777],[8.6798,8.4777],[8.6933,8.48],[8.6978,8.48],[8.7001,8.48],[8.7023,8.4822],[8.7068,8.4822],[8.7158,8.4777],[8.7248,8.4732],[8.7293,8.4687],[8.7315,8.462],[8.7382,8.462],[8.7495,8.4575],[8.754,8.4553],[8.7584,8.4508],[8.7629,8.4463],[8.7854,8.4283],[8.8191,8.4104],[8.8326,8.4036],[8.8483,8.4014],[8.8573,8.4014],[8.8775,8.4036],[8.8932,8.4081],[8.9134,8.4059],[8.9224,8.4036],[8.9336,8.4036],[8.9426,8.4059],[8.9448,8.4059],[8.9606,8.4059],[8.9628,8.4059],[8.9695,8.4059],[8.9718,8.4059],[8.9808,8.4014],[9.001,8.4014],[9.0077,8.4014],[9.0077,8.4059],[9.0055,8.4126],[9.0032,8.4193],[8.9987,8.4261],[9.001,8.4351],[8.9987,8.4396],[8.992,8.444],[8.9898,8.444],[8.983,8.4485],[8.9808,8.4553],[8.9763,8.4643],[8.974,8.4732],[8.9763,8.4845],[8.9785,8.4957],[8.9808,8.5024],[8.983,8.5114],[8.9853,8.5182],[8.9875,8.5226],[8.983,8.5271],[8.9785,8.5316],[8.974,8.5384],[8.974,8.5406],[8.9785,8.5496],[8.983,8.5541],[8.9853,8.5631],[8.9853,8.5676],[8.983,8.572],[8.983,8.5743],[8.9808,8.5788],[8.983,8.5855],[8.983,8.5968],[8.9808,8.6012],[8.9785,8.6057],[8.9695,8.6057],[8.9651,8.608],[8.9583,8.6125],[8.9516,8.6215],[8.9471,8.6394],[8.9448,8.6462],[8.9426,8.6529],[8.9404,8.6596],[8.9404,8.6664],[8.9291,8.6731],[8.9134,8.6866],[8.9112,8.6978],[8.9112,8.7023],[8.9067,8.7113],[8.9022,8.7203],[8.8977,8.727],[8.8932,8.7337],[8.8909,8.7405],[8.8954,8.7472],[8.8999,8.7517],[8.9044,8.754],[8.9044,8.7584],[8.9022,8.7629],[8.8999,8.7764],[8.9044,8.7787],[8.9089,8.7832],[8.9157,8.7832],[8.9201,8.7832],[8.9246,8.7832],[8.9336,8.7854],[8.9448,8.7989],[8.9493,8.8101],[8.9516,8.8168],[8.9516,8.8281],[8.9493,8.8303],[8.9493,8.8348],[8.9583,8.8505],[8.9673,8.8528],[8.974,8.855],[8.9853,8.8528],[9.0032,8.8505],[9.01,8.8528],[9.0167,8.8573],[9.019,8.8595],[9.0234,8.8662],[9.0257,8.8707],[9.0279,8.8842],[9.0324,8.8954],[9.0392,8.9044],[9.0437,8.9134],[9.0437,8.9179],[9.0459,8.9224],[9.0526,8.9314],[9.0616,8.9381],[9.0684,8.9404],[9.0729,8.9448],[9.0729,8.9538],[9.0706,8.9606],[9.0684,8.9651],[9.0661,8.9673],[9.0684,8.9808],[9.0706,8.9875],[9.0684,8.9987],[9.0661,9.0077],[9.0616,9.019],[9.0594,9.0212],[9.0571,9.0234],[9.0526,9.0257],[9.0504,9.0257],[9.0459,9.0279],[9.0392,9.0279],[9.0122,9.0212],[8.983,9.0167],[8.9606,9.0167],[8.9291,9.0167],[8.9246,9.0167],[8.9067,9.019],[8.9089,9.0167],[8.9044,9.0032],[8.9022,8.9965],[8.8977,8.9808],[8.8865,8.9606],[8.8775,8.9538],[8.873,8.9426],[8.8662,8.9291],[8.8573,8.9179],[8.8505,8.9089],[8.837,8.8887],[8.8303,8.8752],[8.8191,8.8595],[8.8146,8.8573],[8.8056,8.8528],[8.7989,8.8483],[8.7921,8.8438],[8.7764,8.8415],[8.7697,8.8393],[8.745,8.837],[8.7315,8.8348],[8.7248,8.8348],[8.709,8.8348],[8.6843,8.8348],[8.6754,8.8348],[8.6664,8.8348],[8.6596,8.8348],[8.6507,8.8326],[8.6439,8.8303],[8.6394,8.8258],[8.6394,8.8236],[8.6417,8.8168],[8.6507,8.8146],[8.6641,8.8034],[8.6664,8.8034],[8.6731,8.8011],[8.6821,8.7989],[8.6933,8.7944],[8.6978,8.7944],[8.7068,8.7876],[8.709,8.7854],[8.7135,8.7674],[8.7113,8.7517],[8.7068,8.7337],[8.7045,8.7293],[8.6956,8.7135],[8.6776,8.6911],[8.6709,8.6843],[8.6664,8.6798],[8.6619,8.6776],[8.6551,8.6731],[8.6417,8.6664],[8.6394,8.6641],[8.5968,8.6596],[8.5923,8.6619],[8.5855,8.6619],[8.5788,8.6641],[8.5586,8.6619],[8.5518,8.6574],[8.5496,8.6574],[8.5406,8.6529],[8.5361,8.6529],[8.5204,8.6529],[8.5137,8.6529],[8.5092,8.6529],[8.5024,8.6529],[8.5002,8.6529],[8.4867,8.6507],[8.4755,8.6484],[8.4732,8.6462],[8.4643,8.6394],[8.4598,8.6372],[8.4553,8.6282],[8.4485,8.6237],[8.4351,8.617],[8.4261,8.6147],[8.4238,8.6147],[8.4081,8.6125],[8.4036,8.6102],[8.4014,8.608],[8.3924,8.608],[8.3879,8.608],[8.3789,8.6102],[8.3767,8.6102],[8.3744,8.6102],[8.3565,8.617],[8.3452,8.6192],[8.3362,8.6192],[8.3115,8.6102],[8.3026,8.599],[8.2958,8.5878],[8.2913,8.581],[8.2868,8.572],[8.2823,8.5676],[8.2779,8.5631],[8.2666,8.5586],[8.2576,8.5586],[8.2487,8.5631],[8.2442,8.5653],[8.2464,8.5765],[8.2487,8.581],[8.2487,8.59],[8.2487,8.5968],[8.2487,8.6035],[8.2509,8.6327],[8.2576,8.6439],[8.2532,8.6529],[8.2419,8.6574],[8.2419,8.6731],[8.2532,8.6866],[8.2509,8.6956],[8.2464,8.6956],[8.2442,8.6956],[8.2397,8.6956],[8.2329,8.6956],[8.2284,8.6956],[8.2172,8.6866],[8.2105,8.6709],[8.206,8.6619],[8.1993,8.6507],[8.197,8.6462],[8.1903,8.6282],[8.188,8.6259],[8.1858,8.6192],[8.1835,8.608],[8.1813,8.6035],[8.1813,8.5945],[8.179,8.59],[8.1768,8.5676],[8.1768,8.5541],[8.1746,8.5451],[8.1746,8.5406],[8.179,8.5451]]]}},{"type":"Feature","properties":{"id":"nasarawa/nassarawa","name":"Nassarawa","state":"Nasarawa"},"geometry":{"type":"Polygon","coordinates":[[[7.384,8.1049],[7.3885,8.087],[7.393,8.0712],[7.3998,8.051],[7.4043,8.0421],[7.4335,8.0465],[7.4447,8.0443],[7.4514,8.0465],[7.5053,8.0465],[7.5435,8.0421],[7.5839,8.0376],[7.6243,8.0286],[7.6648,8.0196],[7.6782,8.0173],[7.676,8.0151],[7.6985,8.0129],[7.7389,8.0061],[7.7613,8.0039],[7.7815,7.9994],[7.8107,7.9904],[7.8377,7.9859],[7.8669,7.9859],[7.8781,7.9837],[7.9028,7.9679],[7.932,7.9567],[7.9724,7.9387],[7.9949,7.923],[8.0398,7.8961],[8.069,7.8804],[8.0668,7.9118],[8.06,7.932],[8.0555,7.9657],[8.0533,7.9882],[8.051,8.0084],[8.0488,8.0286],[8.0488,8.0578],[8.06,8.0825],[8.0623,8.0915],[8.0847,8.1049],[8.0937,8.1094],[8.1117,8.1251],[8.1341,8.1386],[8.1521,8.1521],[8.1633,8.1611],[8.1678,8.188],[8.1678,8.2127],[8.1656,8.2374],[8.1611,8.2576],[8.1633,8.2779],[8.1566,8.2936],[8.1454,8.3003],[8.1296,8.3026],[8.1162,8.3093],[8.1004,8.3093],[8.0915,8.3071],[8.078,8.3093],[8.06,8.3183],[8.0578,8.325],[8.0645,8.3385],[8.0847,8.352],[8.1027,8.3609],[8.1274,8.3654],[8.1431,8.3654],[8.1566,8.3677],[8.1678,8.3677],[8.1925,8.3789],[8.2037,8.3924],[8.2082,8.4081],[8.2127,8.4216],[8.2127,8.4306],[8.2105,8.4418],[8.206,8.4553],[8.2037,8.4732],[8.1993,8.4845],[8.1858,8.5069],[8.179,8.5182],[8.1768,8.5271],[8.1746,8.5384],[8.1746,8.5406],[8.1746,8.5451],[8.1723,8.5429],[8.1678,8.5406],[8.1543,8.5496],[8.1454,8.5586],[8.1296,8.5586],[8.1162,8.5676],[8.1004,8.572],[8.0892,8.5788],[8.078,8.5878],[8.0645,8.5945],[8.0421,8.6057],[8.0263,8.6102],[8.0173,8.6147],[8.0016,8.6215],[7.9859,8.6259],[7.9769,8.6327],[7.9679,8.6349],[7.9545,8.6349],[7.9477,8.6394],[7.9298,8.6484],[7.9275,8.6529],[7.914,8.6551],[7.9006,8.6551],[7.8759,8.6596],[7.8601,8.6686],[7.8444,8.6686],[7.8377,8.6731],[7.831,8.6798],[7.8062,8.6933],[7.7905,8.7001],[7.7591,8.7045],[7.7434,8.7068],[7.7254,8.7135],[7.7097,8.7113],[7.6985,8.709],[7.676,8.7158],[7.6625,8.7248],[7.6558,8.7315],[7.6446,8.7337],[7.6266,8.7472],[7.6109,8.7584],[7.6064,8.7652],[7.5862,8.7742],[7.5704,8.7832],[7.566,8.7854],[7.5412,8.7405],[7.5031,8.6686],[7.4963,8.6551],[7.4941,8.6507],[7.4986,8.6507],[7.5121,8.6462],[7.5188,8.6394],[7.521,8.6237],[7.521,8.6147],[7.521,8.6102],[7.5188,8.6057],[7.5233,8.5945],[7.521,8.572],[7.5188,8.5518],[7.5143,8.5361],[7.5053,8.5249],[7.4986,8.5069],[7.4851,8.4822],[7.4649,8.4575],[7.4447,8.4261],[7.4312,8.4081],[7.4312,8.3812],[7.4379,8.3542],[7.4424,8.3452],[7.4424,8.334],[7.4379,8.325],[7.4312,8.3183],[7.4312,8.3093],[7.4312,8.2913],[7.4312,8.2846],[7.4312,8.2734],[7.4335,8.2689],[7.4267,8.2576],[7.4155,8.2464],[7.4087,8.2262],[7.3998,8.206],[7.393,8.1925],[7.3885,8.1678],[7.3818,8.1454],[7.3818,8.1184],[7.384,8.1049]]]}},{"type":"Feature","properties":{"id":"nasarawa/nassarawa-eggon","name":"Nassarawa-Eggon","state":"Nasarawa"},"geometry":{"type":"Polygon","coordinates":[[[8.2419,8.7225],[8.2509,8.718],[8.2599,8.718],[8.2599,8.709],[8.2554,8.7023],[8.2509,8.6956],[8.2532,8.6866],[8.2419,8.6731],[8.2419,8.6574],[8.2532,8.6529],[8.2576,8.6439],[8.2509,8.6327],[8.2487,8.6035],[8.2487,8.5968],[8.2487,8.59],[8.2487,8.581],[8.2464,8.5765],[8.2442,8.5653],[8.2487,8.5631],[8.2576,8.5586],[8.2666,8.5586],[8.2779,8.5631],[8.2823,8.5676],[8.2868,8.572],[8.2913,8.581],[8.2958,8.5878],[8.3026,8.599],[8.3115,8.6102],[8.3362,8.6192],[8.3452,8.6192],[8.3565,8.617],[8.3744,8.6102],[8.3767,8.6102],[8.3789,8.6102],[8.3879,8.608],[8.3924,8.608],[8.4014,8.608],[8.4036,8.6102],[8.4081,8.6125],[8.4238,8.6147],[8.4261,8.6147],[8.4351,8.617],[8.4485,8.6237],[8.4553,8.6282],[8.4598,8.6372],[8.4643,8.6394],[8.4732,8.6462],[8.4755,8.6484],[8.4867,8.6507],[8.5002,8.6529],[8.5024,8.6529],[8.5092,8.6529],[8.5137,8.6529],[8.5204,8.6529],[8.5361,8.6529],[8.5406,8.6529],[8.5496,8.6574],[8.5518,8.6574],[8.5586,8.6619],[8.5788,8.6641],[8.5855,8.6619],[8.5923,8.6619],[8.5968,8.6596],[8.6394,8.6641],[8.6417,8.6664],[8.6551,8.6731],[8.6619,8.6776],[8.6664,8.6798],[8.6709,8.6843],[8.6776,8.6911],[8.6956,8.7135],[8.7045,8.7293],[8.7068,8.7337],[8.7113,8.7517],[8.7135,8.7674],[8.709,8.7854],[8.7068,8.7876],[8.6978,8.7944],[8.6933,8.7944],[8.6821,8.7989],[8.6731,8.8011],[8.6664,8.8034],[8.6641,8.8034],[8.6507,8.8146],[8.6417,8.8168],[8.6394,8.8236],[8.6327,8.8213],[8.6215,8.8168],[8.6012,8.8123],[8.5923,8.8056],[8.5788,8.7989],[8.5563,8.8056],[8.5429,8.8123],[8.5339,8.8191],[8.5204,8.8213],[8.5092,8.8236],[8.5002,8.837],[8.5069,8.8483],[8.5204,8.8618],[8.5316,8.8797],[8.5294,8.8842],[8.5002,8.8842],[8.4687,8.8887],[8.4418,8.8909],[8.4059,8.8887],[8.3677,8.8887],[8.3362,8.8954],[8.3273,8.8932],[8.3026,8.8865],[8.2801,8.8707],[8.2644,8.8595],[8.2509,8.8528],[8.2554,8.8438],[8.2532,8.8213],[8.2532,8.8123],[8.2487,8.8034],[8.2464,8.7944],[8.2464,8.7832],[8.2464,8.7719],[8.2419,8.7607],[8.2397,8.7517],[8.2397,8.7382],[8.2397,8.7248],[8.2419,8.7225]]]}},{"type":"Feature","properties":{"id":"nasarawa/obi","name":"Obi","state":"Nasarawa"},"geometry":{"type":"Polygon","coordinates":[[[8.5047,8.3879],[8.5069,8.3565],[8.5069,8.343],[8.5092,8.3273],[8.5092,8.3115],[8.5092,8.2913],[8.5092,8.2779],[8.5092,8.2599],[8.5159,8.2599],[8.5294,8.2532],[8.5384,8.2554],[8.5496,8.2554],[8.5698,8.2532],[8.5945,8.2532],[8.6215,8.2599],[8.6417,8.2644],[8.6619,8.2644],[8.6933,8.2599],[8.727,8.2576],[8.745,8.2599],[8.7674,8.2666],[8.7876,8.2779],[8.8079,8.2891],[8.8281,8.2891],[8.8483,8.2868],[8.8595,8.2846],[8.8707,8.2779],[8.8842,8.2756],[8.8909,8.2734],[8.9157,8.2756],[8.9291,8.2756],[8.9448,8.2801],[8.9538,8.2823],[8.9583,8.2823],[8.9651,8.2801],[8.974,8.2801],[8.9853,8.2868],[8.9943,8.2936],[8.9987,8.3003],[9.001,8.3026],[9.0032,8.3071],[9.0077,8.3093],[9.01,8.3115],[9.0122,8.316],[9.0122,8.3205],[9.0122,8.3273],[9.0122,8.3362],[9.0122,8.3452],[9.0122,8.352],[9.01,8.3632],[9.01,8.3654],[9.01,8.3857],[9.01,8.3924],[9.0077,8.4014],[9.001,8.4014],[8.9808,8.4014],[8.9718,8.4059],[8.9695,8.4059],[8.9628,8.4059],[8.9606,8.4059],[8.9448,8.4059],[8.9426,8.4059],[8.9336,8.4036],[8.9224,8.4036],[8.9134,8.4059],[8.8932,8.4081],[8.8775,8.4036],[8.8573,8.4014],[8.8483,8.4014],[8.8326,8.4036],[8.8191,8.4104],[8.7854,8.4283],[8.7629,8.4463],[8.7584,8.4508],[8.754,8.4553],[8.7495,8.4575],[8.7382,8.462],[8.7315,8.462],[8.7293,8.4687],[8.7248,8.4732],[8.7158,8.4777],[8.7068,8.4822],[8.7023,8.4822],[8.7001,8.48],[8.6978,8.48],[8.6933,8.48],[8.6798,8.4777],[8.6641,8.4777],[8.6574,8.4777],[8.6507,8.4777],[8.6417,8.48],[8.6394,8.48],[8.6372,8.48],[8.6327,8.48],[8.6237,8.4755],[8.617,8.471],[8.6147,8.4665],[8.6102,8.4553],[8.608,8.4463],[8.608,8.4396],[8.6035,8.4328],[8.5923,8.4171],[8.59,8.4126],[8.5653,8.4036],[8.5586,8.4036],[8.5541,8.4036],[8.5451,8.4014],[8.5429,8.4014],[8.5361,8.3991],[8.5316,8.3969],[8.5249,8.3969],[8.5204,8.3946],[8.5092,8.3946],[8.5024,8.3969],[8.5047,8.3879]]]}},{"type":"Feature","properties":{"id":"nasarawa/toto","name":"Toto","state":"Nasarawa"},"geometry":{"type":"Polygon","coordinates":[[[6.9416,8.2936],[6.9529,8.2846],[6.9596,8.2756],[6.9641,8.2644],[6.9708,8.2442],[6.9731,8.224],[6.9798,8.2105],[6.9933,8.1948],[7.0,8.1813],[7.0023,8.1678],[6.9978,8.1543],[6.9843,8.1162],[6.9865,8.0915],[6.9865,8.078],[6.9776,8.051],[6.9708,8.0308],[6.9731,8.0196],[6.9798,8.0016],[6.9776,7.9859],[6.9641,7.9612],[6.9618,7.9432],[6.9574,7.9298],[6.9529,7.9185],[6.9551,7.9051],[6.9596,7.8961],[6.9618,7.8871],[6.9641,7.8804],[6.9663,7.8781],[6.9798,7.8871],[7.0068,7.9028],[7.036,7.923],[7.0719,7.9432],[7.1168,7.959],[7.1954,7.9926],[7.2538,8.0151],[7.3054,8.0263],[7.393,8.0421],[7.4043,8.0421],[7.3998,8.051],[7.393,8.0712],[7.3885,8.087],[7.384,8.1049],[7.3818,8.1184],[7.3818,8.1454],[7.3885,8.1678],[7.393,8.1925],[7.3998,8.206],[7.4087,8.2262],[7.4155,8.2464],[7.4267,8.2576],[7.4335,8.2689],[7.4312,8.2734],[7.4312,8.2846],[7.4312,8.2913],[7.4312,8.3093],[7.4312,8.3183],[7.4379,8.325],[7.4424,8.334],[7.4424,8.3452],[7.4379,8.3542],[7.4312,8.3812],[7.4312,8.4081],[7.4447,8.4261],[7.4649,8.4575],[7.4851,8.4822],[7.4986,8.5069],[7.5053,8.5249],[7.5143,8.5361],[7.5188,8.5518],[7.521,8.572],[7.5233,8.5945],[7.5188,8.6057],[7.521,8.6102],[7.521,8.6147],[7.521,8.6237],[7.5188,8.6394],[7.5121,8.6462],[7.4986,8.6507],[7.4941,8.6507],[7.4784,8.6304],[7.4424,8.5923],[7.4177,8.5698],[7.3885,8.5451],[7.3683,8.5294],[7.3414,8.5114],[7.3122,8.5002],[7.2718,8.4934],[7.2111,8.48],[7.164,8.4732],[7.1168,8.4665],[7.0831,8.4643],[7.0562,8.462],[7.0247,8.462],[6.991,8.4598],[6.9843,8.4598],[6.9686,8.3924],[6.9574,8.3744],[6.9551,8.3587],[6.9506,8.3452],[6.9416,8.3228],[6.9349,8.3115],[6.9349,8.3003],[6.9416,8.2936]]]}},{"type":"Feature","properties":{"id":"nasarawa/wamba","name":"Wamba","state":"Nasarawa"},"geometry":{"type":"Polygon","coordinates":[[[8.5092,8.8236],[8.5204,8.8213],[8.5339,8.8191],[8.5429,8.8123],[8.5563,8.8056],[8.5788,8.7989],[8.5923,8.8056],[8.6012,8.8123],[8.6215,8.8168],[8.6327,8.8213],[8.6394,8.8236],[8.6394,8.8258],[8.6439,8.8303],[8.6507,8.8326],[8.6596,8.8348],[8.6664,8.8348],[8.6754,8.8348],[8.6843,8.8348],[8.709,8.8348],[8.7248,8.8348],[8.7315,8.8348],[8.745,8.837],[8.7697,8.8393],[8.7764,8.8415],[8.7921,8.8438],[8.7989,8.8483],[8.8056,8.8528],[8.8146,8.8573],[8.8191,8.8595],[8.8303,8.8752],[8.837,8.8887],[8.8505,8.9089],[8.8573,8.9179],[8.8662,8.9291],[8.873,8.9426],[8.8775,8.9538],[8.8865,8.9606],[8.8977,8.9808],[8.9022,8.9965],[8.9044,9.0032],[8.9089,9.0167],[8.9067,9.019],[8.8977,9.0212],[8.8865,9.0212],[8.8662,9.0279],[8.8438,9.0302],[8.8236,9.0302],[8.8123,9.0302],[8.7989,9.0324],[8.7944,9.0369],[8.7899,9.0437],[8.7899,9.0459],[8.7899,9.0526],[8.7944,9.0616],[8.7989,9.0706],[8.7921,9.0841],[8.7832,9.0841],[8.7809,9.0863],[8.7697,9.0953],[8.7607,9.1043],[8.7607,9.1178],[8.7652,9.129],[8.7674,9.1357],[8.7674,9.1447],[8.7674,9.1582],[8.7652,9.1649],[8.7495,9.1784],[8.7225,9.1851],[8.709,9.1874],[8.6911,9.1874],[8.6866,9.1851],[8.6776,9.1874],[8.6686,9.1896],[8.6619,9.1964],[8.6574,9.2076],[8.6574,9.1964],[8.6551,9.1874],[8.6484,9.1717],[8.6462,9.1649],[8.6417,9.1582],[8.6282,9.1335],[8.6215,9.1155],[8.6102,9.1043],[8.6057,9.0998],[8.5945,9.0908],[8.5855,9.0818],[8.581,9.0751],[8.5698,9.0639],[8.5676,9.0616],[8.5631,9.0526],[8.5631,9.0414],[8.5586,9.0279],[8.5541,9.0212],[8.5473,9.0145],[8.5339,9.0055],[8.5226,9.001],[8.5137,9.001],[8.5092,9.001],[8.5047,9.001],[8.5092,8.9875],[8.5092,8.9853],[8.5137,8.9606],[8.5159,8.9538],[8.5182,8.9359],[8.5182,8.9336],[8.5204,8.9269],[8.5204,8.9201],[8.5226,8.9089],[8.5249,8.9044],[8.5294,8.8932],[8.5294,8.8842],[8.5316,8.8797],[8.5204,8.8618],[8.5069,8.8483],[8.5002,8.837],[8.5092,8.8236]]]}}]}