{"type":"FeatureCollection","features":[{"type":"Feature","properties":{"id":"niger/agaie","name":"Agaie","state":"Niger"},"geometry":{"type":"Polygon","coordinates":[[[6.2746,8.992],[6.2791,8.9853],[6.2859,8.9695],[6.2859,8.9606],[6.2859,8.9583],[6.2836,8.9516],[6.2836,8.9381],[6.2859,8.9291],[6.2904,8.9157],[6.2904,8.9067],[6.2836,8.8954],[6.2859,8.8887],[6.2881,8.882],[6.2971,8.8685],[6.3038,8.8618],[6.3196,8.8618],[6.3285,8.855],[6.3308,8.8438],[6.3308,8.8326],[6.333,8.8123],[6.3398,8.8011],[6.3532,8.7764],[6.3465,8.754],[6.3375,8.7337],[6.3375,8.7315],[6.3488,8.7203],[6.3622,8.7135],[6.3712,8.7023],[6.3869,8.6911],[6.3937,8.6731],[6.3914,8.6574],[6.3847,8.6439],[6.3982,8.6304],[6.4049,8.6125],[6.4071,8.6035],[6.4274,8.599],[6.4386,8.5945],[6.4521,8.5878],[6.4678,8.5788],[6.4857,8.5788],[6.5015,8.5878],[6.5351,8.6282],[6.5396,8.6417],[6.5464,8.6664],[6.5464,8.6911],[6.5441,8.7068],[6.5396,8.7135],[6.5329,8.736],[6.5351,8.7495],[6.5441,8.7652],[6.5621,8.7764],[6.5756,8.7876],[6.5823,8.8079],[6.5913,8.8348],[6.598,8.8438],[6.598,8.8528],[6.5868,8.8797],[6.5823,8.9089],[6.5801,8.9336],[6.5823,8.9538],[6.5846,8.9695],[6.6048,8.992],[6.607,8.992],[6.6003,9.001],[6.5846,9.0257],[6.5733,9.0369],[6.5711,9.0661],[6.5666,9.0818],[6.5464,9.1088],[6.5374,9.1245],[6.5307,9.138],[6.5351,9.1604],[6.5396,9.1762],[6.5419,9.1941],[6.5396,9.2098],[6.5351,9.2211],[6.5262,9.2301],[6.5217,9.2301],[6.5127,9.2301],[6.506,9.2301],[6.5015,9.2368],[6.4925,9.2413],[6.4857,9.2503],[6.4857,9.2593],[6.479,9.2682],[6.4723,9.2727],[6.4678,9.284],[6.4543,9.2884],[6.4408,9.2884],[6.4184,9.284],[6.4026,9.2795],[6.3982,9.2727],[6.4004,9.2637],[6.3982,9.2593],[6.3914,9.2503],[6.3712,9.2345],[6.3532,9.2278],[6.3488,9.2211],[6.342,9.2256],[6.333,9.2166],[6.3285,9.2121],[6.3196,9.1941],[6.3083,9.1919],[6.2971,9.1694],[6.2993,9.1604],[6.2993,9.1537],[6.2993,9.147],[6.3061,9.1335],[6.3128,9.1245],[6.3173,9.1155],[6.3218,9.1065],[6.3173,9.0908],[6.2971,9.0773],[6.2859,9.0661],[6.2724,9.0437],[6.2746,9.0257],[6.2724,9.0167],[6.2724,9.0077],[6.2746,8.992]]]}},{"type":"Feature","properties":{"id":"niger/agwara","name":"Agwara","state":"Niger"},"geometry":{"type":"Polygon","coordinates":[[[4.3119,10.5483],[4.3366,10.5551],[4.359,10.5551],[4.3882,10.5461],[4.4062,10.5438],[4.4286,10.5461],[4.4421,10.5438],[4.4533,10.5416],[4.4803,10.5416],[4.5095,10.5348],[4.5252,10.5416],[4.5477,10.5506],[4.5858,10.564],[4.606,10.5753],[4.6285,10.5932],[4.6622,10.6202],[4.6891,10.6426],[4.6981,10.6673],[4.7004,10.6943],[4.7004,10.7055],[4.7071,10.7414],[4.7138,10.7706],[4.7206,10.8156],[4.7385,10.8515],[4.743,10.8739],[4.7318,10.8964],[4.7161,10.9166],[4.7071,10.9189],[4.6936,10.9346],[4.6891,10.9458],[4.6824,10.9526],[4.6644,10.957],[4.6577,10.9548],[4.6465,10.9413],[4.6375,10.9278],[4.6263,10.9144],[4.6016,10.9121],[4.5881,10.9054],[4.5679,10.9076],[4.5544,10.9144],[4.5409,10.9189],[4.523,10.9166],[4.4915,10.9099],[4.4713,10.9031],[4.4646,10.9009],[4.4421,10.8987],[4.4196,10.8942],[4.3972,10.8964],[4.3792,10.9009],[4.3702,10.9009],[4.3568,10.9099],[4.3478,10.9121],[4.3433,10.9121],[4.3478,10.9054],[4.3478,10.8605],[4.35,10.8358],[4.3523,10.7953],[4.3568,10.7729],[4.3657,10.7527],[4.3747,10.7414],[4.3702,10.7257],[4.3702,10.7078],[4.368,10.701],[4.3613,10.6876],[4.3523,10.6696],[4.35,10.6539],[4.3455,10.6314],[4.3366,10.6202],[4.3343,10.609],[4.3253,10.582],[4.3141,10.564],[4.3096,10.5551],[4.3119,10.5483]]]}},{"type":"Feature","properties":{"id":"niger/bida","name":"Bida","state":"Niger"},"geometry":{"type":"Polygon","coordinates":[[[5.9849,9.0661],[5.9939,9.0616],[6.0029,9.0616],[6.0119,9.0639],[6.0321,9.0661],[6.0366,9.0706],[6.0433,9.0729],[6.0501,9.0818],[6.0568,9.0953],[6.059,9.102],[6.059,9.111],[6.0546,9.111],[6.0501,9.1155],[6.0343,9.129],[6.0231,9.1357],[6.0141,9.1312],[6.0029,9.1268],[5.9962,9.1245],[5.9917,9.1178],[5.9849,9.0976],[5.9782,9.0796],[5.9715,9.0684],[5.9849,9.0661]]]}},{"type":"Feature","properties":{"id":"niger/borgu","name":"Borgu","state":"Niger"},"geometry":{"type":"Polygon","coordinates":[[[3.5932,10.2541],[3.5977,10.2429],[3.6134,10.2227],[3.6179,10.2182],[3.6224,10.2137],[3.6291,10.207],[3.6336,10.2025],[3.6404,10.1957],[3.6471,10.189],[3.6561,10.1845],[3.6628,10.1845],[3.6718,10.1845],[3.6785,10.1778],[3.6853,10.171],[3.6875,10.162],[3.692,10.1576],[3.7033,10.1531],[3.7077,10.1441],[3.7077,10.1328],[3.7077,10.1171],[3.7122,10.1081],[3.7145,10.1014],[3.7145,10.0902],[3.7302,10.0677],[3.7369,10.0677],[3.7369,10.0745],[3.7347,10.079],[3.7347,10.0879],[3.7437,10.0834],[3.7459,10.0767],[3.7504,10.0677],[3.7571,10.0632],[3.7616,10.0587],[3.7661,10.0542],[3.7706,10.0475],[3.7729,10.0408],[3.7751,10.034],[3.7841,10.0318],[3.7886,10.034],[3.7886,10.0385],[3.7841,10.0453],[3.7796,10.052],[3.7841,10.0632],[3.7931,10.0632],[3.7976,10.0655],[3.7998,10.0722],[3.8178,10.0677],[3.8223,10.0542],[3.8335,10.0475],[3.8515,10.0542],[3.8649,10.0498],[3.8717,10.043],[3.8829,10.0363],[3.8896,10.0295],[3.9031,10.0183],[3.8896,10.0161],[3.8874,10.0048],[3.8874,9.9891],[3.9099,9.9891],[3.9211,10.0004],[3.9346,10.0004],[3.9503,9.9914],[3.9548,9.9824],[3.9525,9.9779],[3.9413,9.9756],[3.9368,9.9734],[3.9346,9.9712],[3.9346,9.9667],[3.9413,9.9622],[3.9503,9.9622],[3.9593,9.9599],[3.966,9.9577],[3.9705,9.9487],[3.9683,9.942],[3.9593,9.933],[3.9435,9.933],[3.9346,9.9285],[3.9368,9.915],[3.9458,9.9083],[3.9548,9.9083],[3.9683,9.9038],[3.9795,9.906],[3.9817,9.8993],[3.9862,9.8926],[3.9952,9.8993],[4.0019,9.906],[4.0109,9.8993],[4.0132,9.8858],[4.0177,9.8679],[4.0221,9.8566],[4.0266,9.8566],[4.0379,9.8656],[4.0513,9.8634],[4.0581,9.8566],[4.0693,9.8566],[4.0783,9.8544],[4.0805,9.8521],[4.0828,9.8521],[4.0963,9.8679],[4.0963,9.8768],[4.1142,9.8813],[4.1232,9.8746],[4.1232,9.8611],[4.1187,9.8566],[4.1277,9.8521],[4.1412,9.8611],[4.1524,9.8611],[4.1704,9.8207],[4.2063,9.7825],[4.2827,9.6949],[4.35,9.5894],[4.3882,9.5624],[4.4444,9.5108],[4.5005,9.4412],[4.5791,9.3873],[4.6105,9.3626],[4.6128,9.3715],[4.6128,9.394],[4.6128,9.4142],[4.6128,9.4277],[4.6105,9.4367],[4.6016,9.4569],[4.5813,9.4771],[4.5521,9.5085],[4.5432,9.5355],[4.5432,9.5602],[4.5544,9.5849],[4.5813,9.632],[4.5971,9.6657],[4.6105,9.7039],[4.6173,9.7106],[4.6307,9.7129],[4.6375,9.7196],[4.6375,9.7443],[4.6352,9.7645],[4.633,9.7825],[4.6307,9.796],[4.624,9.8162],[4.6218,9.8229],[4.6218,9.8274],[4.6038,9.8454],[4.6016,9.8589],[4.5948,9.8701],[4.5903,9.8723],[4.5836,9.8746],[4.5791,9.8791],[4.5881,9.8926],[4.5926,9.9038],[4.5926,9.9128],[4.5858,9.9262],[4.5836,9.942],[4.5791,9.9487],[4.5724,9.9756],[4.5746,9.9914],[4.5813,10.0071],[4.5858,10.034],[4.5701,10.07],[4.5544,10.0812],[4.5297,10.1014],[4.5274,10.1104],[4.5274,10.1149],[4.5274,10.1441],[4.5521,10.1957],[4.5679,10.2227],[4.5679,10.2451],[4.5656,10.2564],[4.5589,10.2676],[4.5409,10.2878],[4.5185,10.299],[4.4915,10.3148],[4.4825,10.3282],[4.4848,10.3417],[4.487,10.3687],[4.4803,10.4203],[4.4848,10.4697],[4.4982,10.5169],[4.5095,10.5348],[4.4803,10.5416],[4.4533,10.5416],[4.4421,10.5438],[4.4286,10.5461],[4.4062,10.5438],[4.3882,10.5461],[4.359,10.5551],[4.3366,10.5551],[4.3119,10.5483],[4.3096,10.5551],[4.3141,10.564],[4.3253,10.582],[4.3343,10.609],[4.3366,10.6202],[4.3455,10.6314],[4.35,10.6539],[4.3523,10.6696],[4.3613,10.6876],[4.368,10.701],[4.3702,10.7078],[4.3702,10.7257],[4.3747,10.7414],[4.3657,10.7527],[4.3568,10.7729],[4.3523,10.7953],[4.35,10.8358],[4.3478,10.8605],[4.3478,10.9054],[4.3433,10.9121],[4.341,10.9166],[4.3186,10.9144],[4.3096,10.9211],[4.2871,10.9278],[4.2849,10.9368],[4.2849,10.9526],[4.2871,10.9795],[4.2782,10.9862],[4.2624,10.9817],[4.2557,10.9862],[4.24,11.0064],[4.2265,11.0177],[4.213,11.0312],[4.1861,11.0334],[4.1681,11.0244],[4.1322,11.0244],[4.1007,11.0267],[4.0693,11.0222],[3.993,11.0177],[3.9368,11.0356],[3.8919,11.0536],[3.8358,11.0873],[3.8178,11.0985],[3.7931,11.112],[3.7527,11.1277],[3.7257,11.1277],[3.7257,11.1255],[3.7257,11.1232],[3.728,11.1187],[3.7257,11.112],[3.7235,11.1053],[3.7235,11.0985],[3.7212,11.0918],[3.719,11.0873],[3.7212,11.0738],[3.7235,11.0671],[3.7235,11.0626],[3.7235,11.0581],[3.7212,11.0424],[3.719,11.0379],[3.7167,11.0356],[3.7167,11.0289],[3.7167,11.0244],[3.719,11.0222],[3.7235,11.0222],[3.7257,11.0222],[3.7302,11.0222],[3.7369,11.0199],[3.7437,11.0154],[3.7527,11.0109],[3.7549,11.0042],[3.7594,10.9975],[3.7616,10.9907],[3.7616,10.9817],[3.7639,10.9728],[3.7661,10.9638],[3.7661,10.957],[3.7684,10.9436],[3.7706,10.9391],[3.7706,10.9368],[3.7706,10.9301],[3.7706,10.9189],[3.7684,10.9009],[3.7684,10.8987],[3.7684,10.8942],[3.7639,10.8807],[3.7616,10.8739],[3.7571,10.865],[3.7549,10.856],[3.7527,10.8492],[3.7504,10.8448],[3.7482,10.838],[3.7504,10.8245],[3.7527,10.8156],[3.7571,10.8088],[3.7616,10.8021],[3.7639,10.7953],[3.7684,10.7909],[3.7729,10.7841],[3.7751,10.7796],[3.7774,10.7729],[3.7796,10.7662],[3.7819,10.7617],[3.7841,10.7549],[3.7976,10.7347],[3.8133,10.7235],[3.82,10.719],[3.8268,10.7167],[3.8335,10.7123],[3.838,10.7078],[3.8402,10.7055],[3.8425,10.6988],[3.8447,10.692],[3.8447,10.6853],[3.8447,10.6786],[3.8447,10.6718],[3.847,10.6673],[3.8492,10.6606],[3.8492,10.6516],[3.8492,10.6471],[3.8492,10.6449],[3.8492,10.6359],[3.8492,10.6292],[3.8515,10.6202],[3.8515,10.6067],[3.8515,10.6],[3.8492,10.5887],[3.8425,10.582],[3.838,10.5753],[3.8313,10.5685],[3.829,10.5618],[3.8268,10.5551],[3.8223,10.5461],[3.82,10.5393],[3.8178,10.5348],[3.8155,10.5281],[3.811,10.5191],[3.8088,10.5124],[3.8066,10.5034],[3.8043,10.4967],[3.8021,10.4922],[3.8021,10.4854],[3.8021,10.4765],[3.8021,10.4697],[3.8021,10.463],[3.8021,10.4562],[3.7998,10.4428],[3.7863,10.4046],[3.7751,10.4113],[3.7706,10.4158],[3.7684,10.4158],[3.7616,10.4181],[3.7549,10.4226],[3.7504,10.4248],[3.7437,10.427],[3.7369,10.4315],[3.7302,10.4338],[3.7235,10.4383],[3.7167,10.4428],[3.71,10.4473],[3.7033,10.4495],[3.6943,10.454],[3.6875,10.4562],[3.683,10.454],[3.6808,10.4517],[3.6651,10.4428],[3.6583,10.4405],[3.6516,10.4383],[3.6471,10.436],[3.6426,10.4315],[3.6381,10.427],[3.6336,10.4226],[3.6314,10.4181],[3.6336,10.4136],[3.6336,10.4068],[3.6336,10.3978],[3.6336,10.3911],[3.6291,10.3821],[3.6291,10.3776],[3.6269,10.3731],[3.6224,10.3687],[3.6179,10.3619],[3.6134,10.3552],[3.6112,10.3484],[3.6089,10.3417],[3.6067,10.335],[3.6022,10.3282],[3.5999,10.3192],[3.5977,10.3103],[3.5932,10.3035],[3.591,10.2945],[3.5865,10.2856],[3.5842,10.2788],[3.5842,10.2743],[3.5932,10.2541]]]}},{"type":"Feature","properties":{"id":"niger/bosso","name":"Bosso","state":"Niger"},"geometry":{"type":"Polygon","coordinates":[[[6.196,9.6455],[6.2028,9.6276],[6.2005,9.6096],[6.1983,9.5939],[6.2005,9.5781],[6.2118,9.5669],[6.2275,9.5512],[6.2297,9.5377],[6.223,9.5287],[6.2207,9.5265],[6.2185,9.5198],[6.2118,9.5085],[6.2118,9.4995],[6.214,9.4906],[6.223,9.4838],[6.2522,9.4748],[6.2701,9.4614],[6.2769,9.4524],[6.2791,9.4389],[6.2724,9.4322],[6.2679,9.4165],[6.2701,9.4052],[6.2791,9.403],[6.2949,9.4007],[6.3128,9.3985],[6.3285,9.3962],[6.3488,9.3962],[6.3667,9.3895],[6.3779,9.3918],[6.3914,9.403],[6.4026,9.4165],[6.4206,9.4277],[6.4363,9.4277],[6.4453,9.4232],[6.47,9.4232],[6.4813,9.4232],[6.4813,9.4344],[6.4768,9.4412],[6.4745,9.4681],[6.4768,9.4771],[6.488,9.4793],[6.4902,9.4816],[6.4947,9.4951],[6.497,9.513],[6.5015,9.5175],[6.5172,9.5175],[6.5217,9.5243],[6.5351,9.5287],[6.5509,9.5265],[6.5576,9.5377],[6.5711,9.5377],[6.5823,9.5332],[6.598,9.531],[6.6205,9.5422],[6.6295,9.5332],[6.6497,9.5355],[6.6497,9.5512],[6.6519,9.5579],[6.6587,9.5624],[6.6699,9.5737],[6.6721,9.5894],[6.6766,9.6051],[6.6789,9.6208],[6.6789,9.6545],[6.6789,9.6702],[6.6834,9.677],[6.6632,9.6949],[6.6519,9.7084],[6.6385,9.7129],[6.6205,9.7219],[6.6138,9.7309],[6.6093,9.7578],[6.6003,9.7668],[6.589,9.7803],[6.5711,9.787],[6.5531,9.796],[6.5419,9.796],[6.5239,9.7982],[6.5082,9.805],[6.4857,9.8095],[6.4768,9.8027],[6.4543,9.7848],[6.4386,9.7735],[6.4139,9.7533],[6.3959,9.7556],[6.3712,9.7556],[6.36,9.7488],[6.351,9.7556],[6.3398,9.7623],[6.333,9.7578],[6.3106,9.7556],[6.2612,9.7623],[6.2275,9.769],[6.2275,9.7601],[6.223,9.7443],[6.223,9.7264],[6.2207,9.7084],[6.2095,9.6904],[6.1983,9.6815],[6.1938,9.6635],[6.196,9.6455]],[[6.4902,9.5939],[6.4992,9.5894],[6.5037,9.5871],[6.5172,9.5894],[6.5239,9.5849],[6.5419,9.5804],[6.5599,9.5826],[6.5733,9.5894],[6.5846,9.5916],[6.5913,9.5984],[6.5935,9.6051],[6.5935,9.6163],[6.5935,9.6253],[6.589,9.632],[6.5823,9.6388],[6.5778,9.6433],[6.5756,9.6545],[6.5688,9.659],[6.5554,9.6612],[6.5486,9.659],[6.5351,9.659],[6.5284,9.6612],[6.5194,9.6545],[6.5104,9.6523],[6.5104,9.641],[6.5127,9.632],[6.5082,9.6231],[6.4992,9.6073],[6.4902,9.5961],[6.4902,9.5939]]]}},{"type":"Feature","properties":{"id":"niger/chanchaga","name":"Chanchaga","state":"Niger"},"geometry":{"type":"Polygon","coordinates":[[[6.4992,9.5894],[6.5037,9.5871],[6.5172,9.5894],[6.5239,9.5849],[6.5419,9.5804],[6.5599,9.5826],[6.5733,9.5894],[6.5846,9.5916],[6.5913,9.5984],[6.5935,9.6051],[6.5935,9.6163],[6.5935,9.6253],[6.589,9.632],[6.5823,9.6388],[6.5778,9.6433],[6.5756,9.6545],[6.5688,9.659],[6.5554,9.6612],[6.5486,9.659],[6.5351,9.659],[6.5284,9.6612],[6.5194,9.6545],[6.5104,9.6523],[6.5104,9.641],[6.5127,9.632],[6.5082,9.6231],[6.4992,9.6073],[6.4902,9.5961],[6.4902,9.5939],[6.4992,9.5894]]]}},{"type":"Feature","properties":{"id":"niger/edati","name":"Edati","state":"Niger"},"geometry":{"type":"MultiPolygon","coordinates":[[[[5.8075,8.7921],[5.8075,8.7854],[5.8098,8.7832],[5.8277,8.7809],[5.839,8.7764],[5.8502,8.7742],[5.8614,8.7719],[5.8771,8.7742],[5.8861,8.7764],[5.8951,8.7787],[5.8974,8.7787],[5.9063,8.7832],[5.9243,8.7854],[5.958,8.7921],[5.9692,8.7944],[5.9939,8.7921],[6.0074,8.7854],[6.0231,8.7787],[6.0343,8.7787],[6.0501,8.7809],[6.059,8.7832],[6.0793,8.7899],[6.086,8.7944],[6.095,8.8011],[6.1017,8.8034],[6.1107,8.8034],[6.1197,8.8034],[6.1264,8.8034],[6.1287,8.8011],[6.1399,8.7966],[6.1466,8.7921],[6.1601,8.7921],[6.1691,8.8011],[6.1758,8.8056],[6.1781,8.8123],[6.1758,8.8191],[6.1713,8.8236],[6.1624,8.8348],[6.1511,8.8483],[6.1444,8.8618],[6.1377,8.873],[6.1377,8.8865],[6.1332,8.8977],[6.1332,8.9022],[6.1377,8.9134],[6.1377,8.9336],[6.1354,8.9448],[6.1287,8.9561],[6.1242,8.9606],[6.1197,8.9763],[6.1174,8.9853],[6.1174,8.992],[6.1129,8.9965],[6.1107,9.0055],[6.1107,9.0167],[6.1152,9.0234],[6.1152,9.0302],[6.1152,9.0369],[6.1242,9.0481],[6.1309,9.0571],[6.1377,9.0594],[6.1444,9.0639],[6.1489,9.0661],[6.1489,9.0751],[6.1466,9.0841],[6.1444,9.0931],[6.1444,9.102],[6.1489,9.1065],[6.1444,9.1133],[6.1174,9.1223],[6.1062,9.1268],[6.095,9.1335],[6.095,9.138],[6.0905,9.1447],[6.0815,9.1537],[6.0725,9.1515],[6.068,9.1425],[6.068,9.1335],[6.0703,9.1223],[6.0658,9.1155],[6.059,9.111],[6.059,9.102],[6.0568,9.0953],[6.0501,9.0818],[6.0433,9.0729],[6.0366,9.0706],[6.0321,9.0661],[6.0119,9.0639],[6.0029,9.0616],[5.9939,9.0616],[5.9849,9.0661],[5.9715,9.0684],[5.9715,9.0661],[5.9535,9.0504],[5.931,9.0324],[5.9265,9.0302],[5.9198,9.0167],[5.9131,9.0077],[5.8951,8.9943],[5.8794,8.983],[5.8727,8.9785],[5.8614,8.9785],[5.8727,8.9673],[5.8906,8.9493],[5.8929,8.9381],[5.8906,8.9336],[5.8839,8.9179],[5.8704,8.9044],[5.8502,8.8842],[5.83,8.864],[5.8277,8.8595],[5.8232,8.8505],[5.8165,8.837],[5.812,8.8258],[5.8098,8.8168],[5.8053,8.8079],[5.8053,8.8011],[5.8075,8.7921]]],[[[5.41,9.0639],[5.4235,9.0616],[5.428,9.0616],[5.4415,9.0616],[5.4482,9.0616],[5.4752,9.0481],[5.4796,9.0459],[5.4819,9.0392],[5.4841,9.0347],[5.4954,9.019],[5.5111,9.0145],[5.5223,9.001],[5.5313,8.9808],[5.5358,8.9763],[5.547,8.974],[5.5605,8.974],[5.5695,8.9718],[5.5785,8.9628],[5.5874,8.9538],[5.5964,8.9538],[5.6099,8.9561],[5.6211,8.9538],[5.6368,8.9426],[5.6503,8.9291],[5.6503,8.9269],[5.684,8.9157],[5.6952,8.9179],[5.711,8.9134],[5.7222,8.9157],[5.7379,8.9089],[5.7469,8.9044],[5.7649,8.8977],[5.7761,8.9022],[5.7873,8.9089],[5.7963,8.9112],[5.803,8.9134],[5.8075,8.9157],[5.8098,8.9201],[5.812,8.9224],[5.83,8.9314],[5.8367,8.9448],[5.8367,8.9561],[5.83,8.9673],[5.8232,8.974],[5.8098,8.9943],[5.8053,9.0077],[5.8008,9.0302],[5.8008,9.0392],[5.7985,9.0392],[5.794,9.0392],[5.7896,9.0369],[5.7851,9.0347],[5.7806,9.0324],[5.7738,9.0257],[5.7604,9.0145],[5.7536,9.01],[5.7402,9.01],[5.7357,9.0122],[5.7199,9.0212],[5.7199,9.0234],[5.7177,9.0302],[5.7177,9.0369],[5.7222,9.0437],[5.7244,9.0459],[5.7312,9.0481],[5.7357,9.0504],[5.7379,9.0549],[5.7379,9.0616],[5.7357,9.0729],[5.7357,9.0773],[5.7402,9.0841],[5.7446,9.0863],[5.7491,9.0863],[5.7514,9.0863],[5.7559,9.0886],[5.7581,9.0908],[5.7604,9.1065],[5.7626,9.1155],[5.7649,9.1245],[5.7671,9.1268],[5.7649,9.1312],[5.7581,9.1335],[5.7469,9.1357],[5.7379,9.1357],[5.7244,9.1312],[5.7222,9.1312],[5.7177,9.1335],[5.7132,9.1357],[5.7087,9.138],[5.6975,9.1402],[5.6863,9.1492],[5.6818,9.1582],[5.684,9.1649],[5.6863,9.1762],[5.684,9.1806],[5.6773,9.1896],[5.6683,9.1919],[5.6571,9.1941],[5.6346,9.1896],[5.6279,9.1874],[5.6144,9.1762],[5.5829,9.1559],[5.5695,9.147],[5.5605,9.1447],[5.5425,9.1425],[5.5246,9.138],[5.5043,9.138],[5.4999,9.138],[5.5066,9.129],[5.5156,9.12],[5.5111,9.1133],[5.5066,9.1088],[5.5021,9.1043],[5.4976,9.1043],[5.4886,9.1043],[5.4752,9.1088],[5.4639,9.1088],[5.4572,9.1065],[5.4415,9.1043],[5.4325,9.102],[5.4213,9.0908],[5.4145,9.0818],[5.4078,9.0706],[5.4078,9.0661],[5.41,9.0639]]]]}},{"type":"Feature","properties":{"id":"niger/gbako","name":"Gbako","state":"Niger"},"geometry":{"type":"Polygon","coordinates":[[[5.8232,9.0414],[5.8277,9.0167],[5.8345,9.0055],[5.8412,8.9943],[5.8457,8.9898],[5.8569,8.9853],[5.8614,8.9785],[5.8727,8.9785],[5.8794,8.983],[5.8951,8.9943],[5.9131,9.0077],[5.9198,9.0167],[5.9265,9.0302],[5.931,9.0324],[5.9535,9.0504],[5.9715,9.0661],[5.9715,9.0684],[5.9782,9.0796],[5.9849,9.0976],[5.9917,9.1178],[5.9962,9.1245],[6.0029,9.1268],[6.0141,9.1312],[6.0231,9.1357],[6.0343,9.129],[6.0501,9.1155],[6.0546,9.111],[6.059,9.111],[6.0658,9.1155],[6.0703,9.1223],[6.068,9.1335],[6.068,9.1425],[6.0725,9.1515],[6.0815,9.1537],[6.0905,9.1447],[6.095,9.138],[6.095,9.1335],[6.1062,9.1268],[6.1174,9.1223],[6.1444,9.1133],[6.1489,9.1065],[6.1579,9.111],[6.1691,9.1133],[6.1736,9.1223],[6.1736,9.1268],[6.1758,9.138],[6.1781,9.1447],[6.1803,9.1515],[6.1826,9.1604],[6.1848,9.1762],[6.196,9.1784],[6.2073,9.1829],[6.2163,9.1896],[6.2207,9.1986],[6.223,9.2098],[6.214,9.2166],[6.2005,9.2166],[6.1938,9.2233],[6.1826,9.2278],[6.1781,9.2345],[6.1758,9.2458],[6.1668,9.2503],[6.1624,9.2458],[6.1466,9.2525],[6.1421,9.2615],[6.1421,9.2795],[6.1444,9.2884],[6.1534,9.2952],[6.1466,9.3042],[6.1287,9.3131],[6.1287,9.3176],[6.1377,9.3334],[6.1354,9.3468],[6.1421,9.3603],[6.1466,9.3648],[6.1421,9.3805],[6.1466,9.3918],[6.1556,9.4007],[6.1691,9.4075],[6.1736,9.4187],[6.1713,9.4277],[6.1713,9.4591],[6.1758,9.4748],[6.1893,9.4861],[6.1983,9.4951],[6.2118,9.4995],[6.2118,9.5085],[6.2185,9.5198],[6.2207,9.5265],[6.2163,9.5332],[6.2073,9.54],[6.2028,9.5422],[6.1983,9.54],[6.1915,9.5377],[6.1826,9.5422],[6.1691,9.5467],[6.1579,9.5557],[6.1489,9.5669],[6.1421,9.5714],[6.1354,9.5781],[6.1332,9.5781],[6.1219,9.5759],[6.1107,9.5692],[6.095,9.5579],[6.0905,9.5557],[6.0815,9.5579],[6.0725,9.5602],[6.0635,9.5602],[6.059,9.5602],[6.0523,9.5512],[6.0456,9.5512],[6.0366,9.5512],[6.0231,9.5534],[6.0186,9.5557],[6.0074,9.5557],[5.9984,9.5534],[5.9894,9.5534],[5.9849,9.5534],[5.9782,9.5557],[5.9715,9.5557],[5.9513,9.5512],[5.9355,9.54],[5.9265,9.531],[5.9243,9.5265],[5.9221,9.5175],[5.9153,9.5063],[5.9131,9.5018],[5.9153,9.4973],[5.9153,9.4883],[5.9108,9.4771],[5.9086,9.4614],[5.8996,9.4254],[5.8974,9.3918],[5.8996,9.3805],[5.8906,9.3648],[5.8794,9.3558],[5.8771,9.3468],[5.8704,9.3334],[5.8659,9.3244],[5.8637,9.3131],[5.8547,9.2907],[5.8502,9.266],[5.8502,9.2548],[5.8502,9.2345],[5.8457,9.2211],[5.8479,9.2076],[5.8457,9.1919],[5.8479,9.1806],[5.8502,9.1739],[5.8479,9.1559],[5.8435,9.1447],[5.8367,9.1312],[5.8322,9.1178],[5.8255,9.0998],[5.8232,9.0953],[5.8188,9.0729],[5.8232,9.0414]]]}},{"type":"Feature","properties":{"id":"niger/gurara","name":"Gurara","state":"Niger"},"geometry":{"type":"Polygon","coordinates":[[[6.7463,9.3176],[6.7507,9.3042],[6.7597,9.2929],[6.7687,9.275],[6.7687,9.2682],[6.7754,9.2503],[6.7799,9.2256],[6.7822,9.2166],[6.7799,9.1986],[6.7777,9.1806],[6.7777,9.1694],[6.7867,9.1559],[6.7889,9.2705],[7.0157,9.2682],[7.0292,9.257],[7.1685,9.1537],[7.1685,9.1604],[7.164,9.1717],[7.1617,9.1851],[7.1617,9.1941],[7.1617,9.2009],[7.1572,9.2143],[7.1527,9.2256],[7.1527,9.2413],[7.1505,9.2548],[7.1482,9.266],[7.1482,9.2795],[7.155,9.2907],[7.1797,9.3042],[7.1864,9.3042],[7.1999,9.3042],[7.2066,9.2997],[7.2044,9.2929],[7.2021,9.284],[7.2021,9.2772],[7.2066,9.275],[7.2156,9.2705],[7.2224,9.2705],[7.2358,9.2705],[7.2471,9.275],[7.2538,9.275],[7.2583,9.2727],[7.265,9.275],[7.265,9.284],[7.2583,9.3019],[7.2515,9.3131],[7.2493,9.3221],[7.2605,9.3379],[7.2695,9.3491],[7.2673,9.3513],[7.265,9.3536],[7.2605,9.3558],[7.2583,9.3603],[7.2538,9.3626],[7.256,9.3648],[7.256,9.376],[7.2583,9.3805],[7.2695,9.3918],[7.283,9.403],[7.2852,9.4052],[7.2897,9.4097],[7.2897,9.412],[7.2897,9.4254],[7.274,9.4412],[7.2583,9.4412],[7.2471,9.4389],[7.2403,9.4367],[7.2381,9.4367],[7.2268,9.4434],[7.2224,9.4479],[7.2224,9.4524],[7.2246,9.4614],[7.2224,9.4681],[7.2201,9.4704],[7.2179,9.4748],[7.2156,9.4816],[7.2134,9.4861],[7.2134,9.4883],[7.2134,9.4928],[7.2111,9.5018],[7.1999,9.4973],[7.1864,9.4928],[7.1729,9.4861],[7.1617,9.4793],[7.1527,9.4771],[7.1393,9.4793],[7.1303,9.4793],[7.1258,9.4838],[7.1168,9.4816],[7.1146,9.4771],[7.0988,9.4771],[7.0966,9.4704],[7.0966,9.4524],[7.0988,9.4479],[7.1033,9.4479],[7.1146,9.4479],[7.1146,9.4412],[7.1168,9.4344],[7.1146,9.4299],[7.1101,9.4299],[7.1011,9.4322],[7.0988,9.4299],[7.0943,9.4232],[7.0854,9.4187],[7.0607,9.4142],[7.0539,9.4165],[7.0404,9.412],[7.0315,9.4165],[7.0202,9.4209],[7.009,9.4165],[7.0023,9.4075],[6.9933,9.403],[6.9641,9.3873],[6.9416,9.376],[6.9394,9.3715],[6.9259,9.376],[6.9214,9.3828],[6.9079,9.3918],[6.9012,9.394],[6.8922,9.394],[6.8832,9.3918],[6.8743,9.3918],[6.863,9.3985],[6.8563,9.4007],[6.8473,9.3962],[6.8383,9.3918],[6.8361,9.3873],[6.8361,9.385],[6.8428,9.376],[6.8518,9.367],[6.8585,9.3603],[6.863,9.3558],[6.8585,9.3423],[6.854,9.3379],[6.8451,9.3379],[6.8383,9.3356],[6.8361,9.3289],[6.8338,9.3244],[6.8383,9.3131],[6.8361,9.3019],[6.8361,9.2974],[6.8316,9.2907],[6.8226,9.2907],[6.8114,9.2997],[6.8091,9.3064],[6.7957,9.3199],[6.7912,9.3289],[6.7822,9.3401],[6.7732,9.3423],[6.762,9.3446],[6.7463,9.3423],[6.744,9.3311],[6.7463,9.3176]]]}},{"type":"Feature","properties":{"id":"niger/katcha","name":"Katcha","state":"Niger"},"geometry":{"type":"Polygon","coordinates":[[[6.1129,8.9965],[6.1174,8.992],[6.1174,8.9853],[6.1197,8.9763],[6.1242,8.9606],[6.1287,8.9561],[6.1354,8.9448],[6.1377,8.9336],[6.1377,8.9134],[6.1332,8.9022],[6.1332,8.8977],[6.1377,8.8865],[6.1377,8.873],[6.1444,8.8618],[6.1511,8.8483],[6.1624,8.8348],[6.1713,8.8236],[6.1758,8.8191],[6.1781,8.8123],[6.1758,8.8056],[6.1691,8.8011],[6.1601,8.7921],[6.1624,8.7899],[6.1646,8.7854],[6.1691,8.7809],[6.1758,8.7742],[6.1871,8.7697],[6.2005,8.7697],[6.2207,8.7629],[6.2275,8.7607],[6.241,8.754],[6.2634,8.7495],[6.2724,8.7495],[6.2836,8.7472],[6.2926,8.745],[6.3061,8.7382],[6.3106,8.736],[6.3285,8.736],[6.3375,8.7315],[6.3375,8.7337],[6.3465,8.754],[6.3532,8.7764],[6.3398,8.8011],[6.333,8.8123],[6.3308,8.8326],[6.3308,8.8438],[6.3285,8.855],[6.3196,8.8618],[6.3038,8.8618],[6.2971,8.8685],[6.2881,8.882],[6.2859,8.8887],[6.2836,8.8954],[6.2904,8.9067],[6.2904,8.9157],[6.2859,8.9291],[6.2836,8.9381],[6.2836,8.9516],[6.2859,8.9583],[6.2859,8.9606],[6.2859,8.9695],[6.2791,8.9853],[6.2746,8.992],[6.2724,9.0077],[6.2724,9.0167],[6.2746,9.0257],[6.2724,9.0437],[6.2859,9.0661],[6.2971,9.0773],[6.3173,9.0908],[6.3218,9.1065],[6.3173,9.1155],[6.3128,9.1245],[6.3061,9.1335],[6.2993,9.147],[6.2993,9.1537],[6.2993,9.1604],[6.2971,9.1694],[6.3083,9.1919],[6.3196,9.1941],[6.3285,9.2121],[6.333,9.2166],[6.342,9.2256],[6.3488,9.2211],[6.3532,9.2278],[6.3712,9.2345],[6.3914,9.2503],[6.3982,9.2593],[6.4004,9.2637],[6.3982,9.2727],[6.4026,9.2795],[6.4184,9.284],[6.4408,9.2884],[6.4543,9.2884],[6.4678,9.284],[6.4723,9.2727],[6.479,9.2682],[6.4857,9.2593],[6.4857,9.2503],[6.4925,9.2413],[6.5015,9.2368],[6.506,9.2301],[6.5127,9.2301],[6.5217,9.2301],[6.5262,9.2301],[6.5262,9.2345],[6.5194,9.2435],[6.5104,9.2503],[6.5082,9.257],[6.5082,9.2637],[6.506,9.2682],[6.4902,9.284],[6.488,9.2974],[6.497,9.3087],[6.5037,9.3131],[6.5037,9.3266],[6.5037,9.3446],[6.5037,9.3648],[6.506,9.376],[6.5015,9.3873],[6.497,9.3985],[6.4902,9.412],[6.4857,9.4232],[6.4813,9.4232],[6.47,9.4232],[6.4453,9.4232],[6.4363,9.4277],[6.4206,9.4277],[6.4026,9.4165],[6.3914,9.403],[6.3779,9.3918],[6.3667,9.3895],[6.3488,9.3962],[6.3285,9.3962],[6.3128,9.3985],[6.2949,9.4007],[6.2791,9.403],[6.2701,9.4052],[6.2679,9.4165],[6.2724,9.4322],[6.2791,9.4389],[6.2769,9.4524],[6.2701,9.4614],[6.2522,9.4748],[6.223,9.4838],[6.214,9.4906],[6.2118,9.4995],[6.1983,9.4951],[6.1893,9.4861],[6.1758,9.4748],[6.1713,9.4591],[6.1713,9.4277],[6.1736,9.4187],[6.1691,9.4075],[6.1556,9.4007],[6.1466,9.3918],[6.1421,9.3805],[6.1466,9.3648],[6.1421,9.3603],[6.1354,9.3468],[6.1377,9.3334],[6.1287,9.3176],[6.1287,9.3131],[6.1466,9.3042],[6.1534,9.2952],[6.1444,9.2884],[6.1421,9.2795],[6.1421,9.2615],[6.1466,9.2525],[6.1624,9.2458],[6.1668,9.2503],[6.1758,9.2458],[6.1781,9.2345],[6.1826,9.2278],[6.1938,9.2233],[6.2005,9.2166],[6.214,9.2166],[6.223,9.2098],[6.2207,9.1986],[6.2163,9.1896],[6.2073,9.1829],[6.196,9.1784],[6.1848,9.1762],[6.1826,9.1604],[6.1803,9.1515],[6.1781,9.1447],[6.1758,9.138],[6.1736,9.1268],[6.1736,9.1223],[6.1691,9.1133],[6.1579,9.111],[6.1489,9.1065],[6.1444,9.102],[6.1444,9.0931],[6.1466,9.0841],[6.1489,9.0751],[6.1489,9.0661],[6.1444,9.0639],[6.1377,9.0594],[6.1309,9.0571],[6.1242,9.0481],[6.1152,9.0369],[6.1152,9.0302],[6.1152,9.0234],[6.1107,9.0167],[6.1107,9.0055],[6.1129,8.9965]]]}},{"type":"Feature","properties":{"id":"niger/kontagora","name":"Kontagora","state":"Niger"},"geometry":{"type":"Polygon","coordinates":[[[5.1899,10.2743],[5.2259,10.2653],[5.2393,10.2631],[5.2708,10.2586],[5.2932,10.2519],[5.3247,10.2429],[5.3359,10.2429],[5.3516,10.2474],[5.3786,10.2519],[5.3898,10.2519],[5.4078,10.2451],[5.4123,10.2429],[5.4168,10.2317],[5.428,10.2227],[5.437,10.2137],[5.4504,10.2002],[5.4572,10.1935],[5.4662,10.1935],[5.4841,10.2002],[5.4999,10.2047],[5.5111,10.207],[5.5403,10.2159],[5.5807,10.2182],[5.6121,10.2159],[5.6368,10.2159],[5.6503,10.2159],[5.6975,10.2294],[5.7177,10.2362],[5.7289,10.2384],[5.7222,10.2564],[5.7132,10.2743],[5.7087,10.2788],[5.7042,10.2923],[5.702,10.317],[5.6975,10.344],[5.6952,10.3642],[5.6818,10.4091],[5.684,10.4181],[5.6863,10.454],[5.6818,10.4787],[5.6795,10.5012],[5.675,10.5124],[5.6773,10.5236],[5.6728,10.5393],[5.6548,10.5618],[5.6413,10.5842],[5.6346,10.5842],[5.6234,10.6022],[5.6211,10.6112],[5.6211,10.6247],[5.6077,10.6606],[5.5987,10.6786],[5.5897,10.6831],[5.5829,10.6898],[5.5695,10.7033],[5.5627,10.6988],[5.5403,10.6898],[5.5178,10.6831],[5.5066,10.6876],[5.4909,10.6943],[5.4549,10.6943],[5.4347,10.6943],[5.4078,10.692],[5.3763,10.6876],[5.3561,10.6831],[5.3561,10.6786],[5.3584,10.6584],[5.3561,10.6494],[5.3561,10.6224],[5.3471,10.6067],[5.3404,10.5955],[5.3269,10.5708],[5.3224,10.5551],[5.3247,10.5303],[5.3247,10.5124],[5.3292,10.4787],[5.3382,10.454],[5.3471,10.436],[5.3539,10.4136],[5.3539,10.3956],[5.3471,10.3799],[5.3404,10.3709],[5.3269,10.3642],[5.3157,10.3597],[5.3022,10.3642],[5.2843,10.3597],[5.2708,10.3642],[5.2506,10.3619],[5.2236,10.3574],[5.2079,10.3462],[5.1944,10.3327],[5.1765,10.308],[5.1765,10.3013],[5.172,10.2878],[5.1675,10.2833],[5.1899,10.2743]]]}},{"type":"Feature","properties":{"id":"niger/lapai","name":"Lapai","state":"Niger"},"geometry":{"type":"Polygon","coordinates":[[[6.4139,8.581],[6.4251,8.5496],[6.4318,8.5182],[6.4386,8.4934],[6.4498,8.4598],[6.4521,8.4485],[6.4813,8.4261],[6.5037,8.4126],[6.5127,8.3991],[6.5284,8.3767],[6.5509,8.3699],[6.5621,8.3542],[6.5711,8.343],[6.5801,8.3318],[6.589,8.325],[6.598,8.325],[6.6093,8.3138],[6.6138,8.3003],[6.6272,8.2868],[6.6317,8.2756],[6.6407,8.2554],[6.6587,8.2352],[6.6654,8.2262],[6.6721,8.2195],[6.6834,8.2127],[6.6879,8.2015],[6.6901,8.1858],[6.6924,8.1835],[6.6991,8.188],[6.7126,8.2015],[6.7148,8.2284],[6.7171,8.2442],[6.7238,8.2487],[6.7215,8.2599],[6.7193,8.2756],[6.7305,8.2846],[6.744,8.2644],[6.7485,8.2644],[6.7552,8.2689],[6.762,8.2734],[6.7642,8.2823],[6.762,8.2936],[6.7485,8.3003],[6.7507,8.3048],[6.7597,8.3048],[6.7665,8.3093],[6.7687,8.3183],[6.771,8.3318],[6.7732,8.3362],[6.7799,8.3318],[6.7912,8.3318],[6.8069,8.343],[6.8136,8.3565],[6.8226,8.3677],[6.8271,8.3744],[6.8271,8.3789],[6.8316,8.3857],[6.8361,8.3924],[6.8383,8.3969],[6.8338,8.4014],[6.8249,8.4036],[6.8316,8.4171],[6.8316,8.4261],[6.8249,8.4328],[6.8271,8.4575],[6.7777,8.4575],[6.7844,8.992],[6.7867,9.1559],[6.7777,9.1694],[6.7777,9.1806],[6.7799,9.1986],[6.7822,9.2166],[6.7799,9.2256],[6.7754,9.2503],[6.7687,9.2682],[6.7687,9.275],[6.7597,9.2929],[6.7507,9.3042],[6.7463,9.3176],[6.744,9.3311],[6.7463,9.3423],[6.762,9.3446],[6.7732,9.3423],[6.7822,9.3401],[6.7912,9.3289],[6.7957,9.3199],[6.8091,9.3064],[6.8114,9.2997],[6.8226,9.2907],[6.8316,9.2907],[6.8361,9.2974],[6.8361,9.3019],[6.8383,9.3131],[6.8338,9.3244],[6.8361,9.3289],[6.8383,9.3356],[6.8451,9.3379],[6.854,9.3379],[6.8585,9.3423],[6.863,9.3558],[6.8585,9.3603],[6.8518,9.367],[6.8428,9.376],[6.8361,9.385],[6.8361,9.3873],[6.8338,9.3873],[6.8249,9.3805],[6.8114,9.3805],[6.7979,9.3715],[6.7844,9.3693],[6.7687,9.367],[6.7552,9.367],[6.7418,9.3581],[6.7305,9.3581],[6.7238,9.3536],[6.7215,9.3401],[6.7215,9.3266],[6.7171,9.3131],[6.7171,9.2974],[6.7238,9.2884],[6.7238,9.2772],[6.7215,9.2705],[6.7171,9.2615],[6.7058,9.2503],[6.7013,9.2413],[6.6946,9.239],[6.6856,9.2323],[6.6834,9.2188],[6.6721,9.2188],[6.6519,9.2188],[6.634,9.2211],[6.6272,9.2278],[6.625,9.2368],[6.6227,9.2368],[6.6182,9.2368],[6.6115,9.2301],[6.6003,9.2278],[6.5868,9.2323],[6.5666,9.2323],[6.5509,9.2233],[6.5351,9.2211],[6.5396,9.2098],[6.5419,9.1941],[6.5396,9.1762],[6.5351,9.1604],[6.5307,9.138],[6.5374,9.1245],[6.5464,9.1088],[6.5666,9.0818],[6.5711,9.0661],[6.5733,9.0369],[6.5846,9.0257],[6.6003,9.001],[6.607,8.992],[6.6048,8.992],[6.5846,8.9695],[6.5823,8.9538],[6.5801,8.9336],[6.5823,8.9089],[6.5868,8.8797],[6.598,8.8528],[6.598,8.8438],[6.5913,8.8348],[6.5823,8.8079],[6.5756,8.7876],[6.5621,8.7764],[6.5441,8.7652],[6.5351,8.7495],[6.5329,8.736],[6.5396,8.7135],[6.5441,8.7068],[6.5464,8.6911],[6.5464,8.6664],[6.5396,8.6417],[6.5351,8.6282],[6.5015,8.5878],[6.4857,8.5788],[6.4678,8.5788],[6.4521,8.5878],[6.4386,8.5945],[6.4274,8.599],[6.4071,8.6035],[6.4139,8.581]]]}},{"type":"Feature","properties":{"id":"niger/lavun","name":"Lavun","state":"Niger"},"geometry":{"type":"Polygon","coordinates":[[[5.3022,9.5422],[5.309,9.5332],[5.3224,9.5287],[5.3314,9.5265],[5.3359,9.5198],[5.3427,9.5108],[5.3516,9.5063],[5.3629,9.4928],[5.3741,9.4816],[5.3786,9.4748],[5.3876,9.4704],[5.3921,9.4659],[5.3943,9.4659],[5.4168,9.4434],[5.4302,9.4254],[5.4325,9.4187],[5.4302,9.4075],[5.4213,9.3962],[5.4123,9.3873],[5.41,9.3738],[5.4123,9.3581],[5.4145,9.3513],[5.4257,9.3379],[5.4302,9.3311],[5.4415,9.3221],[5.4572,9.3109],[5.4639,9.2997],[5.4684,9.2974],[5.4729,9.2952],[5.4886,9.2884],[5.4931,9.284],[5.4999,9.2772],[5.5043,9.2637],[5.5021,9.248],[5.4999,9.2301],[5.4999,9.2188],[5.5021,9.2121],[5.4954,9.2009],[5.4909,9.1941],[5.4886,9.1896],[5.4841,9.1672],[5.4864,9.1582],[5.4999,9.138],[5.5043,9.138],[5.5246,9.138],[5.5425,9.1425],[5.5605,9.1447],[5.5695,9.147],[5.5829,9.1559],[5.6144,9.1762],[5.6279,9.1874],[5.6346,9.1896],[5.6571,9.1941],[5.6683,9.1919],[5.6773,9.1896],[5.684,9.1806],[5.6863,9.1762],[5.684,9.1649],[5.6818,9.1582],[5.6863,9.1492],[5.6975,9.1402],[5.7087,9.138],[5.7132,9.1357],[5.7177,9.1335],[5.7222,9.1312],[5.7244,9.1312],[5.7379,9.1357],[5.7469,9.1357],[5.7581,9.1335],[5.7649,9.1312],[5.7671,9.1268],[5.7649,9.1245],[5.7626,9.1155],[5.7604,9.1065],[5.7581,9.0908],[5.7559,9.0886],[5.7514,9.0863],[5.7491,9.0863],[5.7446,9.0863],[5.7402,9.0841],[5.7357,9.0773],[5.7357,9.0729],[5.7379,9.0616],[5.7379,9.0549],[5.7357,9.0504],[5.7312,9.0481],[5.7244,9.0459],[5.7222,9.0437],[5.7177,9.0369],[5.7177,9.0302],[5.7199,9.0234],[5.7199,9.0212],[5.7357,9.0122],[5.7402,9.01],[5.7536,9.01],[5.7604,9.0145],[5.7738,9.0257],[5.7806,9.0324],[5.7851,9.0347],[5.7896,9.0369],[5.794,9.0392],[5.7985,9.0392],[5.8008,9.0392],[5.8008,9.0414],[5.7985,9.0526],[5.803,9.0818],[5.8053,9.0908],[5.812,9.1088],[5.8143,9.12],[5.8143,9.1268],[5.8277,9.1604],[5.8255,9.1762],[5.8255,9.1919],[5.8232,9.2121],[5.8232,9.2256],[5.8232,9.2323],[5.8277,9.248],[5.8322,9.2705],[5.8322,9.284],[5.8322,9.2974],[5.8435,9.3131],[5.8502,9.3289],[5.8502,9.3491],[5.8614,9.3783],[5.8682,9.3962],[5.8727,9.4165],[5.8771,9.4299],[5.8884,9.4546],[5.8929,9.4748],[5.8929,9.4883],[5.8906,9.4883],[5.8816,9.4883],[5.8659,9.4906],[5.8547,9.4973],[5.839,9.5085],[5.8345,9.5108],[5.821,9.5085],[5.8098,9.4995],[5.803,9.4928],[5.7985,9.4816],[5.7896,9.4816],[5.7806,9.4906],[5.7514,9.513],[5.7424,9.5265],[5.7357,9.5422],[5.7312,9.5557],[5.7312,9.5692],[5.7199,9.5871],[5.7132,9.6006],[5.7087,9.6096],[5.6683,9.6388],[5.6458,9.6545],[5.6368,9.6635],[5.6189,9.6747],[5.6077,9.6859],[5.5807,9.7017],[5.5515,9.7219],[5.538,9.7331],[5.5223,9.7466],[5.5111,9.7533],[5.4909,9.7511],[5.4752,9.7488],[5.4617,9.7421],[5.4123,9.7286],[5.3449,9.7174],[5.3202,9.7084],[5.3112,9.7017],[5.3022,9.6837],[5.2977,9.6388],[5.2932,9.6029],[5.291,9.5737],[5.2888,9.5512],[5.2888,9.5445],[5.3022,9.5422]]]}},{"type":"Feature","properties":{"id":"niger/magama","name":"Magama","state":"Niger"},"geometry":{"type":"Polygon","coordinates":[[[4.5297,10.1014],[4.5544,10.0812],[4.5701,10.07],[4.5858,10.034],[4.5813,10.0071],[4.5746,9.9914],[4.5724,9.9756],[4.5791,9.9487],[4.5836,9.942],[4.5858,9.9262],[4.5926,9.9128],[4.5926,9.9038],[4.5881,9.8926],[4.5791,9.8791],[4.5836,9.8746],[4.5903,9.8723],[4.5948,9.8701],[4.6016,9.8589],[4.6038,9.8454],[4.6218,9.8274],[4.6218,9.8229],[4.642,9.8476],[4.6599,9.8813],[4.6981,9.9262],[4.7341,9.9644],[4.7677,9.9891],[4.7857,9.9914],[4.7992,9.9914],[4.8127,9.9869],[4.8306,9.9801],[4.8441,9.9712],[4.8531,9.9622],[4.8643,9.9577],[4.88,9.9577],[4.8935,9.9599],[4.9025,9.9667],[4.907,9.9801],[4.9137,9.9981],[4.916,10.0116],[4.9092,10.0363],[4.9092,10.0632],[4.9115,10.079],[4.9137,10.1037],[4.9182,10.1171],[4.9205,10.1441],[4.9294,10.1643],[4.9519,10.1733],[4.9699,10.189],[4.9788,10.2002],[5.008,10.2002],[5.0372,10.207],[5.0619,10.2159],[5.0889,10.2227],[5.1091,10.2317],[5.1338,10.2564],[5.1563,10.2721],[5.1607,10.2766],[5.1675,10.2833],[5.172,10.2878],[5.1765,10.3013],[5.1765,10.308],[5.1944,10.3327],[5.2079,10.3462],[5.2236,10.3574],[5.2506,10.3619],[5.2708,10.3642],[5.2843,10.3597],[5.3022,10.3642],[5.3157,10.3597],[5.3269,10.3642],[5.3404,10.3709],[5.3471,10.3799],[5.3539,10.3956],[5.3539,10.4136],[5.3471,10.436],[5.3382,10.454],[5.3292,10.4787],[5.3247,10.5124],[5.3247,10.5303],[5.3224,10.5551],[5.3269,10.5708],[5.3404,10.5955],[5.3471,10.6067],[5.3561,10.6224],[5.3561,10.6494],[5.3584,10.6584],[5.3561,10.6786],[5.3561,10.6831],[5.3539,10.6876],[5.3494,10.7055],[5.3471,10.7257],[5.3471,10.7459],[5.3494,10.7729],[5.3516,10.7751],[5.3404,10.7729],[5.3314,10.7706],[5.3202,10.7706],[5.3157,10.7684],[5.3112,10.7617],[5.3067,10.7527],[5.3,10.7437],[5.2932,10.7437],[5.2888,10.7437],[5.2843,10.7527],[5.273,10.7617],[5.2663,10.7594],[5.2641,10.7527],[5.2663,10.7414],[5.2663,10.7325],[5.2618,10.728],[5.2573,10.728],[5.2506,10.7302],[5.2461,10.7257],[5.2461,10.719],[5.2349,10.7145],[5.2236,10.719],[5.2191,10.719],[5.2169,10.7145],[5.2079,10.7145],[5.2034,10.719],[5.1967,10.7257],[5.1899,10.728],[5.1832,10.7302],[5.1787,10.7347],[5.1742,10.7414],[5.1652,10.7437],[5.1563,10.7482],[5.1495,10.7504],[5.145,10.7482],[5.1383,10.7414],[5.1226,10.7392],[5.1113,10.7414],[5.1068,10.7459],[5.1091,10.7572],[5.1001,10.7594],[5.0979,10.7617],[5.0799,10.7549],[5.0754,10.7482],[5.0642,10.7482],[5.0574,10.7392],[5.0507,10.737],[5.0395,10.737],[5.0305,10.7437],[5.026,10.7482],[5.0193,10.7459],[5.0125,10.7414],[5.008,10.7347],[5.008,10.7212],[4.9946,10.719],[4.9788,10.7167],[4.9766,10.7145],[4.9743,10.71],[4.9654,10.7078],[4.9564,10.7055],[4.9474,10.701],[4.9474,10.6943],[4.9407,10.6876],[4.9317,10.6876],[4.9227,10.6943],[4.916,10.6876],[4.9092,10.6876],[4.8935,10.6943],[4.8913,10.701],[4.8823,10.7033],[4.8688,10.701],[4.8621,10.7078],[4.8463,10.7055],[4.8441,10.6988],[4.8374,10.701],[4.8306,10.7033],[4.8149,10.7055],[4.8104,10.6988],[4.8059,10.692],[4.8149,10.6741],[4.8127,10.6628],[4.8037,10.6516],[4.7969,10.6292],[4.8014,10.6134],[4.8149,10.6045],[4.8239,10.5955],[4.8284,10.5708],[4.8216,10.5595],[4.8194,10.5371],[4.8194,10.5214],[4.8194,10.5079],[4.8261,10.4944],[4.8329,10.4877],[4.8441,10.4787],[4.8531,10.4607],[4.8531,10.445],[4.8463,10.4203],[4.8441,10.3889],[4.8396,10.3664],[4.8351,10.3327],[4.8284,10.3148],[4.8149,10.3058],[4.8037,10.2968],[4.7767,10.2945],[4.7498,10.3058],[4.7318,10.3148],[4.7138,10.3103],[4.7049,10.3013],[4.7026,10.2945],[4.7026,10.2721],[4.7049,10.2519],[4.6959,10.2406],[4.6779,10.2294],[4.6689,10.2272],[4.6712,10.2115],[4.6779,10.198],[4.6936,10.18],[4.7049,10.1733],[4.7138,10.162],[4.7138,10.1576],[4.7116,10.1306],[4.7004,10.1194],[4.6891,10.1149],[4.6689,10.1126],[4.6442,10.1216],[4.6352,10.1284],[4.6105,10.1351],[4.5791,10.1328],[4.5387,10.1171],[4.5274,10.1149],[4.5274,10.1104],[4.5297,10.1014]]]}},{"type":"Feature","properties":{"id":"niger/mariga","name":"Mariga","state":"Niger"},"geometry":{"type":"Polygon","coordinates":[[[5.3494,10.7055],[5.3539,10.6876],[5.3561,10.6831],[5.3763,10.6876],[5.4078,10.692],[5.4347,10.6943],[5.4549,10.6943],[5.4909,10.6943],[5.5066,10.6876],[5.5178,10.6831],[5.5403,10.6898],[5.5627,10.6988],[5.5695,10.7033],[5.5829,10.6898],[5.5897,10.6831],[5.5987,10.6786],[5.6077,10.6606],[5.6211,10.6247],[5.6211,10.6112],[5.6234,10.6022],[5.6346,10.5842],[5.6413,10.5842],[5.6548,10.5618],[5.6728,10.5393],[5.6773,10.5236],[5.675,10.5124],[5.6795,10.5012],[5.6818,10.4787],[5.6863,10.454],[5.684,10.4181],[5.6818,10.4091],[5.6952,10.3642],[5.6975,10.344],[5.702,10.317],[5.7042,10.2923],[5.7087,10.2788],[5.7132,10.2743],[5.7222,10.2564],[5.7289,10.2384],[5.7402,10.2384],[5.7626,10.2384],[5.7783,10.2294],[5.83,10.1912],[5.8524,10.1755],[5.8794,10.1665],[5.9018,10.1576],[5.9333,10.1373],[5.9468,10.1216],[5.9715,10.0947],[5.9827,10.0902],[5.9917,10.0834],[5.9984,10.07],[6.0052,10.0745],[6.0119,10.0745],[6.0231,10.0745],[6.0254,10.0857],[6.0299,10.1037],[6.0254,10.1104],[6.0141,10.1104],[6.0119,10.1171],[6.0164,10.1261],[6.0254,10.1261],[6.0299,10.1328],[6.0276,10.1396],[6.0209,10.1486],[6.0164,10.1598],[6.0231,10.1665],[6.0209,10.1845],[6.0254,10.1957],[6.0231,10.2137],[6.0186,10.2294],[6.0254,10.2317],[6.0321,10.2362],[6.0388,10.2474],[6.0411,10.2743],[6.0478,10.2833],[6.0546,10.2878],[6.059,10.2968],[6.0546,10.3058],[6.0456,10.3148],[6.0433,10.3305],[6.0411,10.3395],[6.0433,10.3484],[6.0456,10.3642],[6.0411,10.3754],[6.0411,10.3844],[6.0388,10.3978],[6.0388,10.4068],[6.0433,10.4181],[6.0456,10.4338],[6.0478,10.4428],[6.0546,10.454],[6.0635,10.4607],[6.0815,10.4697],[6.0905,10.4765],[6.0905,10.4809],[6.086,10.5146],[6.0905,10.5236],[6.0905,10.5371],[6.0927,10.5461],[6.0995,10.5461],[6.1085,10.5461],[6.1152,10.5483],[6.1219,10.5528],[6.1264,10.5685],[6.1287,10.5798],[6.1264,10.5932],[6.1152,10.6],[6.1129,10.6045],[6.1129,10.6134],[6.1197,10.6269],[6.1219,10.6359],[6.1242,10.6426],[6.1242,10.6471],[6.1332,10.6606],[6.1377,10.6696],[6.1354,10.6786],[6.1332,10.6786],[6.1197,10.6831],[6.1129,10.6898],[6.1107,10.6943],[6.104,10.6988],[6.095,10.6988],[6.0905,10.701],[6.0905,10.7078],[6.0972,10.7145],[6.1062,10.7257],[6.1107,10.737],[6.1107,10.7459],[6.1085,10.7527],[6.1017,10.7639],[6.0995,10.7706],[6.1017,10.7751],[6.104,10.7796],[6.1062,10.7841],[6.1107,10.7976],[6.1107,10.8021],[6.1107,10.8043],[6.1085,10.8088],[6.1085,10.8133],[6.1152,10.8133],[6.1219,10.8133],[6.1287,10.8223],[6.1309,10.8245],[6.1309,10.829],[6.1264,10.8335],[6.1219,10.8358],[6.1197,10.838],[6.1219,10.8448],[6.1377,10.8515],[6.1444,10.8537],[6.1489,10.8537],[6.1556,10.856],[6.1579,10.8627],[6.1624,10.8672],[6.1624,10.8695],[6.1646,10.8739],[6.1646,10.8807],[6.1646,10.8897],[6.1601,10.9031],[6.1601,10.9099],[6.1601,10.9166],[6.1601,10.9256],[6.1534,10.9301],[6.1489,10.9391],[6.1489,10.9503],[6.1466,10.957],[6.1399,10.9638],[6.1354,10.9728],[6.1309,10.9795],[6.1197,10.9952],[6.1152,11.002],[6.1062,11.0087],[6.095,11.0132],[6.077,11.0244],[6.0658,11.0312],[6.0523,11.0424],[6.0456,11.0536],[6.0388,11.0671],[6.0321,11.0761],[6.0254,11.1008],[6.0254,11.1142],[6.0209,11.1255],[6.0164,11.1389],[6.0052,11.1412],[5.9939,11.1457],[5.9849,11.1434],[5.9737,11.1367],[5.9602,11.1187],[5.9513,11.1075],[5.9445,11.1008],[5.9355,11.0895],[5.9265,11.0761],[5.9221,11.0716],[5.9108,11.0648],[5.8929,11.0626],[5.8749,11.0603],[5.8637,11.0581],[5.8457,11.0559],[5.8322,11.0559],[5.821,11.0536],[5.8075,11.0469],[5.8053,11.0446],[5.7963,11.0446],[5.7806,11.0356],[5.7649,11.0289],[5.7559,11.0177],[5.7424,11.0042],[5.7222,10.9952],[5.7042,10.9907],[5.6907,10.9817],[5.6795,10.975],[5.6638,10.9728],[5.6571,10.966],[5.6368,10.9615],[5.6234,10.9615],[5.6099,10.966],[5.5897,10.9638],[5.574,10.966],[5.5627,10.9638],[5.5335,10.9615],[5.5268,10.9615],[5.5156,10.9615],[5.4931,10.9593],[5.4729,10.957],[5.4662,10.9548],[5.4594,10.9526],[5.4527,10.957],[5.4437,10.9728],[5.4415,10.9862],[5.4392,10.9975],[5.437,11.0064],[5.4302,11.0177],[5.4168,11.0087],[5.4033,10.9975],[5.3898,10.9795],[5.3853,10.966],[5.3831,10.957],[5.3808,10.9391],[5.3763,10.9278],[5.3741,10.9189],[5.3696,10.9121],[5.3629,10.9009],[5.3584,10.8852],[5.3561,10.8762],[5.3561,10.8627],[5.3606,10.838],[5.3629,10.8268],[5.3651,10.8156],[5.3629,10.8021],[5.3584,10.8043],[5.3561,10.7998],[5.3561,10.7931],[5.3539,10.7819],[5.3516,10.7751],[5.3494,10.7729],[5.3471,10.7459],[5.3471,10.7257],[5.3494,10.7055]]]}},{"type":"Feature","properties":{"id":"niger/mashegu","name":"Mashegu","state":"Niger"},"geometry":{"type":"Polygon","coordinates":[[[4.5521,9.5085],[4.5813,9.4771],[4.6016,9.4569],[4.6105,9.4367],[4.6128,9.4277],[4.6173,9.4344],[4.6263,9.4456],[4.6263,9.4569],[4.6307,9.4726],[4.6352,9.4793],[4.6375,9.4906],[4.6375,9.504],[4.6375,9.5153],[4.642,9.5287],[4.6442,9.5377],[4.6442,9.549],[4.651,9.5624],[4.6577,9.5759],[4.6622,9.5804],[4.6644,9.5871],[4.6644,9.5939],[4.6689,9.5961],[4.6779,9.6006],[4.6869,9.6006],[4.6936,9.5984],[4.7004,9.5894],[4.7071,9.5826],[4.7138,9.5804],[4.7183,9.5669],[4.7251,9.5647],[4.743,9.5534],[4.752,9.549],[4.7655,9.5467],[4.7924,9.5467],[4.8014,9.5467],[4.8082,9.5467],[4.8171,9.5445],[4.8306,9.5377],[4.8351,9.531],[4.8396,9.5108],[4.8396,9.5018],[4.8374,9.4883],[4.8374,9.4793],[4.8374,9.4681],[4.8396,9.4614],[4.8396,9.4479],[4.8374,9.4299],[4.8351,9.4187],[4.8329,9.3985],[4.8396,9.3873],[4.8441,9.3805],[4.8463,9.3783],[4.8531,9.376],[4.8666,9.3693],[4.8778,9.3693],[4.8913,9.367],[4.9137,9.3558],[4.9272,9.3513],[4.9384,9.3491],[4.9519,9.3491],[4.9699,9.3536],[4.9968,9.3693],[5.008,9.3783],[5.0305,9.3918],[5.0395,9.3962],[5.0574,9.4097],[5.0687,9.4187],[5.0844,9.4254],[5.0979,9.4322],[5.1158,9.4389],[5.1338,9.4479],[5.1495,9.4524],[5.1607,9.4569],[5.1765,9.4591],[5.1922,9.4636],[5.2191,9.4726],[5.2349,9.4816],[5.2461,9.4906],[5.2641,9.4995],[5.2798,9.5063],[5.2843,9.5153],[5.2888,9.5243],[5.2888,9.5355],[5.2888,9.5445],[5.2888,9.5512],[5.291,9.5737],[5.2932,9.6029],[5.2977,9.6388],[5.3022,9.6837],[5.3112,9.7017],[5.3202,9.7084],[5.3449,9.7174],[5.4123,9.7286],[5.4617,9.7421],[5.4752,9.7488],[5.4909,9.7511],[5.5111,9.7533],[5.5223,9.7466],[5.538,9.7331],[5.5515,9.7219],[5.5807,9.7017],[5.6077,9.6859],[5.6099,9.6904],[5.6032,9.7039],[5.5942,9.7196],[5.5964,9.7286],[5.6077,9.7286],[5.6324,9.7286],[5.666,9.7264],[5.6863,9.7331],[5.711,9.7398],[5.7289,9.7398],[5.7626,9.7309],[5.7828,9.7174],[5.7985,9.7129],[5.8165,9.7219],[5.83,9.7421],[5.8435,9.769],[5.8502,9.7825],[5.8502,9.7937],[5.8524,9.814],[5.8637,9.8387],[5.8727,9.8454],[5.8794,9.8544],[5.8861,9.8634],[5.8906,9.8701],[5.8996,9.8858],[5.9041,9.8948],[5.9153,9.9038],[5.931,9.915],[5.9513,9.924],[5.967,9.9375],[5.9804,9.942],[5.9849,9.9509],[5.9872,9.9577],[5.9804,9.9756],[5.9804,9.9824],[5.9872,9.9846],[5.9917,9.9846],[5.9939,9.9869],[6.0052,10.0026],[6.0052,10.0071],[6.0007,10.0093],[5.9962,10.0161],[5.9917,10.0318],[5.9917,10.0408],[5.9917,10.0542],[5.9984,10.0587],[6.0007,10.0655],[5.9984,10.07],[5.9917,10.0834],[5.9827,10.0902],[5.9715,10.0947],[5.9468,10.1216],[5.9333,10.1373],[5.9018,10.1576],[5.8794,10.1665],[5.8524,10.1755],[5.83,10.1912],[5.7783,10.2294],[5.7626,10.2384],[5.7402,10.2384],[5.7289,10.2384],[5.7177,10.2362],[5.6975,10.2294],[5.6503,10.2159],[5.6368,10.2159],[5.6121,10.2159],[5.5807,10.2182],[5.5403,10.2159],[5.5111,10.207],[5.4999,10.2047],[5.4841,10.2002],[5.4662,10.1935],[5.4572,10.1935],[5.4504,10.2002],[5.437,10.2137],[5.428,10.2227],[5.4168,10.2317],[5.4123,10.2429],[5.4078,10.2451],[5.3898,10.2519],[5.3786,10.2519],[5.3516,10.2474],[5.3359,10.2429],[5.3247,10.2429],[5.2932,10.2519],[5.2708,10.2586],[5.2393,10.2631],[5.2259,10.2653],[5.1899,10.2743],[5.1675,10.2833],[5.1607,10.2766],[5.1563,10.2721],[5.1338,10.2564],[5.1091,10.2317],[5.0889,10.2227],[5.0619,10.2159],[5.0372,10.207],[5.008,10.2002],[4.9788,10.2002],[4.9699,10.189],[4.9519,10.1733],[4.9294,10.1643],[4.9205,10.1441],[4.9182,10.1171],[4.9137,10.1037],[4.9115,10.079],[4.9092,10.0632],[4.9092,10.0363],[4.916,10.0116],[4.9137,9.9981],[4.907,9.9801],[4.9025,9.9667],[4.8935,9.9599],[4.88,9.9577],[4.8643,9.9577],[4.8531,9.9622],[4.8441,9.9712],[4.8306,9.9801],[4.8127,9.9869],[4.7992,9.9914],[4.7857,9.9914],[4.7677,9.9891],[4.7341,9.9644],[4.6981,9.9262],[4.6599,9.8813],[4.642,9.8476],[4.6218,9.8229],[4.624,9.8162],[4.6307,9.796],[4.633,9.7825],[4.6352,9.7645],[4.6375,9.7443],[4.6375,9.7196],[4.6307,9.7129],[4.6173,9.7106],[4.6105,9.7039],[4.5971,9.6657],[4.5813,9.632],[4.5544,9.5849],[4.5432,9.5602],[4.5432,9.5355],[4.5521,9.5085]]]}},{"type":"Feature","properties":{"id":"niger/mokwa","name":"Mokwa","state":"Niger"},"geometry":{"type":"Polygon","coordinates":[[[4.6173,9.3311],[4.6397,9.3087],[4.6846,9.2929],[4.7138,9.2772],[4.7385,9.2682],[4.7543,9.248],[4.7565,9.2233],[4.752,9.1986],[4.752,9.1806],[4.7655,9.1492],[4.7677,9.1537],[4.7722,9.147],[4.7857,9.1357],[4.8014,9.1357],[4.8104,9.1357],[4.8149,9.1335],[4.8284,9.1335],[4.8486,9.1402],[4.8576,9.1492],[4.871,9.1559],[4.8755,9.1582],[4.8755,9.1604],[4.8868,9.1672],[4.898,9.1694],[4.9115,9.1717],[4.9227,9.1762],[4.9631,9.1941],[4.9721,9.2009],[4.9968,9.2076],[5.017,9.2054],[5.0327,9.1986],[5.0485,9.1874],[5.0642,9.1627],[5.0844,9.1515],[5.1068,9.1357],[5.1316,9.1223],[5.1585,9.1065],[5.172,9.0863],[5.1967,9.0549],[5.2079,9.0347],[5.2259,9.0279],[5.2371,9.019],[5.2551,9.0167],[5.273,9.0145],[5.2865,9.01],[5.2977,9.0032],[5.3067,9.001],[5.3224,8.992],[5.3314,8.9965],[5.3494,8.9987],[5.3696,8.9965],[5.3763,8.9898],[5.3921,8.983],[5.4078,8.9785],[5.4257,8.9785],[5.437,8.9763],[5.446,8.9718],[5.4572,8.9695],[5.4617,8.9628],[5.4662,8.9538],[5.4729,8.9471],[5.4864,8.9448],[5.4976,8.9448],[5.5111,8.9448],[5.5246,8.9404],[5.5403,8.9314],[5.5425,8.9157],[5.5627,8.8999],[5.574,8.8932],[5.6009,8.8775],[5.6054,8.8685],[5.6189,8.8528],[5.6413,8.8348],[5.666,8.8303],[5.6907,8.8281],[5.7132,8.8281],[5.7289,8.8191],[5.7424,8.7989],[5.7604,8.7742],[5.7738,8.754],[5.7963,8.7427],[5.8232,8.7427],[5.8659,8.745],[5.8861,8.7472],[5.9018,8.7495],[5.9288,8.7427],[5.9445,8.7495],[5.9737,8.7562],[5.9782,8.7495],[6.0007,8.7517],[6.0343,8.7584],[6.059,8.7584],[6.0838,8.7607],[6.1152,8.7584],[6.1309,8.7517],[6.1444,8.7293],[6.1489,8.7203],[6.1691,8.7225],[6.1848,8.7293],[6.2028,8.7337],[6.2095,8.7315],[6.2252,8.736],[6.2477,8.7382],[6.2679,8.7382],[6.3016,8.727],[6.324,8.7135],[6.342,8.6978],[6.3577,8.6843],[6.3757,8.6619],[6.3802,8.6484],[6.3847,8.6439],[6.3914,8.6574],[6.3937,8.6731],[6.3869,8.6911],[6.3712,8.7023],[6.3622,8.7135],[6.3488,8.7203],[6.3375,8.7315],[6.3285,8.736],[6.3106,8.736],[6.3061,8.7382],[6.2926,8.745],[6.2836,8.7472],[6.2724,8.7495],[6.2634,8.7495],[6.241,8.754],[6.2275,8.7607],[6.2207,8.7629],[6.2005,8.7697],[6.1871,8.7697],[6.1758,8.7742],[6.1691,8.7809],[6.1646,8.7854],[6.1624,8.7899],[6.1601,8.7921],[6.1466,8.7921],[6.1399,8.7966],[6.1287,8.8011],[6.1264,8.8034],[6.1197,8.8034],[6.1107,8.8034],[6.1017,8.8034],[6.095,8.8011],[6.086,8.7944],[6.0793,8.7899],[6.059,8.7832],[6.0501,8.7809],[6.0343,8.7787],[6.0231,8.7787],[6.0074,8.7854],[5.9939,8.7921],[5.9692,8.7944],[5.958,8.7921],[5.9243,8.7854],[5.9063,8.7832],[5.8974,8.7787],[5.8951,8.7787],[5.8861,8.7764],[5.8771,8.7742],[5.8614,8.7719],[5.8502,8.7742],[5.839,8.7764],[5.8277,8.7809],[5.8098,8.7832],[5.8075,8.7854],[5.8075,8.7921],[5.8053,8.8011],[5.8053,8.8079],[5.8098,8.8168],[5.812,8.8258],[5.8165,8.837],[5.8232,8.8505],[5.8277,8.8595],[5.83,8.864],[5.8502,8.8842],[5.8704,8.9044],[5.8839,8.9179],[5.8906,8.9336],[5.8929,8.9381],[5.8906,8.9493],[5.8727,8.9673],[5.8614,8.9785],[5.8569,8.9853],[5.8457,8.9898],[5.8412,8.9943],[5.8345,9.0055],[5.8277,9.0167],[5.8232,9.0414],[5.8188,9.0729],[5.8232,9.0953],[5.8255,9.0998],[5.8322,9.1178],[5.8367,9.1312],[5.8435,9.1447],[5.8479,9.1559],[5.8502,9.1739],[5.8479,9.1806],[5.8457,9.1919],[5.8479,9.2076],[5.8457,9.2211],[5.8502,9.2345],[5.8502,9.2548],[5.8502,9.266],[5.8547,9.2907],[5.8637,9.3131],[5.8659,9.3244],[5.8704,9.3334],[5.8771,9.3468],[5.8794,9.3558],[5.8906,9.3648],[5.8996,9.3805],[5.8974,9.3918],[5.8996,9.4254],[5.9086,9.4614],[5.9108,9.4771],[5.9153,9.4883],[5.9153,9.4973],[5.9131,9.5018],[5.8929,9.4883],[5.8929,9.4748],[5.8884,9.4546],[5.8771,9.4299],[5.8727,9.4165],[5.8682,9.3962],[5.8614,9.3783],[5.8502,9.3491],[5.8502,9.3289],[5.8435,9.3131],[5.8322,9.2974],[5.8322,9.284],[5.8322,9.2705],[5.8277,9.248],[5.8232,9.2323],[5.8232,9.2256],[5.8232,9.2121],[5.8255,9.1919],[5.8255,9.1762],[5.8277,9.1604],[5.8143,9.1268],[5.8143,9.12],[5.812,9.1088],[5.8053,9.0908],[5.803,9.0818],[5.7985,9.0526],[5.8008,9.0414],[5.8008,9.0392],[5.8008,9.0302],[5.8053,9.0077],[5.8098,8.9943],[5.8232,8.974],[5.83,8.9673],[5.8367,8.9561],[5.8367,8.9448],[5.83,8.9314],[5.812,8.9224],[5.8098,8.9201],[5.8075,8.9157],[5.803,8.9134],[5.7963,8.9112],[5.7873,8.9089],[5.7761,8.9022],[5.7649,8.8977],[5.7469,8.9044],[5.7379,8.9089],[5.7222,8.9157],[5.711,8.9134],[5.6952,8.9179],[5.684,8.9157],[5.6503,8.9269],[5.6503,8.9291],[5.6368,8.9426],[5.6211,8.9538],[5.6099,8.9561],[5.5964,8.9538],[5.5874,8.9538],[5.5785,8.9628],[5.5695,8.9718],[5.5605,8.974],[5.547,8.974],[5.5358,8.9763],[5.5313,8.9808],[5.5223,9.001],[5.5111,9.0145],[5.4954,9.019],[5.4841,9.0347],[5.4819,9.0392],[5.4796,9.0459],[5.4752,9.0481],[5.4482,9.0616],[5.4415,9.0616],[5.428,9.0616],[5.4235,9.0616],[5.41,9.0639],[5.4078,9.0661],[5.4078,9.0706],[5.4145,9.0818],[5.4213,9.0908],[5.4325,9.102],[5.4415,9.1043],[5.4572,9.1065],[5.4639,9.1088],[5.4752,9.1088],[5.4886,9.1043],[5.4976,9.1043],[5.5021,9.1043],[5.5066,9.1088],[5.5111,9.1133],[5.5156,9.12],[5.5066,9.129],[5.4999,9.138],[5.4864,9.1582],[5.4841,9.1672],[5.4886,9.1896],[5.4909,9.1941],[5.4954,9.2009],[5.5021,9.2121],[5.4999,9.2188],[5.4999,9.2301],[5.5021,9.248],[5.5043,9.2637],[5.4999,9.2772],[5.4931,9.284],[5.4886,9.2884],[5.4729,9.2952],[5.4684,9.2974],[5.4639,9.2997],[5.4572,9.3109],[5.4415,9.3221],[5.4302,9.3311],[5.4257,9.3379],[5.4145,9.3513],[5.4123,9.3581],[5.41,9.3738],[5.4123,9.3873],[5.4213,9.3962],[5.4302,9.4075],[5.4325,9.4187],[5.4302,9.4254],[5.4168,9.4434],[5.3943,9.4659],[5.3921,9.4659],[5.3876,9.4704],[5.3786,9.4748],[5.3741,9.4816],[5.3629,9.4928],[5.3516,9.5063],[5.3427,9.5108],[5.3359,9.5198],[5.3314,9.5265],[5.3224,9.5287],[5.309,9.5332],[5.3022,9.5422],[5.2888,9.5445],[5.2888,9.5355],[5.2888,9.5243],[5.2843,9.5153],[5.2798,9.5063],[5.2641,9.4995],[5.2461,9.4906],[5.2349,9.4816],[5.2191,9.4726],[5.1922,9.4636],[5.1765,9.4591],[5.1607,9.4569],[5.1495,9.4524],[5.1338,9.4479],[5.1158,9.4389],[5.0979,9.4322],[5.0844,9.4254],[5.0687,9.4187],[5.0574,9.4097],[5.0395,9.3962],[5.0305,9.3918],[5.008,9.3783],[4.9968,9.3693],[4.9699,9.3536],[4.9519,9.3491],[4.9384,9.3491],[4.9272,9.3513],[4.9137,9.3558],[4.8913,9.367],[4.8778,9.3693],[4.8666,9.3693],[4.8531,9.376],[4.8463,9.3783],[4.8441,9.3805],[4.8396,9.3873],[4.8329,9.3985],[4.8351,9.4187],[4.8374,9.4299],[4.8396,9.4479],[4.8396,9.4614],[4.8374,9.4681],[4.8374,9.4793],[4.8374,9.4883],[4.8396,9.5018],[4.8396,9.5108],[4.8351,9.531],[4.8306,9.5377],[4.8171,9.5445],[4.8082,9.5467],[4.8014,9.5467],[4.7924,9.5467],[4.7655,9.5467],[4.752,9.549],[4.743,9.5534],[4.7251,9.5647],[4.7183,9.5669],[4.7138,9.5804],[4.7071,9.5826],[4.7004,9.5894],[4.6936,9.5984],[4.6869,9.6006],[4.6779,9.6006],[4.6689,9.5961],[4.6644,9.5939],[4.6644,9.5871],[4.6622,9.5804],[4.6577,9.5759],[4.651,9.5624],[4.6442,9.549],[4.6442,9.5377],[4.642,9.5287],[4.6375,9.5153],[4.6375,9.504],[4.6375,9.4906],[4.6352,9.4793],[4.6307,9.4726],[4.6263,9.4569],[4.6263,9.4456],[4.6173,9.4344],[4.6128,9.4277],[4.6128,9.4142],[4.6128,9.394],[4.6128,9.3715],[4.6105,9.3626],[4.6173,9.3311]]]}},{"type":"Feature","properties":{"id":"niger/muya","name":"Muya","state":"Niger"},"geometry":{"type":"Polygon","coordinates":[[[6.8361,9.6949],[6.8406,9.6725],[6.8406,9.6635],[6.8361,9.6545],[6.8473,9.632],[6.8473,9.6186],[6.8451,9.6096],[6.8496,9.5894],[6.8496,9.5692],[6.8473,9.5332],[6.8653,9.5265],[6.8922,9.531],[6.9214,9.5265],[6.9371,9.522],[6.9506,9.522],[6.9574,9.522],[6.9618,9.5332],[6.9776,9.5624],[6.9843,9.5647],[6.9955,9.5624],[7.0023,9.5557],[7.0202,9.5557],[7.027,9.5579],[7.0315,9.5692],[7.0449,9.5894],[7.0517,9.6029],[7.0607,9.6208],[7.0674,9.632],[7.0674,9.6388],[7.0719,9.6567],[7.0786,9.6635],[7.0831,9.6612],[7.1011,9.641],[7.1213,9.632],[7.1348,9.6208],[7.155,9.6163],[7.1729,9.6208],[7.1909,9.6365],[7.2021,9.6612],[7.2021,9.6792],[7.1999,9.6882],[7.1887,9.6904],[7.1774,9.6972],[7.164,9.7017],[7.1572,9.7084],[7.1527,9.7151],[7.146,9.7331],[7.1415,9.7398],[7.1482,9.7421],[7.1662,9.7466],[7.1819,9.7466],[7.1887,9.7511],[7.1864,9.7601],[7.1932,9.7668],[7.2021,9.7623],[7.2044,9.7578],[7.2066,9.7668],[7.2111,9.7803],[7.2201,9.787],[7.2246,9.787],[7.2313,9.7915],[7.2515,9.7937],[7.256,9.7892],[7.2605,9.787],[7.2673,9.7825],[7.274,9.7825],[7.2852,9.7892],[7.292,9.8005],[7.292,9.8117],[7.292,9.8229],[7.292,9.8297],[7.2897,9.8409],[7.292,9.8521],[7.2942,9.8521],[7.2987,9.8566],[7.301,9.8634],[7.2965,9.8701],[7.2965,9.8723],[7.2965,9.8791],[7.2965,9.8881],[7.2987,9.8993],[7.2942,9.9083],[7.2875,9.924],[7.2875,9.9262],[7.2852,9.933],[7.2852,9.9352],[7.2852,9.942],[7.2852,9.9509],[7.2852,9.9577],[7.283,9.9599],[7.2807,9.9644],[7.2807,9.9734],[7.2807,9.9846],[7.2807,9.9891],[7.2807,9.9936],[7.2807,10.0004],[7.2785,10.0161],[7.274,10.0228],[7.2695,10.0273],[7.2583,10.0363],[7.2538,10.0385],[7.2403,10.0408],[7.2291,10.0385],[7.2134,10.0408],[7.2066,10.0408],[7.1999,10.034],[7.1932,10.0295],[7.1887,10.0273],[7.1797,10.0273],[7.1662,10.034],[7.1505,10.034],[7.1393,10.0363],[7.1258,10.034],[7.1235,10.0295],[7.1123,10.0273],[7.1056,10.0273],[7.1011,10.0295],[7.0854,10.0363],[7.0651,10.043],[7.0337,10.0453],[7.018,10.0385],[7.0068,10.0453],[6.9843,10.0453],[6.9618,10.0475],[6.9529,10.0475],[6.9394,10.061],[6.9259,10.0677],[6.9147,10.079],[6.9057,10.079],[6.9035,10.079],[6.9012,10.0767],[6.8945,10.0722],[6.8922,10.0655],[6.8877,10.0475],[6.8855,10.0273],[6.881,10.0183],[6.8765,10.0048],[6.8743,9.9914],[6.8698,9.9801],[6.8698,9.9734],[6.8675,9.9622],[6.8675,9.9577],[6.854,9.9307],[6.8473,9.924],[6.8451,9.9173],[6.8496,9.9128],[6.8496,9.9015],[6.8496,9.897],[6.8473,9.8881],[6.8473,9.8679],[6.8496,9.8589],[6.854,9.8342],[6.854,9.8184],[6.8563,9.7982],[6.8608,9.7758],[6.8698,9.7578],[6.8743,9.7466],[6.8698,9.7398],[6.854,9.7331],[6.8428,9.7264],[6.8361,9.7174],[6.8293,9.7084],[6.8361,9.6949]]]}},{"type":"Feature","properties":{"id":"niger/paikoro","name":"Paikoro","state":"Niger"},"geometry":{"type":"Polygon","coordinates":[[[6.4768,9.4412],[6.4813,9.4344],[6.4813,9.4232],[6.4857,9.4232],[6.4902,9.412],[6.497,9.3985],[6.5015,9.3873],[6.506,9.376],[6.5037,9.3648],[6.5037,9.3446],[6.5037,9.3266],[6.5037,9.3131],[6.497,9.3087],[6.488,9.2974],[6.4902,9.284],[6.506,9.2682],[6.5082,9.2637],[6.5082,9.257],[6.5104,9.2503],[6.5194,9.2435],[6.5262,9.2345],[6.5262,9.2301],[6.5351,9.2211],[6.5509,9.2233],[6.5666,9.2323],[6.5868,9.2323],[6.6003,9.2278],[6.6115,9.2301],[6.6182,9.2368],[6.6227,9.2368],[6.625,9.2368],[6.6272,9.2278],[6.634,9.2211],[6.6519,9.2188],[6.6721,9.2188],[6.6834,9.2188],[6.6856,9.2323],[6.6946,9.239],[6.7013,9.2413],[6.7058,9.2503],[6.7171,9.2615],[6.7215,9.2705],[6.7238,9.2772],[6.7238,9.2884],[6.7171,9.2974],[6.7171,9.3131],[6.7215,9.3266],[6.7215,9.3401],[6.7238,9.3536],[6.7305,9.3581],[6.7418,9.3581],[6.7552,9.367],[6.7687,9.367],[6.7844,9.3693],[6.7979,9.3715],[6.8114,9.3805],[6.8249,9.3805],[6.8338,9.3873],[6.8361,9.3873],[6.8383,9.3918],[6.8473,9.3962],[6.8563,9.4007],[6.863,9.3985],[6.8743,9.3918],[6.8832,9.3918],[6.8922,9.394],[6.9012,9.394],[6.9079,9.3918],[6.9214,9.3828],[6.9259,9.376],[6.9394,9.3715],[6.9416,9.376],[6.9641,9.3873],[6.9933,9.403],[7.0023,9.4075],[7.009,9.4165],[7.0202,9.4209],[7.0315,9.4165],[7.0404,9.412],[7.0539,9.4165],[7.0607,9.4142],[7.0854,9.4187],[7.0943,9.4232],[7.0988,9.4299],[7.1011,9.4322],[7.1101,9.4299],[7.1146,9.4299],[7.1168,9.4344],[7.1146,9.4412],[7.1146,9.4479],[7.1033,9.4479],[7.0988,9.4479],[7.0966,9.4524],[7.0966,9.4704],[7.0988,9.4771],[7.1146,9.4771],[7.1168,9.4816],[7.1258,9.4838],[7.1303,9.4793],[7.1393,9.4793],[7.1527,9.4771],[7.1617,9.4793],[7.1729,9.4861],[7.1864,9.4928],[7.1999,9.4973],[7.2111,9.5018],[7.2156,9.504],[7.2201,9.4951],[7.2268,9.4951],[7.2336,9.5085],[7.2381,9.5175],[7.2471,9.522],[7.2538,9.5243],[7.2605,9.5265],[7.2628,9.5287],[7.2673,9.5355],[7.283,9.5512],[7.2875,9.5557],[7.292,9.5714],[7.2942,9.5849],[7.3099,9.5939],[7.3144,9.5961],[7.3212,9.5984],[7.3301,9.6006],[7.3369,9.6029],[7.3459,9.6096],[7.3481,9.6208],[7.3436,9.632],[7.3279,9.65],[7.3167,9.659],[7.3144,9.6635],[7.3122,9.668],[7.2987,9.677],[7.2897,9.6815],[7.283,9.6837],[7.283,9.6927],[7.283,9.6949],[7.2875,9.7017],[7.2897,9.7062],[7.2852,9.7129],[7.2807,9.7241],[7.2718,9.7331],[7.2695,9.7331],[7.2448,9.7331],[7.2246,9.7398],[7.2156,9.7488],[7.2044,9.7578],[7.2021,9.7623],[7.1932,9.7668],[7.1864,9.7601],[7.1887,9.7511],[7.1819,9.7466],[7.1662,9.7466],[7.1482,9.7421],[7.1415,9.7398],[7.146,9.7331],[7.1527,9.7151],[7.1572,9.7084],[7.164,9.7017],[7.1774,9.6972],[7.1887,9.6904],[7.1999,9.6882],[7.2021,9.6792],[7.2021,9.6612],[7.1909,9.6365],[7.1729,9.6208],[7.155,9.6163],[7.1348,9.6208],[7.1213,9.632],[7.1011,9.641],[7.0831,9.6612],[7.0786,9.6635],[7.0719,9.6567],[7.0674,9.6388],[7.0674,9.632],[7.0607,9.6208],[7.0517,9.6029],[7.0449,9.5894],[7.0315,9.5692],[7.027,9.5579],[7.0202,9.5557],[7.0023,9.5557],[6.9955,9.5624],[6.9843,9.5647],[6.9776,9.5624],[6.9618,9.5332],[6.9574,9.522],[6.9506,9.522],[6.9371,9.522],[6.9214,9.5265],[6.8922,9.531],[6.8653,9.5265],[6.8473,9.5332],[6.8428,9.5355],[6.8136,9.5467],[6.8069,9.5534],[6.7957,9.5512],[6.7912,9.5579],[6.7777,9.5579],[6.7665,9.5534],[6.7552,9.5445],[6.7305,9.5377],[6.7171,9.5332],[6.7126,9.5198],[6.6968,9.5175],[6.6834,9.5265],[6.6519,9.5355],[6.6497,9.5355],[6.6295,9.5332],[6.6205,9.5422],[6.598,9.531],[6.5823,9.5332],[6.5711,9.5377],[6.5576,9.5377],[6.5509,9.5265],[6.5351,9.5287],[6.5217,9.5243],[6.5172,9.5175],[6.5015,9.5175],[6.497,9.513],[6.4947,9.4951],[6.4902,9.4816],[6.488,9.4793],[6.4768,9.4771],[6.4745,9.4681],[6.4768,9.4412]]]}},{"type":"Feature","properties":{"id":"niger/rafi","name":"Rafi","state":"Niger"},"geometry":{"type":"Polygon","coordinates":[[[5.9692,9.8858],[5.9715,9.8634],[5.9737,9.8499],[5.9827,9.8364],[6.0052,9.8274],[6.0254,9.8229],[6.0568,9.8162],[6.0703,9.8162],[6.095,9.8252],[6.1129,9.8274],[6.1377,9.8297],[6.1511,9.8319],[6.1691,9.8544],[6.1781,9.8723],[6.1871,9.8746],[6.196,9.8836],[6.2005,9.8993],[6.2073,9.9015],[6.2073,9.906],[6.2073,9.915],[6.2185,9.9173],[6.2252,9.9173],[6.2297,9.915],[6.2387,9.9105],[6.2454,9.915],[6.2522,9.915],[6.2567,9.9128],[6.2701,9.906],[6.2904,9.9038],[6.2949,9.9015],[6.3016,9.897],[6.3151,9.8993],[6.324,9.9083],[6.3353,9.9105],[6.342,9.9105],[6.3735,9.8926],[6.3847,9.8836],[6.3937,9.8746],[6.4116,9.8656],[6.4318,9.8544],[6.4498,9.8589],[6.461,9.8611],[6.4723,9.8656],[6.4813,9.8768],[6.4902,9.8881],[6.497,9.8948],[6.5015,9.9015],[6.5037,9.9105],[6.5037,9.9173],[6.4992,9.9262],[6.4992,9.9375],[6.5015,9.9509],[6.5104,9.9599],[6.5284,9.9644],[6.5374,9.9667],[6.5441,9.9712],[6.5554,9.9756],[6.5599,9.9846],[6.5531,9.9914],[6.5441,10.0026],[6.5441,10.0138],[6.5441,10.0273],[6.5486,10.034],[6.5509,10.0408],[6.5486,10.052],[6.5396,10.07],[6.5396,10.079],[6.5419,10.0902],[6.5374,10.0992],[6.5262,10.1126],[6.5172,10.1194],[6.4902,10.1351],[6.488,10.1396],[6.479,10.1441],[6.4453,10.1463],[6.4184,10.1486],[6.4116,10.1508],[6.3892,10.162],[6.3824,10.171],[6.3824,10.1755],[6.3869,10.1957],[6.3914,10.2137],[6.3937,10.2294],[6.4049,10.2429],[6.4251,10.2609],[6.4341,10.2631],[6.4453,10.2721],[6.4521,10.2788],[6.4723,10.2856],[6.479,10.2901],[6.4925,10.3058],[6.5015,10.3215],[6.5104,10.3372],[6.5127,10.3462],[6.5262,10.3619],[6.5419,10.3731],[6.5464,10.3821],[6.5509,10.3911],[6.5509,10.4046],[6.5486,10.4158],[6.5464,10.427],[6.5441,10.436],[6.5441,10.4495],[6.5464,10.4652],[6.5486,10.4809],[6.5441,10.4899],[6.5419,10.4989],[6.5396,10.5101],[6.5419,10.5191],[6.5419,10.5281],[6.5396,10.5461],[6.5329,10.5528],[6.5262,10.564],[6.5217,10.573],[6.5217,10.582],[6.5217,10.5842],[6.5239,10.5955],[6.5194,10.6],[6.5149,10.6045],[6.506,10.609],[6.5037,10.6112],[6.4947,10.6134],[6.4813,10.6112],[6.479,10.609],[6.47,10.6022],[6.4498,10.5955],[6.4386,10.5932],[6.4296,10.5865],[6.4274,10.5842],[6.4184,10.5775],[6.4026,10.573],[6.3959,10.573],[6.3959,10.5685],[6.3892,10.5551],[6.3869,10.5528],[6.3735,10.5371],[6.369,10.5326],[6.3645,10.5303],[6.3443,10.5169],[6.3263,10.5056],[6.3061,10.4899],[6.3038,10.4809],[6.2993,10.4742],[6.2993,10.4697],[6.2859,10.463],[6.2836,10.463],[6.2769,10.4607],[6.2634,10.4562],[6.2544,10.4428],[6.2522,10.4338],[6.2499,10.4248],[6.2499,10.4226],[6.241,10.4226],[6.2387,10.4203],[6.2297,10.4181],[6.2275,10.4091],[6.2163,10.3956],[6.214,10.3934],[6.2005,10.3866],[6.1915,10.3866],[6.1691,10.3844],[6.1579,10.4001],[6.1534,10.4091],[6.1534,10.4226],[6.1511,10.436],[6.1511,10.4428],[6.1489,10.4495],[6.1466,10.4517],[6.1399,10.4585],[6.1332,10.463],[6.1287,10.463],[6.1174,10.4607],[6.1129,10.4585],[6.104,10.4562],[6.0995,10.463],[6.0972,10.4697],[6.095,10.4742],[6.0905,10.4765],[6.0815,10.4697],[6.0635,10.4607],[6.0546,10.454],[6.0478,10.4428],[6.0456,10.4338],[6.0433,10.4181],[6.0388,10.4068],[6.0388,10.3978],[6.0411,10.3844],[6.0411,10.3754],[6.0456,10.3642],[6.0433,10.3484],[6.0411,10.3395],[6.0433,10.3305],[6.0456,10.3148],[6.0546,10.3058],[6.059,10.2968],[6.0546,10.2878],[6.0478,10.2833],[6.0411,10.2743],[6.0388,10.2474],[6.0321,10.2362],[6.0254,10.2317],[6.0186,10.2294],[6.0231,10.2137],[6.0254,10.1957],[6.0209,10.1845],[6.0231,10.1665],[6.0164,10.1598],[6.0209,10.1486],[6.0276,10.1396],[6.0299,10.1328],[6.0254,10.1261],[6.0164,10.1261],[6.0119,10.1171],[6.0141,10.1104],[6.0254,10.1104],[6.0299,10.1037],[6.0254,10.0857],[6.0231,10.0745],[6.0119,10.0745],[6.0052,10.0745],[5.9984,10.07],[6.0007,10.0655],[5.9984,10.0587],[5.9917,10.0542],[5.9917,10.0408],[5.9917,10.0318],[5.9962,10.0161],[6.0007,10.0093],[6.0052,10.0071],[6.0052,10.0026],[5.9939,9.9869],[5.9917,9.9846],[5.9872,9.9846],[5.9804,9.9824],[5.9804,9.9756],[5.9872,9.9577],[5.9849,9.9509],[5.9804,9.942],[5.9827,9.933],[5.9737,9.9173],[5.967,9.906],[5.9692,9.8858]]]}},{"type":"Feature","properties":{"id":"niger/rijau","name":"Rijau","state":"Niger"},"geometry":{"type":"Polygon","coordinates":[[[4.7004,11.2041],[4.7026,11.1928],[4.7093,11.1794],[4.7206,11.1771],[4.7453,11.1479],[4.7565,11.1434],[4.7655,11.1367],[4.779,11.1322],[4.7857,11.1232],[4.788,11.1187],[4.8037,11.1142],[4.8149,11.1165],[4.8171,11.1187],[4.8396,11.1142],[4.8508,11.1075],[4.8598,11.103],[4.8643,11.1008],[4.8755,11.0918],[4.898,11.0873],[4.9092,11.0828],[4.9339,11.0851],[4.9609,11.0828],[4.9788,11.0806],[4.9923,11.0693],[4.9901,11.0603],[4.9968,11.0536],[5.0103,11.0514],[5.0215,11.0536],[5.035,11.0514],[5.0417,11.0514],[5.0462,11.0424],[5.0619,11.0132],[5.0687,10.9907],[5.0821,10.9503],[5.0821,10.9278],[5.0754,10.9144],[5.0552,10.9054],[5.035,10.8987],[5.026,10.8897],[5.026,10.8717],[5.0282,10.8582],[5.0395,10.8358],[5.0462,10.8245],[5.0597,10.8201],[5.0844,10.8178],[5.1001,10.8088],[5.1091,10.7953],[5.1068,10.7864],[5.1024,10.7729],[5.1001,10.7594],[5.1091,10.7572],[5.1068,10.7459],[5.1113,10.7414],[5.1226,10.7392],[5.1383,10.7414],[5.145,10.7482],[5.1495,10.7504],[5.1563,10.7482],[5.1652,10.7437],[5.1742,10.7414],[5.1787,10.7347],[5.1832,10.7302],[5.1899,10.728],[5.1967,10.7257],[5.2034,10.719],[5.2079,10.7145],[5.2169,10.7145],[5.2191,10.719],[5.2236,10.719],[5.2349,10.7145],[5.2461,10.719],[5.2461,10.7257],[5.2506,10.7302],[5.2573,10.728],[5.2618,10.728],[5.2663,10.7325],[5.2663,10.7414],[5.2641,10.7527],[5.2663,10.7594],[5.273,10.7617],[5.2843,10.7527],[5.2888,10.7437],[5.2932,10.7437],[5.3,10.7437],[5.3067,10.7527],[5.3112,10.7617],[5.3157,10.7684],[5.3202,10.7706],[5.3314,10.7706],[5.3404,10.7729],[5.3516,10.7751],[5.3539,10.7819],[5.3561,10.7931],[5.3561,10.7998],[5.3584,10.8043],[5.3629,10.8021],[5.3651,10.8156],[5.3629,10.8268],[5.3606,10.838],[5.3561,10.8627],[5.3561,10.8762],[5.3584,10.8852],[5.3629,10.9009],[5.3696,10.9121],[5.3741,10.9189],[5.3763,10.9278],[5.3808,10.9391],[5.3831,10.957],[5.3853,10.966],[5.3898,10.9795],[5.4033,10.9975],[5.4168,11.0087],[5.4302,11.0177],[5.4302,11.0199],[5.428,11.0401],[5.4302,11.0603],[5.4325,11.0761],[5.4392,11.0963],[5.4415,11.1053],[5.4437,11.1255],[5.4415,11.1389],[5.428,11.1592],[5.4213,11.1659],[5.4078,11.1704],[5.3943,11.1794],[5.3808,11.1861],[5.3741,11.1928],[5.3696,11.2063],[5.3584,11.2265],[5.3584,11.2333],[5.3561,11.249],[5.3539,11.258],[5.3539,11.2714],[5.3539,11.2759],[5.3516,11.2962],[5.3449,11.3164],[5.3382,11.3276],[5.3382,11.3321],[5.3359,11.3411],[5.3359,11.3478],[5.3337,11.3568],[5.3292,11.3635],[5.3179,11.368],[5.3067,11.368],[5.2955,11.368],[5.2798,11.3635],[5.2663,11.359],[5.2596,11.3568],[5.2483,11.3456],[5.2393,11.3433],[5.2281,11.3321],[5.2259,11.3253],[5.2281,11.3096],[5.2326,11.2962],[5.2393,11.2894],[5.2393,11.2804],[5.2393,11.2714],[5.2371,11.2625],[5.2326,11.2602],[5.2281,11.2602],[5.2236,11.2625],[5.2214,11.2647],[5.2191,11.2692],[5.2169,11.2737],[5.2169,11.2804],[5.2169,11.2849],[5.2169,11.2894],[5.2169,11.2939],[5.2169,11.2984],[5.2102,11.3231],[5.2034,11.3298],[5.1854,11.3388],[5.1765,11.3411],[5.163,11.3433],[5.154,11.3456],[5.1518,11.3478],[5.1405,11.3523],[5.1338,11.3523],[5.1181,11.3545],[5.1046,11.3523],[5.1001,11.3456],[5.1001,11.3388],[5.1024,11.3298],[5.1046,11.3231],[5.1068,11.3141],[5.1068,11.3006],[5.1001,11.2804],[5.0889,11.2647],[5.0799,11.2557],[5.0709,11.2378],[5.0709,11.231],[5.0709,11.2265],[5.0664,11.2175],[5.0619,11.2086],[5.0574,11.2041],[5.053,11.2063],[5.0485,11.2108],[5.0485,11.2198],[5.0485,11.2288],[5.053,11.231],[5.0619,11.2445],[5.0642,11.2535],[5.0619,11.2625],[5.0574,11.2714],[5.053,11.2737],[5.0462,11.2737],[5.0417,11.2714],[5.035,11.2647],[5.0327,11.2602],[5.026,11.2557],[5.017,11.2512],[5.0125,11.2512],[5.0058,11.258],[5.0058,11.2625],[5.008,11.267],[5.0103,11.2714],[5.0103,11.2737],[5.008,11.2804],[5.0013,11.2827],[4.9901,11.2872],[4.9878,11.2917],[4.9856,11.3051],[4.9811,11.3186],[4.9766,11.3298],[4.9721,11.3388],[4.9721,11.3478],[4.9699,11.3523],[4.9654,11.3613],[4.9586,11.3703],[4.9519,11.3703],[4.9474,11.3635],[4.9429,11.3568],[4.9339,11.3545],[4.9294,11.3568],[4.9227,11.3635],[4.9182,11.3703],[4.9047,11.3725],[4.8913,11.3703],[4.88,11.3613],[4.871,11.3523],[4.8643,11.35],[4.8486,11.3433],[4.8374,11.3366],[4.8261,11.3366],[4.8194,11.3298],[4.8059,11.3209],[4.7835,11.3119],[4.7655,11.3051],[4.7677,11.3029],[4.7632,11.2939],[4.7655,11.2827],[4.7655,11.2759],[4.752,11.2602],[4.7363,11.249],[4.7026,11.2288],[4.6981,11.222],[4.7004,11.2041]]]}},{"type":"Feature","properties":{"id":"niger/shiroro","name":"Shiroro","state":"Niger"},"geometry":{"type":"Polygon","coordinates":[[[6.214,9.897],[6.2297,9.8903],[6.2365,9.8813],[6.2365,9.8723],[6.2387,9.8544],[6.2365,9.8364],[6.2342,9.8184],[6.2297,9.8005],[6.2297,9.787],[6.2252,9.7758],[6.2275,9.769],[6.2612,9.7623],[6.3106,9.7556],[6.333,9.7578],[6.3398,9.7623],[6.351,9.7556],[6.36,9.7488],[6.3712,9.7556],[6.3959,9.7556],[6.4139,9.7533],[6.4386,9.7735],[6.4543,9.7848],[6.4768,9.8027],[6.4857,9.8095],[6.5082,9.805],[6.5239,9.7982],[6.5419,9.796],[6.5531,9.796],[6.5711,9.787],[6.589,9.7803],[6.6003,9.7668],[6.6093,9.7578],[6.6138,9.7309],[6.6205,9.7219],[6.6385,9.7129],[6.6519,9.7084],[6.6632,9.6949],[6.6834,9.677],[6.6789,9.6702],[6.6789,9.6545],[6.6789,9.6208],[6.6766,9.6051],[6.6721,9.5894],[6.6699,9.5737],[6.6587,9.5624],[6.6519,9.5579],[6.6497,9.5512],[6.6497,9.5355],[6.6519,9.5355],[6.6834,9.5265],[6.6968,9.5175],[6.7126,9.5198],[6.7171,9.5332],[6.7305,9.5377],[6.7552,9.5445],[6.7665,9.5534],[6.7777,9.5579],[6.7912,9.5579],[6.7957,9.5512],[6.8069,9.5534],[6.8136,9.5467],[6.8428,9.5355],[6.8473,9.5332],[6.8496,9.5692],[6.8496,9.5894],[6.8451,9.6096],[6.8473,9.6186],[6.8473,9.632],[6.8361,9.6545],[6.8406,9.6635],[6.8406,9.6725],[6.8361,9.6949],[6.8293,9.7084],[6.8361,9.7174],[6.8428,9.7264],[6.854,9.7331],[6.8698,9.7398],[6.8743,9.7466],[6.8698,9.7578],[6.8608,9.7758],[6.8563,9.7982],[6.854,9.8184],[6.854,9.8342],[6.8496,9.8589],[6.8473,9.8679],[6.8473,9.8881],[6.8496,9.897],[6.8496,9.9015],[6.8496,9.9128],[6.8451,9.9173],[6.8473,9.924],[6.854,9.9307],[6.8675,9.9577],[6.8675,9.9622],[6.8698,9.9734],[6.8698,9.9801],[6.8743,9.9914],[6.8765,10.0048],[6.881,10.0183],[6.8855,10.0273],[6.8877,10.0475],[6.8922,10.0655],[6.8945,10.0722],[6.9012,10.0767],[6.8922,10.0924],[6.881,10.1171],[6.8855,10.1508],[6.8877,10.1531],[6.8945,10.1576],[6.9035,10.1688],[6.9057,10.171],[6.9102,10.18],[6.9147,10.189],[6.9214,10.1912],[6.9282,10.1867],[6.9282,10.18],[6.9371,10.18],[6.9394,10.18],[6.9416,10.18],[6.9551,10.1912],[6.9596,10.2025],[6.9663,10.2227],[6.9708,10.2317],[6.9821,10.2429],[6.9843,10.2406],[6.991,10.2406],[7.009,10.2474],[7.0202,10.2743],[7.0315,10.2878],[7.0404,10.2901],[7.0449,10.2923],[7.0494,10.3013],[7.0517,10.317],[7.0472,10.3215],[7.0337,10.344],[7.0247,10.3507],[7.0202,10.3529],[7.0023,10.3574],[7.0,10.3574],[6.9888,10.3597],[6.9776,10.3642],[6.9641,10.3619],[6.9618,10.3619],[6.9506,10.3619],[6.9484,10.3597],[6.9349,10.3619],[6.9304,10.3664],[6.9259,10.3709],[6.9237,10.3821],[6.9282,10.4023],[6.9394,10.4338],[6.9461,10.4495],[6.9484,10.454],[6.9506,10.4562],[6.9551,10.463],[6.9529,10.4832],[6.9484,10.4922],[6.9349,10.5012],[6.9282,10.5124],[6.9282,10.5169],[6.9192,10.5303],[6.9147,10.5371],[6.9124,10.5371],[6.9057,10.5416],[6.9012,10.5416],[6.89,10.5461],[6.881,10.5506],[6.8698,10.5551],[6.863,10.5528],[6.8608,10.5506],[6.8563,10.5371],[6.8496,10.5303],[6.8451,10.5281],[6.8406,10.5326],[6.8361,10.5371],[6.8406,10.5483],[6.8406,10.5573],[6.8406,10.5663],[6.8428,10.573],[6.8383,10.5842],[6.8361,10.5955],[6.8293,10.6045],[6.8293,10.6112],[6.8293,10.6157],[6.8293,10.6247],[6.8159,10.6381],[6.8136,10.6381],[6.8024,10.6426],[6.8001,10.6426],[6.7957,10.6404],[6.7844,10.6381],[6.7822,10.6404],[6.7754,10.6404],[6.7665,10.6426],[6.7597,10.6449],[6.7507,10.6471],[6.744,10.6471],[6.7283,10.6494],[6.726,10.6471],[6.7215,10.6449],[6.7171,10.6404],[6.7148,10.6381],[6.7148,10.6337],[6.7193,10.6247],[6.726,10.6134],[6.7305,10.6022],[6.7305,10.5977],[6.726,10.5887],[6.7103,10.5865],[6.7013,10.5887],[6.6856,10.591],[6.6676,10.591],[6.6474,10.5932],[6.625,10.5865],[6.5868,10.573],[6.5823,10.5708],[6.5823,10.5685],[6.5778,10.5618],[6.5688,10.5551],[6.5554,10.5461],[6.5509,10.5461],[6.5486,10.5461],[6.5396,10.5461],[6.5419,10.5281],[6.5419,10.5191],[6.5396,10.5101],[6.5419,10.4989],[6.5441,10.4899],[6.5486,10.4809],[6.5464,10.4652],[6.5441,10.4495],[6.5441,10.436],[6.5464,10.427],[6.5486,10.4158],[6.5509,10.4046],[6.5509,10.3911],[6.5464,10.3821],[6.5419,10.3731],[6.5262,10.3619],[6.5127,10.3462],[6.5104,10.3372],[6.5015,10.3215],[6.4925,10.3058],[6.479,10.2901],[6.4723,10.2856],[6.4521,10.2788],[6.4453,10.2721],[6.4341,10.2631],[6.4251,10.2609],[6.4049,10.2429],[6.3937,10.2294],[6.3914,10.2137],[6.3869,10.1957],[6.3824,10.1755],[6.3824,10.171],[6.3892,10.162],[6.4116,10.1508],[6.4184,10.1486],[6.4453,10.1463],[6.479,10.1441],[6.488,10.1396],[6.4902,10.1351],[6.5172,10.1194],[6.5262,10.1126],[6.5374,10.0992],[6.5419,10.0902],[6.5396,10.079],[6.5396,10.07],[6.5486,10.052],[6.5509,10.0408],[6.5486,10.034],[6.5441,10.0273],[6.5441,10.0138],[6.5441,10.0026],[6.5531,9.9914],[6.5599,9.9846],[6.5554,9.9756],[6.5441,9.9712],[6.5374,9.9667],[6.5284,9.9644],[6.5104,9.9599],[6.5015,9.9509],[6.4992,9.9375],[6.4992,9.9262],[6.5037,9.9173],[6.5037,9.9105],[6.5015,9.9015],[6.497,9.8948],[6.4902,9.8881],[6.4813,9.8768],[6.4723,9.8656],[6.461,9.8611],[6.4498,9.8589],[6.4318,9.8544],[6.4116,9.8656],[6.3937,9.8746],[6.3847,9.8836],[6.3735,9.8926],[6.342,9.9105],[6.3353,9.9105],[6.324,9.9083],[6.3151,9.8993],[6.3016,9.897],[6.2949,9.9015],[6.2904,9.9038],[6.2701,9.906],[6.2567,9.9128],[6.2522,9.915],[6.2454,9.915],[6.2387,9.9105],[6.2297,9.915],[6.2252,9.9173],[6.2185,9.9173],[6.2073,9.915],[6.2073,9.906],[6.2073,9.9015],[6.214,9.897]]]}},{"type":"Feature","properties":{"id":"niger/suleja","name":"Suleja","state":"Niger"},"geometry":{"type":"Polygon","coordinates":[[[7.1505,9.2548],[7.1527,9.2413],[7.1527,9.2256],[7.1572,9.2143],[7.1617,9.2009],[7.1617,9.1941],[7.1617,9.1851],[7.164,9.1717],[7.1685,9.1604],[7.1685,9.1537],[7.2201,9.1133],[7.2336,9.1335],[7.2291,9.1447],[7.2224,9.1649],[7.2201,9.1784],[7.2179,9.1851],[7.2179,9.2009],[7.2111,9.2166],[7.2066,9.2278],[7.2089,9.2435],[7.2111,9.2525],[7.2224,9.266],[7.2224,9.2705],[7.2156,9.2705],[7.2066,9.275],[7.2021,9.2772],[7.2021,9.284],[7.2044,9.2929],[7.2066,9.2997],[7.1999,9.3042],[7.1864,9.3042],[7.1797,9.3042],[7.155,9.2907],[7.1482,9.2795],[7.1482,9.266],[7.1505,9.2548]]]}},{"type":"Feature","properties":{"id":"niger/tafa","name":"Tafa","state":"Niger"},"geometry":{"type":"Polygon","coordinates":[[[7.2111,9.2166],[7.2179,9.2009],[7.2179,9.1851],[7.2201,9.1784],[7.2224,9.1649],[7.2291,9.1447],[7.2336,9.1335],[7.2493,9.1559],[7.3885,9.3491],[7.3773,9.3626],[7.3593,9.367],[7.3459,9.3648],[7.3436,9.3626],[7.3279,9.3648],[7.3212,9.367],[7.3144,9.3648],[7.3077,9.3626],[7.2987,9.3581],[7.283,9.3513],[7.2807,9.3513],[7.2695,9.3491],[7.2605,9.3379],[7.2493,9.3221],[7.2515,9.3131],[7.2583,9.3019],[7.265,9.284],[7.265,9.275],[7.2583,9.2727],[7.2538,9.275],[7.2471,9.275],[7.2358,9.2705],[7.2224,9.2705],[7.2224,9.266],[7.2111,9.2525],[7.2089,9.2435],[7.2066,9.2278],[7.2111,9.2166]]]}},{"type":"Feature","properties":{"id":"niger/wushishi","name":"Wushishi","state":"Niger"},"geometry":{"type":"Polygon","coordinates":[[[5.6032,9.7039],[5.6099,9.6904],[5.6077,9.6859],[5.6189,9.6747],[5.6368,9.6635],[5.6458,9.6545],[5.6683,9.6388],[5.7087,9.6096],[5.7132,9.6006],[5.7199,9.5871],[5.7312,9.5692],[5.7312,9.5557],[5.7357,9.5422],[5.7424,9.5265],[5.7514,9.513],[5.7806,9.4906],[5.7896,9.4816],[5.7985,9.4816],[5.803,9.4928],[5.8098,9.4995],[5.821,9.5085],[5.8345,9.5108],[5.839,9.5085],[5.8547,9.4973],[5.8659,9.4906],[5.8816,9.4883],[5.8906,9.4883],[5.8929,9.4883],[5.9131,9.5018],[5.9153,9.5063],[5.9221,9.5175],[5.9243,9.5265],[5.9265,9.531],[5.9355,9.54],[5.9513,9.5512],[5.9715,9.5557],[5.9782,9.5557],[5.9849,9.5534],[5.9894,9.5534],[5.9984,9.5534],[6.0074,9.5557],[6.0186,9.5557],[6.0231,9.5534],[6.0366,9.5512],[6.0456,9.5512],[6.0523,9.5512],[6.059,9.5602],[6.0635,9.5602],[6.0725,9.5602],[6.0815,9.5579],[6.0905,9.5557],[6.095,9.5579],[6.1107,9.5692],[6.1219,9.5759],[6.1332,9.5781],[6.1354,9.5781],[6.1421,9.5714],[6.1489,9.5669],[6.1579,9.5557],[6.1691,9.5467],[6.1826,9.5422],[6.1915,9.5377],[6.1983,9.54],[6.2028,9.5422],[6.2073,9.54],[6.2163,9.5332],[6.2207,9.5265],[6.223,9.5287],[6.2297,9.5377],[6.2275,9.5512],[6.2118,9.5669],[6.2005,9.5781],[6.1983,9.5939],[6.2005,9.6096],[6.2028,9.6276],[6.196,9.6455],[6.1938,9.6635],[6.1983,9.6815],[6.2095,9.6904],[6.2207,9.7084],[6.223,9.7264],[6.223,9.7443],[6.2275,9.7601],[6.2275,9.769],[6.2252,9.7758],[6.2297,9.787],[6.2297,9.8005],[6.2342,9.8184],[6.2365,9.8364],[6.2387,9.8544],[6.2365,9.8723],[6.2365,9.8813],[6.2297,9.8903],[6.214,9.897],[6.2073,9.9015],[6.2005,9.8993],[6.196,9.8836],[6.1871,9.8746],[6.1781,9.8723],[6.1691,9.8544],[6.1511,9.8319],[6.1377,9.8297],[6.1129,9.8274],[6.095,9.8252],[6.0703,9.8162],[6.0568,9.8162],[6.0254,9.8229],[6.0052,9.8274],[5.9827,9.8364],[5.9737,9.8499],[5.9715,9.8634],[5.9692,9.8858],[5.967,9.906],[5.9737,9.9173],[5.9827,9.933],[5.9804,9.942],[5.967,9.9375],[5.9513,9.924],[5.931,9.915],[5.9153,9.9038],[5.9041,9.8948],[5.8996,9.8858],[5.8906,9.8701],[5.8861,9.8634],[5.8794,9.8544],[5.8727,9.8454],[5.8637,9.8387],[5.8524,9.814],[5.8502,9.7937],[5.8502,9.7825],[5.8435,9.769],[5.83,9.7421],[5.8165,9.7219],[5.7985,9.7129],[5.7828,9.7174],[5.7626,9.7309],[5.7289,9.7398],[5.711,9.7398],[5.6863,9.7331],[5.666,9.7264],[5.6324,9.7286],[5.6077,9.7286],[5.5964,9.7286],[5.5942,9.7196],[5.6032,9.7039]]]}}]}