{"type":"FeatureCollection","features":[{"type":"Feature","properties":{"id":"ogun/abeokuta-north","name":"Abeokuta North","state":"Ogun"},"geometry":{"type":"Polygon","coordinates":[[[3.0026,7.3661],[3.0071,7.3481],[3.0116,7.3369],[3.0138,7.3234],[3.0205,7.3077],[3.034,7.2965],[3.0408,7.2942],[3.0475,7.2875],[3.0475,7.2807],[3.0497,7.2718],[3.052,7.2673],[3.0542,7.265],[3.0587,7.2605],[3.061,7.2538],[3.061,7.2471],[3.0632,7.2358],[3.0655,7.2268],[3.0699,7.2156],[3.0789,7.2066],[3.0834,7.1976],[3.0834,7.1887],[3.0879,7.1707],[3.1014,7.1393],[3.1081,7.1325],[3.1216,7.1235],[3.1261,7.1146],[3.1261,7.1056],[3.1238,7.0966],[3.1216,7.0854],[3.1216,7.0741],[3.1238,7.0719],[3.1261,7.0719],[3.1283,7.0719],[3.1373,7.0764],[3.1485,7.0786],[3.162,7.0719],[3.1777,7.0607],[3.1845,7.0562],[3.1957,7.0539],[3.2092,7.0562],[3.2227,7.0629],[3.2384,7.0651],[3.2563,7.0629],[3.2721,7.0674],[3.281,7.0831],[3.2923,7.0943],[3.3058,7.1123],[3.3013,7.1168],[3.299,7.1235],[3.3035,7.1325],[3.3125,7.1415],[3.317,7.146],[3.3305,7.164],[3.3349,7.1707],[3.3394,7.1819],[3.3484,7.1932],[3.3574,7.1999],[3.3619,7.2066],[3.3641,7.2089],[3.3552,7.2111],[3.3462,7.2224],[3.3439,7.2291],[3.3327,7.2381],[3.317,7.2448],[3.3013,7.2538],[3.281,7.2605],[3.2676,7.2605],[3.2519,7.2628],[3.2429,7.2673],[3.2316,7.2718],[3.2249,7.2785],[3.2227,7.283],[3.2092,7.2875],[3.2047,7.2965],[3.2002,7.3077],[3.1957,7.3212],[3.1912,7.3279],[3.1867,7.3324],[3.1822,7.3346],[3.171,7.3391],[3.1665,7.3414],[3.1598,7.3459],[3.1553,7.3526],[3.1553,7.3571],[3.153,7.3638],[3.1508,7.3683],[3.1441,7.3728],[3.1418,7.3796],[3.1418,7.3863],[3.1441,7.3908],[3.1396,7.3953],[3.1328,7.3998],[3.1238,7.4043],[3.1149,7.4087],[3.1081,7.4155],[3.1059,7.4132],[3.1059,7.4043],[3.1081,7.3908],[3.1104,7.384],[3.0991,7.3863],[3.0767,7.3885],[3.0587,7.3885],[3.0228,7.393],[3.0116,7.3953],[3.0071,7.3975],[3.0048,7.3953],[3.0026,7.3908],[3.0003,7.3796],[3.0026,7.3661]]]}},{"type":"Feature","properties":{"id":"ogun/abeokuta-south","name":"Abeokuta South","state":"Ogun"},"geometry":{"type":"Polygon","coordinates":[[[3.3013,7.1168],[3.3058,7.1123],[3.3215,7.1123],[3.3417,7.1168],[3.3529,7.1168],[3.3686,7.1235],[3.3799,7.128],[3.3933,7.1325],[3.4046,7.137],[3.4068,7.1482],[3.4046,7.1505],[3.4001,7.164],[3.3933,7.1797],[3.3911,7.1864],[3.3844,7.1954],[3.3754,7.1999],[3.3641,7.2089],[3.3619,7.2066],[3.3574,7.1999],[3.3484,7.1932],[3.3394,7.1819],[3.3349,7.1707],[3.3305,7.164],[3.317,7.146],[3.3125,7.1415],[3.3035,7.1325],[3.299,7.1235],[3.3013,7.1168]]]}},{"type":"Feature","properties":{"id":"ogun/ado-odo-ota","name":"Ado-Odo/Ota","state":"Ogun"},"geometry":{"type":"Polygon","coordinates":[[[2.8813,6.5194],[2.8836,6.5149],[2.8858,6.5127],[2.8903,6.506],[2.8925,6.5015],[2.897,6.5015],[2.9172,6.5037],[2.9307,6.5015],[2.9352,6.5015],[2.9464,6.5015],[2.9689,6.5015],[2.9801,6.5015],[3.0048,6.5015],[3.016,6.4992],[3.0205,6.4992],[3.0228,6.4992],[3.0273,6.497],[3.043,6.4992],[3.0497,6.4992],[3.0542,6.4992],[3.0632,6.4992],[3.0699,6.4992],[3.0789,6.4992],[3.0902,6.4992],[3.1014,6.4992],[3.1036,6.4992],[3.1081,6.5015],[3.1104,6.5015],[3.1194,6.5015],[3.1485,6.5037],[3.1755,6.5082],[3.1777,6.5082],[3.18,6.5104],[3.1822,6.5149],[3.1867,6.5194],[3.189,6.5217],[3.1912,6.5239],[3.2002,6.5284],[3.2047,6.5284],[3.2047,6.5329],[3.2047,6.5351],[3.2047,6.5396],[3.2047,6.5419],[3.2047,6.5464],[3.2024,6.5554],[3.198,6.5666],[3.1957,6.5711],[3.1957,6.5733],[3.198,6.5756],[3.2002,6.5801],[3.2069,6.589],[3.2159,6.5958],[3.2294,6.6003],[3.2339,6.6048],[3.2406,6.616],[3.2406,6.6182],[3.2406,6.625],[3.2406,6.6295],[3.2384,6.6317],[3.2384,6.6407],[3.2429,6.6609],[3.2451,6.6654],[3.2541,6.6811],[3.2608,6.6901],[3.2631,6.6968],[3.2653,6.6968],[3.2676,6.6946],[3.2698,6.6924],[3.2766,6.6856],[3.2788,6.6856],[3.281,6.6834],[3.2855,6.6811],[3.2878,6.6811],[3.2878,6.6879],[3.2855,6.7058],[3.2766,6.7215],[3.2721,6.735],[3.2676,6.744],[3.2563,6.7485],[3.2474,6.7507],[3.2272,6.7485],[3.2069,6.7485],[3.1845,6.7463],[3.162,6.744],[3.1418,6.744],[3.1283,6.744],[3.0924,6.744],[3.0902,6.744],[3.0812,6.744],[3.0655,6.744],[3.052,6.7463],[3.0452,6.7463],[3.0408,6.7373],[3.0318,6.7193],[3.0228,6.7036],[3.0138,6.6879],[3.0116,6.6811],[3.0116,6.6766],[3.0116,6.6721],[3.0048,6.6721],[2.9936,6.6744],[2.9734,6.6834],[2.9666,6.6834],[2.9532,6.6789],[2.9419,6.6744],[2.9217,6.6564],[2.9172,6.6519],[2.9172,6.6317],[2.924,6.6227],[2.9262,6.6205],[2.933,6.6138],[2.933,6.607],[2.9307,6.5958],[2.924,6.5846],[2.9127,6.5778],[2.906,6.5711],[2.9015,6.5666],[2.8948,6.5621],[2.8925,6.5576],[2.888,6.5531],[2.8813,6.5441],[2.8791,6.5374],[2.8791,6.5329],[2.8791,6.5262],[2.8813,6.5194]]]}},{"type":"Feature","properties":{"id":"ogun/egbado-north","name":"Egbado North","state":"Ogun"},"geometry":{"type":"Polygon","coordinates":[[[2.7196,6.9349],[2.7263,6.9304],[2.7331,6.9304],[2.7353,6.9304],[2.7398,6.9282],[2.7488,6.9282],[2.7488,6.9214],[2.7511,6.9124],[2.7511,6.8945],[2.7511,6.8855],[2.7488,6.8787],[2.7466,6.8698],[2.7466,6.863],[2.7443,6.8563],[2.7443,6.8518],[2.7533,6.8496],[2.7668,6.8428],[2.7758,6.8383],[2.8049,6.8338],[2.8184,6.8361],[2.8229,6.8406],[2.8319,6.8496],[2.8431,6.8585],[2.8521,6.863],[2.8656,6.863],[2.8858,6.8608],[2.8993,6.863],[2.915,6.872],[2.9285,6.8787],[2.9419,6.89],[2.9487,6.8945],[2.9644,6.8967],[2.9756,6.899],[2.9846,6.9035],[2.9913,6.9102],[2.9958,6.9192],[3.0003,6.9282],[3.0071,6.9371],[3.0093,6.9416],[3.0228,6.9416],[3.043,6.9394],[3.061,6.9371],[3.061,6.9439],[3.061,6.9529],[3.0632,6.9663],[3.0677,6.9798],[3.0744,6.9955],[3.0834,7.0045],[3.0991,7.0135],[3.1126,7.0225],[3.1216,7.0292],[3.1238,7.0449],[3.1238,7.0629],[3.1238,7.0719],[3.1216,7.0741],[3.1216,7.0854],[3.1238,7.0966],[3.1261,7.1056],[3.1261,7.1146],[3.1216,7.1235],[3.1081,7.1325],[3.1014,7.1393],[3.0879,7.1707],[3.0834,7.1887],[3.0834,7.1976],[3.0789,7.2066],[3.0699,7.2156],[3.0655,7.2268],[3.0632,7.2358],[3.061,7.2471],[3.061,7.2538],[3.0587,7.2605],[3.0542,7.265],[3.052,7.2673],[3.0497,7.2718],[3.0475,7.2807],[3.0475,7.2875],[3.0408,7.2942],[3.034,7.2965],[3.0205,7.3077],[3.0138,7.3234],[3.0116,7.3369],[3.0071,7.3481],[3.0026,7.3661],[3.0003,7.3796],[3.0026,7.3908],[3.0048,7.3953],[3.0071,7.3975],[2.9958,7.402],[2.9779,7.4065],[2.9644,7.411],[2.9532,7.411],[2.9285,7.4132],[2.9015,7.4087],[2.8836,7.402],[2.8566,7.3975],[2.8319,7.393],[2.8049,7.393],[2.778,7.393],[2.7623,7.3908],[2.7466,7.3908],[2.7466,7.384],[2.7466,7.3751],[2.7466,7.3661],[2.7488,7.3571],[2.7488,7.3504],[2.7488,7.3414],[2.7488,7.3346],[2.7488,7.3257],[2.7488,7.3189],[2.7511,7.3099],[2.7488,7.3032],[2.7488,7.2942],[2.7488,7.2605],[2.7511,7.2583],[2.7555,7.2515],[2.7623,7.2493],[2.7668,7.2426],[2.7713,7.2381],[2.7735,7.2336],[2.7758,7.2268],[2.778,7.2179],[2.778,7.2134],[2.778,7.2089],[2.7802,7.2021],[2.7802,7.1999],[2.7825,7.1909],[2.7825,7.1819],[2.7847,7.1774],[2.7847,7.1729],[2.7847,7.1662],[2.7847,7.1595],[2.7758,7.128],[2.7668,7.1168],[2.7623,7.1123],[2.7555,7.1101],[2.7511,7.1056],[2.7443,7.0988],[2.7443,7.0921],[2.7533,7.0764],[2.7578,7.0719],[2.7623,7.0674],[2.7668,7.0651],[2.7713,7.0607],[2.778,7.0584],[2.7825,7.0539],[2.787,7.0472],[2.7937,7.0404],[2.7847,7.036],[2.7802,7.036],[2.7758,7.0337],[2.7713,7.0292],[2.7668,7.027],[2.76,7.0225],[2.7533,7.0202],[2.7488,7.0157],[2.7443,7.0135],[2.7376,7.0068],[2.7331,7.0023],[2.7308,7.0],[2.7286,6.9978],[2.7263,6.9955],[2.7263,6.9933],[2.7241,6.991],[2.7196,6.9865],[2.7196,6.9798],[2.7196,6.9708],[2.7196,6.9663],[2.7196,6.9641],[2.7196,6.9551],[2.7196,6.9529],[2.7196,6.9506],[2.7196,6.9484],[2.7174,6.9439],[2.7174,6.9394],[2.7196,6.9349]]]}},{"type":"Feature","properties":{"id":"ogun/egbado-south","name":"Egbado South","state":"Ogun"},"geometry":{"type":"Polygon","coordinates":[[[2.8207,6.8271],[2.8252,6.8046],[2.8297,6.7889],[2.8319,6.7754],[2.8364,6.762],[2.8409,6.7485],[2.8454,6.7328],[2.8476,6.726],[2.8566,6.7036],[2.8723,6.6632],[2.8925,6.6362],[2.9083,6.6227],[2.9172,6.6205],[2.9262,6.6205],[2.924,6.6227],[2.9172,6.6317],[2.9172,6.6519],[2.9217,6.6564],[2.9419,6.6744],[2.9532,6.6789],[2.9666,6.6834],[2.9734,6.6834],[2.9936,6.6744],[3.0048,6.6721],[3.0116,6.6721],[3.0116,6.6766],[3.0116,6.6811],[3.0138,6.6879],[3.0228,6.7036],[3.0318,6.7193],[3.0408,6.7373],[3.0452,6.7463],[3.052,6.7463],[3.0655,6.744],[3.0812,6.744],[3.0902,6.744],[3.0924,6.7597],[3.0902,6.7665],[3.0834,6.7822],[3.0789,6.7912],[3.0722,6.8069],[3.0677,6.8159],[3.052,6.8293],[3.0497,6.8383],[3.0497,6.8451],[3.052,6.8563],[3.061,6.863],[3.0677,6.8698],[3.0699,6.872],[3.0902,6.8877],[3.0902,6.89],[3.0924,6.8945],[3.0902,6.899],[3.0834,6.9079],[3.0677,6.9237],[3.0655,6.9282],[3.061,6.9371],[3.043,6.9394],[3.0228,6.9416],[3.0093,6.9416],[3.0071,6.9371],[3.0003,6.9282],[2.9958,6.9192],[2.9913,6.9102],[2.9846,6.9035],[2.9756,6.899],[2.9644,6.8967],[2.9487,6.8945],[2.9419,6.89],[2.9285,6.8787],[2.915,6.872],[2.8993,6.863],[2.8858,6.8608],[2.8656,6.863],[2.8521,6.863],[2.8431,6.8585],[2.8319,6.8496],[2.8229,6.8406],[2.8184,6.8361],[2.8207,6.8271]]]}},{"type":"Feature","properties":{"id":"ogun/ewekoro","name":"Ewekoro","state":"Ogun"},"geometry":{"type":"Polygon","coordinates":[[[3.0655,6.9282],[3.0677,6.9237],[3.0834,6.9079],[3.0902,6.899],[3.0924,6.8945],[3.0902,6.89],[3.0902,6.8877],[3.0699,6.872],[3.0677,6.8698],[3.0744,6.8698],[3.0767,6.8698],[3.0969,6.8698],[3.1149,6.8698],[3.1373,6.863],[3.1598,6.854],[3.1845,6.8451],[3.2159,6.8361],[3.2608,6.8271],[3.2878,6.8249],[3.3013,6.8226],[3.3282,6.8226],[3.3507,6.8249],[3.3619,6.8271],[3.3641,6.8293],[3.3641,6.8316],[3.3574,6.8383],[3.3484,6.8473],[3.3349,6.854],[3.3237,6.8743],[3.317,6.8855],[3.3102,6.9035],[3.3013,6.9192],[3.2923,6.9439],[3.2855,6.9551],[3.281,6.991],[3.281,7.018],[3.2855,7.0315],[3.2855,7.0427],[3.2878,7.0696],[3.2923,7.0831],[3.2945,7.0899],[3.2923,7.0943],[3.281,7.0831],[3.2721,7.0674],[3.2563,7.0629],[3.2384,7.0651],[3.2227,7.0629],[3.2092,7.0562],[3.1957,7.0539],[3.1845,7.0562],[3.1777,7.0607],[3.162,7.0719],[3.1485,7.0786],[3.1373,7.0764],[3.1283,7.0719],[3.1261,7.0719],[3.1238,7.0719],[3.1238,7.0629],[3.1238,7.0449],[3.1216,7.0292],[3.1126,7.0225],[3.0991,7.0135],[3.0834,7.0045],[3.0744,6.9955],[3.0677,6.9798],[3.0632,6.9663],[3.061,6.9529],[3.061,6.9439],[3.061,6.9371],[3.0655,6.9282]]]}},{"type":"Feature","properties":{"id":"ogun/ifo","name":"Ifo","state":"Ogun"},"geometry":{"type":"Polygon","coordinates":[[[3.052,6.8293],[3.0677,6.8159],[3.0722,6.8069],[3.0789,6.7912],[3.0834,6.7822],[3.0902,6.7665],[3.0924,6.7597],[3.0902,6.744],[3.0924,6.744],[3.1283,6.744],[3.1418,6.744],[3.162,6.744],[3.1845,6.7463],[3.2069,6.7485],[3.2272,6.7485],[3.2474,6.7507],[3.2563,6.7485],[3.2676,6.744],[3.2721,6.735],[3.2766,6.7215],[3.2855,6.7058],[3.2878,6.6879],[3.2878,6.6811],[3.29,6.6789],[3.2968,6.6766],[3.308,6.6721],[3.3102,6.6721],[3.3125,6.6699],[3.317,6.6676],[3.3215,6.6654],[3.3282,6.6676],[3.3327,6.6676],[3.3372,6.6676],[3.3439,6.6654],[3.3507,6.6587],[3.3552,6.6519],[3.3664,6.6429],[3.3709,6.6407],[3.3709,6.6385],[3.3776,6.6385],[3.4338,6.6385],[3.4472,6.6407],[3.4562,6.6429],[3.4517,6.6519],[3.4495,6.6587],[3.445,6.6654],[3.4427,6.6676],[3.4383,6.6744],[3.4383,6.6811],[3.4383,6.6856],[3.4113,6.6856],[3.4046,6.6879],[3.3956,6.6946],[3.3911,6.7103],[3.3866,6.7215],[3.3866,6.726],[3.3888,6.7373],[3.3888,6.744],[3.3888,6.7485],[3.3911,6.753],[3.3933,6.7597],[3.3956,6.771],[3.3956,6.7822],[3.3978,6.7957],[3.3956,6.8024],[3.3933,6.8091],[3.3866,6.8181],[3.3754,6.8249],[3.3641,6.8293],[3.3619,6.8271],[3.3507,6.8249],[3.3282,6.8226],[3.3013,6.8226],[3.2878,6.8249],[3.2608,6.8271],[3.2159,6.8361],[3.1845,6.8451],[3.1598,6.854],[3.1373,6.863],[3.1149,6.8698],[3.0969,6.8698],[3.0767,6.8698],[3.0744,6.8698],[3.0677,6.8698],[3.061,6.863],[3.052,6.8563],[3.0497,6.8451],[3.0497,6.8383],[3.052,6.8293]]]}},{"type":"Feature","properties":{"id":"ogun/ijebu-east","name":"Ijebu East","state":"Ogun"},"geometry":{"type":"Polygon","coordinates":[[[3.9705,6.762],[3.9772,6.762],[4.0064,6.7597],[4.0109,6.762],[4.0177,6.7597],[4.0221,6.7552],[4.0221,6.753],[4.0177,6.7507],[4.0154,6.7463],[4.0109,6.744],[4.0064,6.7418],[4.0019,6.7395],[4.0019,6.735],[4.0042,6.7328],[4.0064,6.7305],[4.0154,6.7305],[4.0244,6.7305],[4.0334,6.7305],[4.0401,6.7283],[4.0491,6.726],[4.0536,6.7238],[4.0603,6.7193],[4.0626,6.7103],[4.0603,6.7013],[4.0648,6.6968],[4.0738,6.6924],[4.076,6.6901],[4.0783,6.6789],[4.0918,6.6789],[4.094,6.6699],[4.0918,6.6676],[4.0895,6.6654],[4.0918,6.6609],[4.0963,6.6519],[4.0873,6.6452],[4.085,6.6407],[4.0805,6.6385],[4.0738,6.6362],[4.0671,6.634],[4.0581,6.6295],[4.0513,6.6182],[4.0513,6.616],[4.0558,6.6025],[4.0603,6.589],[4.0693,6.5643],[4.0805,6.5599],[4.0873,6.5599],[4.0918,6.5576],[4.0918,6.5554],[4.094,6.5486],[4.094,6.5464],[4.1007,6.5464],[4.103,6.5464],[4.1097,6.5464],[4.1097,6.5531],[4.1097,6.5576],[4.1165,6.5643],[4.1255,6.5688],[4.1299,6.5711],[4.1322,6.5711],[4.1389,6.5733],[4.1434,6.5756],[4.1502,6.5801],[4.1546,6.5868],[4.1591,6.5913],[4.1614,6.5913],[4.1659,6.5935],[4.1726,6.5913],[4.1794,6.589],[4.1794,6.5868],[4.1861,6.5846],[4.1996,6.5868],[4.1996,6.589],[4.2108,6.5823],[4.2153,6.5778],[4.2175,6.5733],[4.2198,6.5666],[4.2265,6.5756],[4.231,6.5801],[4.2422,6.5823],[4.2467,6.5823],[4.2557,6.589],[4.2669,6.5958],[4.2737,6.5958],[4.2782,6.598],[4.2849,6.607],[4.2961,6.6182],[4.3163,6.625],[4.3253,6.625],[4.3388,6.6272],[4.3455,6.625],[4.3635,6.6295],[4.3702,6.6362],[4.377,6.6452],[4.377,6.6474],[4.377,6.6632],[4.3792,6.6654],[4.3837,6.6676],[4.3882,6.6699],[4.3882,6.6744],[4.3905,6.6789],[4.3882,6.6856],[4.3882,6.6901],[4.3882,6.7013],[4.3882,6.7126],[4.3905,6.7148],[4.3927,6.7193],[4.4039,6.7305],[4.4107,6.7395],[4.4129,6.744],[4.4152,6.7507],[4.4152,6.753],[4.4174,6.7597],[4.4219,6.7642],[4.4264,6.7687],[4.4331,6.771],[4.4399,6.7754],[4.4444,6.7777],[4.4533,6.7867],[4.4668,6.7957],[4.4758,6.8024],[4.4938,6.8114],[4.5027,6.8159],[4.5207,6.8226],[4.5364,6.8338],[4.5432,6.8361],[4.5477,6.8406],[4.5477,6.8451],[4.5499,6.8496],[4.5499,6.8608],[4.5521,6.8743],[4.5544,6.8832],[4.5566,6.89],[4.5566,6.8922],[4.5566,6.8967],[4.5566,6.9035],[4.5566,6.9237],[4.5566,6.9371],[4.5566,6.9416],[4.5566,6.9529],[4.5566,6.9596],[4.5589,6.9776],[4.5611,6.9888],[4.5634,6.9955],[4.5679,7.0023],[4.5724,7.0045],[4.5858,7.0135],[4.5903,7.0157],[4.6016,7.0247],[4.606,7.027],[4.6105,7.0315],[4.6038,7.0315],[4.5926,7.0292],[4.5769,7.0225],[4.5589,7.0225],[4.5432,7.0202],[4.5342,7.0247],[4.523,7.0247],[4.5162,7.0225],[4.5095,7.0135],[4.496,7.0023],[4.4893,6.991],[4.4803,6.991],[4.4623,6.9933],[4.4533,7.0],[4.4376,7.0045],[4.4241,7.0023],[4.4174,6.9933],[4.4107,6.9865],[4.3994,6.9798],[4.3905,6.9798],[4.3837,6.991],[4.377,6.9955],[4.3747,6.9978],[4.3725,7.0112],[4.3702,7.0135],[4.3702,7.018],[4.377,7.0225],[4.3792,7.027],[4.377,7.0292],[4.3702,7.0315],[4.3702,7.036],[4.3702,7.0517],[4.3702,7.0562],[4.368,7.0584],[4.3657,7.0607],[4.3568,7.0629],[4.3523,7.0651],[4.3478,7.0674],[4.341,7.0674],[4.3343,7.0719],[4.3163,7.0809],[4.3119,7.0831],[4.2984,7.0899],[4.2871,7.0921],[4.2849,7.0921],[4.2759,7.0899],[4.2692,7.0876],[4.2624,7.0831],[4.2557,7.0786],[4.2512,7.0741],[4.2467,7.0719],[4.2445,7.0674],[4.2355,7.0607],[4.2332,7.0584],[4.2198,7.0472],[4.213,7.0449],[4.2108,7.0449],[4.2063,7.0449],[4.2041,7.0449],[4.1928,7.0315],[4.1883,7.027],[4.1838,7.0135],[4.1771,7.0],[4.1704,6.9843],[4.1569,6.9686],[4.1299,6.9551],[4.1165,6.9484],[4.094,6.9416],[4.0918,6.9416],[4.0918,6.9371],[4.0963,6.9326],[4.1052,6.9304],[4.103,6.9259],[4.0918,6.9102],[4.085,6.9012],[4.0716,6.8832],[4.0693,6.872],[4.0693,6.8608],[4.0693,6.8496],[4.0671,6.8428],[4.0648,6.8406],[4.0536,6.8428],[4.0311,6.8496],[4.0087,6.8563],[4.0019,6.8563],[3.9952,6.854],[3.9952,6.8496],[3.9952,6.8428],[3.9952,6.8338],[3.9952,6.8271],[3.9952,6.8226],[3.993,6.8159],[3.9862,6.8091],[3.9795,6.8024],[3.975,6.7957],[3.9705,6.7889],[3.9683,6.7754],[3.9683,6.7687],[3.9705,6.762]]]}},{"type":"Feature","properties":{"id":"ogun/ijebu-north","name":"Ijebu North","state":"Ogun"},"geometry":{"type":"Polygon","coordinates":[[[3.7616,6.9237],[3.7661,6.9192],[3.7841,6.9057],[3.8021,6.8945],[3.82,6.89],[3.8649,6.8922],[3.8852,6.89],[3.8986,6.8922],[3.9099,6.8922],[3.9368,6.8922],[3.9413,6.8922],[3.9548,6.8945],[3.9817,6.9035],[4.0087,6.9147],[4.0266,6.9259],[4.0401,6.9349],[4.0693,6.9394],[4.0918,6.9416],[4.094,6.9416],[4.1165,6.9484],[4.1299,6.9551],[4.1569,6.9686],[4.1704,6.9843],[4.1771,7.0],[4.1838,7.0135],[4.1883,7.027],[4.1928,7.0315],[4.2041,7.0449],[4.2018,7.0472],[4.1973,7.0494],[4.1951,7.0539],[4.1906,7.0696],[4.1861,7.0854],[4.1838,7.1123],[4.1771,7.1348],[4.1726,7.1572],[4.1726,7.1617],[4.1704,7.1707],[4.1681,7.1752],[4.1614,7.1707],[4.1569,7.164],[4.1389,7.1572],[4.1165,7.146],[4.0963,7.137],[4.0873,7.1325],[4.085,7.1325],[4.0693,7.1325],[4.0581,7.137],[4.0469,7.1393],[4.0266,7.128],[4.0199,7.1235],[4.0132,7.1258],[4.0064,7.128],[3.9974,7.1258],[3.9772,7.1168],[3.966,7.1101],[3.9615,7.0988],[3.9593,7.0921],[3.9525,7.0876],[3.9391,7.0831],[3.9166,7.0831],[3.8896,7.0831],[3.8739,7.0831],[3.8245,7.0831],[3.82,7.0764],[3.8133,7.0674],[3.7998,7.0562],[3.7931,7.0472],[3.7908,7.0315],[3.7863,7.0157],[3.7819,7.0],[3.7729,6.9731],[3.7661,6.9461],[3.7616,6.9394],[3.7571,6.9304],[3.7616,6.9237]]]}},{"type":"Feature","properties":{"id":"ogun/ijebu-north-east","name":"Ijebu North East","state":"Ogun"},"geometry":{"type":"Polygon","coordinates":[[[3.9413,6.881],[3.948,6.8698],[3.9638,6.8518],[3.9705,6.8451],[3.984,6.8338],[3.9907,6.8316],[3.9952,6.8338],[3.9952,6.8428],[3.9952,6.8496],[3.9952,6.854],[4.0019,6.8563],[4.0087,6.8563],[4.0311,6.8496],[4.0536,6.8428],[4.0648,6.8406],[4.0671,6.8428],[4.0693,6.8496],[4.0693,6.8608],[4.0693,6.872],[4.0716,6.8832],[4.085,6.9012],[4.0918,6.9102],[4.103,6.9259],[4.1052,6.9304],[4.0963,6.9326],[4.0918,6.9371],[4.0918,6.9416],[4.0693,6.9394],[4.0401,6.9349],[4.0266,6.9259],[4.0087,6.9147],[3.9817,6.9035],[3.9548,6.8945],[3.9413,6.8922],[3.9368,6.8922],[3.9413,6.881]]]}},{"type":"Feature","properties":{"id":"ogun/ijebu-ode","name":"Ijebu Ode","state":"Ogun"},"geometry":{"type":"Polygon","coordinates":[[[3.9009,6.8091],[3.9233,6.8001],[3.9301,6.7957],[3.9368,6.7912],[3.9458,6.7777],[3.9503,6.7665],[3.9503,6.7575],[3.948,6.7485],[3.9435,6.7418],[3.9391,6.726],[3.9323,6.7148],[3.9256,6.7036],[3.9166,6.6856],[3.9166,6.6811],[3.9705,6.6789],[4.0491,6.6811],[4.0738,6.6789],[4.0783,6.6789],[4.076,6.6901],[4.0738,6.6924],[4.0648,6.6968],[4.0603,6.7013],[4.0626,6.7103],[4.0603,6.7193],[4.0536,6.7238],[4.0491,6.726],[4.0401,6.7283],[4.0334,6.7305],[4.0244,6.7305],[4.0154,6.7305],[4.0064,6.7305],[4.0042,6.7328],[4.0019,6.735],[4.0019,6.7395],[4.0064,6.7418],[4.0109,6.744],[4.0154,6.7463],[4.0177,6.7507],[4.0221,6.753],[4.0221,6.7552],[4.0177,6.7597],[4.0109,6.762],[4.0064,6.7597],[3.9772,6.762],[3.9705,6.762],[3.9683,6.7687],[3.9683,6.7754],[3.9705,6.7889],[3.975,6.7957],[3.9795,6.8024],[3.9862,6.8091],[3.993,6.8159],[3.9952,6.8226],[3.9952,6.8271],[3.9952,6.8338],[3.9907,6.8316],[3.984,6.8338],[3.9705,6.8451],[3.9638,6.8518],[3.948,6.8698],[3.9413,6.881],[3.9368,6.8922],[3.9099,6.8922],[3.8986,6.8922],[3.9031,6.8832],[3.9099,6.872],[3.9144,6.8585],[3.9121,6.8473],[3.9054,6.8338],[3.9009,6.8271],[3.8986,6.8204],[3.8986,6.8136],[3.9009,6.8091]]]}},{"type":"Feature","properties":{"id":"ogun/ikenne","name":"Ikenne","state":"Ogun"},"geometry":{"type":"Polygon","coordinates":[[[3.6067,6.9394],[3.6112,6.9282],[3.6246,6.9124],[3.6359,6.9035],[3.6449,6.899],[3.6583,6.8967],[3.6673,6.89],[3.6763,6.8787],[3.6853,6.8698],[3.692,6.8563],[3.6943,6.8473],[3.6988,6.8338],[3.701,6.8204],[3.7167,6.8001],[3.719,6.8024],[3.7257,6.8136],[3.7369,6.8316],[3.7392,6.8518],[3.7459,6.8698],[3.7527,6.8877],[3.7527,6.8967],[3.7527,6.9035],[3.7437,6.9057],[3.7167,6.9259],[3.701,6.9371],[3.6898,6.9506],[3.6808,6.9618],[3.6718,6.9708],[3.6651,6.9843],[3.6561,6.991],[3.6494,7.0],[3.6449,6.9978],[3.6404,6.991],[3.6404,6.9888],[3.6426,6.9798],[3.6426,6.9731],[3.6224,6.9551],[3.6089,6.9439],[3.6044,6.9394],[3.6067,6.9394]]]}},{"type":"Feature","properties":{"id":"ogun/imeko-afon","name":"Imeko-Afon","state":"Ogun"},"geometry":{"type":"Polygon","coordinates":[[[2.6904,7.8624],[2.6949,7.8557],[2.7039,7.8377],[2.7061,7.8332],[2.7084,7.8242],[2.7084,7.8197],[2.7084,7.8175],[2.7106,7.813],[2.7151,7.813],[2.7196,7.8107],[2.7241,7.8085],[2.7263,7.7995],[2.7286,7.7928],[2.7308,7.786],[2.7308,7.7793],[2.7331,7.7726],[2.7308,7.7658],[2.7308,7.7591],[2.7286,7.7523],[2.7286,7.7479],[2.7286,7.7456],[2.7286,7.7232],[2.7286,7.7142],[2.7308,7.7097],[2.7308,7.7074],[2.7308,7.6985],[2.7286,7.6917],[2.7286,7.6895],[2.7286,7.6872],[2.7286,7.6827],[2.7286,7.6737],[2.7263,7.6648],[2.7263,7.6558],[2.7263,7.649],[2.7263,7.6401],[2.7286,7.6311],[2.7286,7.6221],[2.7286,7.6154],[2.7286,7.6109],[2.7286,7.6041],[2.7286,7.5974],[2.7308,7.5794],[2.7331,7.5727],[2.7353,7.566],[2.7398,7.5615],[2.7421,7.5615],[2.7466,7.5547],[2.7488,7.548],[2.7466,7.5412],[2.7466,7.5345],[2.7488,7.5278],[2.7555,7.521],[2.7623,7.5188],[2.769,7.5143],[2.7758,7.5098],[2.7802,7.5053],[2.787,7.4986],[2.7892,7.4963],[2.7937,7.4941],[2.796,7.4896],[2.7982,7.4829],[2.7982,7.4739],[2.7982,7.4649],[2.7982,7.4559],[2.8005,7.4469],[2.8005,7.4379],[2.7982,7.4267],[2.796,7.4222],[2.7847,7.4177],[2.778,7.42],[2.7713,7.42],[2.7623,7.42],[2.7578,7.4177],[2.7488,7.4177],[2.7466,7.4177],[2.7466,7.4087],[2.7466,7.3998],[2.7466,7.3908],[2.7623,7.3908],[2.778,7.393],[2.8049,7.393],[2.8319,7.393],[2.8566,7.3975],[2.8836,7.402],[2.9015,7.4087],[2.9285,7.4132],[2.9532,7.411],[2.9644,7.411],[2.9779,7.4065],[2.9958,7.402],[3.0071,7.3975],[3.0116,7.3953],[3.0228,7.393],[3.0587,7.3885],[3.0767,7.3885],[3.0991,7.3863],[3.1104,7.384],[3.1081,7.3908],[3.1059,7.4043],[3.1059,7.4132],[3.1081,7.4155],[3.1036,7.42],[3.0969,7.4312],[3.0947,7.4335],[3.0902,7.4357],[3.0857,7.4379],[3.0812,7.4379],[3.0812,7.4424],[3.0744,7.4514],[3.0744,7.4559],[3.0699,7.4649],[3.0699,7.4716],[3.0699,7.4761],[3.0744,7.4829],[3.0767,7.4873],[3.0767,7.4918],[3.0744,7.4986],[3.0744,7.5031],[3.0655,7.5188],[3.061,7.5255],[3.0587,7.5278],[3.0542,7.5278],[3.0452,7.5345],[3.043,7.539],[3.034,7.5502],[3.0273,7.5525],[3.025,7.5525],[3.0205,7.5525],[3.0138,7.5547],[3.0071,7.5547],[3.0003,7.566],[2.9981,7.5682],[2.9913,7.5772],[2.9869,7.5794],[2.9824,7.5839],[2.9801,7.5862],[2.9779,7.5907],[2.9734,7.6064],[2.9734,7.6109],[2.9734,7.6154],[2.9756,7.6198],[2.9779,7.6221],[2.9824,7.6243],[2.9846,7.6266],[2.9891,7.6311],[2.9913,7.6333],[2.9936,7.6401],[2.9981,7.649],[2.9981,7.6513],[2.9958,7.658],[3.0003,7.667],[3.0026,7.6737],[3.0003,7.676],[2.9958,7.676],[2.9936,7.685],[2.9981,7.6917],[2.9958,7.6985],[3.0026,7.7007],[3.0093,7.6985],[3.0116,7.7007],[3.0116,7.7029],[3.0116,7.7074],[3.0071,7.7097],[3.0071,7.7142],[3.0071,7.7164],[3.0071,7.7187],[3.0093,7.7209],[3.0138,7.7254],[3.016,7.7299],[3.016,7.7366],[3.0183,7.7389],[3.0205,7.7479],[3.0228,7.7523],[3.025,7.7546],[3.025,7.7591],[3.025,7.7636],[3.0205,7.7726],[3.0205,7.7793],[3.0228,7.7883],[3.025,7.7928],[3.0205,7.7995],[3.0183,7.8085],[3.016,7.813],[3.0093,7.8265],[3.0071,7.8287],[3.0048,7.8332],[2.9981,7.8354],[2.9936,7.8444],[2.9936,7.8467],[2.9891,7.8557],[2.9869,7.8601],[2.9824,7.8579],[2.9801,7.8534],[2.9801,7.8489],[2.9779,7.8467],[2.9779,7.8444],[2.9779,7.8422],[2.9779,7.8377],[2.9779,7.8354],[2.9779,7.831],[2.9756,7.8242],[2.9734,7.8152],[2.9711,7.813],[2.9644,7.8018],[2.9622,7.795],[2.9532,7.7793],[2.9509,7.7771],[2.9464,7.7726],[2.9442,7.7703],[2.9262,7.7568],[2.9195,7.7523],[2.915,7.7501],[2.9127,7.7523],[2.9127,7.7568],[2.9127,7.7591],[2.9127,7.7613],[2.9127,7.7636],[2.915,7.7681],[2.915,7.7726],[2.915,7.7748],[2.915,7.7815],[2.915,7.786],[2.9105,7.795],[2.9083,7.7973],[2.9038,7.7995],[2.897,7.8018],[2.8903,7.8062],[2.8836,7.8107],[2.8813,7.813],[2.8791,7.8175],[2.8791,7.8197],[2.8791,7.822],[2.8791,7.8265],[2.8813,7.8422],[2.8836,7.8467],[2.8836,7.8512],[2.8836,7.8557],[2.8813,7.8601],[2.8813,7.8624],[2.8813,7.8646],[2.8836,7.8781],[2.8858,7.8804],[2.8903,7.9006],[2.8948,7.9051],[2.897,7.9073],[2.9105,7.9185],[2.915,7.9208],[2.9195,7.9208],[2.9195,7.923],[2.9172,7.9253],[2.9127,7.9275],[2.9083,7.9275],[2.8993,7.9275],[2.897,7.9253],[2.8925,7.9253],[2.8903,7.9253],[2.8858,7.9253],[2.8791,7.9253],[2.8701,7.9275],[2.8499,7.9298],[2.8454,7.9298],[2.8431,7.9298],[2.8386,7.932],[2.8274,7.9343],[2.8229,7.9365],[2.8207,7.9387],[2.8184,7.9432],[2.8184,7.9455],[2.8139,7.95],[2.8072,7.9522],[2.8049,7.9522],[2.8005,7.9522],[2.796,7.9522],[2.7937,7.9522],[2.7847,7.95],[2.7802,7.9477],[2.778,7.9455],[2.7735,7.932],[2.7713,7.923],[2.769,7.9208],[2.7668,7.9118],[2.7645,7.9073],[2.7623,7.9051],[2.7555,7.9006],[2.7533,7.8983],[2.7511,7.8961],[2.7331,7.8871],[2.7263,7.8804],[2.7219,7.8804],[2.7174,7.8781],[2.7129,7.8781],[2.7061,7.8759],[2.6994,7.8736],[2.6949,7.8714],[2.6927,7.8691],[2.6904,7.8669],[2.6859,7.8669],[2.6904,7.8624]]]}},{"type":"Feature","properties":{"id":"ogun/ipokia","name":"Ipokia","state":"Ogun"},"geometry":{"type":"Polygon","coordinates":[[[2.7196,6.4588],[2.7353,6.4588],[2.7398,6.4543],[2.7443,6.4498],[2.7488,6.4498],[2.7645,6.4521],[2.7802,6.4521],[2.7847,6.4521],[2.787,6.4543],[2.7892,6.4565],[2.7937,6.4588],[2.7982,6.461],[2.8072,6.4588],[2.8184,6.4543],[2.8229,6.4521],[2.8274,6.4476],[2.8319,6.4431],[2.8431,6.4431],[2.8521,6.4498],[2.8544,6.4521],[2.8544,6.4543],[2.8588,6.461],[2.8588,6.4678],[2.8656,6.4723],[2.8678,6.4723],[2.8746,6.47],[2.8791,6.47],[2.8903,6.4768],[2.8925,6.479],[2.897,6.488],[2.897,6.4925],[2.897,6.4947],[2.8948,6.4992],[2.8925,6.5015],[2.8903,6.506],[2.8858,6.5127],[2.8836,6.5149],[2.8813,6.5194],[2.8791,6.5262],[2.8791,6.5329],[2.8791,6.5374],[2.8813,6.5441],[2.888,6.5531],[2.8925,6.5576],[2.8948,6.5621],[2.9015,6.5666],[2.906,6.5711],[2.9127,6.5778],[2.924,6.5846],[2.9307,6.5958],[2.933,6.607],[2.933,6.6138],[2.9262,6.6205],[2.9172,6.6205],[2.9083,6.6227],[2.8925,6.6362],[2.8723,6.6632],[2.8566,6.7036],[2.8476,6.726],[2.8454,6.7328],[2.8409,6.7485],[2.8364,6.762],[2.8319,6.7754],[2.8297,6.7889],[2.8252,6.8046],[2.8207,6.8271],[2.8184,6.8361],[2.8049,6.8338],[2.7758,6.8383],[2.7668,6.8428],[2.7533,6.8496],[2.7443,6.8518],[2.7443,6.8473],[2.7466,6.8428],[2.7488,6.8383],[2.7443,6.8338],[2.7421,6.8271],[2.7376,6.8204],[2.7331,6.8136],[2.7308,6.8091],[2.7286,6.8024],[2.7286,6.7912],[2.7331,6.7777],[2.7398,6.7642],[2.7443,6.7642],[2.7511,6.7597],[2.7623,6.7575],[2.7713,6.7575],[2.778,6.7597],[2.787,6.7552],[2.7892,6.7485],[2.7892,6.744],[2.7892,6.7395],[2.7892,6.735],[2.787,6.7305],[2.787,6.7238],[2.787,6.7171],[2.787,6.7081],[2.787,6.7013],[2.787,6.6946],[2.7847,6.6946],[2.7847,6.6924],[2.7802,6.6901],[2.769,6.6789],[2.7645,6.6766],[2.76,6.6744],[2.7555,6.6699],[2.7533,6.6654],[2.7488,6.6587],[2.7443,6.6542],[2.7443,6.6519],[2.7398,6.6452],[2.7353,6.6385],[2.7308,6.6317],[2.7353,6.6093],[2.7376,6.6025],[2.7421,6.589],[2.7443,6.5846],[2.7443,6.5823],[2.7488,6.5778],[2.7533,6.5711],[2.7511,6.5576],[2.7421,6.5464],[2.7353,6.5396],[2.7286,6.5351],[2.7263,6.5307],[2.7241,6.5262],[2.7241,6.5194],[2.7219,6.5149],[2.7219,6.5127],[2.7196,6.5082],[2.7196,6.4992],[2.7196,6.4902],[2.7196,6.4835],[2.7196,6.4813],[2.7174,6.4768],[2.7174,6.47],[2.7151,6.4655],[2.7129,6.4588],[2.7196,6.4588]]]}},{"type":"Feature","properties":{"id":"ogun/obafemi-owode","name":"Obafemi-Owode","state":"Ogun"},"geometry":{"type":"Polygon","coordinates":[[[3.2855,6.9551],[3.2923,6.9439],[3.3013,6.9192],[3.3102,6.9035],[3.317,6.8855],[3.3237,6.8743],[3.3349,6.854],[3.3484,6.8473],[3.3574,6.8383],[3.3641,6.8316],[3.3641,6.8293],[3.3754,6.8249],[3.3866,6.8181],[3.3933,6.8091],[3.3956,6.8024],[3.3978,6.7957],[3.3956,6.7822],[3.3956,6.771],[3.3933,6.7597],[3.3911,6.753],[3.3888,6.7485],[3.3888,6.744],[3.3888,6.7373],[3.3866,6.726],[3.3866,6.7215],[3.3911,6.7103],[3.3956,6.6946],[3.4046,6.6879],[3.4113,6.6856],[3.4383,6.6856],[3.4383,6.6901],[3.4405,6.7103],[3.445,6.7215],[3.445,6.726],[3.445,6.7395],[3.445,6.744],[3.4472,6.7507],[3.4472,6.7575],[3.454,6.7777],[3.4562,6.7822],[3.4607,6.7867],[3.4652,6.7979],[3.4674,6.8024],[3.4697,6.8136],[3.4719,6.8181],[3.4787,6.8226],[3.4832,6.8271],[3.4854,6.8316],[3.4854,6.8383],[3.4854,6.8451],[3.4899,6.8496],[3.4922,6.8518],[3.4989,6.8518],[3.5079,6.8518],[3.5101,6.8518],[3.5213,6.8653],[3.5303,6.8675],[3.5393,6.872],[3.5483,6.8855],[3.5573,6.8945],[3.564,6.9012],[3.5685,6.9035],[3.5752,6.9012],[3.5887,6.9012],[3.5932,6.9035],[3.5955,6.9035],[3.591,6.9124],[3.5887,6.9147],[3.5887,6.9192],[3.5887,6.9282],[3.5999,6.9371],[3.6044,6.9394],[3.6089,6.9439],[3.6224,6.9551],[3.6426,6.9731],[3.6426,6.9798],[3.6404,6.9888],[3.6404,6.991],[3.6449,6.9978],[3.6494,7.0],[3.6494,7.0068],[3.6494,7.0135],[3.6538,7.0247],[3.6673,7.0292],[3.6763,7.0337],[3.6853,7.0382],[3.7033,7.0494],[3.7077,7.0517],[3.71,7.0562],[3.7077,7.0629],[3.7122,7.0674],[3.7212,7.0764],[3.728,7.0831],[3.7257,7.0876],[3.728,7.0966],[3.7392,7.1033],[3.7527,7.1078],[3.7819,7.1213],[3.7931,7.1325],[3.7953,7.1393],[3.7931,7.1437],[3.7908,7.1527],[3.7819,7.1527],[3.7684,7.1572],[3.7594,7.1572],[3.7437,7.1527],[3.728,7.1527],[3.7212,7.1505],[3.7033,7.1505],[3.6875,7.1527],[3.6718,7.1505],[3.6561,7.1482],[3.6336,7.146],[3.6202,7.146],[3.6044,7.1437],[3.5932,7.1415],[3.582,7.1437],[3.5752,7.146],[3.5505,7.146],[3.5303,7.146],[3.5146,7.1482],[3.5011,7.1482],[3.4922,7.1415],[3.4809,7.1325],[3.4697,7.1325],[3.4607,7.1348],[3.4517,7.137],[3.4383,7.1415],[3.4203,7.1437],[3.4091,7.1505],[3.4046,7.1505],[3.4068,7.1482],[3.4046,7.137],[3.3933,7.1325],[3.3799,7.128],[3.3686,7.1235],[3.3529,7.1168],[3.3417,7.1168],[3.3215,7.1123],[3.3058,7.1123],[3.2923,7.0943],[3.2945,7.0899],[3.2923,7.0831],[3.2878,7.0696],[3.2855,7.0427],[3.2855,7.0315],[3.281,7.018],[3.281,6.991],[3.2855,6.9551]]]}},{"type":"Feature","properties":{"id":"ogun/odeda","name":"Odeda","state":"Ogun"},"geometry":{"type":"Polygon","coordinates":[[[3.1441,7.3728],[3.1508,7.3683],[3.153,7.3638],[3.1553,7.3571],[3.1553,7.3526],[3.1598,7.3459],[3.1665,7.3414],[3.171,7.3391],[3.1822,7.3346],[3.1867,7.3324],[3.1912,7.3279],[3.1957,7.3212],[3.2002,7.3077],[3.2047,7.2965],[3.2092,7.2875],[3.2227,7.283],[3.2249,7.2785],[3.2316,7.2718],[3.2429,7.2673],[3.2519,7.2628],[3.2676,7.2605],[3.281,7.2605],[3.3013,7.2538],[3.317,7.2448],[3.3327,7.2381],[3.3439,7.2291],[3.3462,7.2224],[3.3552,7.2111],[3.3641,7.2089],[3.3754,7.1999],[3.3844,7.1954],[3.3911,7.1864],[3.3933,7.1797],[3.4001,7.164],[3.4046,7.1505],[3.4091,7.1505],[3.4203,7.1437],[3.4383,7.1415],[3.4517,7.137],[3.4607,7.1348],[3.4697,7.1325],[3.4809,7.1325],[3.4922,7.1415],[3.5011,7.1482],[3.5146,7.1482],[3.5303,7.146],[3.5505,7.146],[3.5752,7.146],[3.582,7.1437],[3.5932,7.1415],[3.6044,7.1437],[3.6202,7.146],[3.6336,7.146],[3.6561,7.1482],[3.6718,7.1505],[3.6875,7.1527],[3.7033,7.1505],[3.7212,7.1505],[3.728,7.1527],[3.7437,7.1527],[3.7594,7.1572],[3.7684,7.1572],[3.7819,7.1527],[3.7908,7.1527],[3.7863,7.164],[3.7819,7.1729],[3.7774,7.1797],[3.7774,7.1909],[3.7796,7.2021],[3.7684,7.2246],[3.7639,7.2313],[3.7616,7.2381],[3.7616,7.2471],[3.7616,7.2583],[3.7616,7.2673],[3.7616,7.2695],[3.7594,7.274],[3.7594,7.2807],[3.7616,7.292],[3.7639,7.2965],[3.7616,7.301],[3.7594,7.301],[3.7504,7.301],[3.7414,7.301],[3.719,7.301],[3.7145,7.3032],[3.7145,7.3054],[3.7145,7.3077],[3.7145,7.3099],[3.7167,7.3189],[3.7167,7.3279],[3.719,7.3436],[3.719,7.3549],[3.7212,7.3796],[3.7212,7.3818],[3.719,7.3885],[3.7167,7.3908],[3.7145,7.3908],[3.71,7.3908],[3.7077,7.3885],[3.7055,7.393],[3.7055,7.3975],[3.7055,7.4065],[3.7077,7.4379],[3.7077,7.4402],[3.7077,7.4447],[3.7077,7.4469],[3.7033,7.4469],[3.6988,7.4469],[3.692,7.4469],[3.6741,7.4447],[3.6651,7.4447],[3.6471,7.4424],[3.6044,7.4424],[3.591,7.4424],[3.5797,7.4424],[3.555,7.4424],[3.546,7.4402],[3.5416,7.4402],[3.5393,7.4379],[3.5348,7.4312],[3.5326,7.429],[3.5303,7.4245],[3.5191,7.4132],[3.5124,7.4065],[3.5034,7.3998],[3.4922,7.393],[3.4787,7.3885],[3.4742,7.3885],[3.4719,7.3908],[3.4742,7.3975],[3.4764,7.3998],[3.4787,7.4043],[3.4809,7.4065],[3.4832,7.411],[3.4832,7.4177],[3.4719,7.4357],[3.4652,7.4424],[3.4585,7.4492],[3.4607,7.4582],[3.463,7.4604],[3.4652,7.4649],[3.4674,7.4716],[3.4585,7.4784],[3.4562,7.4829],[3.454,7.4896],[3.454,7.4941],[3.445,7.4941],[3.4427,7.4918],[3.4383,7.4896],[3.4315,7.4851],[3.427,7.4806],[3.4203,7.4761],[3.418,7.4739],[3.4113,7.4716],[3.4068,7.4671],[3.4023,7.4649],[3.3956,7.4582],[3.3933,7.4559],[3.3933,7.4537],[3.4001,7.4492],[3.4001,7.4447],[3.3956,7.4402],[3.3933,7.4402],[3.3866,7.4379],[3.3844,7.4357],[3.3821,7.4335],[3.3821,7.4312],[3.3821,7.4267],[3.3821,7.4132],[3.3866,7.4043],[3.3866,7.402],[3.3799,7.393],[3.3686,7.3818],[3.3641,7.3773],[3.3574,7.3706],[3.3507,7.3638],[3.3462,7.3571],[3.3394,7.3436],[3.3349,7.3369],[3.3327,7.3346],[3.3305,7.3279],[3.3282,7.3257],[3.3237,7.3144],[3.3192,7.3144],[3.3102,7.3144],[3.3058,7.3144],[3.2968,7.3189],[3.2923,7.3212],[3.2878,7.3234],[3.2833,7.3346],[3.2631,7.3548],[3.2563,7.3638],[3.2496,7.3683],[3.2294,7.3706],[3.2204,7.3706],[3.2137,7.3706],[3.2069,7.3683],[3.198,7.3683],[3.1822,7.3706],[3.1688,7.3728],[3.162,7.3751],[3.1553,7.3773],[3.1508,7.3818],[3.1485,7.384],[3.1463,7.3885],[3.1441,7.3908],[3.1418,7.3863],[3.1418,7.3796],[3.1441,7.3728]]]}},{"type":"Feature","properties":{"id":"ogun/odogbolu","name":"Odogbolu","state":"Ogun"},"geometry":{"type":"Polygon","coordinates":[[[3.701,6.6834],[3.7077,6.6834],[3.8155,6.6811],[3.9166,6.6811],[3.9166,6.6856],[3.9256,6.7036],[3.9323,6.7148],[3.9391,6.726],[3.9435,6.7418],[3.948,6.7485],[3.9503,6.7575],[3.9503,6.7665],[3.9458,6.7777],[3.9368,6.7912],[3.9301,6.7957],[3.9233,6.8001],[3.9009,6.8091],[3.8986,6.8136],[3.8986,6.8204],[3.9009,6.8271],[3.9054,6.8338],[3.9121,6.8473],[3.9144,6.8585],[3.9099,6.872],[3.9031,6.8832],[3.8986,6.8922],[3.8852,6.89],[3.8649,6.8922],[3.82,6.89],[3.8021,6.8945],[3.7841,6.9057],[3.7661,6.9192],[3.7616,6.9237],[3.7571,6.9304],[3.7549,6.9214],[3.7527,6.9035],[3.7527,6.8967],[3.7527,6.8877],[3.7459,6.8698],[3.7392,6.8518],[3.7369,6.8316],[3.7257,6.8136],[3.719,6.8024],[3.7167,6.8001],[3.7145,6.7979],[3.7145,6.7957],[3.701,6.7732],[3.7033,6.762],[3.7055,6.7418],[3.7055,6.735],[3.7055,6.7238],[3.7033,6.7193],[3.7033,6.7171],[3.701,6.7126],[3.701,6.7081],[3.6988,6.6991],[3.6988,6.6856],[3.701,6.6834]]]}},{"type":"Feature","properties":{"id":"ogun/ogun-waterside","name":"Ogun Waterside","state":"Ogun"},"geometry":{"type":"Polygon","coordinates":[[[4.1591,6.4813],[4.1659,6.4745],[4.1749,6.4723],[4.1838,6.4678],[4.1928,6.4633],[4.1996,6.4633],[4.2085,6.4633],[4.213,6.4655],[4.2175,6.4633],[4.2198,6.4588],[4.2198,6.4565],[4.222,6.4498],[4.2265,6.4453],[4.2288,6.4453],[4.2377,6.4386],[4.2445,6.4341],[4.249,6.4341],[4.2535,6.4341],[4.2535,6.4363],[4.2535,6.4386],[4.2535,6.4408],[4.2602,6.4431],[4.2647,6.4431],[4.2714,6.4431],[4.2759,6.4408],[4.2759,6.4386],[4.2782,6.4386],[4.2849,6.4363],[4.2871,6.4363],[4.2961,6.4341],[4.2984,6.4341],[4.3029,6.4386],[4.3096,6.4386],[4.3163,6.4386],[4.3231,6.4386],[4.3321,6.4386],[4.3366,6.4386],[4.3433,6.4363],[4.35,6.4296],[4.35,6.4274],[4.35,6.4206],[4.35,6.4161],[4.35,6.3892],[4.35,6.3779],[4.35,6.3712],[4.359,6.3667],[4.368,6.3667],[4.3702,6.3645],[4.386,6.3622],[4.4017,6.3577],[4.4129,6.3532],[4.4264,6.3488],[4.4331,6.3488],[4.4354,6.3465],[4.4421,6.3443],[4.4556,6.3375],[4.4556,6.3398],[4.4578,6.3398],[4.4623,6.3465],[4.478,6.3555],[4.4825,6.3555],[4.4915,6.3577],[4.4982,6.36],[4.514,6.3465],[4.5185,6.342],[4.5274,6.3308],[4.5364,6.324],[4.5432,6.3173],[4.5521,6.3106],[4.5634,6.3038],[4.5679,6.3038],[4.5724,6.3038],[4.5746,6.3038],[4.5813,6.3106],[4.5881,6.3196],[4.5926,6.3285],[4.5948,6.333],[4.5948,6.3353],[4.5971,6.3488],[4.5971,6.3622],[4.5948,6.369],[4.5858,6.3757],[4.5813,6.3779],[4.5769,6.3802],[4.5679,6.3824],[4.5454,6.3869],[4.5409,6.3892],[4.5342,6.3914],[4.5319,6.3937],[4.514,6.3982],[4.5095,6.3959],[4.505,6.3959],[4.4982,6.3937],[4.496,6.3914],[4.4915,6.3892],[4.487,6.3869],[4.4825,6.3869],[4.4803,6.3869],[4.478,6.3869],[4.4758,6.3892],[4.4735,6.3937],[4.4758,6.4004],[4.4758,6.4026],[4.4803,6.4094],[4.4893,6.4116],[4.5027,6.4161],[4.5072,6.4161],[4.514,6.4139],[4.5207,6.4116],[4.523,6.4071],[4.5274,6.4071],[4.5319,6.4071],[4.5342,6.4094],[4.5364,6.4116],[4.5387,6.4161],[4.5409,6.4206],[4.5432,6.4229],[4.5454,6.4274],[4.5499,6.4341],[4.5544,6.4408],[4.5566,6.4431],[4.5589,6.4498],[4.5611,6.4565],[4.5656,6.4768],[4.5656,6.4857],[4.5656,6.4902],[4.5656,6.4925],[4.5634,6.4992],[4.5881,6.4947],[4.6038,6.4902],[4.606,6.4925],[4.606,6.4992],[4.6038,6.5037],[4.5971,6.5194],[4.5948,6.5239],[4.5881,6.5329],[4.5881,6.5351],[4.5881,6.5599],[4.5903,6.5666],[4.5926,6.5756],[4.5948,6.5823],[4.5971,6.5868],[4.5971,6.589],[4.5971,6.5935],[4.6016,6.6093],[4.6016,6.6138],[4.6016,6.6182],[4.5971,6.6295],[4.5926,6.6362],[4.5903,6.6385],[4.5858,6.6407],[4.5836,6.6429],[4.5791,6.6429],[4.5679,6.6362],[4.5656,6.634],[4.5544,6.6227],[4.5477,6.6138],[4.5387,6.6003],[4.5342,6.5958],[4.5274,6.5801],[4.514,6.5576],[4.5095,6.5486],[4.5027,6.5217],[4.5027,6.5172],[4.5005,6.506],[4.496,6.506],[4.4915,6.5082],[4.4825,6.5284],[4.478,6.5351],[4.478,6.5396],[4.4758,6.5441],[4.4668,6.5666],[4.4646,6.5778],[4.4623,6.5868],[4.4601,6.598],[4.4578,6.6025],[4.4533,6.607],[4.4264,6.6138],[4.4174,6.616],[4.4129,6.6182],[4.4107,6.6205],[4.4062,6.6227],[4.4039,6.625],[4.3949,6.6272],[4.3905,6.6272],[4.3882,6.6295],[4.3837,6.634],[4.3792,6.6385],[4.377,6.6452],[4.3702,6.6362],[4.3635,6.6295],[4.3455,6.625],[4.3388,6.6272],[4.3253,6.625],[4.3163,6.625],[4.2961,6.6182],[4.2849,6.607],[4.2782,6.598],[4.2737,6.5958],[4.2669,6.5958],[4.2557,6.589],[4.2467,6.5823],[4.2422,6.5823],[4.231,6.5801],[4.2265,6.5756],[4.2198,6.5666],[4.222,6.5643],[4.2288,6.5576],[4.2265,6.5509],[4.2243,6.5441],[4.222,6.5374],[4.2108,6.5284],[4.2063,6.5262],[4.1951,6.5194],[4.1928,6.5194],[4.1861,6.5172],[4.1816,6.5172],[4.1794,6.5149],[4.1771,6.5127],[4.1749,6.5104],[4.1614,6.5015],[4.1569,6.4925],[4.1591,6.4813]]]}},{"type":"Feature","properties":{"id":"ogun/remo-north","name":"Remo North","state":"Ogun"},"geometry":{"type":"Polygon","coordinates":[[[3.6561,6.991],[3.6651,6.9843],[3.6718,6.9708],[3.6808,6.9618],[3.6898,6.9506],[3.701,6.9371],[3.7167,6.9259],[3.7437,6.9057],[3.7527,6.9035],[3.7549,6.9214],[3.7571,6.9304],[3.7616,6.9394],[3.7661,6.9461],[3.7729,6.9731],[3.7819,7.0],[3.7863,7.0157],[3.7908,7.0315],[3.7931,7.0472],[3.7998,7.0562],[3.8133,7.0674],[3.82,7.0764],[3.8245,7.0831],[3.8155,7.0831],[3.7976,7.0809],[3.7841,7.0809],[3.7594,7.0809],[3.7392,7.0809],[3.7302,7.0809],[3.728,7.0831],[3.7212,7.0764],[3.7122,7.0674],[3.7077,7.0629],[3.71,7.0562],[3.7077,7.0517],[3.7033,7.0494],[3.6853,7.0382],[3.6763,7.0337],[3.6673,7.0292],[3.6538,7.0247],[3.6494,7.0135],[3.6494,7.0068],[3.6494,7.0],[3.6561,6.991]]]}},{"type":"Feature","properties":{"id":"ogun/shagamu","name":"Shagamu","state":"Ogun"},"geometry":{"type":"Polygon","coordinates":[[[3.4427,6.6676],[3.445,6.6676],[3.4472,6.6699],[3.454,6.6721],[3.4585,6.6654],[3.4652,6.6654],[3.4652,6.6744],[3.463,6.6834],[3.5955,6.6834],[3.701,6.6834],[3.6988,6.6856],[3.6988,6.6991],[3.701,6.7081],[3.701,6.7126],[3.7033,6.7171],[3.7033,6.7193],[3.7055,6.7238],[3.7055,6.735],[3.7055,6.7418],[3.7033,6.762],[3.701,6.7732],[3.7145,6.7957],[3.7145,6.7979],[3.7167,6.8001],[3.701,6.8204],[3.6988,6.8338],[3.6943,6.8473],[3.692,6.8563],[3.6853,6.8698],[3.6763,6.8787],[3.6673,6.89],[3.6583,6.8967],[3.6449,6.899],[3.6359,6.9035],[3.6246,6.9124],[3.6112,6.9282],[3.6067,6.9394],[3.6044,6.9394],[3.5999,6.9371],[3.5887,6.9282],[3.5887,6.9192],[3.5887,6.9147],[3.591,6.9124],[3.5955,6.9035],[3.5932,6.9035],[3.5887,6.9012],[3.5752,6.9012],[3.5685,6.9035],[3.564,6.9012],[3.5573,6.8945],[3.5483,6.8855],[3.5393,6.872],[3.5303,6.8675],[3.5213,6.8653],[3.5101,6.8518],[3.5079,6.8518],[3.4989,6.8518],[3.4922,6.8518],[3.4899,6.8496],[3.4854,6.8451],[3.4854,6.8383],[3.4854,6.8316],[3.4832,6.8271],[3.4787,6.8226],[3.4719,6.8181],[3.4697,6.8136],[3.4674,6.8024],[3.4652,6.7979],[3.4607,6.7867],[3.4562,6.7822],[3.454,6.7777],[3.4472,6.7575],[3.4472,6.7507],[3.445,6.744],[3.445,6.7395],[3.445,6.726],[3.445,6.7215],[3.4405,6.7103],[3.4383,6.6901],[3.4383,6.6856],[3.4383,6.6811],[3.4383,6.6744],[3.4427,6.6676]]]}}]}