{"type":"FeatureCollection","features":[{"type":"Feature","properties":{"id":"ondo/akoko-north-east","name":"Akoko North East","state":"Ondo"},"geometry":{"type":"Polygon","coordinates":[[[5.6144,7.4829],[5.6234,7.4851],[5.6346,7.4873],[5.6571,7.4873],[5.6683,7.4829],[5.6773,7.4829],[5.6863,7.4806],[5.702,7.4829],[5.7177,7.4829],[5.7379,7.4829],[5.7446,7.4829],[5.7761,7.4918],[5.8008,7.4986],[5.8143,7.5031],[5.821,7.5031],[5.8232,7.4963],[5.8277,7.4963],[5.8367,7.4986],[5.8457,7.4986],[5.8569,7.4986],[5.8704,7.5008],[5.8816,7.4986],[5.8929,7.4963],[5.9086,7.4986],[5.9288,7.5008],[5.9468,7.5008],[5.9513,7.5008],[5.9535,7.5076],[5.9535,7.5121],[5.9535,7.5143],[5.9602,7.5143],[5.9625,7.5121],[5.9647,7.5143],[5.967,7.5165],[5.9692,7.5188],[5.9715,7.5233],[5.976,7.53],[5.9782,7.53],[5.9827,7.53],[5.9872,7.53],[5.9894,7.53],[5.9939,7.5278],[6.0029,7.5278],[6.0052,7.53],[6.0052,7.5345],[6.0007,7.5502],[5.9984,7.5547],[5.9962,7.5592],[5.9917,7.5682],[5.9782,7.5884],[5.9692,7.6064],[5.9647,7.6109],[5.9602,7.6154],[5.9535,7.6243],[5.9445,7.6378],[5.94,7.6446],[5.9378,7.6446],[5.9288,7.6401],[5.9221,7.6356],[5.9176,7.6311],[5.9153,7.6243],[5.9041,7.6041],[5.9018,7.5974],[5.8929,7.5884],[5.8816,7.5817],[5.8682,7.5772],[5.8345,7.566],[5.8188,7.5637],[5.8098,7.5615],[5.7851,7.5547],[5.7716,7.5525],[5.7536,7.5502],[5.7379,7.5525],[5.7222,7.5502],[5.711,7.5502],[5.6975,7.5547],[5.684,7.557],[5.6705,7.5592],[5.6616,7.5615],[5.6526,7.5592],[5.6458,7.5592],[5.6368,7.5592],[5.6279,7.5615],[5.6189,7.5637],[5.6166,7.5547],[5.6144,7.5412],[5.6121,7.5368],[5.6144,7.5278],[5.6121,7.5188],[5.6121,7.5076],[5.6121,7.4941],[5.6099,7.4851],[5.6144,7.4829]]]}},{"type":"Feature","properties":{"id":"ondo/akoko-north-west","name":"Akoko North West","state":"Ondo"},"geometry":{"type":"Polygon","coordinates":[[[5.6279,7.5615],[5.6368,7.5592],[5.6458,7.5592],[5.6526,7.5592],[5.6616,7.5615],[5.6705,7.5592],[5.684,7.557],[5.6975,7.5547],[5.711,7.5502],[5.7222,7.5502],[5.7379,7.5525],[5.7536,7.5502],[5.7716,7.5525],[5.7851,7.5547],[5.8098,7.5615],[5.8188,7.5637],[5.8345,7.566],[5.8682,7.5772],[5.8816,7.5817],[5.8929,7.5884],[5.9018,7.5974],[5.9041,7.6041],[5.9153,7.6243],[5.9176,7.6311],[5.9221,7.6356],[5.9288,7.6401],[5.9378,7.6446],[5.94,7.6446],[5.9378,7.649],[5.9355,7.6603],[5.9355,7.667],[5.931,7.6917],[5.9243,7.7074],[5.9221,7.7164],[5.9243,7.7232],[5.9265,7.7321],[5.9288,7.7344],[5.9288,7.7366],[5.931,7.7411],[5.931,7.7456],[5.9288,7.7456],[5.9198,7.7501],[5.9086,7.7479],[5.9041,7.7479],[5.8906,7.7434],[5.8771,7.7389],[5.8659,7.7344],[5.8569,7.7299],[5.8502,7.7276],[5.8435,7.7276],[5.8367,7.7299],[5.8322,7.7321],[5.8277,7.7344],[5.8232,7.7321],[5.8188,7.7321],[5.8165,7.7276],[5.8008,7.7344],[5.7806,7.7456],[5.7738,7.7479],[5.7671,7.7366],[5.7559,7.7276],[5.7424,7.7187],[5.7289,7.7097],[5.7154,7.7007],[5.6997,7.6827],[5.6952,7.6715],[5.693,7.6513],[5.6907,7.6423],[5.6907,7.6378],[5.6885,7.6333],[5.6818,7.6243],[5.675,7.6243],[5.6705,7.6266],[5.6593,7.6288],[5.6548,7.6288],[5.6458,7.6176],[5.6436,7.6131],[5.6391,7.6041],[5.6256,7.5817],[5.6211,7.5704],[5.6189,7.5637],[5.6279,7.5615]]]}},{"type":"Feature","properties":{"id":"ondo/akoko-south-east","name":"Akoko South East","state":"Ondo"},"geometry":{"type":"Polygon","coordinates":[[[5.8255,7.4873],[5.8255,7.4694],[5.8277,7.4514],[5.83,7.4402],[5.8367,7.4222],[5.8457,7.4043],[5.8479,7.3975],[5.8479,7.3953],[5.8569,7.393],[5.8659,7.3908],[5.8749,7.3885],[5.8816,7.384],[5.8861,7.3751],[5.8929,7.3683],[5.8996,7.3616],[5.9108,7.3549],[5.9221,7.3504],[5.9423,7.3459],[5.9513,7.3436],[5.958,7.3436],[5.9782,7.3481],[5.9804,7.3481],[5.9872,7.3549],[5.9872,7.3616],[5.9872,7.3638],[5.9804,7.3661],[5.9782,7.3683],[5.976,7.3728],[5.976,7.3751],[5.976,7.3773],[5.976,7.3818],[5.9782,7.3863],[5.9804,7.3908],[5.9782,7.393],[5.9737,7.3998],[5.9692,7.4087],[5.9692,7.411],[5.9692,7.4155],[5.9737,7.429],[5.976,7.4312],[5.9782,7.4357],[5.9804,7.4379],[5.9849,7.4402],[5.9872,7.4424],[5.9872,7.4469],[5.9872,7.4492],[5.9849,7.4559],[5.976,7.4582],[5.9715,7.4604],[5.967,7.4604],[5.9625,7.4604],[5.958,7.4716],[5.9557,7.4761],[5.9535,7.4829],[5.949,7.4873],[5.949,7.4963],[5.9513,7.5008],[5.9468,7.5008],[5.9288,7.5008],[5.9086,7.4986],[5.8929,7.4963],[5.8816,7.4986],[5.8704,7.5008],[5.8569,7.4986],[5.8457,7.4986],[5.8367,7.4986],[5.8277,7.4963],[5.8232,7.4963],[5.8255,7.4873]]]}},{"type":"Feature","properties":{"id":"ondo/akoko-south-west","name":"Akoko South West","state":"Ondo"},"geometry":{"type":"Polygon","coordinates":[[[5.5111,7.3144],[5.5246,7.3144],[5.538,7.3144],[5.5493,7.3144],[5.5672,7.3122],[5.5785,7.3099],[5.5897,7.3099],[5.6077,7.3099],[5.6189,7.3099],[5.6391,7.3099],[5.6481,7.3077],[5.6548,7.3054],[5.666,7.3032],[5.6683,7.301],[5.6705,7.301],[5.6773,7.301],[5.6907,7.301],[5.6975,7.3032],[5.7042,7.3054],[5.7087,7.3099],[5.7154,7.3144],[5.7222,7.3212],[5.7289,7.3234],[5.7334,7.3257],[5.7402,7.3279],[5.7469,7.3324],[5.7536,7.3369],[5.7559,7.3414],[5.7649,7.3459],[5.7738,7.3459],[5.7873,7.3526],[5.794,7.3571],[5.7985,7.3616],[5.8075,7.3728],[5.821,7.3863],[5.8322,7.393],[5.839,7.3953],[5.8479,7.3953],[5.8479,7.3975],[5.8457,7.4043],[5.8367,7.4222],[5.83,7.4402],[5.8277,7.4514],[5.8255,7.4694],[5.8255,7.4873],[5.8232,7.4963],[5.821,7.5031],[5.8143,7.5031],[5.8008,7.4986],[5.7761,7.4918],[5.7446,7.4829],[5.7379,7.4829],[5.7177,7.4829],[5.702,7.4829],[5.6863,7.4806],[5.6773,7.4829],[5.6683,7.4829],[5.6571,7.4873],[5.6346,7.4873],[5.6234,7.4851],[5.6144,7.4829],[5.6099,7.4851],[5.6077,7.4806],[5.6032,7.4671],[5.6009,7.4559],[5.5987,7.4492],[5.5874,7.4312],[5.5829,7.4267],[5.5762,7.4177],[5.5672,7.4043],[5.556,7.3863],[5.5515,7.3796],[5.5425,7.3683],[5.5313,7.3481],[5.5268,7.3391],[5.5223,7.3324],[5.5088,7.3189],[5.5043,7.3167],[5.5111,7.3144]]]}},{"type":"Feature","properties":{"id":"ondo/akure-north","name":"Akure North","state":"Ondo"},"geometry":{"type":"Polygon","coordinates":[[[5.1832,7.3481],[5.1854,7.3436],[5.1854,7.3414],[5.1967,7.3144],[5.1967,7.3077],[5.1989,7.2987],[5.2012,7.2852],[5.2034,7.2762],[5.2057,7.2695],[5.2124,7.2493],[5.2169,7.2426],[5.2214,7.2336],[5.2259,7.2291],[5.2393,7.2134],[5.2438,7.2066],[5.2483,7.2021],[5.2551,7.1976],[5.2618,7.1954],[5.2685,7.1954],[5.273,7.1909],[5.2798,7.1864],[5.2932,7.1774],[5.3022,7.1729],[5.309,7.1685],[5.3157,7.1617],[5.3202,7.1572],[5.3247,7.1505],[5.3314,7.1393],[5.3471,7.119],[5.3606,7.0988],[5.3651,7.0921],[5.3696,7.0921],[5.3718,7.0921],[5.3763,7.0921],[5.3831,7.0899],[5.3988,7.0831],[5.4123,7.0786],[5.4235,7.0741],[5.4437,7.0651],[5.4504,7.0651],[5.4527,7.0696],[5.4549,7.0719],[5.4594,7.0741],[5.4662,7.0764],[5.4752,7.0831],[5.4796,7.0854],[5.4819,7.0876],[5.4864,7.0921],[5.4909,7.1011],[5.4909,7.1056],[5.4864,7.1101],[5.4774,7.1146],[5.4662,7.1168],[5.4572,7.119],[5.446,7.1168],[5.4392,7.1168],[5.4325,7.1168],[5.428,7.1213],[5.4257,7.128],[5.4257,7.1393],[5.4235,7.1505],[5.419,7.1685],[5.419,7.1707],[5.419,7.1797],[5.419,7.1887],[5.4213,7.1932],[5.4235,7.1999],[5.4235,7.2044],[5.4235,7.2089],[5.4213,7.2156],[5.419,7.2268],[5.419,7.2493],[5.41,7.2628],[5.4078,7.2628],[5.401,7.2695],[5.3921,7.2807],[5.3876,7.283],[5.3808,7.2852],[5.3629,7.292],[5.3584,7.2965],[5.3561,7.301],[5.3561,7.3054],[5.3539,7.3099],[5.3539,7.3212],[5.3561,7.3279],[5.3561,7.3346],[5.3539,7.3436],[5.3494,7.3683],[5.3494,7.3751],[5.3471,7.3818],[5.3449,7.3863],[5.3427,7.3908],[5.3404,7.3975],[5.3382,7.402],[5.3337,7.4087],[5.3292,7.4177],[5.3269,7.4245],[5.3247,7.4312],[5.3202,7.4402],[5.3157,7.4424],[5.309,7.4402],[5.3067,7.4402],[5.3,7.4379],[5.2955,7.4357],[5.2798,7.4357],[5.2685,7.4379],[5.2596,7.4379],[5.2528,7.4357],[5.2461,7.4335],[5.2371,7.4335],[5.2191,7.4335],[5.2079,7.4357],[5.2012,7.4379],[5.1922,7.4379],[5.1944,7.4267],[5.1944,7.4222],[5.1944,7.4155],[5.1944,7.4065],[5.1944,7.4043],[5.1944,7.402],[5.1944,7.3953],[5.1922,7.384],[5.1899,7.3773],[5.1854,7.3661],[5.1854,7.3616],[5.181,7.3571],[5.181,7.3549],[5.1832,7.3481]]]}},{"type":"Feature","properties":{"id":"ondo/akure-south","name":"Akure South","state":"Ondo"},"geometry":{"type":"Polygon","coordinates":[[[5.0866,7.2448],[5.0979,7.2336],[5.1046,7.2268],[5.1158,7.2134],[5.1181,7.2089],[5.1203,7.2066],[5.1293,7.1976],[5.136,7.1932],[5.1473,7.1842],[5.1518,7.1774],[5.1585,7.1707],[5.1652,7.1662],[5.181,7.1572],[5.1967,7.1482],[5.2124,7.137],[5.2191,7.1303],[5.2304,7.119],[5.2349,7.1168],[5.2393,7.1146],[5.2461,7.1101],[5.2551,7.1078],[5.2618,7.1078],[5.2708,7.1056],[5.2798,7.1056],[5.2843,7.1056],[5.3,7.1033],[5.3179,7.1011],[5.3337,7.0988],[5.3404,7.0966],[5.3584,7.0943],[5.3651,7.0921],[5.3606,7.0988],[5.3471,7.119],[5.3314,7.1393],[5.3247,7.1505],[5.3202,7.1572],[5.3157,7.1617],[5.309,7.1685],[5.3022,7.1729],[5.2932,7.1774],[5.2798,7.1864],[5.273,7.1909],[5.2685,7.1954],[5.2618,7.1954],[5.2551,7.1976],[5.2483,7.2021],[5.2438,7.2066],[5.2393,7.2134],[5.2259,7.2291],[5.2214,7.2336],[5.2169,7.2426],[5.2124,7.2493],[5.2057,7.2695],[5.2034,7.2762],[5.2012,7.2852],[5.1989,7.2987],[5.1967,7.3077],[5.1967,7.3144],[5.1854,7.3414],[5.1854,7.3436],[5.1832,7.3481],[5.181,7.3549],[5.1765,7.3504],[5.163,7.3369],[5.1518,7.3279],[5.136,7.3189],[5.1181,7.3099],[5.1113,7.3054],[5.1046,7.2987],[5.0911,7.2875],[5.0866,7.283],[5.0844,7.2785],[5.0821,7.2718],[5.0844,7.2673],[5.0844,7.2583],[5.0844,7.2538],[5.0821,7.2515],[5.0866,7.2448]]]}},{"type":"Feature","properties":{"id":"ondo/ese-odo","name":"Ese-Odo","state":"Ondo"},"geometry":{"type":"Polygon","coordinates":[[[4.8351,6.2454],[4.8351,6.241],[4.8396,6.232],[4.8418,6.2252],[4.8486,6.2118],[4.8531,6.2073],[4.8666,6.1938],[4.8823,6.1758],[4.9002,6.1579],[4.9047,6.1534],[4.9137,6.1444],[4.9182,6.1399],[4.9249,6.1309],[4.9294,6.1242],[4.9317,6.1197],[4.9654,6.0838],[4.9699,6.0793],[5.008,6.0411],[5.0238,6.0231],[5.0417,6.0052],[5.053,6.0276],[5.0619,6.0501],[5.0754,6.077],[5.0889,6.1017],[5.1001,6.1242],[5.1181,6.1489],[5.1271,6.1646],[5.136,6.1691],[5.1338,6.1713],[5.136,6.1826],[5.1271,6.196],[5.1226,6.205],[5.1203,6.2073],[5.1181,6.2073],[5.1158,6.205],[5.1136,6.2005],[5.0956,6.196],[5.0934,6.1983],[5.0889,6.2005],[5.0866,6.2073],[5.0777,6.2207],[5.0754,6.2275],[5.0732,6.2342],[5.0732,6.2387],[5.0642,6.2477],[5.0597,6.2477],[5.0574,6.2477],[5.053,6.2477],[5.0507,6.2522],[5.0485,6.2612],[5.0485,6.2657],[5.0417,6.2746],[5.0372,6.2769],[5.035,6.2791],[5.0305,6.2791],[5.0215,6.2859],[5.0148,6.2926],[5.0103,6.2926],[5.0035,6.2949],[5.0013,6.2949],[4.9991,6.2971],[4.9946,6.2993],[4.9856,6.3151],[4.9721,6.333],[4.9609,6.3465],[4.9564,6.3532],[4.9519,6.3645],[4.9429,6.3892],[4.9362,6.4071],[4.9317,6.4206],[4.9294,6.4386],[4.9294,6.4431],[4.9272,6.4476],[4.9227,6.4521],[4.916,6.4565],[4.9047,6.4565],[4.9002,6.4543],[4.889,6.4498],[4.88,6.4476],[4.871,6.4408],[4.8643,6.4386],[4.8688,6.4363],[4.8688,6.4341],[4.8733,6.4296],[4.8755,6.4274],[4.8733,6.4139],[4.8733,6.4094],[4.871,6.4049],[4.871,6.4004],[4.8688,6.3982],[4.8666,6.3937],[4.8643,6.3914],[4.8621,6.3892],[4.8553,6.3802],[4.8531,6.3779],[4.8508,6.3735],[4.8508,6.369],[4.8508,6.3645],[4.8508,6.3577],[4.8531,6.3532],[4.8621,6.3465],[4.8666,6.3443],[4.8688,6.3375],[4.871,6.333],[4.871,6.3308],[4.8688,6.3263],[4.8688,6.3218],[4.8666,6.3173],[4.8643,6.3128],[4.8598,6.3061],[4.8531,6.2993],[4.8508,6.2949],[4.8463,6.2904],[4.8441,6.2881],[4.8418,6.2836],[4.8351,6.2724],[4.8329,6.2612],[4.8351,6.2454]]]}},{"type":"Feature","properties":{"id":"ondo/idanre","name":"Idanre","state":"Ondo"},"geometry":{"type":"Polygon","coordinates":[[[4.9923,6.8945],[4.9923,6.8787],[4.9923,6.8743],[4.9946,6.863],[4.9968,6.8406],[5.0013,6.8226],[5.0013,6.8159],[5.0013,6.8114],[5.0013,6.8024],[5.0013,6.7912],[5.017,6.7732],[5.0395,6.7597],[5.0462,6.753],[5.053,6.735],[5.0619,6.726],[5.0664,6.7238],[5.0732,6.7215],[5.0777,6.7171],[5.0777,6.7148],[5.0821,6.7171],[5.0889,6.7193],[5.1046,6.7126],[5.1091,6.7081],[5.1226,6.6991],[5.1271,6.7013],[5.1316,6.7126],[5.136,6.7193],[5.1383,6.726],[5.1405,6.7305],[5.1518,6.7463],[5.1675,6.7575],[5.172,6.762],[5.1854,6.7687],[5.1967,6.7732],[5.2012,6.7799],[5.2034,6.7822],[5.2034,6.7934],[5.2079,6.8046],[5.2079,6.8091],[5.2191,6.8271],[5.2236,6.8361],[5.2259,6.8383],[5.2326,6.8473],[5.2371,6.8518],[5.2438,6.8653],[5.2551,6.8832],[5.273,6.89],[5.4594,6.8855],[5.538,6.8855],[5.5358,6.89],[5.5358,6.9035],[5.5335,6.9169],[5.5291,6.9259],[5.5246,6.9349],[5.5178,6.9484],[5.5088,6.9663],[5.5066,6.9731],[5.4999,6.9798],[5.4931,6.9888],[5.4886,6.9933],[5.4864,7.0],[5.4819,7.0135],[5.4774,7.0157],[5.4752,7.0315],[5.4774,7.036],[5.4774,7.0404],[5.4774,7.0449],[5.4752,7.0517],[5.4707,7.0539],[5.4639,7.0562],[5.4594,7.0584],[5.4549,7.0607],[5.4527,7.0629],[5.4504,7.0651],[5.4437,7.0651],[5.4235,7.0741],[5.4123,7.0786],[5.3988,7.0831],[5.3831,7.0899],[5.3763,7.0921],[5.3718,7.0921],[5.3696,7.0921],[5.3651,7.0921],[5.3584,7.0943],[5.3404,7.0966],[5.3337,7.0988],[5.3179,7.1011],[5.3,7.1033],[5.2843,7.1056],[5.2798,7.1056],[5.2708,7.1056],[5.2618,7.1078],[5.2551,7.1078],[5.2461,7.1101],[5.2393,7.1146],[5.2349,7.1168],[5.2304,7.119],[5.2191,7.1303],[5.2124,7.137],[5.1967,7.1482],[5.181,7.1572],[5.1652,7.1662],[5.1585,7.1707],[5.1518,7.1774],[5.1473,7.1842],[5.136,7.1932],[5.1293,7.1976],[5.1203,7.2066],[5.1181,7.2089],[5.1158,7.2134],[5.1046,7.2268],[5.0979,7.2336],[5.0866,7.2448],[5.0821,7.2515],[5.0777,7.2493],[5.0709,7.2493],[5.0642,7.2493],[5.0417,7.2538],[5.0372,7.256],[5.0327,7.2313],[5.035,7.2179],[5.035,7.2044],[5.0372,7.1909],[5.0372,7.1864],[5.0372,7.1752],[5.035,7.1572],[5.0305,7.146],[5.0238,7.137],[5.008,7.1123],[4.9946,7.0899],[4.9923,7.0854],[4.9923,7.0786],[4.9923,7.0629],[4.9923,7.0562],[4.9946,7.0404],[4.9946,7.0337],[5.0013,7.0112],[5.0058,7.0],[5.0058,6.991],[5.0058,6.9798],[5.0058,6.9663],[4.9991,6.9371],[4.9901,6.9012],[4.9878,6.899],[4.9923,6.8945]]]}},{"type":"Feature","properties":{"id":"ondo/ifedore","name":"Ifedore","state":"Ondo"},"geometry":{"type":"Polygon","coordinates":[[[5.0125,7.3908],[5.017,7.3885],[5.0215,7.3863],[5.0305,7.3796],[5.035,7.3728],[5.0395,7.3616],[5.0417,7.3549],[5.0417,7.3481],[5.0417,7.3436],[5.0417,7.3369],[5.0417,7.3279],[5.0417,7.3167],[5.044,7.3099],[5.044,7.3032],[5.0417,7.2875],[5.0395,7.2762],[5.0395,7.2628],[5.0372,7.256],[5.0417,7.2538],[5.0642,7.2493],[5.0709,7.2493],[5.0777,7.2493],[5.0821,7.2515],[5.0844,7.2538],[5.0844,7.2583],[5.0844,7.2673],[5.0821,7.2718],[5.0844,7.2785],[5.0866,7.283],[5.0911,7.2875],[5.1046,7.2987],[5.1113,7.3054],[5.1181,7.3099],[5.136,7.3189],[5.1518,7.3279],[5.163,7.3369],[5.1765,7.3504],[5.181,7.3549],[5.181,7.3571],[5.1854,7.3616],[5.1854,7.3661],[5.1899,7.3773],[5.1922,7.384],[5.1944,7.3953],[5.1944,7.402],[5.1944,7.4043],[5.1944,7.4065],[5.1944,7.4155],[5.1944,7.4222],[5.1944,7.4267],[5.1922,7.4379],[5.1877,7.4402],[5.181,7.4424],[5.1742,7.4424],[5.1607,7.4424],[5.145,7.4424],[5.1316,7.4447],[5.1271,7.4447],[5.1024,7.4492],[5.0956,7.4514],[5.0889,7.4559],[5.0844,7.4559],[5.0777,7.4604],[5.0709,7.4604],[5.0642,7.4604],[5.0597,7.4582],[5.053,7.4582],[5.0485,7.4582],[5.0327,7.4447],[5.0238,7.4357],[5.017,7.4312],[5.008,7.4177],[5.0058,7.4132],[5.0058,7.411],[5.0058,7.4065],[5.0058,7.3998],[5.0058,7.393],[5.0125,7.3908]]]}},{"type":"Feature","properties":{"id":"ondo/ilaje","name":"Ilaje","state":"Ondo"},"geometry":{"type":"Polygon","coordinates":[[[4.4825,6.3263],[4.5611,6.2769],[4.5858,6.2567],[4.5926,6.2522],[4.5993,6.2477],[4.615,6.2342],[4.6263,6.2252],[4.6846,6.1691],[4.6914,6.1601],[4.7093,6.1489],[4.7206,6.1399],[4.7273,6.1354],[4.7453,6.1242],[4.7475,6.1219],[4.7498,6.1219],[4.7632,6.1062],[4.7677,6.1017],[4.7947,6.0748],[4.8037,6.0635],[4.8486,6.0276],[4.8531,6.0254],[4.8621,6.0209],[4.8733,6.0141],[4.8868,5.9984],[4.9092,5.9715],[4.9496,5.9243],[4.9609,5.9086],[4.9721,5.8951],[4.9833,5.8996],[5.0125,5.9423],[5.017,5.949],[5.0193,5.9535],[5.026,5.9715],[5.0305,5.9827],[5.0395,6.0007],[5.0417,6.0052],[5.0238,6.0231],[5.008,6.0411],[4.9699,6.0793],[4.9654,6.0838],[4.9317,6.1197],[4.9294,6.1242],[4.9249,6.1309],[4.9182,6.1399],[4.9137,6.1444],[4.9047,6.1534],[4.9002,6.1579],[4.8823,6.1758],[4.8666,6.1938],[4.8531,6.2073],[4.8486,6.2118],[4.8418,6.2252],[4.8396,6.232],[4.8351,6.241],[4.8351,6.2454],[4.8329,6.2612],[4.8351,6.2724],[4.8418,6.2836],[4.8441,6.2881],[4.8463,6.2904],[4.8508,6.2949],[4.8531,6.2993],[4.8598,6.3061],[4.8643,6.3128],[4.8666,6.3173],[4.8688,6.3218],[4.8688,6.3263],[4.871,6.3308],[4.871,6.333],[4.8688,6.3375],[4.8666,6.3443],[4.8621,6.3465],[4.8531,6.3532],[4.8508,6.3577],[4.8508,6.3645],[4.8508,6.369],[4.8508,6.3735],[4.8531,6.3779],[4.8553,6.3802],[4.8621,6.3892],[4.8643,6.3914],[4.8666,6.3937],[4.8688,6.3982],[4.871,6.4004],[4.871,6.4049],[4.8733,6.4094],[4.8733,6.4139],[4.8755,6.4274],[4.8733,6.4296],[4.8688,6.4341],[4.8688,6.4363],[4.8643,6.4386],[4.8553,6.4318],[4.8531,6.4296],[4.8396,6.4184],[4.8351,6.4139],[4.8261,6.4116],[4.8059,6.4049],[4.7857,6.4004],[4.7632,6.3959],[4.752,6.3937],[4.7363,6.3937],[4.7228,6.3937],[4.7161,6.3914],[4.7093,6.3937],[4.7004,6.3982],[4.6914,6.4026],[4.6712,6.4161],[4.6644,6.4206],[4.6577,6.4274],[4.6555,6.4318],[4.6532,6.4341],[4.6487,6.4408],[4.6442,6.4498],[4.642,6.4521],[4.642,6.4543],[4.6397,6.4588],[4.6352,6.4633],[4.6285,6.4655],[4.6263,6.4678],[4.624,6.47],[4.6195,6.4813],[4.6173,6.4835],[4.6083,6.4902],[4.606,6.4925],[4.6038,6.4902],[4.5881,6.4947],[4.5634,6.4992],[4.5656,6.4925],[4.5656,6.4902],[4.5656,6.4857],[4.5656,6.4768],[4.5611,6.4565],[4.5589,6.4498],[4.5566,6.4431],[4.5544,6.4408],[4.5499,6.4341],[4.5454,6.4274],[4.5432,6.4229],[4.5409,6.4206],[4.5387,6.4161],[4.5364,6.4116],[4.5342,6.4094],[4.5319,6.4071],[4.5274,6.4071],[4.523,6.4071],[4.5207,6.4116],[4.514,6.4139],[4.5072,6.4161],[4.5027,6.4161],[4.4893,6.4116],[4.4803,6.4094],[4.4758,6.4026],[4.4758,6.4004],[4.4735,6.3937],[4.4758,6.3892],[4.478,6.3869],[4.4803,6.3869],[4.4825,6.3869],[4.487,6.3869],[4.4915,6.3892],[4.496,6.3914],[4.4982,6.3937],[4.505,6.3959],[4.5095,6.3959],[4.514,6.3982],[4.5319,6.3937],[4.5342,6.3914],[4.5409,6.3892],[4.5454,6.3869],[4.5679,6.3824],[4.5769,6.3802],[4.5813,6.3779],[4.5858,6.3757],[4.5948,6.369],[4.5971,6.3622],[4.5971,6.3488],[4.5948,6.3353],[4.5948,6.333],[4.5926,6.3285],[4.5881,6.3196],[4.5813,6.3106],[4.5746,6.3038],[4.5724,6.3038],[4.5679,6.3038],[4.5634,6.3038],[4.5521,6.3106],[4.5432,6.3173],[4.5364,6.324],[4.5274,6.3308],[4.5185,6.342],[4.514,6.3465],[4.4982,6.36],[4.4915,6.3577],[4.4825,6.3555],[4.478,6.3555],[4.4623,6.3465],[4.4578,6.3398],[4.4556,6.3398],[4.4556,6.3375],[4.4825,6.3263]]]}},{"type":"Feature","properties":{"id":"ondo/ile-oluji-okeigbo","name":"Ile-Oluji-Okeigbo","state":"Ondo"},"geometry":{"type":"Polygon","coordinates":[[[4.6218,7.0854],[4.6307,7.0876],[4.6352,7.0876],[4.642,7.0876],[4.651,7.0876],[4.6555,7.0876],[4.6622,7.0921],[4.6667,7.0943],[4.6712,7.0988],[4.6802,7.1033],[4.6891,7.1078],[4.7049,7.1123],[4.7116,7.1146],[4.7206,7.1146],[4.7296,7.1168],[4.743,7.1213],[4.7543,7.1258],[4.7588,7.128],[4.761,7.1348],[4.761,7.1393],[4.761,7.1505],[4.7588,7.164],[4.7543,7.1797],[4.7565,7.1864],[4.761,7.1954],[4.7632,7.1999],[4.7655,7.2044],[4.77,7.2066],[4.7812,7.2156],[4.7857,7.2156],[4.7947,7.2179],[4.8127,7.2179],[4.8216,7.2134],[4.8284,7.2066],[4.8329,7.2021],[4.8396,7.1932],[4.8508,7.1864],[4.8576,7.1842],[4.8621,7.1842],[4.8666,7.1864],[4.8733,7.1864],[4.8845,7.1887],[4.8935,7.1887],[4.9002,7.1864],[4.9182,7.1864],[4.9249,7.1887],[4.9384,7.1887],[4.9474,7.1887],[4.9676,7.1909],[4.9811,7.1932],[5.008,7.2021],[5.0125,7.2044],[5.0148,7.2066],[5.0215,7.2134],[5.0305,7.2268],[5.0327,7.2313],[5.0372,7.256],[5.0395,7.2628],[5.0395,7.2762],[5.0417,7.2875],[5.044,7.3032],[5.044,7.3099],[5.0417,7.3167],[5.0417,7.3279],[5.0417,7.3369],[5.0417,7.3436],[5.0417,7.3481],[5.0417,7.3549],[5.0395,7.3616],[5.035,7.3728],[5.0305,7.3796],[5.0215,7.3863],[5.017,7.3885],[5.0125,7.3908],[5.0058,7.393],[5.0035,7.3885],[4.9923,7.3796],[4.9901,7.3773],[4.9856,7.3773],[4.9743,7.3751],[4.9654,7.3728],[4.9519,7.3728],[4.9429,7.3706],[4.9362,7.3706],[4.9294,7.3728],[4.9092,7.3728],[4.9025,7.3751],[4.8957,7.3751],[4.889,7.3773],[4.8778,7.3796],[4.8755,7.3796],[4.8598,7.3773],[4.8531,7.3773],[4.8486,7.3751],[4.8418,7.3751],[4.8351,7.3751],[4.8216,7.3728],[4.8149,7.3728],[4.8059,7.3706],[4.8014,7.3683],[4.7969,7.3638],[4.788,7.3616],[4.779,7.3571],[4.7722,7.3504],[4.77,7.3481],[4.7677,7.3436],[4.7677,7.3369],[4.7677,7.3279],[4.7655,7.3234],[4.7655,7.3212],[4.761,7.3077],[4.7565,7.3032],[4.7588,7.2875],[4.7588,7.283],[4.7588,7.2762],[4.7565,7.265],[4.7565,7.2605],[4.7543,7.256],[4.752,7.2515],[4.7498,7.2381],[4.7498,7.2313],[4.7475,7.2224],[4.743,7.2156],[4.7363,7.2066],[4.7273,7.1976],[4.7206,7.1954],[4.7183,7.1864],[4.7183,7.1797],[4.7161,7.1729],[4.7116,7.1685],[4.7093,7.164],[4.7071,7.1617],[4.7026,7.1617],[4.6981,7.1617],[4.6914,7.1662],[4.6846,7.1685],[4.6712,7.1662],[4.6689,7.1617],[4.6689,7.1595],[4.6712,7.1527],[4.6712,7.1482],[4.6757,7.1437],[4.6734,7.1415],[4.6667,7.1348],[4.6555,7.128],[4.6487,7.1213],[4.6352,7.1123],[4.6307,7.1078],[4.6263,7.1033],[4.6195,7.0899],[4.6173,7.0854],[4.6218,7.0854]]]}},{"type":"Feature","properties":{"id":"ondo/irele","name":"Irele","state":"Ondo"},"geometry":{"type":"Polygon","coordinates":[[[4.8306,6.4588],[4.8418,6.4476],[4.8508,6.4386],[4.8553,6.4318],[4.8643,6.4386],[4.871,6.4408],[4.88,6.4476],[4.889,6.4498],[4.9002,6.4543],[4.9047,6.4565],[4.916,6.4565],[4.9227,6.4521],[4.9272,6.4476],[4.9294,6.4431],[4.9294,6.4386],[4.9317,6.4206],[4.9362,6.4071],[4.9429,6.3892],[4.9519,6.3645],[4.9564,6.3532],[4.9609,6.3465],[4.9721,6.333],[4.9856,6.3151],[4.9946,6.2993],[4.9991,6.2971],[5.0013,6.2949],[5.0035,6.2949],[5.0103,6.2926],[5.0148,6.2926],[5.0125,6.2993],[5.0125,6.3016],[5.0148,6.3083],[5.0193,6.3151],[5.0215,6.3196],[5.0305,6.324],[5.035,6.3285],[5.035,6.333],[5.0327,6.3375],[5.0282,6.342],[5.0282,6.3443],[5.0282,6.3577],[5.0282,6.36],[5.0282,6.3645],[5.0327,6.3645],[5.0395,6.3645],[5.044,6.3667],[5.0462,6.3712],[5.0485,6.3757],[5.0485,6.3779],[5.0485,6.3824],[5.053,6.3847],[5.0574,6.3824],[5.0619,6.3779],[5.0664,6.3757],[5.0709,6.3757],[5.0754,6.3779],[5.0844,6.3847],[5.0911,6.3914],[5.0979,6.3982],[5.1046,6.4026],[5.1091,6.4116],[5.1091,6.4139],[5.1091,6.4161],[5.1068,6.4184],[5.1024,6.4386],[5.1024,6.4431],[5.1068,6.4453],[5.1136,6.4543],[5.1226,6.4633],[5.1405,6.479],[5.1518,6.4947],[5.154,6.497],[5.154,6.5015],[5.1518,6.5037],[5.154,6.5149],[5.154,6.5284],[5.1607,6.5396],[5.163,6.5464],[5.1652,6.5554],[5.163,6.5621],[5.154,6.5688],[5.1473,6.5688],[5.1405,6.5733],[5.1383,6.5756],[5.136,6.5778],[5.1338,6.5823],[5.1271,6.5935],[5.1136,6.6205],[5.1136,6.6272],[5.1113,6.6295],[5.1113,6.6385],[5.1113,6.6564],[5.1136,6.6699],[5.1158,6.6766],[5.1181,6.6834],[5.1203,6.6901],[5.1226,6.6946],[5.1226,6.6991],[5.1091,6.7081],[5.1046,6.7126],[5.0889,6.7193],[5.0821,6.7171],[5.0777,6.7148],[5.0709,6.7103],[5.0552,6.6946],[5.0507,6.6901],[5.044,6.6856],[5.0395,6.6834],[5.0327,6.6789],[5.0282,6.6721],[5.0238,6.6609],[5.0193,6.6519],[5.008,6.6474],[4.9991,6.6519],[4.9811,6.6587],[4.9631,6.6609],[4.9519,6.6609],[4.9272,6.6632],[4.916,6.6587],[4.898,6.6542],[4.8823,6.6452],[4.8778,6.6407],[4.8733,6.6295],[4.8666,6.607],[4.8666,6.598],[4.8688,6.5868],[4.8688,6.5778],[4.8688,6.5576],[4.8688,6.5486],[4.8688,6.5374],[4.8666,6.5307],[4.8621,6.5262],[4.8576,6.5194],[4.8531,6.5149],[4.8441,6.506],[4.8396,6.5015],[4.8351,6.4947],[4.8306,6.4813],[4.8284,6.47],[4.8284,6.4678],[4.8284,6.4633],[4.8306,6.4588]]]}},{"type":"Feature","properties":{"id":"ondo/odigbo","name":"Odigbo","state":"Ondo"},"geometry":{"type":"Polygon","coordinates":[[[4.3792,6.6385],[4.3837,6.634],[4.3882,6.6295],[4.3905,6.6272],[4.3949,6.6272],[4.4039,6.625],[4.4062,6.6227],[4.4107,6.6205],[4.4129,6.6182],[4.4174,6.616],[4.4264,6.6138],[4.4533,6.607],[4.4578,6.6025],[4.4601,6.598],[4.4623,6.5868],[4.4646,6.5778],[4.4668,6.5666],[4.4758,6.5441],[4.478,6.5396],[4.478,6.5351],[4.4825,6.5284],[4.4915,6.5082],[4.496,6.506],[4.5005,6.506],[4.5027,6.5172],[4.5027,6.5217],[4.5095,6.5486],[4.514,6.5576],[4.5274,6.5801],[4.5342,6.5958],[4.5387,6.6003],[4.5477,6.6138],[4.5544,6.6227],[4.5656,6.634],[4.5679,6.6362],[4.5791,6.6429],[4.5836,6.6429],[4.5858,6.6474],[4.5881,6.6497],[4.6016,6.6676],[4.6105,6.6811],[4.6195,6.7013],[4.6218,6.7081],[4.6218,6.7126],[4.6263,6.7193],[4.633,6.7373],[4.6375,6.7395],[4.6487,6.7373],[4.6757,6.7328],[4.6891,6.7305],[4.7004,6.7305],[4.7138,6.7328],[4.7273,6.7126],[4.7318,6.7058],[4.7363,6.7013],[4.743,6.6789],[4.7475,6.6676],[4.752,6.6632],[4.7565,6.6564],[4.7655,6.6452],[4.77,6.6385],[4.7767,6.6317],[4.7835,6.625],[4.788,6.6182],[4.7969,6.6048],[4.8014,6.5958],[4.8104,6.5846],[4.8171,6.5846],[4.8194,6.5868],[4.8261,6.589],[4.8351,6.589],[4.8463,6.589],[4.8531,6.5868],[4.8621,6.5868],[4.8688,6.5868],[4.8666,6.598],[4.8666,6.607],[4.8733,6.6295],[4.8778,6.6407],[4.8823,6.6452],[4.898,6.6542],[4.916,6.6587],[4.9272,6.6632],[4.9519,6.6609],[4.9631,6.6609],[4.9811,6.6587],[4.9991,6.6519],[5.008,6.6474],[5.0193,6.6519],[5.0238,6.6609],[5.0282,6.6721],[5.0327,6.6789],[5.0395,6.6834],[5.044,6.6856],[5.0507,6.6901],[5.0552,6.6946],[5.0709,6.7103],[5.0777,6.7148],[5.0777,6.7171],[5.0732,6.7215],[5.0664,6.7238],[5.0619,6.726],[5.053,6.735],[5.0462,6.753],[5.0395,6.7597],[5.017,6.7732],[5.0013,6.7912],[5.0013,6.8024],[5.0013,6.8114],[5.0013,6.8159],[5.0013,6.8226],[4.9968,6.8406],[4.9946,6.863],[4.9923,6.8743],[4.9923,6.8787],[4.9923,6.8945],[4.9878,6.899],[4.9811,6.9035],[4.9699,6.9102],[4.9586,6.9214],[4.9541,6.9282],[4.9519,6.9326],[4.9384,6.9439],[4.9205,6.9529],[4.9137,6.9574],[4.9115,6.9574],[4.9025,6.9596],[4.8913,6.9596],[4.8778,6.9574],[4.8688,6.9551],[4.8576,6.9506],[4.8531,6.9484],[4.8374,6.9439],[4.8306,6.9416],[4.8239,6.9349],[4.8127,6.9282],[4.7947,6.9192],[4.779,6.9124],[4.7677,6.9079],[4.752,6.9012],[4.743,6.899],[4.7206,6.8877],[4.7116,6.8832],[4.7026,6.8765],[4.6959,6.8743],[4.6869,6.8698],[4.6846,6.8698],[4.6644,6.8675],[4.6555,6.8675],[4.6442,6.8675],[4.633,6.8698],[4.6218,6.8653],[4.615,6.863],[4.6083,6.8608],[4.6038,6.8585],[4.5948,6.8585],[4.5746,6.854],[4.5566,6.8473],[4.5477,6.8451],[4.5477,6.8406],[4.5432,6.8361],[4.5364,6.8338],[4.5207,6.8226],[4.5027,6.8159],[4.4938,6.8114],[4.4758,6.8024],[4.4668,6.7957],[4.4533,6.7867],[4.4444,6.7777],[4.4399,6.7754],[4.4331,6.771],[4.4264,6.7687],[4.4219,6.7642],[4.4174,6.7597],[4.4152,6.753],[4.4152,6.7507],[4.4129,6.744],[4.4107,6.7395],[4.4039,6.7305],[4.3927,6.7193],[4.3905,6.7148],[4.3882,6.7126],[4.3882,6.7013],[4.3882,6.6901],[4.3882,6.6856],[4.3905,6.6789],[4.3882,6.6744],[4.3882,6.6699],[4.3837,6.6676],[4.3792,6.6654],[4.377,6.6632],[4.377,6.6474],[4.377,6.6452],[4.3792,6.6385]]]}},{"type":"Feature","properties":{"id":"ondo/okitipupa","name":"Okitipupa","state":"Ondo"},"geometry":{"type":"Polygon","coordinates":[[[4.5858,6.6407],[4.5903,6.6385],[4.5926,6.6362],[4.5971,6.6295],[4.6016,6.6182],[4.6016,6.6138],[4.6016,6.6093],[4.5971,6.5935],[4.5971,6.589],[4.5971,6.5868],[4.5948,6.5823],[4.5926,6.5756],[4.5903,6.5666],[4.5881,6.5599],[4.5881,6.5351],[4.5881,6.5329],[4.5948,6.5239],[4.5971,6.5194],[4.6038,6.5037],[4.606,6.4992],[4.606,6.4925],[4.6083,6.4902],[4.6173,6.4835],[4.6195,6.4813],[4.624,6.47],[4.6263,6.4678],[4.6285,6.4655],[4.6352,6.4633],[4.6397,6.4588],[4.642,6.4543],[4.642,6.4521],[4.6442,6.4498],[4.6487,6.4408],[4.6532,6.4341],[4.6555,6.4318],[4.6577,6.4274],[4.6644,6.4206],[4.6712,6.4161],[4.6914,6.4026],[4.7004,6.3982],[4.7093,6.3937],[4.7161,6.3914],[4.7228,6.3937],[4.7363,6.3937],[4.752,6.3937],[4.7632,6.3959],[4.7857,6.4004],[4.8059,6.4049],[4.8261,6.4116],[4.8351,6.4139],[4.8396,6.4184],[4.8531,6.4296],[4.8553,6.4318],[4.8508,6.4386],[4.8418,6.4476],[4.8306,6.4588],[4.8284,6.4633],[4.8284,6.4678],[4.8284,6.47],[4.8306,6.4813],[4.8351,6.4947],[4.8396,6.5015],[4.8441,6.506],[4.8531,6.5149],[4.8576,6.5194],[4.8621,6.5262],[4.8666,6.5307],[4.8688,6.5374],[4.8688,6.5486],[4.8688,6.5576],[4.8688,6.5778],[4.8688,6.5868],[4.8621,6.5868],[4.8531,6.5868],[4.8463,6.589],[4.8351,6.589],[4.8261,6.589],[4.8194,6.5868],[4.8171,6.5846],[4.8104,6.5846],[4.8014,6.5958],[4.7969,6.6048],[4.788,6.6182],[4.7835,6.625],[4.7767,6.6317],[4.77,6.6385],[4.7655,6.6452],[4.7565,6.6564],[4.752,6.6632],[4.7475,6.6676],[4.743,6.6789],[4.7363,6.7013],[4.7318,6.7058],[4.7273,6.7126],[4.7138,6.7328],[4.7004,6.7305],[4.6891,6.7305],[4.6757,6.7328],[4.6487,6.7373],[4.6375,6.7395],[4.633,6.7373],[4.6263,6.7193],[4.6218,6.7126],[4.6218,6.7081],[4.6195,6.7013],[4.6105,6.6811],[4.6016,6.6676],[4.5881,6.6497],[4.5858,6.6474],[4.5836,6.6429],[4.5858,6.6407]]]}},{"type":"Feature","properties":{"id":"ondo/ondo-east","name":"Ondo East","state":"Ondo"},"geometry":{"type":"Polygon","coordinates":[[[4.8463,7.119],[4.8508,7.1168],[4.8531,7.1168],[4.8576,7.1146],[4.8643,7.1123],[4.8733,7.1078],[4.88,7.1033],[4.8913,7.1011],[4.898,7.1011],[4.9205,7.0921],[4.9272,7.0876],[4.9339,7.0809],[4.9339,7.0764],[4.9317,7.0562],[4.9294,7.0382],[4.9205,7.0068],[4.9182,6.9978],[4.916,6.991],[4.916,6.9731],[4.916,6.9663],[4.9137,6.9574],[4.9205,6.9529],[4.9384,6.9439],[4.9519,6.9326],[4.9541,6.9282],[4.9586,6.9214],[4.9699,6.9102],[4.9811,6.9035],[4.9878,6.899],[4.9901,6.9012],[4.9991,6.9371],[5.0058,6.9663],[5.0058,6.9798],[5.0058,6.991],[5.0058,7.0],[5.0013,7.0112],[4.9946,7.0337],[4.9946,7.0404],[4.9923,7.0562],[4.9923,7.0629],[4.9923,7.0786],[4.9923,7.0854],[4.9946,7.0899],[5.008,7.1123],[5.0238,7.137],[5.0305,7.146],[5.035,7.1572],[5.0372,7.1752],[5.0372,7.1864],[5.0372,7.1909],[5.035,7.2044],[5.035,7.2179],[5.0327,7.2313],[5.0305,7.2268],[5.0215,7.2134],[5.0148,7.2066],[5.0125,7.2044],[5.008,7.2021],[4.9811,7.1932],[4.9676,7.1909],[4.9474,7.1887],[4.9384,7.1887],[4.9249,7.1887],[4.9182,7.1864],[4.9002,7.1864],[4.8935,7.1887],[4.8845,7.1887],[4.8733,7.1864],[4.8666,7.1864],[4.8621,7.1842],[4.8576,7.1842],[4.8621,7.1819],[4.8621,7.1729],[4.8598,7.1505],[4.8576,7.146],[4.8553,7.1437],[4.8508,7.137],[4.8486,7.1325],[4.8441,7.1303],[4.8418,7.1258],[4.8418,7.1235],[4.8463,7.119]]]}},{"type":"Feature","properties":{"id":"ondo/ondo-west","name":"Ondo West","state":"Ondo"},"geometry":{"type":"Polygon","coordinates":[[[4.5566,6.8473],[4.5746,6.854],[4.5948,6.8585],[4.6038,6.8585],[4.6083,6.8608],[4.615,6.863],[4.6218,6.8653],[4.633,6.8698],[4.6442,6.8675],[4.6555,6.8675],[4.6644,6.8675],[4.6846,6.8698],[4.6869,6.8698],[4.6959,6.8743],[4.7026,6.8765],[4.7116,6.8832],[4.7206,6.8877],[4.743,6.899],[4.752,6.9012],[4.7677,6.9079],[4.779,6.9124],[4.7947,6.9192],[4.8127,6.9282],[4.8239,6.9349],[4.8306,6.9416],[4.8374,6.9439],[4.8531,6.9484],[4.8576,6.9506],[4.8688,6.9551],[4.8778,6.9574],[4.8913,6.9596],[4.9025,6.9596],[4.9115,6.9574],[4.9137,6.9574],[4.916,6.9663],[4.916,6.9731],[4.916,6.991],[4.9182,6.9978],[4.9205,7.0068],[4.9294,7.0382],[4.9317,7.0562],[4.9339,7.0764],[4.9339,7.0809],[4.9272,7.0876],[4.9205,7.0921],[4.898,7.1011],[4.8913,7.1011],[4.88,7.1033],[4.8733,7.1078],[4.8643,7.1123],[4.8576,7.1146],[4.8531,7.1168],[4.8508,7.1168],[4.8463,7.119],[4.8418,7.1235],[4.8418,7.1258],[4.8441,7.1303],[4.8486,7.1325],[4.8508,7.137],[4.8553,7.1437],[4.8576,7.146],[4.8598,7.1505],[4.8621,7.1729],[4.8621,7.1819],[4.8576,7.1842],[4.8508,7.1864],[4.8396,7.1932],[4.8329,7.2021],[4.8284,7.2066],[4.8216,7.2134],[4.8127,7.2179],[4.7947,7.2179],[4.7857,7.2156],[4.7812,7.2156],[4.77,7.2066],[4.7655,7.2044],[4.7632,7.1999],[4.761,7.1954],[4.7565,7.1864],[4.7543,7.1797],[4.7588,7.164],[4.761,7.1505],[4.761,7.1393],[4.761,7.1348],[4.7588,7.128],[4.7543,7.1258],[4.743,7.1213],[4.7296,7.1168],[4.7206,7.1146],[4.7116,7.1146],[4.7049,7.1123],[4.6891,7.1078],[4.6802,7.1033],[4.6712,7.0988],[4.6667,7.0943],[4.6622,7.0921],[4.6555,7.0876],[4.651,7.0876],[4.642,7.0876],[4.6352,7.0876],[4.6307,7.0876],[4.6218,7.0854],[4.6173,7.0854],[4.615,7.0809],[4.615,7.0741],[4.6128,7.0584],[4.6128,7.0449],[4.6105,7.0382],[4.6105,7.036],[4.6105,7.0315],[4.606,7.027],[4.6016,7.0247],[4.5903,7.0157],[4.5858,7.0135],[4.5724,7.0045],[4.5679,7.0023],[4.5634,6.9955],[4.5611,6.9888],[4.5589,6.9776],[4.5566,6.9596],[4.5566,6.9529],[4.5566,6.9416],[4.5566,6.9371],[4.5566,6.9237],[4.5566,6.9035],[4.5566,6.8967],[4.5566,6.8922],[4.5566,6.89],[4.5544,6.8832],[4.5521,6.8743],[4.5499,6.8608],[4.5499,6.8496],[4.5477,6.8451],[4.5566,6.8473]]]}},{"type":"Feature","properties":{"id":"ondo/ose","name":"Ose","state":"Ondo"},"geometry":{"type":"Polygon","coordinates":[[[5.5448,6.8046],[5.5493,6.7979],[5.556,6.7867],[5.5605,6.7777],[5.5605,6.7732],[5.5627,6.762],[5.5605,6.753],[5.5627,6.7305],[5.565,6.7215],[5.574,6.7058],[5.5762,6.7036],[5.5829,6.7036],[5.5852,6.7103],[5.5897,6.7148],[5.5964,6.7215],[5.6054,6.7283],[5.6189,6.7418],[5.6301,6.7463],[5.6368,6.7463],[5.6413,6.7463],[5.6503,6.7395],[5.6548,6.735],[5.6593,6.7305],[5.6683,6.7283],[5.702,6.735],[5.711,6.753],[5.7154,6.7575],[5.7199,6.762],[5.7267,6.7687],[5.7424,6.7777],[5.7514,6.7822],[5.7581,6.7844],[5.7671,6.7912],[5.7716,6.7957],[5.7783,6.8181],[5.7761,6.8226],[5.7738,6.8316],[5.7716,6.8338],[5.7693,6.8406],[5.7716,6.8473],[5.7738,6.854],[5.7783,6.8585],[5.7851,6.8698],[5.7873,6.8787],[5.7873,6.8945],[5.7896,6.9012],[5.794,6.9057],[5.7985,6.9147],[5.7985,6.9192],[5.8008,6.9214],[5.7985,6.9282],[5.7985,6.9326],[5.794,6.9439],[5.7896,6.9618],[5.7851,6.9686],[5.7896,6.9888],[5.794,7.0045],[5.794,7.0157],[5.7963,7.0247],[5.803,7.0449],[5.8053,7.0494],[5.8098,7.0517],[5.812,7.0584],[5.8143,7.0674],[5.8165,7.0719],[5.8232,7.0809],[5.83,7.0809],[5.8345,7.0854],[5.8502,7.0921],[5.8524,7.0943],[5.8547,7.0966],[5.8524,7.0988],[5.8502,7.1033],[5.8479,7.1056],[5.8457,7.1078],[5.8435,7.1101],[5.8412,7.1168],[5.8435,7.119],[5.8435,7.1213],[5.8457,7.1213],[5.8547,7.1235],[5.8614,7.1258],[5.8637,7.128],[5.8659,7.1325],[5.8659,7.137],[5.8682,7.1415],[5.8727,7.1617],[5.8771,7.1707],[5.8794,7.1729],[5.8816,7.1752],[5.8861,7.1797],[5.8906,7.1819],[5.8929,7.1819],[5.8929,7.1864],[5.8906,7.1887],[5.8839,7.1932],[5.8839,7.1999],[5.8884,7.2044],[5.8951,7.2111],[5.8996,7.2134],[5.9041,7.2179],[5.9041,7.2201],[5.9018,7.2246],[5.8974,7.2313],[5.8974,7.2493],[5.8996,7.2605],[5.9063,7.2718],[5.9086,7.2785],[5.9131,7.2807],[5.9221,7.292],[5.9243,7.2965],[5.9243,7.2987],[5.9243,7.3032],[5.9221,7.3054],[5.9176,7.3122],[5.9176,7.3167],[5.9153,7.3189],[5.9176,7.3346],[5.9198,7.3369],[5.9265,7.3391],[5.9378,7.3414],[5.9445,7.3436],[5.9513,7.3436],[5.9423,7.3459],[5.9221,7.3504],[5.9108,7.3549],[5.8996,7.3616],[5.8929,7.3683],[5.8861,7.3751],[5.8816,7.384],[5.8749,7.3885],[5.8659,7.3908],[5.8569,7.393],[5.8479,7.3953],[5.839,7.3953],[5.8322,7.393],[5.821,7.3863],[5.8075,7.3728],[5.7985,7.3616],[5.794,7.3571],[5.7873,7.3526],[5.7738,7.3459],[5.7649,7.3459],[5.7559,7.3414],[5.7536,7.3369],[5.7469,7.3324],[5.7402,7.3279],[5.7334,7.3257],[5.7289,7.3234],[5.7222,7.3212],[5.7154,7.3144],[5.7087,7.3099],[5.7042,7.3054],[5.6975,7.3032],[5.6907,7.301],[5.6773,7.301],[5.6705,7.301],[5.6705,7.2965],[5.6705,7.292],[5.675,7.2785],[5.684,7.2673],[5.6885,7.256],[5.6975,7.2381],[5.702,7.2313],[5.711,7.2246],[5.7154,7.2201],[5.7177,7.2156],[5.7177,7.2089],[5.7177,7.2066],[5.7267,7.1932],[5.7334,7.1887],[5.7402,7.1887],[5.7469,7.1864],[5.7581,7.1819],[5.7604,7.1797],[5.7604,7.1707],[5.7581,7.1662],[5.7559,7.164],[5.7424,7.1572],[5.7379,7.155],[5.7357,7.1527],[5.7289,7.1482],[5.7154,7.1415],[5.7087,7.137],[5.7042,7.137],[5.693,7.1303],[5.6885,7.1258],[5.6885,7.119],[5.6907,7.1146],[5.693,7.1101],[5.6975,7.1056],[5.6997,7.0966],[5.6997,7.0899],[5.693,7.0831],[5.6863,7.0809],[5.6773,7.0809],[5.675,7.0809],[5.6616,7.0786],[5.6571,7.0786],[5.6526,7.0764],[5.6481,7.0719],[5.6436,7.0651],[5.6413,7.0607],[5.6413,7.0562],[5.6391,7.0404],[5.6368,7.0225],[5.6368,7.0135],[5.6324,7.009],[5.6279,7.0068],[5.6234,7.0023],[5.6166,7.0],[5.6121,6.9978],[5.6054,6.9978],[5.5919,6.9955],[5.5874,6.991],[5.5852,6.9865],[5.5807,6.9753],[5.5785,6.9708],[5.5785,6.9596],[5.5785,6.9551],[5.5785,6.9484],[5.5785,6.9349],[5.5762,6.9214],[5.5762,6.9012],[5.5717,6.8877],[5.5672,6.8832],[5.565,6.8765],[5.5695,6.8698],[5.5717,6.854],[5.5717,6.8451],[5.5672,6.8406],[5.5627,6.8383],[5.5582,6.8361],[5.5538,6.8361],[5.5493,6.8338],[5.547,6.8293],[5.5425,6.8249],[5.5425,6.8159],[5.5425,6.8136],[5.5448,6.8046]]]}},{"type":"Feature","properties":{"id":"ondo/owo","name":"Owo","state":"Ondo"},"geometry":{"type":"Polygon","coordinates":[[[5.3921,7.2807],[5.401,7.2695],[5.4078,7.2628],[5.41,7.2628],[5.419,7.2493],[5.419,7.2268],[5.4213,7.2156],[5.4235,7.2089],[5.4235,7.2044],[5.4235,7.1999],[5.4213,7.1932],[5.419,7.1887],[5.419,7.1797],[5.419,7.1707],[5.419,7.1685],[5.4235,7.1505],[5.4257,7.1393],[5.4257,7.128],[5.428,7.1213],[5.4325,7.1168],[5.4392,7.1168],[5.446,7.1168],[5.4572,7.119],[5.4662,7.1168],[5.4774,7.1146],[5.4864,7.1101],[5.4909,7.1056],[5.4909,7.1011],[5.4864,7.0921],[5.4819,7.0876],[5.4796,7.0854],[5.4752,7.0831],[5.4662,7.0764],[5.4594,7.0741],[5.4549,7.0719],[5.4527,7.0696],[5.4504,7.0651],[5.4527,7.0629],[5.4549,7.0607],[5.4594,7.0584],[5.4639,7.0562],[5.4707,7.0539],[5.4752,7.0517],[5.4774,7.0449],[5.4774,7.0404],[5.4774,7.036],[5.4752,7.0315],[5.4774,7.0157],[5.4819,7.0135],[5.4864,7.0],[5.4886,6.9933],[5.4931,6.9888],[5.4999,6.9798],[5.5066,6.9731],[5.5088,6.9663],[5.5178,6.9484],[5.5246,6.9349],[5.5291,6.9259],[5.5335,6.9169],[5.5358,6.9035],[5.5358,6.89],[5.538,6.8855],[5.556,6.8832],[5.5627,6.8787],[5.565,6.8765],[5.5672,6.8832],[5.5717,6.8877],[5.5762,6.9012],[5.5762,6.9214],[5.5785,6.9349],[5.5785,6.9484],[5.5785,6.9551],[5.5785,6.9596],[5.5785,6.9708],[5.5807,6.9753],[5.5852,6.9865],[5.5874,6.991],[5.5919,6.9955],[5.6054,6.9978],[5.6121,6.9978],[5.6166,7.0],[5.6234,7.0023],[5.6279,7.0068],[5.6324,7.009],[5.6368,7.0135],[5.6368,7.0225],[5.6391,7.0404],[5.6413,7.0562],[5.6413,7.0607],[5.6436,7.0651],[5.6481,7.0719],[5.6526,7.0764],[5.6571,7.0786],[5.6616,7.0786],[5.675,7.0809],[5.6773,7.0809],[5.6863,7.0809],[5.693,7.0831],[5.6997,7.0899],[5.6997,7.0966],[5.6975,7.1056],[5.693,7.1101],[5.6907,7.1146],[5.6885,7.119],[5.6885,7.1258],[5.693,7.1303],[5.7042,7.137],[5.7087,7.137],[5.7154,7.1415],[5.7289,7.1482],[5.7357,7.1527],[5.7379,7.155],[5.7424,7.1572],[5.7559,7.164],[5.7581,7.1662],[5.7604,7.1707],[5.7604,7.1797],[5.7581,7.1819],[5.7469,7.1864],[5.7402,7.1887],[5.7334,7.1887],[5.7267,7.1932],[5.7177,7.2066],[5.7177,7.2089],[5.7177,7.2156],[5.7154,7.2201],[5.711,7.2246],[5.702,7.2313],[5.6975,7.2381],[5.6885,7.256],[5.684,7.2673],[5.675,7.2785],[5.6705,7.292],[5.6705,7.2965],[5.6705,7.301],[5.6683,7.301],[5.666,7.3032],[5.6548,7.3054],[5.6481,7.3077],[5.6391,7.3099],[5.6189,7.3099],[5.6077,7.3099],[5.5897,7.3099],[5.5785,7.3099],[5.5672,7.3122],[5.5493,7.3144],[5.538,7.3144],[5.5246,7.3144],[5.5111,7.3144],[5.5043,7.3167],[5.4954,7.3122],[5.4909,7.3099],[5.4819,7.3054],[5.4729,7.301],[5.4662,7.301],[5.4594,7.301],[5.4549,7.301],[5.4504,7.2987],[5.4257,7.2942],[5.4168,7.292],[5.4123,7.2897],[5.4055,7.2897],[5.3988,7.2875],[5.3876,7.283],[5.3921,7.2807]]]}}]}