{"type":"FeatureCollection","features":[{"type":"Feature","properties":{"id":"osun/aiyedire","name":"Aiyedire","state":"Osun"},"geometry":{"type":"Polygon","coordinates":[[[4.1479,7.5704],[4.1546,7.5682],[4.1546,7.566],[4.1524,7.557],[4.1524,7.548],[4.1546,7.539],[4.1569,7.5345],[4.1636,7.5143],[4.1659,7.5053],[4.1704,7.5098],[4.1816,7.5143],[4.1883,7.5165],[4.1973,7.5121],[4.2041,7.5076],[4.213,7.4986],[4.2243,7.4873],[4.2288,7.4784],[4.231,7.4694],[4.2332,7.4649],[4.2377,7.4649],[4.24,7.4671],[4.2445,7.4694],[4.249,7.4716],[4.2512,7.4716],[4.2557,7.4761],[4.2624,7.4829],[4.2669,7.4896],[4.2669,7.4941],[4.2692,7.5031],[4.2714,7.5053],[4.2759,7.5076],[4.2804,7.5121],[4.2871,7.5188],[4.2894,7.5233],[4.2894,7.53],[4.2871,7.5368],[4.2827,7.5412],[4.2827,7.548],[4.2871,7.5704],[4.2939,7.5817],[4.3051,7.5974],[4.3163,7.6109],[4.3343,7.6311],[4.3433,7.6356],[4.35,7.6401],[4.3523,7.6423],[4.35,7.6535],[4.3478,7.6558],[4.341,7.6603],[4.3366,7.6625],[4.3298,7.667],[4.3253,7.6715],[4.3231,7.6737],[4.3208,7.6782],[4.3186,7.676],[4.3119,7.6715],[4.3006,7.6715],[4.2737,7.6603],[4.2647,7.658],[4.2557,7.6535],[4.2512,7.6535],[4.249,7.6468],[4.2108,7.6243],[4.1861,7.6131],[4.1636,7.6019],[4.1502,7.5907],[4.1434,7.5817],[4.1434,7.5794],[4.1479,7.5704]]]}},{"type":"Feature","properties":{"id":"osun/atakumosa-east","name":"Atakumosa East","state":"Osun"},"geometry":{"type":"Polygon","coordinates":[[[4.7296,7.4784],[4.7318,7.4694],[4.7318,7.4604],[4.7318,7.4447],[4.7318,7.4267],[4.7341,7.4132],[4.7408,7.3975],[4.7475,7.3818],[4.7543,7.3661],[4.761,7.3526],[4.7632,7.3391],[4.7632,7.3257],[4.7655,7.3234],[4.7677,7.3279],[4.7677,7.3369],[4.7677,7.3436],[4.77,7.3481],[4.7722,7.3504],[4.779,7.3571],[4.788,7.3616],[4.7969,7.3638],[4.8014,7.3683],[4.8059,7.3706],[4.8149,7.3728],[4.8216,7.3728],[4.8351,7.3751],[4.8329,7.3796],[4.8306,7.3908],[4.8306,7.402],[4.8329,7.4177],[4.8374,7.4447],[4.8441,7.4694],[4.8463,7.4918],[4.8441,7.5076],[4.8374,7.5233],[4.8284,7.539],[4.8261,7.5502],[4.8171,7.5682],[4.8104,7.5839],[4.8082,7.5907],[4.779,7.5794],[4.7812,7.5749],[4.7812,7.5682],[4.779,7.5592],[4.7745,7.5457],[4.7677,7.5323],[4.761,7.5233],[4.7475,7.5165],[4.7341,7.5098],[4.7251,7.5008],[4.7251,7.4918],[4.7296,7.4784]]]}},{"type":"Feature","properties":{"id":"osun/atakumosa-west","name":"Atakumosa West","state":"Osun"},"geometry":{"type":"Polygon","coordinates":[[[4.5319,7.6176],[4.5387,7.6154],[4.5477,7.6086],[4.5566,7.5974],[4.5589,7.5929],[4.5724,7.5637],[4.5769,7.548],[4.5813,7.539],[4.5836,7.5368],[4.5903,7.5323],[4.5971,7.5323],[4.606,7.53],[4.6218,7.5233],[4.6263,7.521],[4.6307,7.5076],[4.6307,7.4986],[4.6307,7.4918],[4.6307,7.4829],[4.6397,7.4671],[4.6442,7.4626],[4.651,7.4582],[4.6555,7.4514],[4.6599,7.4469],[4.6622,7.4379],[4.6667,7.4222],[4.6667,7.4177],[4.6689,7.4132],[4.6779,7.4065],[4.6824,7.3998],[4.6914,7.3796],[4.6959,7.3661],[4.6959,7.3549],[4.6936,7.3414],[4.6914,7.3301],[4.6891,7.3144],[4.6869,7.2987],[4.6846,7.2875],[4.6891,7.2762],[4.6914,7.2695],[4.7026,7.2605],[4.7161,7.2515],[4.7296,7.2493],[4.7363,7.2448],[4.7475,7.2336],[4.7498,7.2313],[4.7498,7.2381],[4.752,7.2515],[4.7543,7.256],[4.7565,7.2605],[4.7565,7.265],[4.7588,7.2762],[4.7588,7.283],[4.7588,7.2875],[4.7565,7.3032],[4.761,7.3077],[4.7655,7.3212],[4.7655,7.3234],[4.7632,7.3257],[4.7632,7.3391],[4.761,7.3526],[4.7543,7.3661],[4.7475,7.3818],[4.7408,7.3975],[4.7341,7.4132],[4.7318,7.4267],[4.7318,7.4447],[4.7318,7.4604],[4.7318,7.4694],[4.7296,7.4784],[4.7251,7.4918],[4.7251,7.5008],[4.7341,7.5098],[4.7475,7.5165],[4.761,7.5233],[4.7677,7.5323],[4.7745,7.5457],[4.779,7.5592],[4.7812,7.5682],[4.7812,7.5749],[4.779,7.5794],[4.7677,7.5772],[4.752,7.5704],[4.743,7.566],[4.7363,7.5615],[4.7296,7.5592],[4.7228,7.5592],[4.7183,7.566],[4.7116,7.5817],[4.7049,7.5951],[4.7026,7.5996],[4.7004,7.6019],[4.6981,7.6109],[4.6936,7.6154],[4.6914,7.6198],[4.6757,7.6356],[4.6644,7.6446],[4.6599,7.6513],[4.6599,7.6558],[4.6599,7.6625],[4.6622,7.6693],[4.6644,7.6715],[4.6644,7.6737],[4.6622,7.6782],[4.6577,7.685],[4.6532,7.6917],[4.6487,7.694],[4.6442,7.7007],[4.6397,7.7097],[4.6307,7.7187],[4.624,7.7276],[4.6128,7.7321],[4.606,7.7366],[4.5993,7.7411],[4.5971,7.7366],[4.5926,7.7344],[4.5858,7.7321],[4.5813,7.7299],[4.5724,7.7276],[4.5701,7.7254],[4.5679,7.7209],[4.5656,7.7142],[4.5679,7.6962],[4.5679,7.6917],[4.5724,7.676],[4.5724,7.6715],[4.5701,7.6558],[4.5701,7.6513],[4.5634,7.6468],[4.5611,7.6446],[4.5566,7.6423],[4.5454,7.6378],[4.5364,7.6288],[4.5319,7.6243],[4.5297,7.6198],[4.5274,7.6176],[4.5319,7.6176]]]}},{"type":"Feature","properties":{"id":"osun/ayedaade","name":"Ayedaade","state":"Osun"},"geometry":{"type":"Polygon","coordinates":[[[4.0738,7.1348],[4.076,7.1348],[4.0783,7.1393],[4.0805,7.1393],[4.085,7.1393],[4.0873,7.137],[4.0873,7.1325],[4.0963,7.137],[4.1165,7.146],[4.1389,7.1572],[4.1569,7.164],[4.1614,7.1707],[4.1681,7.1752],[4.1704,7.1707],[4.1726,7.1617],[4.1726,7.1572],[4.1771,7.1348],[4.1838,7.1123],[4.1861,7.0854],[4.1906,7.0696],[4.1951,7.0539],[4.1973,7.0494],[4.2018,7.0472],[4.2041,7.0449],[4.2063,7.0449],[4.2108,7.0449],[4.213,7.0449],[4.2198,7.0472],[4.2332,7.0584],[4.2355,7.0607],[4.2445,7.0674],[4.2467,7.0719],[4.2512,7.0741],[4.2557,7.0786],[4.2624,7.0831],[4.2692,7.0876],[4.2759,7.0899],[4.2849,7.0921],[4.2871,7.0921],[4.2984,7.0899],[4.3119,7.0831],[4.3163,7.0809],[4.3343,7.0719],[4.341,7.0674],[4.3478,7.0674],[4.3523,7.0651],[4.3568,7.0629],[4.3657,7.0607],[4.3635,7.0651],[4.359,7.0719],[4.3545,7.0831],[4.3568,7.0899],[4.3613,7.0988],[4.368,7.1078],[4.3725,7.1123],[4.3837,7.1325],[4.3927,7.1527],[4.3972,7.1707],[4.3949,7.1842],[4.3927,7.1954],[4.3905,7.2089],[4.3882,7.2156],[4.386,7.2246],[4.3837,7.2291],[4.3882,7.2538],[4.3905,7.2583],[4.3972,7.2583],[4.4017,7.2605],[4.4062,7.265],[4.4039,7.2718],[4.4017,7.283],[4.3994,7.292],[4.3994,7.3032],[4.3994,7.3144],[4.3949,7.3324],[4.3949,7.3369],[4.3994,7.3414],[4.4062,7.3459],[4.4107,7.3549],[4.4107,7.3616],[4.4084,7.3706],[4.4017,7.3796],[4.3949,7.3818],[4.3882,7.3818],[4.3815,7.3863],[4.3792,7.3885],[4.377,7.3975],[4.3747,7.4087],[4.3747,7.42],[4.3815,7.4379],[4.386,7.4447],[4.3905,7.4492],[4.3927,7.4559],[4.3927,7.4649],[4.3882,7.4694],[4.3837,7.4716],[4.3815,7.4761],[4.3837,7.4851],[4.3927,7.5098],[4.3972,7.521],[4.4039,7.53],[4.4129,7.5345],[4.4264,7.5412],[4.4354,7.5502],[4.4466,7.5592],[4.4691,7.5682],[4.4758,7.5682],[4.4825,7.5682],[4.4893,7.5704],[4.496,7.5772],[4.5027,7.5839],[4.5072,7.5884],[4.514,7.5929],[4.523,7.6041],[4.5274,7.6154],[4.5274,7.6176],[4.523,7.6176],[4.5072,7.6198],[4.4982,7.6198],[4.4848,7.6154],[4.4735,7.6131],[4.4533,7.6154],[4.4354,7.6131],[4.4174,7.6109],[4.4017,7.6064],[4.3905,7.6041],[4.3747,7.6064],[4.368,7.6109],[4.3613,7.6243],[4.3545,7.6378],[4.3523,7.6423],[4.35,7.6401],[4.3433,7.6356],[4.3343,7.6311],[4.3163,7.6109],[4.3051,7.5974],[4.2939,7.5817],[4.2871,7.5704],[4.2827,7.548],[4.2827,7.5412],[4.2871,7.5368],[4.2894,7.53],[4.2894,7.5233],[4.2871,7.5188],[4.2804,7.5121],[4.2759,7.5076],[4.2714,7.5053],[4.2692,7.5031],[4.2669,7.4941],[4.2669,7.4896],[4.2624,7.4829],[4.2557,7.4761],[4.2512,7.4716],[4.2557,7.4716],[4.2647,7.4694],[4.2827,7.4649],[4.2894,7.4582],[4.2961,7.4537],[4.2961,7.4469],[4.2961,7.4379],[4.2984,7.429],[4.2984,7.42],[4.3006,7.4065],[4.3051,7.3975],[4.3119,7.3908],[4.3253,7.3706],[4.3321,7.3549],[4.3321,7.3526],[4.3321,7.3504],[4.3253,7.3459],[4.3141,7.3436],[4.3006,7.3414],[4.2961,7.3391],[4.2916,7.3391],[4.2849,7.3391],[4.2782,7.3346],[4.2827,7.3301],[4.2804,7.3189],[4.2759,7.3077],[4.2669,7.2897],[4.2602,7.283],[4.2535,7.274],[4.2467,7.2673],[4.2377,7.2628],[4.2265,7.2628],[4.2063,7.2628],[4.1838,7.2605],[4.1749,7.256],[4.1614,7.2493],[4.1502,7.2403],[4.1389,7.2336],[4.1299,7.2291],[4.121,7.2246],[4.1052,7.2224],[4.0963,7.2224],[4.0918,7.2224],[4.0895,7.2179],[4.0873,7.2111],[4.0805,7.1999],[4.0805,7.1954],[4.0783,7.1909],[4.0783,7.1864],[4.0783,7.1819],[4.0783,7.1774],[4.0738,7.1707],[4.0716,7.1685],[4.0716,7.1617],[4.076,7.1595],[4.0805,7.1572],[4.0828,7.155],[4.085,7.1505],[4.0828,7.1482],[4.0805,7.1505],[4.076,7.1505],[4.0716,7.146],[4.0716,7.1415],[4.0716,7.1393],[4.0738,7.1348]]]}},{"type":"Feature","properties":{"id":"osun/boluwaduro","name":"Boluwaduro","state":"Osun"},"geometry":{"type":"Polygon","coordinates":[[[4.7228,7.9343],[4.7318,7.9185],[4.743,7.9051],[4.7565,7.8983],[4.779,7.8826],[4.7835,7.8804],[4.7857,7.8759],[4.7924,7.8669],[4.7992,7.8646],[4.8082,7.8646],[4.8149,7.8691],[4.8306,7.8759],[4.8329,7.8759],[4.8374,7.8804],[4.8441,7.8826],[4.8598,7.8916],[4.8688,7.8961],[4.871,7.9006],[4.8666,7.9073],[4.8621,7.9185],[4.8598,7.9298],[4.8531,7.9432],[4.8463,7.9567],[4.8374,7.9724],[4.8306,7.9814],[4.8261,7.9926],[4.8239,8.0039],[4.8216,8.0106],[4.8104,8.0196],[4.7969,8.0286],[4.7924,8.0286],[4.7924,8.0241],[4.7947,8.0129],[4.7947,8.0061],[4.7924,7.9971],[4.7857,7.9769],[4.7767,7.9657],[4.7722,7.95],[4.7632,7.9387],[4.752,7.9365],[4.743,7.941],[4.743,7.9432],[4.7385,7.9477],[4.7273,7.9545],[4.7228,7.959],[4.7206,7.9545],[4.7206,7.9455],[4.7228,7.9343]]]}},{"type":"Feature","properties":{"id":"osun/boripe","name":"Boripe","state":"Osun"},"geometry":{"type":"Polygon","coordinates":[[[4.5993,7.8152],[4.5993,7.8062],[4.5993,7.8018],[4.6016,7.7973],[4.606,7.7838],[4.6083,7.7748],[4.6083,7.7636],[4.6105,7.7636],[4.615,7.7681],[4.6218,7.7703],[4.633,7.7748],[4.6375,7.7748],[4.6397,7.7726],[4.6532,7.7771],[4.6555,7.7771],[4.6644,7.7905],[4.6689,7.8062],[4.6757,7.831],[4.6779,7.8489],[4.6846,7.8646],[4.6936,7.8736],[4.7049,7.8781],[4.7206,7.8804],[4.7296,7.8826],[4.7363,7.8804],[4.7745,7.8781],[4.7835,7.8804],[4.779,7.8826],[4.7565,7.8983],[4.743,7.9051],[4.7318,7.9185],[4.7228,7.9343],[4.7206,7.9455],[4.7206,7.9545],[4.7228,7.959],[4.7183,7.9545],[4.7138,7.9522],[4.7049,7.941],[4.6936,7.932],[4.6891,7.9275],[4.6779,7.923],[4.6689,7.9073],[4.6712,7.9028],[4.6712,7.8938],[4.6689,7.8893],[4.6577,7.8781],[4.651,7.8714],[4.6397,7.8624],[4.6375,7.8624],[4.6285,7.8579],[4.6195,7.8489],[4.6105,7.8422],[4.606,7.8399],[4.6038,7.8377],[4.5993,7.8354],[4.5971,7.8287],[4.5971,7.822],[4.5993,7.8152]]]}},{"type":"Feature","properties":{"id":"osun/ede-north","name":"Ede North","state":"Osun"},"geometry":{"type":"Polygon","coordinates":[[[4.386,7.6917],[4.4017,7.6985],[4.4152,7.7029],[4.4286,7.7074],[4.4421,7.7119],[4.4758,7.7097],[4.4915,7.7097],[4.5117,7.7029],[4.5319,7.7007],[4.5589,7.6962],[4.5634,7.6962],[4.5679,7.6962],[4.5656,7.7142],[4.5611,7.7142],[4.5589,7.7164],[4.5544,7.7209],[4.5521,7.7254],[4.5521,7.7411],[4.5499,7.7501],[4.5477,7.7546],[4.5409,7.7613],[4.5387,7.7681],[4.5342,7.7726],[4.5342,7.7748],[4.5297,7.7726],[4.5207,7.7681],[4.5117,7.7658],[4.4893,7.7546],[4.478,7.7523],[4.4713,7.7523],[4.4623,7.7546],[4.4376,7.7613],[4.4264,7.7591],[4.4196,7.7568],[4.4084,7.7479],[4.3994,7.7389],[4.3927,7.7299],[4.3882,7.7209],[4.3837,7.7119],[4.3792,7.7029],[4.377,7.6962],[4.377,7.6917],[4.386,7.6917]]]}},{"type":"Feature","properties":{"id":"osun/ede-south","name":"Ede South","state":"Osun"},"geometry":{"type":"Polygon","coordinates":[[[4.3523,7.6423],[4.3545,7.6378],[4.3613,7.6243],[4.368,7.6109],[4.3747,7.6064],[4.3905,7.6041],[4.4017,7.6064],[4.4174,7.6109],[4.4354,7.6131],[4.4533,7.6154],[4.4735,7.6131],[4.4848,7.6154],[4.4982,7.6198],[4.5072,7.6198],[4.523,7.6176],[4.5274,7.6176],[4.5297,7.6198],[4.5319,7.6243],[4.5364,7.6288],[4.5454,7.6378],[4.5566,7.6423],[4.5611,7.6446],[4.5634,7.6468],[4.5701,7.6513],[4.5701,7.6558],[4.5724,7.6715],[4.5724,7.676],[4.5679,7.6917],[4.5679,7.6962],[4.5634,7.6962],[4.5589,7.6962],[4.5319,7.7007],[4.5117,7.7029],[4.4915,7.7097],[4.4758,7.7097],[4.4421,7.7119],[4.4286,7.7074],[4.4152,7.7029],[4.4017,7.6985],[4.386,7.6917],[4.377,7.6917],[4.3747,7.6917],[4.3702,7.6917],[4.3657,7.6872],[4.3568,7.6782],[4.3613,7.6693],[4.3613,7.667],[4.359,7.6625],[4.3545,7.6558],[4.35,7.6535],[4.3523,7.6423]]]}},{"type":"Feature","properties":{"id":"osun/egbedore","name":"Egbedore","state":"Osun"},"geometry":{"type":"Polygon","coordinates":[[[4.3321,7.7299],[4.3366,7.7187],[4.341,7.7119],[4.3433,7.7052],[4.3478,7.6985],[4.35,7.6895],[4.3568,7.6782],[4.3657,7.6872],[4.3702,7.6917],[4.3747,7.6917],[4.377,7.6917],[4.377,7.6962],[4.3792,7.7029],[4.3837,7.7119],[4.3882,7.7209],[4.3927,7.7299],[4.3994,7.7389],[4.4084,7.7479],[4.4196,7.7568],[4.4264,7.7591],[4.4376,7.7613],[4.4623,7.7546],[4.4713,7.7523],[4.478,7.7523],[4.4893,7.7546],[4.5117,7.7658],[4.5207,7.7681],[4.5297,7.7726],[4.5342,7.7748],[4.5297,7.7793],[4.5252,7.786],[4.5252,7.7928],[4.5252,7.8018],[4.5252,7.8062],[4.5252,7.8085],[4.5297,7.813],[4.5364,7.8152],[4.5477,7.822],[4.5544,7.8287],[4.5589,7.8354],[4.5611,7.8422],[4.5611,7.8489],[4.5589,7.8646],[4.5544,7.8826],[4.5499,7.8871],[4.5499,7.8826],[4.5454,7.8759],[4.5387,7.8624],[4.5297,7.8557],[4.523,7.8512],[4.5072,7.8422],[4.5005,7.8399],[4.4938,7.8287],[4.487,7.8175],[4.4848,7.8152],[4.4825,7.8107],[4.4758,7.8062],[4.4735,7.8062],[4.4668,7.813],[4.4623,7.8175],[4.4601,7.8242],[4.4623,7.8287],[4.4646,7.8354],[4.4646,7.8422],[4.4578,7.8467],[4.4466,7.8512],[4.4421,7.8557],[4.4376,7.8579],[4.4241,7.8781],[4.4219,7.8893],[4.4174,7.8893],[4.4152,7.8938],[4.4084,7.8983],[4.4017,7.8983],[4.3972,7.8961],[4.3949,7.8916],[4.3949,7.8848],[4.386,7.8691],[4.3815,7.8601],[4.377,7.8534],[4.3747,7.8512],[4.3702,7.8489],[4.368,7.8489],[4.3635,7.8467],[4.359,7.8422],[4.3568,7.831],[4.359,7.8175],[4.359,7.8062],[4.3545,7.7973],[4.3523,7.7928],[4.3478,7.7883],[4.341,7.7793],[4.3366,7.7703],[4.3298,7.7546],[4.3276,7.7434],[4.3321,7.7299]]]}},{"type":"Feature","properties":{"id":"osun/ejigbo","name":"Ejigbo","state":"Osun"},"geometry":{"type":"Polygon","coordinates":[[[4.0828,7.8107],[4.103,7.813],[4.1232,7.8152],[4.1389,7.8175],[4.1479,7.8197],[4.1591,7.8287],[4.1659,7.8354],[4.1771,7.8377],[4.2085,7.8399],[4.222,7.8399],[4.24,7.831],[4.258,7.8152],[4.2647,7.8062],[4.2692,7.7995],[4.2804,7.786],[4.2871,7.7793],[4.2939,7.7771],[4.2984,7.7703],[4.3006,7.7636],[4.2961,7.7568],[4.2939,7.7501],[4.2961,7.7411],[4.3006,7.7209],[4.3029,7.7164],[4.3096,7.7097],[4.3119,7.694],[4.3163,7.685],[4.3208,7.6782],[4.3231,7.6737],[4.3253,7.6715],[4.3298,7.667],[4.3366,7.6625],[4.341,7.6603],[4.3478,7.6558],[4.35,7.6535],[4.3545,7.6558],[4.359,7.6625],[4.3613,7.667],[4.3613,7.6693],[4.3568,7.6782],[4.35,7.6895],[4.3478,7.6985],[4.3433,7.7052],[4.341,7.7119],[4.3366,7.7187],[4.3321,7.7299],[4.3276,7.7434],[4.3298,7.7546],[4.3366,7.7703],[4.341,7.7793],[4.3478,7.7883],[4.3523,7.7928],[4.3545,7.7973],[4.359,7.8062],[4.359,7.8175],[4.3568,7.831],[4.359,7.8422],[4.3635,7.8467],[4.368,7.8489],[4.3657,7.8512],[4.3657,7.8579],[4.3635,7.8714],[4.3613,7.8826],[4.3523,7.8961],[4.3478,7.9051],[4.3388,7.9163],[4.3343,7.923],[4.3276,7.9343],[4.3163,7.9432],[4.3074,7.9455],[4.2961,7.9545],[4.2939,7.9567],[4.2849,7.9657],[4.2759,7.9702],[4.2647,7.9702],[4.2512,7.9657],[4.2355,7.9567],[4.2355,7.95],[4.2355,7.9432],[4.2332,7.932],[4.231,7.9275],[4.2153,7.9208],[4.2085,7.9185],[4.1973,7.9163],[4.1906,7.9096],[4.1928,7.9006],[4.1973,7.8893],[4.2018,7.8781],[4.2018,7.8691],[4.1973,7.8646],[4.1861,7.8646],[4.1749,7.8601],[4.1636,7.8557],[4.1479,7.8489],[4.1299,7.8489],[4.1165,7.8489],[4.1097,7.8557],[4.0985,7.8646],[4.0895,7.8669],[4.0918,7.8512],[4.076,7.8242],[4.0716,7.8085],[4.0828,7.8107]]]}},{"type":"Feature","properties":{"id":"osun/ife-central","name":"Ife Central","state":"Osun"},"geometry":{"type":"Polygon","coordinates":[[[4.4825,7.5278],[4.4915,7.521],[4.5027,7.5143],[4.5095,7.5098],[4.523,7.5008],[4.5342,7.4918],[4.5432,7.4851],[4.5521,7.4761],[4.5611,7.4694],[4.5724,7.4896],[4.5769,7.5076],[4.5791,7.5233],[4.5791,7.5345],[4.5813,7.539],[4.5769,7.548],[4.5724,7.5637],[4.5589,7.5929],[4.5566,7.5974],[4.5477,7.6086],[4.5387,7.6154],[4.5319,7.6176],[4.5274,7.6176],[4.5274,7.6154],[4.523,7.6041],[4.514,7.5929],[4.5072,7.5884],[4.5027,7.5839],[4.496,7.5772],[4.4893,7.5704],[4.4825,7.5682],[4.4803,7.5615],[4.478,7.557],[4.478,7.5435],[4.478,7.5368],[4.4825,7.5278]]]}},{"type":"Feature","properties":{"id":"osun/ife-east","name":"Ife East","state":"Osun"},"geometry":{"type":"Polygon","coordinates":[[[4.5477,7.3728],[4.5499,7.3751],[4.5589,7.3818],[4.5656,7.3818],[4.5701,7.3796],[4.5769,7.3728],[4.5813,7.3661],[4.5836,7.3549],[4.5836,7.3481],[4.5791,7.3391],[4.5769,7.3279],[4.5769,7.3189],[4.5791,7.3099],[4.5836,7.3054],[4.5881,7.301],[4.5903,7.2942],[4.5881,7.283],[4.5881,7.2762],[4.5903,7.2718],[4.5948,7.2673],[4.5993,7.274],[4.6016,7.2785],[4.606,7.2875],[4.606,7.2942],[4.606,7.3054],[4.606,7.3144],[4.606,7.3212],[4.6105,7.3301],[4.6128,7.3369],[4.615,7.3436],[4.6128,7.3504],[4.6105,7.3616],[4.6083,7.3773],[4.6083,7.3863],[4.6083,7.393],[4.6083,7.3953],[4.615,7.3998],[4.6195,7.3998],[4.6218,7.3998],[4.6307,7.3998],[4.6397,7.402],[4.6577,7.4087],[4.6667,7.4177],[4.6667,7.4222],[4.6622,7.4379],[4.6599,7.4469],[4.6555,7.4514],[4.651,7.4582],[4.6442,7.4626],[4.6397,7.4671],[4.6307,7.4829],[4.6307,7.4918],[4.6307,7.4986],[4.6307,7.5076],[4.6263,7.521],[4.6218,7.5233],[4.606,7.53],[4.5971,7.5323],[4.5903,7.5323],[4.5836,7.5368],[4.5813,7.539],[4.5791,7.5345],[4.5791,7.5233],[4.5769,7.5076],[4.5724,7.4896],[4.5611,7.4694],[4.5611,7.4649],[4.5589,7.4582],[4.5589,7.4492],[4.5589,7.4402],[4.5611,7.4335],[4.5656,7.4245],[4.5656,7.4177],[4.5634,7.411],[4.5589,7.4043],[4.5521,7.393],[4.5477,7.384],[4.5454,7.3751],[4.5477,7.3728]]]}},{"type":"Feature","properties":{"id":"osun/ife-north","name":"Ife North","state":"Osun"},"geometry":{"type":"Polygon","coordinates":[[[4.359,7.0719],[4.3635,7.0651],[4.3657,7.0607],[4.368,7.0584],[4.3702,7.0562],[4.3702,7.0517],[4.3702,7.036],[4.3702,7.0315],[4.377,7.0292],[4.3792,7.027],[4.377,7.0225],[4.3702,7.018],[4.3702,7.0135],[4.3725,7.0112],[4.3747,6.9978],[4.377,6.9955],[4.3837,6.991],[4.3905,6.9798],[4.3994,6.9798],[4.4107,6.9865],[4.4174,6.9933],[4.4241,7.0023],[4.4376,7.0045],[4.4533,7.0],[4.4623,6.9933],[4.4803,6.991],[4.4893,6.991],[4.496,7.0023],[4.5095,7.0135],[4.5162,7.0225],[4.523,7.0247],[4.5342,7.0247],[4.5432,7.0202],[4.5589,7.0225],[4.5769,7.0225],[4.5926,7.0292],[4.6038,7.0315],[4.6105,7.0315],[4.6105,7.036],[4.606,7.036],[4.5948,7.0382],[4.5903,7.0404],[4.5836,7.0472],[4.5724,7.0517],[4.5634,7.0584],[4.5566,7.0719],[4.5477,7.0899],[4.5432,7.1011],[4.5387,7.1078],[4.5342,7.1123],[4.5207,7.1101],[4.5095,7.1078],[4.4982,7.1101],[4.4893,7.1123],[4.4848,7.1168],[4.4735,7.1235],[4.4668,7.1325],[4.4533,7.1393],[4.4466,7.1482],[4.4466,7.1527],[4.4488,7.1595],[4.4533,7.164],[4.4556,7.1707],[4.4601,7.1797],[4.4623,7.1932],[4.4623,7.2044],[4.4691,7.2201],[4.4758,7.2268],[4.4803,7.2336],[4.487,7.2426],[4.5005,7.2673],[4.505,7.2987],[4.5072,7.3144],[4.514,7.3257],[4.5207,7.3324],[4.5274,7.3369],[4.5342,7.3459],[4.5364,7.3549],[4.5409,7.3661],[4.5454,7.3728],[4.5477,7.3728],[4.5454,7.3751],[4.5477,7.384],[4.5521,7.393],[4.5589,7.4043],[4.5634,7.411],[4.5656,7.4177],[4.5656,7.4245],[4.5611,7.4335],[4.5589,7.4402],[4.5589,7.4492],[4.5589,7.4582],[4.5611,7.4649],[4.5611,7.4694],[4.5521,7.4761],[4.5432,7.4851],[4.5342,7.4918],[4.523,7.5008],[4.5095,7.5098],[4.5027,7.5143],[4.4915,7.521],[4.4825,7.5278],[4.478,7.5368],[4.478,7.5435],[4.478,7.557],[4.4803,7.5615],[4.4825,7.5682],[4.4758,7.5682],[4.4691,7.5682],[4.4466,7.5592],[4.4354,7.5502],[4.4264,7.5412],[4.4129,7.5345],[4.4039,7.53],[4.3972,7.521],[4.3927,7.5098],[4.3837,7.4851],[4.3815,7.4761],[4.3837,7.4716],[4.3882,7.4694],[4.3927,7.4649],[4.3927,7.4559],[4.3905,7.4492],[4.386,7.4447],[4.3815,7.4379],[4.3747,7.42],[4.3747,7.4087],[4.377,7.3975],[4.3792,7.3885],[4.3815,7.3863],[4.3882,7.3818],[4.3949,7.3818],[4.4017,7.3796],[4.4084,7.3706],[4.4107,7.3616],[4.4107,7.3549],[4.4062,7.3459],[4.3994,7.3414],[4.3949,7.3369],[4.3949,7.3324],[4.3994,7.3144],[4.3994,7.3032],[4.3994,7.292],[4.4017,7.283],[4.4039,7.2718],[4.4062,7.265],[4.4017,7.2605],[4.3972,7.2583],[4.3905,7.2583],[4.3882,7.2538],[4.3837,7.2291],[4.386,7.2246],[4.3882,7.2156],[4.3905,7.2089],[4.3927,7.1954],[4.3949,7.1842],[4.3972,7.1707],[4.3927,7.1527],[4.3837,7.1325],[4.3725,7.1123],[4.368,7.1078],[4.3613,7.0988],[4.3568,7.0899],[4.3545,7.0831],[4.359,7.0719]]]}},{"type":"Feature","properties":{"id":"osun/ife-south","name":"Ife South","state":"Osun"},"geometry":{"type":"Polygon","coordinates":[[[4.4533,7.1393],[4.4668,7.1325],[4.4735,7.1235],[4.4848,7.1168],[4.4893,7.1123],[4.4982,7.1101],[4.5095,7.1078],[4.5207,7.1101],[4.5342,7.1123],[4.5387,7.1078],[4.5432,7.1011],[4.5477,7.0899],[4.5566,7.0719],[4.5634,7.0584],[4.5724,7.0517],[4.5836,7.0472],[4.5903,7.0404],[4.5948,7.0382],[4.606,7.036],[4.6105,7.036],[4.6105,7.0382],[4.6128,7.0449],[4.6128,7.0584],[4.615,7.0741],[4.615,7.0809],[4.6173,7.0854],[4.6195,7.0899],[4.6263,7.1033],[4.6307,7.1078],[4.6352,7.1123],[4.6487,7.1213],[4.6555,7.128],[4.6667,7.1348],[4.6734,7.1415],[4.6757,7.1437],[4.6712,7.1482],[4.6712,7.1527],[4.6689,7.1595],[4.6689,7.1617],[4.6712,7.1662],[4.6846,7.1685],[4.6914,7.1662],[4.6981,7.1617],[4.7026,7.1617],[4.7071,7.1617],[4.7093,7.164],[4.7116,7.1685],[4.7161,7.1729],[4.7183,7.1797],[4.7183,7.1864],[4.7206,7.1954],[4.7273,7.1976],[4.7363,7.2066],[4.743,7.2156],[4.7475,7.2224],[4.7498,7.2313],[4.7475,7.2336],[4.7363,7.2448],[4.7296,7.2493],[4.7161,7.2515],[4.7026,7.2605],[4.6914,7.2695],[4.6891,7.2762],[4.6846,7.2875],[4.6869,7.2987],[4.6891,7.3144],[4.6914,7.3301],[4.6936,7.3414],[4.6959,7.3549],[4.6959,7.3661],[4.6914,7.3796],[4.6824,7.3998],[4.6779,7.4065],[4.6689,7.4132],[4.6667,7.4177],[4.6577,7.4087],[4.6397,7.402],[4.6307,7.3998],[4.6218,7.3998],[4.6195,7.3998],[4.615,7.3998],[4.6083,7.3953],[4.6083,7.393],[4.6083,7.3863],[4.6083,7.3773],[4.6105,7.3616],[4.6128,7.3504],[4.615,7.3436],[4.6128,7.3369],[4.6105,7.3301],[4.606,7.3212],[4.606,7.3144],[4.606,7.3054],[4.606,7.2942],[4.606,7.2875],[4.6016,7.2785],[4.5993,7.274],[4.5948,7.2673],[4.5903,7.2718],[4.5881,7.2762],[4.5881,7.283],[4.5903,7.2942],[4.5881,7.301],[4.5836,7.3054],[4.5791,7.3099],[4.5769,7.3189],[4.5769,7.3279],[4.5791,7.3391],[4.5836,7.3481],[4.5836,7.3549],[4.5813,7.3661],[4.5769,7.3728],[4.5701,7.3796],[4.5656,7.3818],[4.5589,7.3818],[4.5499,7.3751],[4.5477,7.3728],[4.5454,7.3728],[4.5409,7.3661],[4.5364,7.3549],[4.5342,7.3459],[4.5274,7.3369],[4.5207,7.3324],[4.514,7.3257],[4.5072,7.3144],[4.505,7.2987],[4.5005,7.2673],[4.487,7.2426],[4.4803,7.2336],[4.4758,7.2268],[4.4691,7.2201],[4.4623,7.2044],[4.4623,7.1932],[4.4601,7.1797],[4.4556,7.1707],[4.4533,7.164],[4.4488,7.1595],[4.4466,7.1527],[4.4466,7.1482],[4.4533,7.1393]]]}},{"type":"Feature","properties":{"id":"osun/ifedayo","name":"Ifedayo","state":"Osun"},"geometry":{"type":"Polygon","coordinates":[[[4.9092,7.8579],[4.9115,7.8557],[4.9115,7.8512],[4.9137,7.8512],[4.9227,7.8624],[4.9249,7.8691],[4.9249,7.8736],[4.9272,7.8804],[4.9317,7.8848],[4.9362,7.8893],[4.9407,7.8983],[4.9429,7.9006],[4.9496,7.9028],[4.9676,7.9163],[4.9788,7.923],[4.9901,7.932],[4.9968,7.9387],[5.0013,7.9455],[5.008,7.95],[5.017,7.9545],[5.0305,7.9769],[5.0327,7.9814],[5.0327,7.9904],[5.0327,7.9971],[5.035,8.0061],[5.0395,8.0106],[5.053,8.0241],[5.0574,8.0308],[5.0574,8.0398],[5.0552,8.0488],[5.053,8.0578],[5.0507,8.0645],[5.044,8.069],[5.0395,8.0712],[5.0372,8.0712],[5.0327,8.069],[5.0215,8.06],[5.0148,8.0555],[5.0103,8.051],[5.0058,8.0443],[5.0013,8.0331],[4.9968,8.0331],[4.9878,8.0331],[4.9743,8.0173],[4.9699,8.0173],[4.9676,8.0196],[4.9631,8.0151],[4.9631,8.0039],[4.9541,7.9769],[4.9452,7.9522],[4.9362,7.9432],[4.9339,7.9387],[4.9317,7.9253],[4.9317,7.9163],[4.9272,7.9073],[4.9249,7.8916],[4.916,7.8804],[4.9092,7.8714],[4.907,7.8646],[4.9092,7.8579]]]}},{"type":"Feature","properties":{"id":"osun/ifelodun","name":"Ifelodun","state":"Osun"},"geometry":{"type":"Polygon","coordinates":[[[4.5589,7.9432],[4.5611,7.9343],[4.5679,7.9253],[4.5746,7.923],[4.5836,7.9163],[4.5948,7.9118],[4.6016,7.9073],[4.606,7.9028],[4.6105,7.8938],[4.6105,7.8848],[4.6105,7.8781],[4.606,7.8714],[4.6038,7.8579],[4.6016,7.8467],[4.6038,7.8399],[4.6038,7.8377],[4.606,7.8399],[4.6105,7.8422],[4.6195,7.8489],[4.6285,7.8579],[4.6375,7.8624],[4.6397,7.8624],[4.651,7.8714],[4.6577,7.8781],[4.6689,7.8893],[4.6712,7.8938],[4.6712,7.9028],[4.6689,7.9073],[4.6779,7.923],[4.6891,7.9275],[4.6936,7.932],[4.7049,7.941],[4.7138,7.9522],[4.7183,7.9545],[4.7228,7.959],[4.7161,7.9634],[4.7026,7.9679],[4.6891,7.9679],[4.6779,7.9679],[4.6757,7.9657],[4.6667,7.959],[4.6555,7.9567],[4.6442,7.9545],[4.6173,7.9567],[4.6016,7.9612],[4.5971,7.9612],[4.5836,7.959],[4.5746,7.9545],[4.5679,7.95],[4.5611,7.9477],[4.5566,7.9477],[4.5589,7.9432]]]}},{"type":"Feature","properties":{"id":"osun/ila","name":"Ila","state":"Osun"},"geometry":{"type":"Polygon","coordinates":[[[4.7767,8.0645],[4.7857,8.06],[4.7902,8.0533],[4.7924,8.0488],[4.7902,8.0443],[4.788,8.0376],[4.7924,8.0331],[4.7924,8.0286],[4.7969,8.0286],[4.8104,8.0196],[4.8216,8.0106],[4.8239,8.0039],[4.8261,7.9926],[4.8306,7.9814],[4.8374,7.9724],[4.8463,7.9567],[4.8531,7.9432],[4.8598,7.9298],[4.8621,7.9185],[4.8666,7.9073],[4.871,7.9006],[4.8688,7.8961],[4.8598,7.8916],[4.8441,7.8826],[4.8374,7.8804],[4.8329,7.8759],[4.8396,7.8736],[4.8531,7.8691],[4.8688,7.8624],[4.8778,7.8534],[4.889,7.8444],[4.898,7.8422],[4.9092,7.8422],[4.9115,7.8512],[4.9115,7.8557],[4.9092,7.8579],[4.907,7.8646],[4.9092,7.8714],[4.916,7.8804],[4.9249,7.8916],[4.9272,7.9073],[4.9317,7.9163],[4.9317,7.9253],[4.9339,7.9387],[4.9362,7.9432],[4.9452,7.9522],[4.9541,7.9769],[4.9631,8.0039],[4.9631,8.0151],[4.9676,8.0196],[4.9699,8.0241],[4.9699,8.0331],[4.9676,8.0465],[4.9609,8.0533],[4.9496,8.0555],[4.9452,8.06],[4.9384,8.069],[4.9272,8.0802],[4.9137,8.0847],[4.8957,8.0892],[4.8868,8.0915],[4.8778,8.0915],[4.8621,8.0937],[4.8531,8.0959],[4.8508,8.0915],[4.8553,8.087],[4.8576,8.0802],[4.8576,8.0735],[4.8531,8.069],[4.8441,8.0623],[4.8306,8.0555],[4.8194,8.0533],[4.8127,8.06],[4.8059,8.0645],[4.7992,8.0645],[4.7857,8.069],[4.779,8.069],[4.7745,8.069],[4.7767,8.0645]]]}},{"type":"Feature","properties":{"id":"osun/ilesha-east","name":"Ilesha East","state":"Osun"},"geometry":{"type":"Polygon","coordinates":[[[4.7049,7.5951],[4.7116,7.5817],[4.7183,7.566],[4.7228,7.5592],[4.7296,7.5592],[4.7363,7.5615],[4.743,7.566],[4.752,7.5704],[4.7677,7.5772],[4.779,7.5794],[4.8082,7.5907],[4.8082,7.5996],[4.8082,7.6064],[4.8037,7.6176],[4.7969,7.6378],[4.7924,7.649],[4.7902,7.6535],[4.7812,7.6603],[4.779,7.6558],[4.77,7.6535],[4.7655,7.6468],[4.761,7.6423],[4.7588,7.6333],[4.7543,7.6266],[4.7498,7.6221],[4.7363,7.6198],[4.7228,7.6154],[4.7093,7.6041],[4.7026,7.5996],[4.7049,7.5951]]]}},{"type":"Feature","properties":{"id":"osun/ilesha-west","name":"Ilesha West","state":"Osun"},"geometry":{"type":"Polygon","coordinates":[[[4.6644,7.6446],[4.6757,7.6356],[4.6914,7.6198],[4.6936,7.6154],[4.6981,7.6109],[4.7004,7.6019],[4.7026,7.5996],[4.7093,7.6041],[4.7228,7.6154],[4.7363,7.6198],[4.7498,7.6221],[4.7543,7.6266],[4.7588,7.6333],[4.761,7.6423],[4.7655,7.6468],[4.77,7.6535],[4.779,7.6558],[4.7812,7.6603],[4.7745,7.6648],[4.7655,7.667],[4.7588,7.6693],[4.7565,7.676],[4.752,7.6737],[4.7363,7.6693],[4.7161,7.667],[4.7049,7.667],[4.6914,7.6693],[4.6779,7.6715],[4.6734,7.6737],[4.6712,7.6737],[4.6644,7.6715],[4.6622,7.6693],[4.6599,7.6625],[4.6599,7.6558],[4.6599,7.6513],[4.6644,7.6446]]]}},{"type":"Feature","properties":{"id":"osun/irepodun","name":"Irepodun","state":"Osun"},"geometry":{"type":"Polygon","coordinates":[[[4.4623,7.8175],[4.4668,7.813],[4.4735,7.8062],[4.4758,7.8062],[4.4825,7.8107],[4.4848,7.8152],[4.487,7.8175],[4.4938,7.8287],[4.5005,7.8399],[4.5072,7.8422],[4.523,7.8512],[4.5297,7.8557],[4.5387,7.8624],[4.5454,7.8759],[4.5499,7.8826],[4.5499,7.8871],[4.5521,7.8893],[4.5454,7.9006],[4.5454,7.9051],[4.5454,7.9163],[4.5454,7.9253],[4.5454,7.9387],[4.5432,7.9455],[4.5432,7.95],[4.5297,7.959],[4.5252,7.9567],[4.523,7.9455],[4.5162,7.9298],[4.5162,7.9208],[4.514,7.9096],[4.5095,7.8983],[4.505,7.8871],[4.4915,7.8669],[4.4848,7.8601],[4.4758,7.8534],[4.4691,7.8467],[4.4646,7.8422],[4.4646,7.8354],[4.4623,7.8287],[4.4601,7.8242],[4.4623,7.8175]]]}},{"type":"Feature","properties":{"id":"osun/irewole","name":"Irewole","state":"Osun"},"geometry":{"type":"Polygon","coordinates":[[[4.1524,7.3638],[4.1816,7.3616],[4.2063,7.3571],[4.231,7.3526],[4.249,7.3504],[4.2602,7.3436],[4.2692,7.3391],[4.2782,7.3346],[4.2849,7.3391],[4.2916,7.3391],[4.2961,7.3391],[4.3006,7.3414],[4.3141,7.3436],[4.3253,7.3459],[4.3321,7.3504],[4.3321,7.3526],[4.3321,7.3549],[4.3253,7.3706],[4.3119,7.3908],[4.3051,7.3975],[4.3006,7.4065],[4.2984,7.42],[4.2984,7.429],[4.2961,7.4379],[4.2961,7.4469],[4.2961,7.4537],[4.2894,7.4582],[4.2827,7.4649],[4.2647,7.4694],[4.2557,7.4716],[4.2512,7.4716],[4.249,7.4716],[4.2445,7.4694],[4.24,7.4671],[4.2377,7.4649],[4.2332,7.4649],[4.231,7.4694],[4.2288,7.4784],[4.2243,7.4873],[4.213,7.4986],[4.2041,7.5076],[4.1973,7.5121],[4.1883,7.5165],[4.1816,7.5143],[4.1704,7.5098],[4.1659,7.5053],[4.1636,7.4941],[4.1569,7.4784],[4.1524,7.4626],[4.1479,7.4582],[4.1457,7.4492],[4.1412,7.4402],[4.1389,7.4222],[4.1344,7.4065],[4.1344,7.3885],[4.1344,7.3728],[4.1344,7.3683],[4.1344,7.3638],[4.1524,7.3638]]]}},{"type":"Feature","properties":{"id":"osun/isokan","name":"Isokan","state":"Osun"},"geometry":{"type":"Polygon","coordinates":[[[4.0963,7.2224],[4.1052,7.2224],[4.121,7.2246],[4.1299,7.2291],[4.1389,7.2336],[4.1502,7.2403],[4.1614,7.2493],[4.1749,7.256],[4.1838,7.2605],[4.2063,7.2628],[4.2265,7.2628],[4.2377,7.2628],[4.2467,7.2673],[4.2535,7.274],[4.2602,7.283],[4.2669,7.2897],[4.2759,7.3077],[4.2804,7.3189],[4.2827,7.3301],[4.2782,7.3346],[4.2692,7.3391],[4.2602,7.3436],[4.249,7.3504],[4.231,7.3526],[4.2063,7.3571],[4.1816,7.3616],[4.1524,7.3638],[4.1344,7.3638],[4.1389,7.3526],[4.1367,7.3301],[4.1322,7.3122],[4.1299,7.3099],[4.1299,7.3054],[4.1299,7.2942],[4.1299,7.283],[4.1299,7.2762],[4.1255,7.265],[4.1255,7.2583],[4.112,7.2515],[4.1075,7.2448],[4.1007,7.2313],[4.0963,7.2313],[4.094,7.2291],[4.0918,7.2224],[4.0963,7.2224]]]}},{"type":"Feature","properties":{"id":"osun/iwo","name":"Iwo","state":"Osun"},"geometry":{"type":"Polygon","coordinates":[[[4.0693,7.667],[4.0805,7.6446],[4.0895,7.6311],[4.094,7.6221],[4.1097,7.6131],[4.121,7.6109],[4.1389,7.5996],[4.1457,7.5862],[4.1502,7.5907],[4.1636,7.6019],[4.1861,7.6131],[4.2108,7.6243],[4.249,7.6468],[4.2512,7.6535],[4.2467,7.6558],[4.231,7.6625],[4.222,7.667],[4.2063,7.6827],[4.1973,7.694],[4.1838,7.7052],[4.1681,7.7209],[4.1546,7.7344],[4.1479,7.7389],[4.1412,7.7411],[4.1232,7.7434],[4.112,7.7456],[4.0963,7.7456],[4.0895,7.7479],[4.0783,7.7568],[4.0716,7.7591],[4.0671,7.7546],[4.0603,7.7546],[4.0626,7.7479],[4.0693,7.7411],[4.0738,7.7299],[4.0783,7.7074],[4.076,7.6895],[4.0738,7.6805],[4.0581,7.6805],[4.0536,7.676],[4.0693,7.667]]]}},{"type":"Feature","properties":{"id":"osun/obokun","name":"Obokun","state":"Osun"},"geometry":{"type":"Polygon","coordinates":[[[4.606,7.7366],[4.6128,7.7321],[4.624,7.7276],[4.6307,7.7187],[4.6397,7.7097],[4.6442,7.7007],[4.6487,7.694],[4.6532,7.6917],[4.6577,7.685],[4.6622,7.6782],[4.6644,7.6737],[4.6644,7.6715],[4.6712,7.6737],[4.6734,7.6737],[4.6779,7.6715],[4.6914,7.6693],[4.7049,7.667],[4.7161,7.667],[4.7363,7.6693],[4.752,7.6737],[4.7565,7.676],[4.7565,7.6782],[4.761,7.6872],[4.77,7.7029],[4.7812,7.7164],[4.7969,7.7321],[4.8059,7.7366],[4.8194,7.7389],[4.8329,7.7389],[4.8598,7.7344],[4.8733,7.7321],[4.8935,7.7299],[4.8957,7.7344],[4.9025,7.7501],[4.9092,7.7658],[4.9137,7.7838],[4.916,7.7905],[4.916,7.795],[4.916,7.8107],[4.916,7.822],[4.9092,7.8287],[4.9092,7.8422],[4.898,7.8422],[4.889,7.8444],[4.8778,7.8534],[4.8688,7.8624],[4.8531,7.8691],[4.8396,7.8736],[4.8329,7.8759],[4.8306,7.8759],[4.8149,7.8691],[4.8082,7.8646],[4.7992,7.8646],[4.7924,7.8669],[4.7857,7.8759],[4.7835,7.8804],[4.7745,7.8781],[4.7363,7.8804],[4.7296,7.8826],[4.7206,7.8804],[4.7049,7.8781],[4.6936,7.8736],[4.6846,7.8646],[4.6779,7.8489],[4.6757,7.831],[4.6689,7.8062],[4.6644,7.7905],[4.6555,7.7771],[4.6532,7.7771],[4.6397,7.7726],[4.6375,7.7748],[4.633,7.7748],[4.6218,7.7703],[4.615,7.7681],[4.6105,7.7636],[4.6083,7.7636],[4.6038,7.7546],[4.6016,7.7434],[4.5993,7.7411],[4.606,7.7366]]]}},{"type":"Feature","properties":{"id":"osun/odo-otin","name":"Odo-Otin","state":"Osun"},"geometry":{"type":"Polygon","coordinates":[[[4.5454,7.9612],[4.5477,7.9545],[4.5521,7.9522],[4.5566,7.9477],[4.5611,7.9477],[4.5679,7.95],[4.5746,7.9545],[4.5836,7.959],[4.5971,7.9612],[4.6016,7.9612],[4.6173,7.9567],[4.6442,7.9545],[4.6555,7.9567],[4.6667,7.959],[4.6757,7.9657],[4.6779,7.9679],[4.6891,7.9679],[4.7026,7.9679],[4.7161,7.9634],[4.7228,7.959],[4.7273,7.9545],[4.7385,7.9477],[4.743,7.9432],[4.743,7.941],[4.752,7.9365],[4.7632,7.9387],[4.7722,7.95],[4.7767,7.9657],[4.7857,7.9769],[4.7924,7.9971],[4.7947,8.0061],[4.7947,8.0129],[4.7924,8.0241],[4.7924,8.0286],[4.7924,8.0331],[4.788,8.0376],[4.7902,8.0443],[4.7924,8.0488],[4.7902,8.0533],[4.7857,8.06],[4.7767,8.0645],[4.7745,8.069],[4.7655,8.069],[4.7543,8.0645],[4.7453,8.0645],[4.7363,8.0645],[4.7206,8.0645],[4.7116,8.06],[4.7049,8.051],[4.7049,8.0488],[4.7004,8.0488],[4.6959,8.0533],[4.6914,8.0555],[4.6869,8.0578],[4.6824,8.0555],[4.6757,8.0488],[4.6734,8.0465],[4.6644,8.0443],[4.6599,8.0465],[4.6532,8.051],[4.6487,8.0533],[4.642,8.0533],[4.6375,8.0533],[4.633,8.0578],[4.633,8.0623],[4.6352,8.069],[4.633,8.0712],[4.6285,8.0735],[4.6218,8.0757],[4.6128,8.0735],[4.6038,8.069],[4.5903,8.0623],[4.5791,8.0578],[4.5701,8.0555],[4.5611,8.0533],[4.5589,8.0488],[4.5611,8.0421],[4.5634,8.0331],[4.5634,8.0241],[4.5634,8.0196],[4.5634,8.0084],[4.5566,7.9814],[4.5499,7.9702],[4.5432,7.9657],[4.5454,7.9612]]]}},{"type":"Feature","properties":{"id":"osun/ola-oluwa","name":"Ola-Oluwa","state":"Osun"},"geometry":{"type":"Polygon","coordinates":[[[4.0716,7.7591],[4.0783,7.7568],[4.0895,7.7479],[4.0963,7.7456],[4.112,7.7456],[4.1232,7.7434],[4.1412,7.7411],[4.1479,7.7389],[4.1546,7.7344],[4.1681,7.7209],[4.1838,7.7052],[4.1973,7.694],[4.2063,7.6827],[4.222,7.667],[4.231,7.6625],[4.2467,7.6558],[4.2512,7.6535],[4.2557,7.6535],[4.2647,7.658],[4.2737,7.6603],[4.3006,7.6715],[4.3119,7.6715],[4.3186,7.676],[4.3208,7.6782],[4.3163,7.685],[4.3119,7.694],[4.3096,7.7097],[4.3029,7.7164],[4.3006,7.7209],[4.2961,7.7411],[4.2939,7.7501],[4.2961,7.7568],[4.3006,7.7636],[4.2984,7.7703],[4.2939,7.7771],[4.2871,7.7793],[4.2804,7.786],[4.2692,7.7995],[4.2647,7.8062],[4.258,7.8152],[4.24,7.831],[4.222,7.8399],[4.2085,7.8399],[4.1771,7.8377],[4.1659,7.8354],[4.1591,7.8287],[4.1479,7.8197],[4.1389,7.8175],[4.1232,7.8152],[4.103,7.813],[4.0828,7.8107],[4.0716,7.8085],[4.0716,7.8018],[4.0693,7.7838],[4.0693,7.7703],[4.0716,7.7591]]]}},{"type":"Feature","properties":{"id":"osun/olorunda","name":"Olorunda","state":"Osun"},"geometry":{"type":"Polygon","coordinates":[[[4.5297,7.8018],[4.5319,7.7905],[4.5364,7.7838],[4.5477,7.7771],[4.5521,7.7771],[4.5589,7.7771],[4.5634,7.7815],[4.5656,7.7838],[4.5724,7.7883],[4.5881,7.795],[4.5993,7.8018],[4.5993,7.8062],[4.5993,7.8152],[4.5971,7.822],[4.5971,7.8287],[4.5993,7.8354],[4.6038,7.8377],[4.6038,7.8399],[4.6016,7.8467],[4.6038,7.8579],[4.606,7.8714],[4.6105,7.8781],[4.6105,7.8848],[4.6105,7.8938],[4.606,7.9028],[4.6016,7.9073],[4.5948,7.9118],[4.5836,7.9163],[4.5746,7.923],[4.5679,7.9253],[4.5611,7.9343],[4.5589,7.9432],[4.5566,7.9477],[4.5521,7.9522],[4.5477,7.9545],[4.5454,7.9612],[4.5432,7.9657],[4.5297,7.959],[4.5432,7.95],[4.5432,7.9455],[4.5454,7.9387],[4.5454,7.9253],[4.5454,7.9163],[4.5454,7.9051],[4.5454,7.9006],[4.5521,7.8893],[4.5499,7.8871],[4.5544,7.8826],[4.5589,7.8646],[4.5611,7.8489],[4.5611,7.8422],[4.5589,7.8354],[4.5544,7.8287],[4.5477,7.822],[4.5364,7.8152],[4.5297,7.813],[4.5252,7.8085],[4.5252,7.8062],[4.5297,7.8018]]]}},{"type":"Feature","properties":{"id":"osun/oriade","name":"Oriade","state":"Osun"},"geometry":{"type":"Polygon","coordinates":[[[4.7588,7.6693],[4.7655,7.667],[4.7745,7.6648],[4.7812,7.6603],[4.7902,7.6535],[4.7924,7.649],[4.7969,7.6378],[4.8037,7.6176],[4.8082,7.6064],[4.8082,7.5996],[4.8082,7.5907],[4.8104,7.5839],[4.8171,7.5682],[4.8261,7.5502],[4.8284,7.539],[4.8374,7.5233],[4.8441,7.5076],[4.8463,7.4918],[4.8441,7.4694],[4.8374,7.4447],[4.8329,7.4177],[4.8306,7.402],[4.8306,7.3908],[4.8329,7.3796],[4.8351,7.3751],[4.8418,7.3751],[4.8486,7.3751],[4.8531,7.3773],[4.8598,7.3773],[4.8755,7.3796],[4.8778,7.3796],[4.889,7.3773],[4.8957,7.3751],[4.9025,7.3751],[4.9092,7.3728],[4.9294,7.3728],[4.9362,7.3706],[4.9429,7.3706],[4.9519,7.3728],[4.9654,7.3728],[4.9743,7.3751],[4.9856,7.3773],[4.9901,7.3773],[4.9923,7.3796],[5.0035,7.3885],[5.0058,7.393],[5.0058,7.3998],[5.0058,7.4065],[5.0058,7.411],[5.0058,7.4132],[4.9968,7.4155],[4.9878,7.42],[4.9856,7.4267],[4.9766,7.4335],[4.9676,7.4379],[4.9519,7.4469],[4.9474,7.4537],[4.9384,7.4784],[4.9249,7.5053],[4.9205,7.5165],[4.9182,7.53],[4.9092,7.5547],[4.907,7.5637],[4.9025,7.5772],[4.8935,7.5929],[4.8868,7.6041],[4.8823,7.6109],[4.8688,7.6154],[4.8643,7.6221],[4.8733,7.6513],[4.88,7.667],[4.889,7.6917],[4.8913,7.7097],[4.8913,7.7142],[4.8913,7.7187],[4.8935,7.7299],[4.8733,7.7321],[4.8598,7.7344],[4.8329,7.7389],[4.8194,7.7389],[4.8059,7.7366],[4.7969,7.7321],[4.7812,7.7164],[4.77,7.7029],[4.761,7.6872],[4.7565,7.6782],[4.7565,7.676],[4.7588,7.6693]]]}},{"type":"Feature","properties":{"id":"osun/orolu","name":"Orolu","state":"Osun"},"geometry":{"type":"Polygon","coordinates":[[[4.4241,7.8781],[4.4376,7.8579],[4.4421,7.8557],[4.4466,7.8512],[4.4578,7.8467],[4.4646,7.8422],[4.4691,7.8467],[4.4758,7.8534],[4.4848,7.8601],[4.4915,7.8669],[4.505,7.8871],[4.5095,7.8983],[4.514,7.9096],[4.5162,7.9208],[4.5162,7.9298],[4.523,7.9455],[4.5252,7.9567],[4.523,7.9567],[4.5117,7.9545],[4.5072,7.9522],[4.5005,7.9477],[4.496,7.9432],[4.4825,7.941],[4.4691,7.9432],[4.4578,7.941],[4.4488,7.9387],[4.4421,7.9298],[4.4399,7.9163],[4.4399,7.9073],[4.4354,7.8961],[4.4331,7.8916],[4.4286,7.8893],[4.4219,7.8893],[4.4241,7.8781]]]}},{"type":"Feature","properties":{"id":"osun/osogbo","name":"Osogbo","state":"Osun"},"geometry":{"type":"Polygon","coordinates":[[[4.5297,7.7793],[4.5342,7.7748],[4.5342,7.7726],[4.5387,7.7681],[4.5409,7.7613],[4.5477,7.7546],[4.5499,7.7501],[4.5521,7.7411],[4.5521,7.7254],[4.5544,7.7209],[4.5589,7.7164],[4.5611,7.7142],[4.5656,7.7142],[4.5679,7.7209],[4.5701,7.7254],[4.5724,7.7276],[4.5813,7.7299],[4.5858,7.7321],[4.5926,7.7344],[4.5971,7.7366],[4.5993,7.7411],[4.6016,7.7434],[4.6038,7.7546],[4.6083,7.7636],[4.6083,7.7748],[4.606,7.7838],[4.6016,7.7973],[4.5993,7.8018],[4.5881,7.795],[4.5724,7.7883],[4.5656,7.7838],[4.5634,7.7815],[4.5589,7.7771],[4.5521,7.7771],[4.5477,7.7771],[4.5364,7.7838],[4.5319,7.7905],[4.5297,7.8018],[4.5252,7.8062],[4.5252,7.8018],[4.5252,7.7928],[4.5252,7.786],[4.5297,7.7793]]]}}]}