{"type":"FeatureCollection","features":[{"type":"Feature","properties":{"id":"oyo/afijio","name":"Afijio","state":"Oyo"},"geometry":{"type":"Polygon","coordinates":[[[3.7347,7.7142],[3.7437,7.7052],[3.7482,7.694],[3.7459,7.685],[3.7459,7.6715],[3.7482,7.658],[3.7527,7.6513],[3.7594,7.649],[3.7684,7.6446],[3.7953,7.6468],[3.8088,7.649],[3.8223,7.6513],[3.8335,7.6513],[3.8447,7.6513],[3.847,7.6513],[3.8492,7.6535],[3.8627,7.658],[3.8784,7.658],[3.8919,7.658],[3.9054,7.6535],[3.9256,7.6468],[3.9391,7.6468],[3.9548,7.6446],[3.966,7.649],[3.975,7.649],[3.993,7.6535],[3.9997,7.6513],[4.0154,7.6513],[4.0289,7.6513],[4.0379,7.6625],[4.0469,7.6693],[4.0536,7.676],[4.0581,7.6805],[4.0738,7.6805],[4.076,7.6895],[4.0783,7.7074],[4.0738,7.7299],[4.0693,7.7411],[4.0626,7.7479],[4.0603,7.7546],[4.0671,7.7546],[4.0716,7.7591],[4.0693,7.7703],[4.0693,7.7838],[4.0716,7.8018],[4.0716,7.8085],[4.076,7.8242],[4.0918,7.8512],[4.0671,7.8489],[4.0491,7.8467],[4.0356,7.8444],[4.0132,7.8377],[3.9862,7.8242],[3.9705,7.813],[3.957,7.8018],[3.9458,7.7928],[3.9368,7.7928],[3.9391,7.7995],[3.9278,7.795],[3.9166,7.795],[3.9099,7.7995],[3.8986,7.8062],[3.8874,7.8175],[3.8717,7.8242],[3.8605,7.8265],[3.8447,7.8332],[3.8268,7.8399],[3.8088,7.8422],[3.7953,7.8422],[3.7751,7.8422],[3.7639,7.8422],[3.7459,7.8422],[3.7324,7.8422],[3.7324,7.8242],[3.7347,7.8107],[3.7369,7.7995],[3.7437,7.7838],[3.7527,7.7636],[3.7527,7.7568],[3.7437,7.7501],[3.728,7.7479],[3.7122,7.7479],[3.7033,7.7434],[3.6988,7.7366],[3.6943,7.7321],[3.7347,7.7142]]]}},{"type":"Feature","properties":{"id":"oyo/akinyele","name":"Akinyele","state":"Oyo"},"geometry":{"type":"Polygon","coordinates":[[[3.7953,7.5749],[3.8043,7.5615],[3.8133,7.548],[3.8268,7.5323],[3.8358,7.5188],[3.8515,7.4941],[3.856,7.4851],[3.8627,7.4694],[3.8672,7.4604],[3.8672,7.4537],[3.8694,7.4424],[3.8717,7.4267],[3.8762,7.42],[3.8852,7.4267],[3.8986,7.4335],[3.9099,7.4312],[3.9233,7.4245],[3.9278,7.42],[3.9346,7.4267],[3.948,7.4335],[3.9593,7.4424],[3.9705,7.4537],[3.9795,7.4716],[3.9907,7.4896],[3.993,7.5098],[4.0019,7.5368],[4.0064,7.5457],[4.0199,7.5592],[4.0379,7.5727],[4.0513,7.5862],[4.0671,7.5996],[4.0873,7.6131],[4.094,7.6221],[4.0895,7.6311],[4.0805,7.6446],[4.0693,7.667],[4.0536,7.676],[4.0469,7.6693],[4.0379,7.6625],[4.0289,7.6513],[4.0154,7.6513],[3.9997,7.6513],[3.993,7.6535],[3.975,7.649],[3.966,7.649],[3.9548,7.6446],[3.9391,7.6468],[3.9256,7.6468],[3.9054,7.6535],[3.8919,7.658],[3.8784,7.658],[3.8627,7.658],[3.8492,7.6535],[3.847,7.6513],[3.847,7.6468],[3.8425,7.6401],[3.8358,7.6333],[3.829,7.6221],[3.8133,7.6086],[3.7953,7.5951],[3.7931,7.5862],[3.7953,7.5749]]]}},{"type":"Feature","properties":{"id":"oyo/atiba","name":"Atiba","state":"Oyo"},"geometry":{"type":"Polygon","coordinates":[[[3.7639,8.1027],[3.7684,8.0959],[3.7863,8.078],[3.8088,8.0465],[3.8178,8.0398],[3.829,8.0331],[3.847,8.0218],[3.8717,8.0084],[3.8986,7.9814],[3.9076,7.9724],[3.9188,7.9545],[3.9188,7.9432],[3.9256,7.914],[3.9323,7.8916],[3.948,7.8557],[3.9548,7.8646],[3.9615,7.8669],[3.975,7.8736],[3.9817,7.8826],[3.9907,7.8961],[4.0019,7.9073],[4.0154,7.914],[4.0244,7.923],[4.0424,7.932],[4.0581,7.9387],[4.0783,7.95],[4.0603,7.9747],[4.0379,8.0241],[4.0311,8.06],[4.0266,8.0915],[4.0221,8.1207],[4.0132,8.1409],[3.9907,8.1656],[3.9727,8.179],[3.9638,8.2037],[3.966,8.2329],[3.9862,8.2599],[3.9997,8.2846],[4.0221,8.3138],[4.0424,8.343],[4.0469,8.3632],[4.0446,8.3767],[4.0311,8.3901],[4.0221,8.3991],[4.0132,8.4148],[4.0109,8.4283],[3.9997,8.4485],[3.9907,8.462],[3.984,8.4867],[3.9727,8.5069],[3.957,8.5316],[3.9548,8.5496],[3.957,8.5698],[3.957,8.5945],[3.9638,8.6147],[3.9458,8.617],[3.9301,8.617],[3.9233,8.617],[3.9099,8.6057],[3.8739,8.6012],[3.8425,8.599],[3.8223,8.5968],[3.8133,8.5653],[3.8066,8.5406],[3.8133,8.5047],[3.8178,8.4867],[3.8178,8.4687],[3.8133,8.4575],[3.8021,8.453],[3.7931,8.453],[3.7819,8.4553],[3.7751,8.4485],[3.7729,8.4396],[3.7751,8.4216],[3.7774,8.4126],[3.7841,8.4014],[3.7908,8.3834],[3.7886,8.3767],[3.7841,8.3609],[3.7886,8.3407],[3.7976,8.334],[3.7998,8.3318],[3.7953,8.325],[3.7886,8.316],[3.7886,8.3093],[3.7886,8.2913],[3.7841,8.2823],[3.7819,8.2734],[3.7751,8.2487],[3.7706,8.2374],[3.7684,8.2217],[3.7639,8.206],[3.7616,8.206],[3.7616,8.1948],[3.7571,8.1835],[3.7549,8.1746],[3.7392,8.1566],[3.7347,8.1296],[3.7347,8.1207],[3.7639,8.1027]]]}},{"type":"Feature","properties":{"id":"oyo/atisbo","name":"Atisbo","state":"Oyo"},"geometry":{"type":"Polygon","coordinates":[[[2.6972,8.3205],[2.6972,8.3071],[2.7016,8.3003],[2.7039,8.2913],[2.7084,8.2846],[2.7106,8.2756],[2.7129,8.2689],[2.7151,8.2599],[2.7196,8.2532],[2.7219,8.2509],[2.7241,8.2487],[2.7263,8.2464],[2.7286,8.2419],[2.7353,8.2329],[2.7376,8.2284],[2.7398,8.224],[2.7443,8.2195],[2.7488,8.215],[2.7533,8.2105],[2.7511,8.2082],[2.7511,8.206],[2.7533,8.206],[2.8094,8.2127],[2.8297,8.2105],[2.8431,8.2082],[2.8544,8.2105],[2.8678,8.2105],[2.906,8.2105],[2.9195,8.215],[2.9442,8.2217],[2.9869,8.2217],[3.0228,8.2195],[3.0475,8.2172],[3.0789,8.215],[3.0902,8.2172],[3.1126,8.2217],[3.1261,8.2284],[3.1328,8.2307],[3.1508,8.2509],[3.1688,8.2644],[3.189,8.2689],[3.2227,8.2711],[3.2384,8.2689],[3.2631,8.2644],[3.2945,8.2554],[3.3013,8.2554],[3.317,8.2554],[3.3282,8.2576],[3.3417,8.2599],[3.3552,8.2621],[3.3754,8.2621],[3.3799,8.2644],[3.3978,8.2689],[3.4113,8.2734],[3.4293,8.2823],[3.4427,8.2936],[3.454,8.3048],[3.4652,8.3205],[3.4764,8.3295],[3.4877,8.3407],[3.5011,8.352],[3.5169,8.3699],[3.5438,8.3857],[3.5483,8.3901],[3.5797,8.3901],[3.5865,8.3857],[3.5955,8.3767],[3.6089,8.3677],[3.6179,8.3542],[3.6269,8.3497],[3.6471,8.3385],[3.6651,8.325],[3.6741,8.3205],[3.6808,8.3138],[3.6898,8.3138],[3.6988,8.3093],[3.7077,8.3003],[3.7235,8.2913],[3.7302,8.2846],[3.7392,8.2666],[3.7437,8.2532],[3.7527,8.2284],[3.7571,8.215],[3.7639,8.206],[3.7684,8.2217],[3.7706,8.2374],[3.7751,8.2487],[3.7819,8.2734],[3.7841,8.2823],[3.7886,8.2913],[3.7886,8.3093],[3.7886,8.316],[3.7953,8.325],[3.7998,8.3318],[3.7976,8.334],[3.7886,8.3407],[3.7841,8.3609],[3.7886,8.3767],[3.7908,8.3834],[3.7841,8.4014],[3.7774,8.4126],[3.7751,8.4216],[3.7729,8.4396],[3.7751,8.4485],[3.7819,8.4553],[3.7796,8.4598],[3.7706,8.462],[3.7684,8.462],[3.7661,8.4755],[3.7706,8.4845],[3.7661,8.4867],[3.7437,8.4934],[3.7167,8.5002],[3.6853,8.5047],[3.6628,8.5047],[3.6381,8.5069],[3.6157,8.5114],[3.5955,8.5137],[3.5842,8.5182],[3.5663,8.5271],[3.5483,8.5316],[3.5236,8.5384],[3.5169,8.5429],[3.5011,8.5563],[3.4877,8.5586],[3.4697,8.5676],[3.454,8.5743],[3.4495,8.5788],[3.4472,8.5878],[3.4427,8.599],[3.4293,8.599],[3.4158,8.5945],[3.3956,8.59],[3.3664,8.581],[3.3529,8.5765],[3.3394,8.5698],[3.3282,8.5631],[3.3192,8.5541],[3.3102,8.5429],[3.299,8.5361],[3.2878,8.5271],[3.2788,8.5204],[3.2631,8.5114],[3.2474,8.5047],[3.2316,8.4957],[3.2182,8.4845],[3.2024,8.471],[3.189,8.4575],[3.162,8.4418],[3.1553,8.4396],[3.1441,8.4396],[3.1396,8.4418],[3.1283,8.444],[3.1171,8.4463],[3.1014,8.4463],[3.0969,8.444],[3.0834,8.4261],[3.0677,8.4283],[3.0542,8.4306],[3.043,8.4328],[3.0295,8.4373],[3.0138,8.4396],[2.9981,8.444],[2.9779,8.444],[2.9554,8.4463],[2.9374,8.4485],[2.9217,8.453],[2.9015,8.453],[2.8858,8.453],[2.8746,8.453],[2.8544,8.453],[2.8386,8.4553],[2.8207,8.4553],[2.8027,8.4598],[2.7892,8.462],[2.7713,8.462],[2.7511,8.4643],[2.7488,8.4665],[2.7466,8.4665],[2.7443,8.462],[2.7421,8.453],[2.7421,8.4485],[2.7398,8.444],[2.7353,8.4373],[2.7308,8.4351],[2.7263,8.4328],[2.7196,8.4328],[2.7151,8.4306],[2.7106,8.4261],[2.7084,8.4238],[2.7061,8.4193],[2.7084,8.4126],[2.7106,8.4059],[2.7129,8.3991],[2.7129,8.3946],[2.7151,8.3879],[2.7084,8.3699],[2.7061,8.3654],[2.7039,8.3632],[2.6994,8.3609],[2.6972,8.3565],[2.6972,8.343],[2.6972,8.3362],[2.6949,8.3295],[2.6949,8.3273],[2.6949,8.325],[2.6949,8.3228],[2.6972,8.3205]]]}},{"type":"Feature","properties":{"id":"oyo/egbeda","name":"Egbeda","state":"Oyo"},"geometry":{"type":"Polygon","coordinates":[[[3.9503,7.3728],[3.9503,7.3571],[3.9615,7.3638],[3.9683,7.3683],[3.9772,7.3706],[3.9817,7.3706],[3.9885,7.3683],[4.0064,7.3593],[4.0401,7.3459],[4.0513,7.3414],[4.0626,7.3391],[4.085,7.3324],[4.0918,7.3279],[4.103,7.3212],[4.1187,7.3122],[4.1299,7.3099],[4.1322,7.3122],[4.1367,7.3301],[4.1389,7.3526],[4.1344,7.3638],[4.1344,7.3683],[4.1344,7.3728],[4.1344,7.3885],[4.1344,7.4065],[4.1389,7.4222],[4.1412,7.4402],[4.1457,7.4492],[4.1479,7.4582],[4.1344,7.4514],[4.103,7.4424],[4.0783,7.4357],[4.0536,7.4312],[4.0401,7.429],[4.0221,7.4245],[4.0087,7.42],[3.9974,7.4155],[3.9907,7.411],[3.9683,7.4043],[3.9548,7.3975],[3.948,7.393],[3.948,7.3863],[3.9503,7.3728]]]}},{"type":"Feature","properties":{"id":"oyo/ibadan-north","name":"Ibadan North","state":"Oyo"},"geometry":{"type":"Polygon","coordinates":[[[3.8784,7.4177],[3.8852,7.4065],[3.8919,7.402],[3.9009,7.3998],[3.9031,7.3953],[3.9121,7.384],[3.9144,7.3818],[3.9166,7.3773],[3.9166,7.3706],[3.9211,7.3728],[3.9256,7.3728],[3.9278,7.3773],[3.9346,7.3818],[3.9368,7.3863],[3.9435,7.3908],[3.948,7.393],[3.9413,7.4043],[3.9278,7.42],[3.9233,7.4245],[3.9099,7.4312],[3.8986,7.4335],[3.8852,7.4267],[3.8762,7.42],[3.8784,7.4177]]]}},{"type":"Feature","properties":{"id":"oyo/ibadan-north-east","name":"Ibadan North East","state":"Oyo"},"geometry":{"type":"Polygon","coordinates":[[[3.9188,7.3481],[3.9211,7.3459],[3.9256,7.3414],[3.9346,7.3324],[3.9368,7.3301],[3.9435,7.3346],[3.9458,7.3391],[3.9503,7.3549],[3.9503,7.3571],[3.9503,7.3728],[3.948,7.3863],[3.948,7.393],[3.9435,7.3908],[3.9368,7.3863],[3.9346,7.3818],[3.9278,7.3773],[3.9256,7.3728],[3.9211,7.3728],[3.9166,7.3706],[3.9099,7.3549],[3.9188,7.3481]]]}},{"type":"Feature","properties":{"id":"oyo/ibadan-north-west","name":"Ibadan North West","state":"Oyo"},"geometry":{"type":"Polygon","coordinates":[[[3.856,7.3773],[3.8649,7.3728],[3.8672,7.3728],[3.8717,7.3728],[3.8762,7.3751],[3.8829,7.3751],[3.8874,7.3728],[3.8964,7.3683],[3.9009,7.3638],[3.9031,7.3638],[3.9099,7.3549],[3.9166,7.3706],[3.9166,7.3773],[3.9144,7.3818],[3.9121,7.384],[3.9031,7.3953],[3.9009,7.3998],[3.8919,7.402],[3.8852,7.4065],[3.8784,7.4177],[3.8762,7.42],[3.8717,7.42],[3.8627,7.4065],[3.856,7.3975],[3.856,7.3885],[3.8537,7.384],[3.8515,7.3818],[3.856,7.3773]]]}},{"type":"Feature","properties":{"id":"oyo/ibadan-south-east","name":"Ibadan South East","state":"Oyo"},"geometry":{"type":"Polygon","coordinates":[[[3.8919,7.3077],[3.9031,7.3077],[3.9099,7.3099],[3.9166,7.3099],[3.9278,7.3167],[3.9323,7.3234],[3.9368,7.3301],[3.9346,7.3324],[3.9256,7.3414],[3.9211,7.3459],[3.9188,7.3481],[3.9099,7.3549],[3.9076,7.3504],[3.9031,7.3436],[3.8941,7.3301],[3.8919,7.3257],[3.8896,7.3189],[3.8874,7.3122],[3.8874,7.3077],[3.8919,7.3077]]]}},{"type":"Feature","properties":{"id":"oyo/ibadan-south-west","name":"Ibadan South West","state":"Oyo"},"geometry":{"type":"Polygon","coordinates":[[[3.838,7.3526],[3.8402,7.3504],[3.8425,7.3436],[3.8515,7.3324],[3.8627,7.3144],[3.8649,7.3099],[3.8672,7.3077],[3.8829,7.3077],[3.8874,7.3077],[3.8874,7.3122],[3.8896,7.3189],[3.8919,7.3257],[3.8941,7.3301],[3.9031,7.3436],[3.9076,7.3504],[3.9099,7.3549],[3.9031,7.3638],[3.9009,7.3638],[3.8964,7.3683],[3.8874,7.3728],[3.8829,7.3751],[3.8762,7.3751],[3.8717,7.3728],[3.8672,7.3728],[3.8649,7.3728],[3.856,7.3773],[3.8515,7.3818],[3.8492,7.3796],[3.8402,7.3683],[3.838,7.3683],[3.838,7.3661],[3.8358,7.3638],[3.8358,7.3616],[3.838,7.3526]]]}},{"type":"Feature","properties":{"id":"oyo/ibarapa-central","name":"Ibarapa Central","state":"Oyo"},"geometry":{"type":"Polygon","coordinates":[[[3.0744,7.4559],[3.0744,7.4514],[3.0812,7.4424],[3.0812,7.4379],[3.0857,7.4379],[3.0902,7.4357],[3.0947,7.4335],[3.0969,7.4312],[3.1036,7.42],[3.1081,7.4155],[3.1149,7.4087],[3.1238,7.4043],[3.1328,7.3998],[3.1396,7.3953],[3.1441,7.3908],[3.1463,7.3885],[3.1485,7.384],[3.1508,7.3818],[3.1553,7.3773],[3.162,7.3751],[3.1688,7.3728],[3.1822,7.3706],[3.198,7.3683],[3.2069,7.3683],[3.2137,7.3706],[3.2204,7.3706],[3.2294,7.3706],[3.2496,7.3683],[3.2563,7.3638],[3.2631,7.3548],[3.2833,7.3346],[3.2878,7.3234],[3.2923,7.3212],[3.2968,7.3189],[3.3058,7.3144],[3.3102,7.3144],[3.3192,7.3144],[3.3237,7.3144],[3.3282,7.3257],[3.3305,7.3279],[3.3327,7.3346],[3.3349,7.3369],[3.3394,7.3436],[3.3462,7.3571],[3.3507,7.3638],[3.3574,7.3706],[3.3641,7.3773],[3.3686,7.3818],[3.3799,7.393],[3.3866,7.402],[3.3866,7.4043],[3.3821,7.4132],[3.3821,7.4267],[3.3821,7.4312],[3.3821,7.4335],[3.3844,7.4357],[3.3866,7.4379],[3.3933,7.4402],[3.3956,7.4402],[3.4001,7.4447],[3.4001,7.4492],[3.3933,7.4537],[3.3933,7.4559],[3.3866,7.4604],[3.3776,7.4626],[3.3686,7.4716],[3.3462,7.5076],[3.3372,7.5031],[3.3237,7.4986],[3.3013,7.4986],[3.2676,7.4986],[3.2249,7.4963],[3.198,7.4851],[3.1867,7.4806],[3.1755,7.4806],[3.1643,7.4784],[3.1463,7.4761],[3.1283,7.4716],[3.1036,7.4671],[3.0857,7.4694],[3.0722,7.4716],[3.0699,7.4716],[3.0699,7.4649],[3.0744,7.4559]]]}},{"type":"Feature","properties":{"id":"oyo/ibarapa-east","name":"Ibarapa East","state":"Oyo"},"geometry":{"type":"Polygon","coordinates":[[[3.3686,7.4716],[3.3776,7.4626],[3.3866,7.4604],[3.3933,7.4559],[3.3956,7.4582],[3.4023,7.4649],[3.4068,7.4671],[3.4113,7.4716],[3.418,7.4739],[3.4203,7.4761],[3.427,7.4806],[3.4315,7.4851],[3.4383,7.4896],[3.4427,7.4918],[3.445,7.4941],[3.454,7.4941],[3.454,7.4896],[3.4562,7.4829],[3.4585,7.4784],[3.4674,7.4716],[3.4652,7.4649],[3.463,7.4604],[3.4607,7.4582],[3.4585,7.4492],[3.4652,7.4424],[3.4719,7.4357],[3.4832,7.4177],[3.4832,7.411],[3.4809,7.4065],[3.4787,7.4043],[3.4764,7.3998],[3.4742,7.3975],[3.4719,7.3908],[3.4742,7.3885],[3.4787,7.3885],[3.4922,7.393],[3.5034,7.3998],[3.5124,7.4065],[3.5191,7.4132],[3.5303,7.4245],[3.5326,7.429],[3.5348,7.4312],[3.5393,7.4379],[3.5416,7.4402],[3.546,7.4402],[3.564,7.4671],[3.5708,7.4694],[3.5797,7.4761],[3.582,7.4829],[3.582,7.4918],[3.5775,7.5008],[3.5752,7.5053],[3.5775,7.5143],[3.5797,7.5278],[3.5797,7.5368],[3.5752,7.5637],[3.5708,7.5749],[3.5685,7.5951],[3.573,7.6109],[3.5752,7.6221],[3.582,7.6356],[3.5955,7.649],[3.6157,7.6625],[3.6314,7.6715],[3.6471,7.6827],[3.6561,7.6895],[3.6628,7.694],[3.6651,7.7007],[3.6763,7.7142],[3.6853,7.7254],[3.6898,7.7321],[3.6853,7.7344],[3.6359,7.7501],[3.591,7.7681],[3.5595,7.7815],[3.555,7.7815],[3.5483,7.7793],[3.5505,7.7748],[3.5505,7.7613],[3.5483,7.7523],[3.5416,7.7411],[3.5236,7.7344],[3.4899,7.7276],[3.4607,7.7254],[3.4315,7.7232],[3.4248,7.7187],[3.4203,7.7097],[3.418,7.6985],[3.418,7.6872],[3.4091,7.6805],[3.3844,7.6693],[3.3664,7.6603],[3.3484,7.6513],[3.3484,7.649],[3.3552,7.6378],[3.3552,7.6243],[3.3552,7.6064],[3.3552,7.5817],[3.3552,7.5547],[3.3507,7.5278],[3.3507,7.521],[3.3462,7.5076],[3.3686,7.4716]]]}},{"type":"Feature","properties":{"id":"oyo/ibarapa-north","name":"Ibarapa North","state":"Oyo"},"geometry":{"type":"Polygon","coordinates":[[[2.9779,7.5907],[2.9801,7.5862],[2.9824,7.5839],[2.9869,7.5794],[2.9913,7.5772],[2.9981,7.5682],[3.0003,7.566],[3.0071,7.5547],[3.0138,7.5547],[3.0205,7.5525],[3.025,7.5525],[3.0273,7.5525],[3.034,7.5502],[3.043,7.539],[3.0452,7.5345],[3.0542,7.5278],[3.0587,7.5278],[3.061,7.5255],[3.0655,7.5188],[3.0744,7.5031],[3.0744,7.4986],[3.0767,7.4918],[3.0767,7.4873],[3.0744,7.4829],[3.0699,7.4761],[3.0699,7.4716],[3.0722,7.4716],[3.0857,7.4694],[3.1036,7.4671],[3.1283,7.4716],[3.1463,7.4761],[3.1643,7.4784],[3.1755,7.4806],[3.1867,7.4806],[3.198,7.4851],[3.2249,7.4963],[3.2676,7.4986],[3.3013,7.4986],[3.3237,7.4986],[3.3372,7.5031],[3.3462,7.5076],[3.3507,7.521],[3.3507,7.5278],[3.3552,7.5547],[3.3552,7.5817],[3.3552,7.6064],[3.3552,7.6243],[3.3552,7.6378],[3.3484,7.649],[3.3484,7.6513],[3.3417,7.658],[3.3305,7.6648],[3.317,7.6715],[3.3013,7.6782],[3.2878,7.6962],[3.2833,7.7052],[3.2833,7.7232],[3.2788,7.7546],[3.2743,7.7636],[3.2586,7.7815],[3.2563,7.7928],[3.2474,7.8018],[3.2474,7.8107],[3.2451,7.8107],[3.2069,7.8175],[3.1822,7.8197],[3.1508,7.8107],[3.1261,7.813],[3.0879,7.813],[3.043,7.7995],[3.025,7.7928],[3.0228,7.7883],[3.0205,7.7793],[3.0205,7.7726],[3.025,7.7636],[3.025,7.7591],[3.025,7.7546],[3.0228,7.7523],[3.0205,7.7479],[3.0183,7.7389],[3.016,7.7366],[3.016,7.7299],[3.0138,7.7254],[3.0093,7.7209],[3.0071,7.7187],[3.0071,7.7164],[3.0071,7.7142],[3.0071,7.7097],[3.0116,7.7074],[3.0116,7.7029],[3.0116,7.7007],[3.0093,7.6985],[3.0026,7.7007],[2.9958,7.6985],[2.9981,7.6917],[2.9936,7.685],[2.9958,7.676],[3.0003,7.676],[3.0026,7.6737],[3.0003,7.667],[2.9958,7.658],[2.9981,7.6513],[2.9981,7.649],[2.9936,7.6401],[2.9913,7.6333],[2.9891,7.6311],[2.9846,7.6266],[2.9824,7.6243],[2.9779,7.6221],[2.9756,7.6198],[2.9734,7.6154],[2.9734,7.6109],[2.9734,7.6064],[2.9779,7.5907]]]}},{"type":"Feature","properties":{"id":"oyo/ido","name":"Ido","state":"Oyo"},"geometry":{"type":"Polygon","coordinates":[[[3.555,7.4424],[3.5797,7.4424],[3.591,7.4424],[3.6044,7.4424],[3.6471,7.4424],[3.6651,7.4447],[3.6741,7.4447],[3.692,7.4469],[3.6988,7.4469],[3.7033,7.4469],[3.7077,7.4469],[3.7077,7.4447],[3.7077,7.4402],[3.7077,7.4379],[3.7055,7.4065],[3.7055,7.3975],[3.7055,7.393],[3.7077,7.3885],[3.71,7.3908],[3.7145,7.3908],[3.7167,7.3908],[3.719,7.3885],[3.7212,7.3818],[3.7212,7.3796],[3.719,7.3549],[3.719,7.3436],[3.7167,7.3279],[3.7167,7.3189],[3.7145,7.3099],[3.7145,7.3077],[3.7145,7.3054],[3.7145,7.3032],[3.719,7.301],[3.7414,7.301],[3.7504,7.301],[3.7594,7.301],[3.7616,7.301],[3.7639,7.2965],[3.7616,7.292],[3.7594,7.2807],[3.7594,7.274],[3.7616,7.2695],[3.7616,7.2673],[3.7684,7.2695],[3.7751,7.2718],[3.7841,7.2807],[3.7863,7.2897],[3.7976,7.3032],[3.8021,7.3077],[3.8088,7.3122],[3.8178,7.3167],[3.8268,7.3167],[3.8358,7.3144],[3.8447,7.3099],[3.856,7.3077],[3.8627,7.3077],[3.8649,7.3099],[3.8627,7.3144],[3.8515,7.3324],[3.8425,7.3436],[3.8402,7.3504],[3.838,7.3526],[3.8358,7.3616],[3.8358,7.3638],[3.838,7.3661],[3.838,7.3683],[3.8402,7.3683],[3.8492,7.3796],[3.8515,7.3818],[3.8537,7.384],[3.856,7.3885],[3.856,7.3975],[3.8627,7.4065],[3.8717,7.42],[3.8762,7.42],[3.8717,7.4267],[3.8694,7.4424],[3.8672,7.4537],[3.8672,7.4604],[3.8627,7.4694],[3.856,7.4851],[3.8515,7.4941],[3.8358,7.5188],[3.8268,7.5323],[3.8133,7.548],[3.8043,7.5615],[3.7953,7.5749],[3.7931,7.5862],[3.7953,7.5951],[3.8133,7.6086],[3.829,7.6221],[3.8358,7.6333],[3.8425,7.6401],[3.847,7.6468],[3.847,7.6513],[3.8447,7.6513],[3.8335,7.6513],[3.8223,7.6513],[3.8088,7.649],[3.7953,7.6468],[3.7684,7.6446],[3.7594,7.649],[3.7527,7.6513],[3.7482,7.658],[3.7459,7.6715],[3.7459,7.685],[3.7482,7.694],[3.7437,7.7052],[3.7347,7.7142],[3.6943,7.7321],[3.6898,7.7321],[3.6853,7.7254],[3.6763,7.7142],[3.6651,7.7007],[3.6628,7.694],[3.6561,7.6895],[3.6471,7.6827],[3.6314,7.6715],[3.6157,7.6625],[3.5955,7.649],[3.582,7.6356],[3.5752,7.6221],[3.573,7.6109],[3.5685,7.5951],[3.5708,7.5749],[3.5752,7.5637],[3.5797,7.5368],[3.5797,7.5278],[3.5775,7.5143],[3.5752,7.5053],[3.5775,7.5008],[3.582,7.4918],[3.582,7.4829],[3.5797,7.4761],[3.5708,7.4694],[3.564,7.4671],[3.546,7.4402],[3.555,7.4424]]]}},{"type":"Feature","properties":{"id":"oyo/irepo","name":"Irepo","state":"Oyo"},"geometry":{"type":"Polygon","coordinates":[[[3.6875,8.9875],[3.7055,8.974],[3.7392,8.9606],[3.7639,8.9583],[3.7953,8.9538],[3.8313,8.9493],[3.8492,8.9404],[3.8784,8.9291],[3.9144,8.9134],[3.9368,8.8977],[3.966,8.8775],[3.9772,8.8752],[3.9997,8.8775],[4.0558,8.8865],[4.094,8.8954],[4.1277,8.9067],[4.1726,8.9269],[4.1906,8.9471],[4.2041,8.9606],[4.2108,8.9695],[4.1344,8.9943],[4.0716,9.0145],[4.0132,9.0347],[3.9907,9.0481],[3.9727,9.0773],[3.9435,9.1492],[3.9211,9.1739],[3.8627,9.1874],[3.8268,9.1829],[3.811,9.1739],[3.7953,9.1649],[3.7706,9.147],[3.7549,9.12],[3.7527,9.0863],[3.7437,9.0459],[3.719,9.0122],[3.683,8.9943],[3.6875,8.9875]]]}},{"type":"Feature","properties":{"id":"oyo/iseyin","name":"Iseyin","state":"Oyo"},"geometry":{"type":"Polygon","coordinates":[[[3.2563,7.7928],[3.2586,7.7815],[3.2743,7.7636],[3.2788,7.7546],[3.2833,7.7232],[3.2833,7.7052],[3.2878,7.6962],[3.3013,7.6782],[3.317,7.6715],[3.3305,7.6648],[3.3417,7.658],[3.3484,7.6513],[3.3664,7.6603],[3.3844,7.6693],[3.4091,7.6805],[3.418,7.6872],[3.418,7.6985],[3.4203,7.7097],[3.4248,7.7187],[3.4315,7.7232],[3.4607,7.7254],[3.4899,7.7276],[3.5236,7.7344],[3.5416,7.7411],[3.5483,7.7523],[3.5505,7.7613],[3.5505,7.7748],[3.5483,7.7793],[3.555,7.7815],[3.5595,7.7815],[3.591,7.7681],[3.6359,7.7501],[3.6853,7.7344],[3.6898,7.7321],[3.6943,7.7321],[3.6988,7.7366],[3.7033,7.7434],[3.7122,7.7479],[3.728,7.7479],[3.7437,7.7501],[3.7527,7.7568],[3.7527,7.7636],[3.7437,7.7838],[3.7369,7.7995],[3.7347,7.8107],[3.7324,7.8242],[3.7324,7.8422],[3.7257,7.8399],[3.7212,7.8422],[3.719,7.8467],[3.7257,7.8534],[3.7257,7.8601],[3.7257,7.8714],[3.7257,7.8804],[3.7212,7.8826],[3.719,7.8871],[3.7167,7.8983],[3.719,7.9028],[3.7212,7.9073],[3.7145,7.9096],[3.7145,7.9163],[3.7167,7.923],[3.7167,7.932],[3.719,7.9432],[3.7167,7.95],[3.7145,7.959],[3.7167,7.9634],[3.7212,7.9657],[3.7302,7.9657],[3.7347,7.9657],[3.7392,7.9702],[3.7414,7.9769],[3.7414,7.9926],[3.7392,8.0084],[3.7414,8.0129],[3.7324,8.0241],[3.7302,8.0331],[3.728,8.0398],[3.7212,8.0376],[3.7077,8.0331],[3.692,8.0331],[3.6785,8.0331],[3.6583,8.0308],[3.6449,8.0308],[3.6044,8.0353],[3.5775,8.0376],[3.5573,8.0353],[3.5281,8.0376],[3.5056,8.0398],[3.4832,8.0443],[3.4674,8.0443],[3.4562,8.0488],[3.4562,8.0443],[3.454,8.0331],[3.4562,8.0218],[3.4585,8.0084],[3.454,7.9859],[3.4472,7.9679],[3.4495,7.9567],[3.4495,7.9343],[3.4427,7.9185],[3.4315,7.9028],[3.4113,7.8871],[3.4001,7.8804],[3.3888,7.8669],[3.3844,7.8467],[3.3754,7.822],[3.3641,7.8197],[3.3305,7.8085],[3.29,7.8062],[3.2698,7.8062],[3.2474,7.8107],[3.2474,7.8018],[3.2563,7.7928]]]}},{"type":"Feature","properties":{"id":"oyo/itesiwaju","name":"Itesiwaju","state":"Oyo"},"geometry":{"type":"Polygon","coordinates":[[[3.1351,8.215],[3.1396,8.2037],[3.1485,8.1903],[3.1665,8.1746],[3.1777,8.1588],[3.1822,8.1588],[3.2137,8.1409],[3.2474,8.1341],[3.2653,8.1319],[3.2743,8.1364],[3.2766,8.1386],[3.2855,8.1498],[3.2923,8.1656],[3.2945,8.1813],[3.3013,8.1948],[3.3102,8.206],[3.317,8.2105],[3.3237,8.2127],[3.3349,8.2127],[3.3417,8.2082],[3.3439,8.1993],[3.3484,8.1948],[3.3552,8.1903],[3.3911,8.1678],[3.4023,8.1633],[3.4158,8.1543],[3.4293,8.1386],[3.4338,8.1341],[3.4293,8.1229],[3.418,8.1162],[3.4113,8.1094],[3.4068,8.0982],[3.4068,8.0915],[3.4113,8.087],[3.4158,8.0825],[3.4248,8.0802],[3.4405,8.069],[3.4427,8.06],[3.4562,8.0488],[3.4674,8.0443],[3.4832,8.0443],[3.5056,8.0398],[3.5281,8.0376],[3.5573,8.0353],[3.5775,8.0376],[3.6044,8.0353],[3.6449,8.0308],[3.6583,8.0308],[3.6785,8.0331],[3.692,8.0331],[3.7077,8.0331],[3.7212,8.0376],[3.728,8.0398],[3.7302,8.0443],[3.7324,8.0555],[3.7347,8.0892],[3.7324,8.1117],[3.7347,8.1207],[3.7347,8.1296],[3.7392,8.1566],[3.7549,8.1746],[3.7571,8.1835],[3.7616,8.1948],[3.7616,8.206],[3.7639,8.206],[3.7571,8.215],[3.7527,8.2284],[3.7437,8.2532],[3.7392,8.2666],[3.7302,8.2846],[3.7235,8.2913],[3.7077,8.3003],[3.6988,8.3093],[3.6898,8.3138],[3.6808,8.3138],[3.6741,8.3205],[3.6651,8.325],[3.6471,8.3385],[3.6269,8.3497],[3.6179,8.3542],[3.6089,8.3677],[3.5955,8.3767],[3.5865,8.3857],[3.5797,8.3901],[3.5483,8.3901],[3.5438,8.3857],[3.5169,8.3699],[3.5011,8.352],[3.4877,8.3407],[3.4764,8.3295],[3.4652,8.3205],[3.454,8.3048],[3.4427,8.2936],[3.4293,8.2823],[3.4113,8.2734],[3.3978,8.2689],[3.3799,8.2644],[3.3754,8.2621],[3.3552,8.2621],[3.3417,8.2599],[3.3282,8.2576],[3.317,8.2554],[3.3013,8.2554],[3.2945,8.2554],[3.2631,8.2644],[3.2384,8.2689],[3.2227,8.2711],[3.189,8.2689],[3.1688,8.2644],[3.1508,8.2509],[3.1328,8.2307],[3.1261,8.2284],[3.1351,8.215]]]}},{"type":"Feature","properties":{"id":"oyo/iwajowa","name":"Iwajowa","state":"Oyo"},"geometry":{"type":"Polygon","coordinates":[[[2.6747,7.8826],[2.6792,7.8759],[2.6859,7.8691],[2.6859,7.8669],[2.6904,7.8669],[2.6927,7.8691],[2.6949,7.8714],[2.6994,7.8736],[2.7061,7.8759],[2.7129,7.8781],[2.7174,7.8781],[2.7219,7.8804],[2.7263,7.8804],[2.7331,7.8871],[2.7511,7.8961],[2.7533,7.8983],[2.7555,7.9006],[2.7623,7.9051],[2.7645,7.9073],[2.7668,7.9118],[2.769,7.9208],[2.7713,7.923],[2.7735,7.932],[2.778,7.9455],[2.7802,7.9477],[2.7847,7.95],[2.7937,7.9522],[2.796,7.9522],[2.8005,7.9522],[2.8049,7.9522],[2.8072,7.9522],[2.8139,7.95],[2.8184,7.9455],[2.8184,7.9432],[2.8207,7.9387],[2.8229,7.9365],[2.8274,7.9343],[2.8386,7.932],[2.8431,7.9298],[2.8454,7.9298],[2.8499,7.9298],[2.8701,7.9275],[2.8791,7.9253],[2.8858,7.9253],[2.8903,7.9253],[2.8925,7.9253],[2.897,7.9253],[2.8993,7.9275],[2.9083,7.9275],[2.9127,7.9275],[2.9172,7.9253],[2.9195,7.923],[2.9195,7.9208],[2.915,7.9208],[2.9105,7.9185],[2.897,7.9073],[2.8948,7.9051],[2.8903,7.9006],[2.8858,7.8804],[2.8836,7.8781],[2.8813,7.8646],[2.8813,7.8624],[2.8813,7.8601],[2.8836,7.8557],[2.8836,7.8512],[2.8836,7.8467],[2.8813,7.8422],[2.8791,7.8265],[2.8791,7.822],[2.8791,7.8197],[2.8791,7.8175],[2.8813,7.813],[2.8836,7.8107],[2.8903,7.8062],[2.897,7.8018],[2.9038,7.7995],[2.9083,7.7973],[2.9105,7.795],[2.915,7.786],[2.915,7.7815],[2.915,7.7748],[2.915,7.7726],[2.915,7.7681],[2.9127,7.7636],[2.9127,7.7613],[2.9127,7.7591],[2.9127,7.7568],[2.9127,7.7523],[2.915,7.7501],[2.9195,7.7523],[2.9262,7.7568],[2.9442,7.7703],[2.9464,7.7726],[2.9509,7.7771],[2.9532,7.7793],[2.9622,7.795],[2.9644,7.8018],[2.9711,7.813],[2.9734,7.8152],[2.9756,7.8242],[2.9779,7.831],[2.9779,7.8354],[2.9779,7.8377],[2.9779,7.8422],[2.9779,7.8444],[2.9779,7.8467],[2.9801,7.8489],[2.9801,7.8534],[2.9824,7.8579],[2.9869,7.8601],[2.9891,7.8557],[2.9936,7.8467],[2.9936,7.8444],[2.9981,7.8354],[3.0048,7.8332],[3.0071,7.8287],[3.0093,7.8265],[3.016,7.813],[3.0183,7.8085],[3.0205,7.7995],[3.025,7.7928],[3.043,7.7995],[3.0879,7.813],[3.1261,7.813],[3.1508,7.8107],[3.1822,7.8197],[3.2069,7.8175],[3.2451,7.8107],[3.2474,7.8107],[3.2698,7.8062],[3.29,7.8062],[3.3305,7.8085],[3.3641,7.8197],[3.3754,7.822],[3.3844,7.8467],[3.3709,7.8512],[3.3529,7.8624],[3.3417,7.8691],[3.3192,7.8848],[3.3013,7.9006],[3.2878,7.914],[3.2833,7.9253],[3.2788,7.9432],[3.2766,7.9522],[3.2653,7.9926],[3.2608,8.0061],[3.2608,8.0488],[3.2653,8.0533],[3.2698,8.069],[3.2743,8.078],[3.2766,8.0937],[3.2788,8.1184],[3.2743,8.1364],[3.2653,8.1319],[3.2474,8.1341],[3.2137,8.1409],[3.1822,8.1588],[3.1777,8.1588],[3.1665,8.1746],[3.1485,8.1903],[3.1396,8.2037],[3.1351,8.215],[3.1261,8.2284],[3.1126,8.2217],[3.0902,8.2172],[3.0789,8.215],[3.0475,8.2172],[3.0228,8.2195],[2.9869,8.2217],[2.9442,8.2217],[2.9195,8.215],[2.906,8.2105],[2.8678,8.2105],[2.8544,8.2105],[2.8431,8.2082],[2.8297,8.2105],[2.8094,8.2127],[2.7533,8.206],[2.7511,8.206],[2.7511,8.2015],[2.7511,8.1948],[2.7511,8.1903],[2.7488,8.1656],[2.7443,8.1566],[2.7398,8.1521],[2.7376,8.1476],[2.7353,8.1431],[2.7331,8.1386],[2.7308,8.1364],[2.7308,8.1341],[2.7308,8.1274],[2.7308,8.1251],[2.7308,8.1229],[2.7331,8.1162],[2.7308,8.1094],[2.7308,8.1049],[2.7286,8.0982],[2.7241,8.0915],[2.7241,8.0847],[2.7263,8.078],[2.7286,8.0712],[2.7286,8.069],[2.7286,8.0668],[2.7241,8.06],[2.7196,8.0533],[2.7196,8.0465],[2.7174,8.0376],[2.7151,8.0308],[2.7129,8.0218],[2.7106,8.0151],[2.7084,8.0084],[2.7084,7.9994],[2.7084,7.9971],[2.7039,7.9679],[2.7016,7.9612],[2.6994,7.9522],[2.6994,7.9477],[2.6972,7.9455],[2.6972,7.941],[2.6972,7.9365],[2.6949,7.9298],[2.6904,7.9253],[2.6904,7.9208],[2.6882,7.914],[2.6837,7.9073],[2.6814,7.9006],[2.6769,7.8961],[2.6769,7.8938],[2.6724,7.8916],[2.668,7.8893],[2.6747,7.8826]]]}},{"type":"Feature","properties":{"id":"oyo/kajola","name":"Kajola","state":"Oyo"},"geometry":{"type":"Polygon","coordinates":[[[3.2653,7.9926],[3.2766,7.9522],[3.2788,7.9432],[3.2833,7.9253],[3.2878,7.914],[3.3013,7.9006],[3.3192,7.8848],[3.3417,7.8691],[3.3529,7.8624],[3.3709,7.8512],[3.3844,7.8467],[3.3888,7.8669],[3.4001,7.8804],[3.4113,7.8871],[3.4315,7.9028],[3.4427,7.9185],[3.4495,7.9343],[3.4495,7.9567],[3.4472,7.9679],[3.454,7.9859],[3.4585,8.0084],[3.4562,8.0218],[3.454,8.0331],[3.4562,8.0443],[3.4562,8.0488],[3.4427,8.06],[3.4405,8.069],[3.4248,8.0802],[3.4158,8.0825],[3.4113,8.087],[3.4068,8.0915],[3.4068,8.0982],[3.4113,8.1094],[3.418,8.1162],[3.4293,8.1229],[3.4338,8.1341],[3.4293,8.1386],[3.4158,8.1543],[3.4023,8.1633],[3.3911,8.1678],[3.3552,8.1903],[3.3484,8.1948],[3.3439,8.1993],[3.3417,8.2082],[3.3349,8.2127],[3.3237,8.2127],[3.317,8.2105],[3.3102,8.206],[3.3013,8.1948],[3.2945,8.1813],[3.2923,8.1656],[3.2855,8.1498],[3.2766,8.1386],[3.2743,8.1364],[3.2788,8.1184],[3.2766,8.0937],[3.2743,8.078],[3.2698,8.069],[3.2653,8.0533],[3.2608,8.0488],[3.2608,8.0061],[3.2653,7.9926]]]}},{"type":"Feature","properties":{"id":"oyo/lagelu","name":"Lagelu","state":"Oyo"},"geometry":{"type":"Polygon","coordinates":[[[3.9413,7.4043],[3.948,7.393],[3.9548,7.3975],[3.9683,7.4043],[3.9907,7.411],[3.9974,7.4155],[4.0087,7.42],[4.0221,7.4245],[4.0401,7.429],[4.0536,7.4312],[4.0783,7.4357],[4.103,7.4424],[4.1344,7.4514],[4.1479,7.4582],[4.1524,7.4626],[4.1569,7.4784],[4.1636,7.4941],[4.1659,7.5053],[4.1636,7.5143],[4.1569,7.5345],[4.1546,7.539],[4.1524,7.548],[4.1524,7.557],[4.1546,7.566],[4.1546,7.5682],[4.1479,7.5704],[4.1434,7.5794],[4.1434,7.5817],[4.1457,7.5862],[4.1389,7.5996],[4.121,7.6109],[4.1097,7.6131],[4.094,7.6221],[4.0873,7.6131],[4.0671,7.5996],[4.0513,7.5862],[4.0379,7.5727],[4.0199,7.5592],[4.0064,7.5457],[4.0019,7.5368],[3.993,7.5098],[3.9907,7.4896],[3.9795,7.4716],[3.9705,7.4537],[3.9593,7.4424],[3.948,7.4335],[3.9346,7.4267],[3.9278,7.42],[3.9413,7.4043]]]}},{"type":"Feature","properties":{"id":"oyo/ogbomosho-north","name":"Ogbomosho North","state":"Oyo"},"geometry":{"type":"Polygon","coordinates":[[[4.1951,8.1162],[4.213,8.1139],[4.2332,8.1117],[4.24,8.1072],[4.249,8.0937],[4.2557,8.0892],[4.2692,8.087],[4.2804,8.0802],[4.3006,8.069],[4.3074,8.0645],[4.3096,8.0668],[4.3163,8.0757],[4.3208,8.0892],[4.3208,8.0982],[4.3231,8.1072],[4.3253,8.1184],[4.3276,8.1296],[4.3276,8.1409],[4.3253,8.1498],[4.3208,8.1723],[4.3186,8.1768],[4.3119,8.1948],[4.3096,8.206],[4.3051,8.2105],[4.3029,8.215],[4.2984,8.2217],[4.2939,8.2307],[4.2939,8.2374],[4.2916,8.2419],[4.2759,8.2352],[4.24,8.2195],[4.2198,8.1993],[4.213,8.188],[4.2063,8.1633],[4.1951,8.1431],[4.1883,8.1251],[4.1861,8.1184],[4.1951,8.1162]]]}},{"type":"Feature","properties":{"id":"oyo/ogbomosho-south","name":"Ogbomosho South","state":"Oyo"},"geometry":{"type":"Polygon","coordinates":[[[4.1838,8.0847],[4.1838,8.069],[4.2198,8.0533],[4.24,8.0488],[4.2624,8.0421],[4.2782,8.0443],[4.2849,8.0465],[4.2939,8.0488],[4.3074,8.0645],[4.3006,8.069],[4.2804,8.0802],[4.2692,8.087],[4.2557,8.0892],[4.249,8.0937],[4.24,8.1072],[4.2332,8.1117],[4.213,8.1139],[4.1951,8.1162],[4.1861,8.1184],[4.1816,8.1049],[4.1838,8.0847]]]}},{"type":"Feature","properties":{"id":"oyo/ogo-oluwa","name":"Ogo Oluwa","state":"Oyo"},"geometry":{"type":"Polygon","coordinates":[[[4.0985,7.8646],[4.1097,7.8557],[4.1165,7.8489],[4.1299,7.8489],[4.1479,7.8489],[4.1636,7.8557],[4.1749,7.8601],[4.1861,7.8646],[4.1973,7.8646],[4.2018,7.8691],[4.2018,7.8781],[4.1973,7.8893],[4.1928,7.9006],[4.1906,7.9096],[4.1973,7.9163],[4.2085,7.9185],[4.2153,7.9208],[4.231,7.9275],[4.2332,7.932],[4.2355,7.9432],[4.2355,7.95],[4.2355,7.9567],[4.2512,7.9657],[4.2647,7.9702],[4.2759,7.9702],[4.2849,7.9657],[4.2939,7.9567],[4.2961,7.9545],[4.3074,7.9455],[4.3163,7.9432],[4.3276,7.9343],[4.3343,7.923],[4.3388,7.9163],[4.3478,7.9051],[4.3523,7.8961],[4.3613,7.8826],[4.3635,7.8714],[4.3657,7.8579],[4.3657,7.8512],[4.368,7.8489],[4.3702,7.8489],[4.3747,7.8512],[4.377,7.8534],[4.3815,7.8601],[4.386,7.8691],[4.3949,7.8848],[4.3949,7.8916],[4.3972,7.8961],[4.377,7.9185],[4.3523,7.9432],[4.3253,7.9679],[4.3231,7.9769],[4.3096,7.9971],[4.3029,8.0173],[4.2939,8.0353],[4.2849,8.0465],[4.2782,8.0443],[4.2624,8.0421],[4.24,8.0488],[4.2198,8.0533],[4.1838,8.069],[4.1771,8.0578],[4.1614,8.0308],[4.1502,8.0129],[4.1344,7.9837],[4.121,7.9657],[4.1075,7.95],[4.0895,7.9365],[4.0985,7.923],[4.1007,7.9118],[4.094,7.8938],[4.0895,7.8759],[4.0895,7.8669],[4.0985,7.8646]]]}},{"type":"Feature","properties":{"id":"oyo/olorunsogo","name":"Olorunsogo","state":"Oyo"},"geometry":{"type":"Polygon","coordinates":[[[3.8852,8.6843],[3.8964,8.6709],[3.9054,8.6551],[3.9188,8.6417],[3.9256,8.6237],[3.9233,8.617],[3.9301,8.617],[3.9458,8.617],[3.9638,8.6147],[3.9705,8.6125],[4.0266,8.6147],[4.0491,8.6147],[4.0603,8.6125],[4.1052,8.6125],[4.1479,8.6237],[4.1681,8.6439],[4.1973,8.6754],[4.2085,8.6798],[4.213,8.6821],[4.2108,8.6911],[4.2063,8.7045],[4.2018,8.718],[4.1906,8.754],[4.1951,8.8168],[4.222,8.8618],[4.258,8.8999],[4.3208,8.9426],[4.3343,8.9583],[4.3343,8.9808],[4.3298,8.9898],[4.3253,8.9943],[4.3163,8.9987],[4.2894,8.992],[4.2737,8.9785],[4.2535,8.9673],[4.2108,8.9695],[4.2041,8.9606],[4.1906,8.9471],[4.1726,8.9269],[4.1277,8.9067],[4.094,8.8954],[4.0558,8.8865],[3.9997,8.8775],[3.9772,8.8752],[3.9727,8.8707],[3.966,8.8595],[3.9548,8.8415],[3.9368,8.8123],[3.9166,8.7742],[3.8964,8.7495],[3.8852,8.7248],[3.8784,8.6933],[3.8852,8.6843]]]}},{"type":"Feature","properties":{"id":"oyo/oluyole","name":"Oluyole","state":"Oyo"},"geometry":{"type":"Polygon","coordinates":[[[3.728,7.0831],[3.7302,7.0809],[3.7392,7.0809],[3.7594,7.0809],[3.7841,7.0809],[3.7976,7.0809],[3.8155,7.0831],[3.8245,7.0831],[3.8739,7.0831],[3.8896,7.0831],[3.9166,7.0831],[3.9391,7.0831],[3.9525,7.0876],[3.9593,7.0921],[3.9615,7.0988],[3.966,7.1101],[3.9772,7.1168],[3.9974,7.1258],[4.0064,7.128],[4.0132,7.1258],[4.0132,7.1482],[4.0132,7.1617],[4.0154,7.1797],[4.0154,7.2066],[4.0154,7.2156],[4.0154,7.2403],[4.0109,7.2515],[4.0064,7.2605],[3.9997,7.2673],[3.9885,7.2785],[3.9795,7.283],[3.966,7.292],[3.9525,7.3054],[3.948,7.3122],[3.9413,7.3234],[3.9368,7.3301],[3.9323,7.3234],[3.9278,7.3167],[3.9166,7.3099],[3.9099,7.3099],[3.9031,7.3077],[3.8919,7.3077],[3.8874,7.3077],[3.8829,7.3077],[3.8672,7.3077],[3.8649,7.3099],[3.8627,7.3077],[3.856,7.3077],[3.8447,7.3099],[3.8358,7.3144],[3.8268,7.3167],[3.8178,7.3167],[3.8088,7.3122],[3.8021,7.3077],[3.7976,7.3032],[3.7863,7.2897],[3.7841,7.2807],[3.7751,7.2718],[3.7684,7.2695],[3.7616,7.2673],[3.7616,7.2583],[3.7616,7.2471],[3.7616,7.2381],[3.7639,7.2313],[3.7684,7.2246],[3.7796,7.2021],[3.7774,7.1909],[3.7774,7.1797],[3.7819,7.1729],[3.7863,7.164],[3.7908,7.1527],[3.7931,7.1437],[3.7953,7.1393],[3.7931,7.1325],[3.7819,7.1213],[3.7527,7.1078],[3.7392,7.1033],[3.728,7.0966],[3.7257,7.0876],[3.728,7.0831]]]}},{"type":"Feature","properties":{"id":"oyo/ona-ara","name":"Ona-Ara","state":"Oyo"},"geometry":{"type":"Polygon","coordinates":[[[3.9413,7.3234],[3.948,7.3122],[3.9525,7.3054],[3.966,7.292],[3.9795,7.283],[3.9885,7.2785],[3.9997,7.2673],[4.0064,7.2605],[4.0109,7.2515],[4.0154,7.2403],[4.0154,7.2156],[4.0154,7.2066],[4.0154,7.1797],[4.0132,7.1617],[4.0132,7.1482],[4.0132,7.1258],[4.0199,7.1235],[4.0266,7.128],[4.0469,7.1393],[4.0581,7.137],[4.0693,7.1325],[4.085,7.1325],[4.0873,7.1325],[4.0873,7.137],[4.085,7.1393],[4.0805,7.1393],[4.0783,7.1393],[4.076,7.1348],[4.0738,7.1348],[4.0716,7.1393],[4.0716,7.1415],[4.0716,7.146],[4.076,7.1505],[4.0805,7.1505],[4.0828,7.1482],[4.085,7.1505],[4.0828,7.155],[4.0805,7.1572],[4.076,7.1595],[4.0716,7.1617],[4.0716,7.1685],[4.0738,7.1707],[4.0783,7.1774],[4.0783,7.1819],[4.0783,7.1864],[4.0783,7.1909],[4.0805,7.1954],[4.0805,7.1999],[4.0873,7.2111],[4.0895,7.2179],[4.0918,7.2224],[4.094,7.2291],[4.0963,7.2313],[4.1007,7.2313],[4.1075,7.2448],[4.112,7.2515],[4.1255,7.2583],[4.1255,7.265],[4.1299,7.2762],[4.1299,7.283],[4.1299,7.2942],[4.1299,7.3054],[4.1299,7.3099],[4.1187,7.3122],[4.103,7.3212],[4.0918,7.3279],[4.085,7.3324],[4.0626,7.3391],[4.0513,7.3414],[4.0401,7.3459],[4.0064,7.3593],[3.9885,7.3683],[3.9817,7.3706],[3.9772,7.3706],[3.9683,7.3683],[3.9615,7.3638],[3.9503,7.3571],[3.9503,7.3549],[3.9458,7.3391],[3.9435,7.3346],[3.9368,7.3301],[3.9413,7.3234]]]}},{"type":"Feature","properties":{"id":"oyo/orelope","name":"Orelope","state":"Oyo"},"geometry":{"type":"Polygon","coordinates":[[[3.6426,8.8999],[3.6651,8.8685],[3.6741,8.846],[3.6808,8.837],[3.6785,8.8191],[3.6763,8.8079],[3.6763,8.7809],[3.6853,8.754],[3.7055,8.7337],[3.7482,8.7068],[3.7796,8.6911],[3.811,8.6641],[3.82,8.6484],[3.8223,8.6192],[3.8223,8.5968],[3.8425,8.599],[3.8739,8.6012],[3.9099,8.6057],[3.9233,8.617],[3.9256,8.6237],[3.9188,8.6417],[3.9054,8.6551],[3.8964,8.6709],[3.8852,8.6843],[3.8784,8.6933],[3.8852,8.7248],[3.8964,8.7495],[3.9166,8.7742],[3.9368,8.8123],[3.9548,8.8415],[3.966,8.8595],[3.9727,8.8707],[3.9772,8.8752],[3.966,8.8775],[3.9368,8.8977],[3.9144,8.9134],[3.8784,8.9291],[3.8492,8.9404],[3.8313,8.9493],[3.7953,8.9538],[3.7639,8.9583],[3.7392,8.9606],[3.7055,8.974],[3.6875,8.9875],[3.683,8.9943],[3.6561,8.9808],[3.6044,8.9606],[3.6426,8.8999]]]}},{"type":"Feature","properties":{"id":"oyo/ori-ire","name":"Ori Ire","state":"Oyo"},"geometry":{"type":"Polygon","coordinates":[[[3.957,8.5316],[3.9727,8.5069],[3.984,8.4867],[3.9907,8.462],[3.9997,8.4485],[4.0109,8.4283],[4.0132,8.4148],[4.0221,8.3991],[4.0311,8.3901],[4.0446,8.3767],[4.0469,8.3632],[4.0424,8.343],[4.0221,8.3138],[3.9997,8.2846],[3.9862,8.2599],[3.966,8.2329],[3.9638,8.2037],[3.9727,8.179],[3.9907,8.1656],[4.0132,8.1409],[4.0221,8.1207],[4.0266,8.0915],[4.0311,8.06],[4.0379,8.0241],[4.0603,7.9747],[4.0783,7.95],[4.0895,7.9365],[4.1075,7.95],[4.121,7.9657],[4.1344,7.9837],[4.1502,8.0129],[4.1614,8.0308],[4.1771,8.0578],[4.1838,8.069],[4.1838,8.0847],[4.1816,8.1049],[4.1861,8.1184],[4.1883,8.1251],[4.1951,8.1431],[4.2063,8.1633],[4.213,8.188],[4.2198,8.1993],[4.24,8.2195],[4.2759,8.2352],[4.2916,8.2419],[4.3074,8.2509],[4.3208,8.2689],[4.35,8.2936],[4.3927,8.3048],[4.3478,8.3901],[4.2602,8.5743],[4.2085,8.6798],[4.1973,8.6754],[4.1681,8.6439],[4.1479,8.6237],[4.1052,8.6125],[4.0603,8.6125],[4.0491,8.6147],[4.0266,8.6147],[3.9705,8.6125],[3.9638,8.6147],[3.957,8.5945],[3.957,8.5698],[3.9548,8.5496],[3.957,8.5316]]]}},{"type":"Feature","properties":{"id":"oyo/oyo-east","name":"Oyo East","state":"Oyo"},"geometry":{"type":"Polygon","coordinates":[[[3.9458,7.7928],[3.957,7.8018],[3.9705,7.813],[3.9862,7.8242],[4.0132,7.8377],[4.0356,7.8444],[4.0491,7.8467],[4.0671,7.8489],[4.0918,7.8512],[4.0895,7.8669],[4.0895,7.8759],[4.094,7.8938],[4.1007,7.9118],[4.0985,7.923],[4.0895,7.9365],[4.0783,7.95],[4.0581,7.9387],[4.0424,7.932],[4.0244,7.923],[4.0154,7.914],[4.0019,7.9073],[3.9907,7.8961],[3.9817,7.8826],[3.975,7.8736],[3.9615,7.8669],[3.9548,7.8646],[3.948,7.8557],[3.9458,7.8489],[3.9435,7.8354],[3.9435,7.8197],[3.9413,7.8062],[3.9391,7.7995],[3.9368,7.7928],[3.9458,7.7928]]]}},{"type":"Feature","properties":{"id":"oyo/oyo-west","name":"Oyo West","state":"Oyo"},"geometry":{"type":"Polygon","coordinates":[[[3.7212,7.9073],[3.719,7.9028],[3.7167,7.8983],[3.719,7.8871],[3.7212,7.8826],[3.7257,7.8804],[3.7257,7.8714],[3.7257,7.8601],[3.7257,7.8534],[3.719,7.8467],[3.7212,7.8422],[3.7257,7.8399],[3.7324,7.8422],[3.7459,7.8422],[3.7639,7.8422],[3.7751,7.8422],[3.7953,7.8422],[3.8088,7.8422],[3.8268,7.8399],[3.8447,7.8332],[3.8605,7.8265],[3.8717,7.8242],[3.8874,7.8175],[3.8986,7.8062],[3.9099,7.7995],[3.9166,7.795],[3.9278,7.795],[3.9391,7.7995],[3.9413,7.8062],[3.9435,7.8197],[3.9435,7.8354],[3.9458,7.8489],[3.948,7.8557],[3.9323,7.8916],[3.9256,7.914],[3.9188,7.9432],[3.9188,7.9545],[3.9076,7.9724],[3.8986,7.9814],[3.8717,8.0084],[3.847,8.0218],[3.829,8.0331],[3.8178,8.0398],[3.8088,8.0465],[3.7863,8.078],[3.7684,8.0959],[3.7639,8.1027],[3.7347,8.1207],[3.7324,8.1117],[3.7347,8.0892],[3.7324,8.0555],[3.7302,8.0443],[3.728,8.0398],[3.7302,8.0331],[3.7324,8.0241],[3.7414,8.0129],[3.7392,8.0084],[3.7414,7.9926],[3.7414,7.9769],[3.7392,7.9702],[3.7347,7.9657],[3.7302,7.9657],[3.7212,7.9657],[3.7167,7.9634],[3.7145,7.959],[3.7167,7.95],[3.719,7.9432],[3.7167,7.932],[3.7167,7.923],[3.7145,7.9163],[3.7145,7.9096],[3.7212,7.9073]]]}},{"type":"Feature","properties":{"id":"oyo/saki-east","name":"Saki East","state":"Oyo"},"geometry":{"type":"Polygon","coordinates":[[[3.3888,8.7158],[3.4023,8.6956],[3.427,8.6821],[3.445,8.6754],[3.454,8.6574],[3.4607,8.6394],[3.454,8.6102],[3.4495,8.6035],[3.4427,8.599],[3.4472,8.5878],[3.4495,8.5788],[3.454,8.5743],[3.4697,8.5676],[3.4877,8.5586],[3.5011,8.5563],[3.5169,8.5429],[3.5236,8.5384],[3.5483,8.5316],[3.5663,8.5271],[3.5842,8.5182],[3.5955,8.5137],[3.6157,8.5114],[3.6381,8.5069],[3.6628,8.5047],[3.6853,8.5047],[3.7167,8.5002],[3.7437,8.4934],[3.7661,8.4867],[3.7706,8.4845],[3.7661,8.4755],[3.7684,8.462],[3.7706,8.462],[3.7796,8.4598],[3.7819,8.4553],[3.7931,8.453],[3.8021,8.453],[3.8133,8.4575],[3.8178,8.4687],[3.8178,8.4867],[3.8133,8.5047],[3.8066,8.5406],[3.8133,8.5653],[3.8223,8.5968],[3.8223,8.6192],[3.82,8.6484],[3.811,8.6641],[3.7796,8.6911],[3.7482,8.7068],[3.7055,8.7337],[3.6853,8.754],[3.6763,8.7809],[3.6763,8.8079],[3.6785,8.8191],[3.6808,8.837],[3.6741,8.846],[3.6651,8.8685],[3.6426,8.8999],[3.6044,8.9606],[3.5258,8.9291],[3.4158,8.8595],[3.4203,8.8326],[3.4091,8.8056],[3.3933,8.7787],[3.3866,8.7495],[3.3888,8.7158]]]}},{"type":"Feature","properties":{"id":"oyo/saki-west","name":"Saki West","state":"Oyo"},"geometry":{"type":"Polygon","coordinates":[[[2.7488,8.4665],[2.7511,8.4643],[2.7713,8.462],[2.7892,8.462],[2.8027,8.4598],[2.8207,8.4553],[2.8386,8.4553],[2.8544,8.453],[2.8746,8.453],[2.8858,8.453],[2.9015,8.453],[2.9217,8.453],[2.9374,8.4485],[2.9554,8.4463],[2.9779,8.444],[2.9981,8.444],[3.0138,8.4396],[3.0295,8.4373],[3.043,8.4328],[3.0542,8.4306],[3.0677,8.4283],[3.0834,8.4261],[3.0969,8.444],[3.1014,8.4463],[3.1171,8.4463],[3.1283,8.444],[3.1396,8.4418],[3.1441,8.4396],[3.1553,8.4396],[3.162,8.4418],[3.189,8.4575],[3.2024,8.471],[3.2182,8.4845],[3.2316,8.4957],[3.2474,8.5047],[3.2631,8.5114],[3.2788,8.5204],[3.2878,8.5271],[3.299,8.5361],[3.3102,8.5429],[3.3192,8.5541],[3.3282,8.5631],[3.3394,8.5698],[3.3529,8.5765],[3.3664,8.581],[3.3956,8.59],[3.4158,8.5945],[3.4293,8.599],[3.4427,8.599],[3.4495,8.6035],[3.454,8.6102],[3.4607,8.6394],[3.454,8.6574],[3.445,8.6754],[3.427,8.6821],[3.4023,8.6956],[3.3888,8.7158],[3.3866,8.7495],[3.3933,8.7787],[3.4091,8.8056],[3.4203,8.8326],[3.4158,8.8595],[3.3888,8.8415],[3.3394,8.8258],[3.281,8.8034],[3.2384,8.7832],[3.198,8.7966],[3.1845,8.8123],[3.1643,8.8079],[3.1306,8.7787],[3.1036,8.7495],[3.052,8.7293],[3.0138,8.7113],[2.9419,8.6372],[2.9217,8.6125],[2.888,8.608],[2.8409,8.6102],[2.8027,8.6102],[2.7758,8.59],[2.7623,8.572],[2.7555,8.5676],[2.7578,8.5631],[2.7578,8.5608],[2.7578,8.5563],[2.7533,8.5473],[2.7511,8.5429],[2.7488,8.5384],[2.7488,8.5339],[2.7555,8.5271],[2.7623,8.5226],[2.7623,8.5137],[2.7623,8.5114],[2.7623,8.5047],[2.76,8.5047],[2.7555,8.5002],[2.7555,8.4979],[2.7511,8.4934],[2.7511,8.489],[2.7533,8.4867],[2.7578,8.4822],[2.7533,8.4777],[2.7488,8.4732],[2.7466,8.4665],[2.7488,8.4665]]]}},{"type":"Feature","properties":{"id":"oyo/surulere","name":"Surulere","state":"Oyo"},"geometry":{"type":"Polygon","coordinates":[[[4.2939,8.0353],[4.3029,8.0173],[4.3096,7.9971],[4.3231,7.9769],[4.3253,7.9679],[4.3523,7.9432],[4.377,7.9185],[4.3972,7.8961],[4.4017,7.8983],[4.4084,7.8983],[4.4152,7.8938],[4.4174,7.8893],[4.4219,7.8893],[4.4286,7.8893],[4.4331,7.8916],[4.4354,7.8961],[4.4399,7.9073],[4.4399,7.9163],[4.4421,7.9298],[4.4488,7.9387],[4.4578,7.941],[4.4691,7.9432],[4.4825,7.941],[4.496,7.9432],[4.5005,7.9477],[4.5072,7.9522],[4.5117,7.9545],[4.523,7.9567],[4.5252,7.9567],[4.5297,7.959],[4.5432,7.9657],[4.5499,7.9702],[4.5566,7.9814],[4.5634,8.0084],[4.5634,8.0196],[4.5634,8.0241],[4.5634,8.0331],[4.5611,8.0421],[4.5589,8.0488],[4.5611,8.0533],[4.5701,8.0555],[4.5566,8.0578],[4.5342,8.0712],[4.505,8.0915],[4.496,8.1162],[4.496,8.1229],[4.4938,8.1341],[4.4938,8.1498],[4.4938,8.1678],[4.4893,8.1813],[4.4848,8.2037],[4.478,8.2172],[4.4601,8.2352],[4.4421,8.2532],[4.4174,8.2734],[4.3927,8.3048],[4.35,8.2936],[4.3208,8.2689],[4.3074,8.2509],[4.2916,8.2419],[4.2939,8.2374],[4.2939,8.2307],[4.2984,8.2217],[4.3029,8.215],[4.3051,8.2105],[4.3096,8.206],[4.3119,8.1948],[4.3186,8.1768],[4.3208,8.1723],[4.3253,8.1498],[4.3276,8.1409],[4.3276,8.1296],[4.3253,8.1184],[4.3231,8.1072],[4.3208,8.0982],[4.3208,8.0892],[4.3163,8.0757],[4.3096,8.0668],[4.3074,8.0645],[4.2939,8.0488],[4.2849,8.0465],[4.2939,8.0353]]]}}]}