{"type":"FeatureCollection","features":[{"type":"Feature","properties":{"id":"plateau/barkin-ladi","name":"Barkin Ladi","state":"Plateau"},"geometry":{"type":"Polygon","coordinates":[[[8.6911,9.3401],[8.6933,9.3266],[8.6933,9.3221],[8.6978,9.3199],[8.7045,9.3221],[8.7248,9.3266],[8.7427,9.3311],[8.7495,9.3334],[8.7607,9.3401],[8.7652,9.3468],[8.7674,9.3491],[8.7764,9.3491],[8.7921,9.3491],[8.8056,9.3536],[8.8168,9.3626],[8.8281,9.367],[8.8415,9.3648],[8.8505,9.3626],[8.8685,9.3648],[8.8909,9.3715],[8.9044,9.3828],[8.9134,9.3918],[8.9246,9.403],[8.9471,9.4187],[8.9538,9.4232],[8.9651,9.4299],[8.9785,9.4344],[8.9943,9.4389],[9.001,9.4412],[9.01,9.4569],[9.0122,9.4591],[9.0122,9.4704],[9.0145,9.4793],[9.0167,9.4951],[9.019,9.5018],[9.0212,9.5153],[9.019,9.5265],[9.019,9.5355],[9.0234,9.5445],[9.0257,9.549],[9.0369,9.5534],[9.0459,9.5557],[9.0504,9.5557],[9.0526,9.5579],[9.0571,9.5647],[9.0594,9.5692],[9.0661,9.5737],[9.0729,9.5759],[9.0818,9.5759],[9.0976,9.5826],[9.1088,9.5871],[9.12,9.5984],[9.1312,9.6096],[9.1357,9.6163],[9.138,9.6231],[9.138,9.6343],[9.138,9.641],[9.1357,9.6478],[9.1312,9.6523],[9.1268,9.6567],[9.1178,9.659],[9.1088,9.6657],[9.0998,9.677],[9.0953,9.6882],[9.0886,9.6972],[9.0863,9.6994],[9.0841,9.7017],[9.0818,9.7017],[9.0729,9.7039],[9.0549,9.7062],[9.0392,9.7062],[9.0347,9.7062],[9.0257,9.7106],[9.0122,9.7151],[8.9987,9.7241],[8.9943,9.7309],[8.9898,9.7398],[8.983,9.7511],[8.9785,9.769],[8.9763,9.7915],[8.9718,9.7982],[8.9695,9.8162],[8.974,9.8297],[8.9583,9.8252],[8.9538,9.8207],[8.9516,9.8162],[8.9516,9.8095],[8.9516,9.805],[8.9516,9.796],[8.9516,9.7915],[8.9471,9.7645],[8.9448,9.7578],[8.9426,9.7533],[8.9359,9.7488],[8.9246,9.7398],[8.9201,9.7354],[8.9112,9.7286],[8.9089,9.7264],[8.9022,9.7129],[8.8977,9.7084],[8.8909,9.6949],[8.8865,9.6904],[8.8797,9.677],[8.8797,9.6702],[8.8752,9.6545],[8.8707,9.6478],[8.873,9.6388],[8.8752,9.6343],[8.8775,9.6253],[8.8775,9.6163],[8.8775,9.6096],[8.8752,9.5939],[8.8775,9.5871],[8.873,9.5804],[8.8662,9.5669],[8.8618,9.5624],[8.8505,9.5534],[8.8393,9.5422],[8.8281,9.5332],[8.8146,9.522],[8.8079,9.5108],[8.8056,9.504],[8.7989,9.5018],[8.7876,9.4883],[8.7764,9.4748],[8.7719,9.4704],[8.7674,9.4681],[8.7607,9.4614],[8.7584,9.4546],[8.7517,9.4456],[8.7472,9.4434],[8.7405,9.4389],[8.7337,9.4322],[8.7315,9.4232],[8.7293,9.4165],[8.718,9.3985],[8.7023,9.3783],[8.7001,9.3738],[8.6956,9.3738],[8.6956,9.3693],[8.6933,9.3581],[8.6911,9.3558],[8.6888,9.3423],[8.6911,9.3401]]]}},{"type":"Feature","properties":{"id":"plateau/bassa","name":"Bassa","state":"Plateau"},"geometry":{"type":"Polygon","coordinates":[[[8.617,9.9532],[8.6237,9.9465],[8.6327,9.9307],[8.6349,9.924],[8.6349,9.9173],[8.6282,9.9083],[8.6192,9.8926],[8.6192,9.8836],[8.6215,9.8768],[8.6259,9.8679],[8.6282,9.8589],[8.6282,9.8544],[8.6304,9.8454],[8.6304,9.8297],[8.6282,9.814],[8.6282,9.8027],[8.6259,9.7892],[8.6282,9.778],[8.6304,9.7713],[8.6304,9.7623],[8.6304,9.7601],[8.6237,9.7533],[8.6215,9.7511],[8.6147,9.7421],[8.6304,9.7309],[8.6551,9.7264],[8.6686,9.7264],[8.6754,9.7286],[8.6821,9.7331],[8.6978,9.7331],[8.7001,9.7331],[8.709,9.7354],[8.7248,9.7443],[8.7315,9.7466],[8.7405,9.7511],[8.754,9.7601],[8.7697,9.769],[8.7764,9.7758],[8.7764,9.787],[8.7787,9.805],[8.7787,9.8117],[8.7854,9.8274],[8.7921,9.8476],[8.7966,9.8544],[8.8034,9.8589],[8.8101,9.8656],[8.8123,9.8746],[8.8123,9.8858],[8.8056,9.9015],[8.8034,9.906],[8.7989,9.9105],[8.7989,9.9173],[8.8056,9.933],[8.8101,9.9397],[8.8146,9.9442],[8.8191,9.9487],[8.8236,9.9599],[8.8326,9.9667],[8.8348,9.9689],[8.8438,9.9779],[8.8505,9.9846],[8.8528,9.9891],[8.855,9.9936],[8.8662,10.0004],[8.8775,10.0048],[8.8842,10.0093],[8.8887,10.0116],[8.8932,10.0161],[8.9022,10.0228],[8.9179,10.0251],[8.9246,10.0251],[8.9291,10.0251],[8.9381,10.0251],[8.9493,10.0295],[8.9561,10.034],[8.9583,10.0363],[8.9583,10.0453],[8.9606,10.052],[8.9606,10.061],[8.9628,10.07],[8.9628,10.079],[8.9673,10.0947],[8.9673,10.1037],[8.9695,10.1104],[8.9718,10.1284],[8.974,10.1373],[8.9718,10.1441],[8.9718,10.1463],[8.9718,10.1508],[8.974,10.1553],[8.9763,10.162],[8.9785,10.18],[8.974,10.189],[8.9651,10.1957],[8.9516,10.2025],[8.9381,10.2092],[8.9314,10.2159],[8.9291,10.2182],[8.9291,10.2294],[8.9314,10.2429],[8.9359,10.2586],[8.9359,10.2676],[8.9381,10.2743],[8.9448,10.2788],[8.9538,10.2901],[8.9538,10.308],[8.9538,10.3125],[8.9426,10.3327],[8.9381,10.3417],[8.9359,10.3484],[8.9291,10.3529],[8.9269,10.3529],[8.9134,10.3552],[8.8977,10.3574],[8.8932,10.3574],[8.8865,10.3574],[8.8707,10.3574],[8.8595,10.3664],[8.8505,10.3709],[8.8281,10.3799],[8.8236,10.3844],[8.8168,10.3866],[8.8101,10.3844],[8.8056,10.3821],[8.7989,10.3821],[8.7944,10.3844],[8.7899,10.3889],[8.7787,10.3934],[8.7742,10.3956],[8.7719,10.3934],[8.7719,10.3889],[8.7742,10.3844],[8.7764,10.3799],[8.7764,10.3731],[8.7742,10.3642],[8.7742,10.3597],[8.7652,10.344],[8.7629,10.3372],[8.7629,10.3305],[8.7652,10.3282],[8.7697,10.3237],[8.7719,10.3148],[8.7674,10.3035],[8.7652,10.299],[8.754,10.2878],[8.7472,10.2811],[8.7382,10.2788],[8.7293,10.2721],[8.7248,10.2676],[8.718,10.2631],[8.7113,10.2609],[8.7023,10.2541],[8.6978,10.2496],[8.6888,10.2406],[8.6709,10.2249],[8.6619,10.2182],[8.6551,10.2115],[8.6484,10.2047],[8.6462,10.1957],[8.6462,10.1823],[8.6462,10.1688],[8.6462,10.162],[8.6439,10.1576],[8.6394,10.1508],[8.6327,10.1441],[8.6304,10.1351],[8.6282,10.1239],[8.6282,10.1216],[8.6282,10.1126],[8.6304,10.1037],[8.6349,10.0969],[8.6417,10.0947],[8.6462,10.0902],[8.6484,10.0812],[8.6507,10.0722],[8.6619,10.0542],[8.6686,10.0453],[8.6731,10.0385],[8.6754,10.0318],[8.6798,10.0138],[8.6798,10.0048],[8.6776,9.9936],[8.6731,9.9869],[8.6619,9.9801],[8.6529,9.9779],[8.6417,9.9779],[8.6349,9.9801],[8.6237,9.9779],[8.617,9.9756],[8.6102,9.9644],[8.6102,9.9577],[8.617,9.9532]]]}},{"type":"Feature","properties":{"id":"plateau/bokkos","name":"Bokkos","state":"Plateau"},"geometry":{"type":"Polygon","coordinates":[[[8.6372,9.2413],[8.6417,9.2368],[8.6462,9.2368],[8.6507,9.2345],[8.6596,9.2233],[8.6574,9.2188],[8.6574,9.2166],[8.6574,9.2098],[8.6574,9.2076],[8.6619,9.1964],[8.6686,9.1896],[8.6776,9.1874],[8.6866,9.1851],[8.6911,9.1874],[8.709,9.1874],[8.7225,9.1851],[8.7495,9.1784],[8.7652,9.1649],[8.7674,9.1582],[8.7674,9.1447],[8.7674,9.1357],[8.7652,9.129],[8.7607,9.1178],[8.7607,9.1043],[8.7697,9.0953],[8.7809,9.0863],[8.7832,9.0841],[8.7921,9.0841],[8.7989,9.0706],[8.7944,9.0616],[8.7899,9.0526],[8.7899,9.0459],[8.7899,9.0437],[8.7944,9.0369],[8.7989,9.0324],[8.8123,9.0302],[8.8236,9.0302],[8.8438,9.0302],[8.8662,9.0279],[8.8865,9.0212],[8.8977,9.0212],[8.9067,9.019],[8.9246,9.0167],[8.9291,9.0167],[8.9606,9.0167],[8.983,9.0167],[9.0122,9.0212],[9.0392,9.0279],[9.0459,9.0279],[9.0504,9.0257],[9.0526,9.0257],[9.0571,9.0234],[9.0594,9.0212],[9.0616,9.0234],[9.0661,9.0302],[9.0684,9.0347],[9.0729,9.0414],[9.0796,9.0481],[9.0863,9.0526],[9.102,9.0639],[9.1043,9.0706],[9.1088,9.0818],[9.111,9.0931],[9.1155,9.111],[9.1178,9.1268],[9.12,9.1447],[9.1223,9.1515],[9.1245,9.1627],[9.1245,9.1762],[9.129,9.1874],[9.1312,9.2009],[9.1312,9.2121],[9.1268,9.2256],[9.1245,9.2323],[9.1245,9.2345],[9.1223,9.2548],[9.1223,9.275],[9.12,9.2884],[9.12,9.2974],[9.12,9.3019],[9.12,9.3087],[9.1088,9.3289],[9.0953,9.3446],[9.0818,9.3558],[9.0684,9.3738],[9.0639,9.3783],[9.0549,9.3873],[9.0437,9.3985],[9.0324,9.403],[9.0212,9.4097],[9.0167,9.4187],[9.01,9.4277],[9.0032,9.4322],[9.001,9.4412],[8.9943,9.4389],[8.9785,9.4344],[8.9651,9.4299],[8.9538,9.4232],[8.9471,9.4187],[8.9246,9.403],[8.9134,9.3918],[8.9044,9.3828],[8.8909,9.3715],[8.8685,9.3648],[8.8505,9.3626],[8.8415,9.3648],[8.8281,9.367],[8.8168,9.3626],[8.8056,9.3536],[8.7921,9.3491],[8.7764,9.3491],[8.7674,9.3491],[8.7652,9.3468],[8.7607,9.3401],[8.7495,9.3334],[8.7427,9.3311],[8.7248,9.3266],[8.7045,9.3221],[8.6978,9.3199],[8.6933,9.3131],[8.6866,9.2997],[8.6843,9.284],[8.6798,9.275],[8.6709,9.2682],[8.6664,9.2682],[8.6574,9.2682],[8.6484,9.2637],[8.6439,9.2593],[8.6349,9.248],[8.6372,9.2413]]]}},{"type":"Feature","properties":{"id":"plateau/jos-east","name":"Jos East","state":"Plateau"},"geometry":{"type":"Polygon","coordinates":[[[8.9718,9.7982],[8.9763,9.7915],[8.9785,9.769],[8.983,9.7511],[8.9898,9.7398],[8.9943,9.7309],[8.9987,9.7241],[9.0122,9.7151],[9.0257,9.7106],[9.0347,9.7062],[9.0392,9.7062],[9.0549,9.7062],[9.0729,9.7039],[9.0818,9.7017],[9.0841,9.7017],[9.0863,9.6994],[9.0908,9.7039],[9.0953,9.7084],[9.102,9.7174],[9.1088,9.7196],[9.12,9.7264],[9.1268,9.7309],[9.138,9.7376],[9.1447,9.7421],[9.1515,9.7443],[9.1515,9.7488],[9.1515,9.7511],[9.1559,9.7556],[9.1604,9.7578],[9.1694,9.7623],[9.1739,9.7645],[9.1851,9.769],[9.2121,9.7825],[9.2188,9.7848],[9.2301,9.7915],[9.2525,9.8095],[9.2615,9.8184],[9.266,9.8297],[9.2682,9.8364],[9.2705,9.8431],[9.2727,9.8499],[9.275,9.8589],[9.2772,9.8701],[9.2795,9.8723],[9.2862,9.8791],[9.2907,9.8903],[9.2907,9.9015],[9.2907,9.9083],[9.284,9.9307],[9.2795,9.9532],[9.275,9.9577],[9.2705,9.9622],[9.2682,9.9689],[9.266,9.9779],[9.2637,9.9801],[9.2637,9.9891],[9.2637,9.9914],[9.2593,10.0071],[9.2548,10.0161],[9.2503,10.0251],[9.248,10.0318],[9.239,10.034],[9.2211,10.0453],[9.2166,10.0453],[9.2031,10.0475],[9.1896,10.0475],[9.1762,10.0475],[9.1627,10.0453],[9.1604,10.043],[9.1492,10.0408],[9.1447,10.043],[9.1425,10.043],[9.1357,10.043],[9.1245,10.0385],[9.1155,10.0363],[9.0863,10.0251],[9.0751,10.0228],[9.0639,10.0206],[9.0594,10.0183],[9.0481,10.0161],[9.0414,10.0161],[9.0302,10.0138],[9.0145,10.0138],[8.9987,10.0093],[8.992,10.0093],[8.9853,10.0093],[8.9853,10.0071],[8.9808,9.9981],[8.9785,9.9936],[8.9785,9.9869],[8.9718,9.9801],[8.9695,9.9734],[8.9695,9.9667],[8.9695,9.9599],[8.9718,9.9465],[8.974,9.942],[8.9763,9.9352],[8.983,9.924],[8.9875,9.9173],[8.9898,9.9105],[8.992,9.8903],[8.9875,9.8746],[8.983,9.8634],[8.9808,9.8611],[8.9785,9.8499],[8.974,9.8387],[8.974,9.8297],[8.9695,9.8162],[8.9718,9.7982]]]}},{"type":"Feature","properties":{"id":"plateau/jos-north","name":"Jos North","state":"Plateau"},"geometry":{"type":"Polygon","coordinates":[[[8.8034,9.906],[8.8101,9.9038],[8.8123,9.9038],[8.8236,9.8926],[8.8281,9.8858],[8.8326,9.8813],[8.8326,9.8768],[8.8348,9.8701],[8.8393,9.8589],[8.8438,9.8566],[8.8483,9.8544],[8.855,9.8544],[8.8707,9.8566],[8.8909,9.8611],[8.8977,9.8656],[8.9067,9.8701],[8.9179,9.8701],[8.9246,9.8679],[8.9314,9.8634],[8.9381,9.8589],[8.9493,9.8521],[8.9561,9.8521],[8.9651,9.8521],[8.9695,9.8521],[8.9785,9.8566],[8.9808,9.8611],[8.983,9.8634],[8.9875,9.8746],[8.992,9.8903],[8.9898,9.9105],[8.9875,9.9173],[8.983,9.924],[8.9763,9.9352],[8.974,9.942],[8.9718,9.9465],[8.9695,9.9599],[8.9695,9.9667],[8.9695,9.9734],[8.9718,9.9801],[8.9785,9.9869],[8.9785,9.9936],[8.9808,9.9981],[8.9853,10.0071],[8.9853,10.0093],[8.983,10.0116],[8.9785,10.0116],[8.9673,10.0183],[8.9561,10.0228],[8.9538,10.0273],[8.9561,10.034],[8.9493,10.0295],[8.9381,10.0251],[8.9291,10.0251],[8.9246,10.0251],[8.9179,10.0251],[8.9022,10.0228],[8.8932,10.0161],[8.8887,10.0116],[8.8842,10.0093],[8.8775,10.0048],[8.8662,10.0004],[8.855,9.9936],[8.8528,9.9891],[8.8505,9.9846],[8.8438,9.9779],[8.8348,9.9689],[8.8326,9.9667],[8.8236,9.9599],[8.8191,9.9487],[8.8146,9.9442],[8.8101,9.9397],[8.8056,9.933],[8.7989,9.9173],[8.7989,9.9105],[8.8034,9.906]]]}},{"type":"Feature","properties":{"id":"plateau/jos-south","name":"Jos South","state":"Plateau"},"geometry":{"type":"Polygon","coordinates":[[[8.7023,9.6567],[8.7068,9.6523],[8.7158,9.6523],[8.7337,9.6478],[8.7427,9.6478],[8.754,9.641],[8.7629,9.6365],[8.7652,9.6298],[8.7652,9.6253],[8.7674,9.6163],[8.7742,9.6118],[8.7854,9.6141],[8.7899,9.6231],[8.7921,9.6298],[8.7944,9.6365],[8.7944,9.6388],[8.8034,9.6455],[8.8101,9.6433],[8.8168,9.6365],[8.8236,9.632],[8.837,9.6253],[8.846,9.6253],[8.8505,9.6276],[8.8573,9.6343],[8.8618,9.6388],[8.8707,9.6478],[8.8752,9.6545],[8.8797,9.6702],[8.8797,9.677],[8.8865,9.6904],[8.8909,9.6949],[8.8977,9.7084],[8.9022,9.7129],[8.9089,9.7264],[8.9112,9.7286],[8.9201,9.7354],[8.9246,9.7398],[8.9359,9.7488],[8.9426,9.7533],[8.9448,9.7578],[8.9471,9.7645],[8.9516,9.7915],[8.9516,9.796],[8.9516,9.805],[8.9516,9.8095],[8.9516,9.8162],[8.9538,9.8207],[8.9583,9.8252],[8.974,9.8297],[8.974,9.8387],[8.9785,9.8499],[8.9808,9.8611],[8.9785,9.8566],[8.9695,9.8521],[8.9651,9.8521],[8.9561,9.8521],[8.9493,9.8521],[8.9381,9.8589],[8.9314,9.8634],[8.9246,9.8679],[8.9179,9.8701],[8.9067,9.8701],[8.8977,9.8656],[8.8909,9.8611],[8.8707,9.8566],[8.855,9.8544],[8.8483,9.8544],[8.8438,9.8566],[8.8393,9.8589],[8.8348,9.8701],[8.8326,9.8768],[8.8326,9.8813],[8.8281,9.8858],[8.8236,9.8926],[8.8123,9.9038],[8.8101,9.9038],[8.8034,9.906],[8.8056,9.9015],[8.8123,9.8858],[8.8123,9.8746],[8.8101,9.8656],[8.8034,9.8589],[8.7966,9.8544],[8.7921,9.8476],[8.7854,9.8274],[8.7787,9.8117],[8.7787,9.805],[8.7764,9.787],[8.7764,9.7758],[8.7697,9.769],[8.754,9.7601],[8.7405,9.7511],[8.7315,9.7466],[8.7248,9.7443],[8.709,9.7354],[8.7001,9.7331],[8.6978,9.7331],[8.7023,9.7241],[8.7113,9.7106],[8.7068,9.6972],[8.7023,9.6904],[8.6978,9.6792],[8.6978,9.6725],[8.6978,9.6657],[8.6978,9.6612],[8.7023,9.6567]]]}},{"type":"Feature","properties":{"id":"plateau/kanam","name":"Kanam","state":"Plateau"},"geometry":{"type":"Polygon","coordinates":[[[9.7466,9.5287],[9.7533,9.5198],[9.7578,9.5108],[9.7668,9.4973],[9.7713,9.4951],[9.778,9.4883],[9.7848,9.4704],[9.787,9.4659],[9.7892,9.4524],[9.7915,9.4479],[9.7915,9.4367],[9.7915,9.4299],[9.7892,9.412],[9.7892,9.4007],[9.7825,9.3962],[9.7758,9.385],[9.7735,9.3805],[9.7713,9.3693],[9.7735,9.3648],[9.7713,9.3558],[9.769,9.3513],[9.7645,9.3446],[9.7601,9.3379],[9.7601,9.3289],[9.7623,9.3199],[9.7645,9.3131],[9.7668,9.3087],[9.769,9.2997],[9.769,9.2952],[9.7713,9.2997],[9.787,9.3042],[9.8005,9.3064],[9.8117,9.3042],[9.8207,9.3019],[9.8319,9.2997],[9.8521,9.2974],[9.8566,9.2907],[9.8611,9.284],[9.8634,9.275],[9.8656,9.2682],[9.8723,9.2637],[9.8791,9.2615],[9.8881,9.2548],[9.8836,9.2435],[9.8813,9.2301],[9.8813,9.2256],[9.8813,9.2211],[9.8836,9.2143],[9.8926,9.2143],[9.9038,9.2143],[9.9083,9.2143],[9.9105,9.2121],[9.915,9.2098],[9.9195,9.2098],[9.9375,9.2143],[9.942,9.2166],[9.9532,9.2211],[9.9577,9.2301],[9.9599,9.2323],[9.9644,9.2345],[9.9756,9.2345],[9.9936,9.239],[10.0138,9.248],[10.0183,9.2548],[10.0206,9.2615],[10.0161,9.2682],[10.0093,9.2727],[10.0004,9.275],[9.9936,9.2817],[9.9914,9.2862],[9.9891,9.2884],[9.9914,9.2974],[9.9981,9.3019],[10.0004,9.3064],[10.0206,9.3199],[10.0318,9.3266],[10.0542,9.3401],[10.061,9.3423],[10.0745,9.3446],[10.0812,9.3468],[10.0902,9.3603],[10.0924,9.3715],[10.0969,9.3828],[10.0947,9.3895],[10.0969,9.394],[10.1037,9.4052],[10.1037,9.4165],[10.1104,9.4277],[10.1171,9.4367],[10.1284,9.4479],[10.1396,9.4546],[10.1553,9.4614],[10.18,9.4591],[10.189,9.4524],[10.2002,9.4456],[10.2227,9.4434],[10.2317,9.4434],[10.2406,9.4434],[10.2474,9.4456],[10.2519,9.4479],[10.2609,9.4546],[10.2721,9.4591],[10.2968,9.4614],[10.308,9.4569],[10.3215,9.4456],[10.3327,9.4344],[10.3417,9.4254],[10.3484,9.4142],[10.3664,9.4007],[10.3911,9.3873],[10.4091,9.3828],[10.4203,9.385],[10.4315,9.3873],[10.4607,9.394],[10.4765,9.3985],[10.4944,9.403],[10.5146,9.403],[10.5483,9.4052],[10.5685,9.4007],[10.5708,9.4007],[10.5775,9.4097],[10.5798,9.4187],[10.5798,9.4389],[10.5775,9.4456],[10.5663,9.4659],[10.5573,9.4726],[10.5483,9.4771],[10.5326,9.4928],[10.5191,9.504],[10.5169,9.5108],[10.5124,9.5108],[10.5101,9.5153],[10.5079,9.522],[10.5034,9.5265],[10.4989,9.5287],[10.4922,9.5422],[10.4899,9.5534],[10.4832,9.5557],[10.4787,9.5579],[10.4652,9.5602],[10.4495,9.5714],[10.4293,9.5804],[10.3934,9.5939],[10.3821,9.5984],[10.3731,9.6029],[10.3619,9.6096],[10.3529,9.6163],[10.3395,9.6298],[10.326,9.641],[10.3125,9.6433],[10.2968,9.6523],[10.2923,9.6567],[10.2811,9.6635],[10.2766,9.6657],[10.2631,9.668],[10.2586,9.668],[10.2451,9.6657],[10.2294,9.6612],[10.2115,9.659],[10.1957,9.6567],[10.1867,9.6545],[10.1845,9.6523],[10.1665,9.65],[10.162,9.6523],[10.1598,9.6567],[10.1441,9.6927],[10.1373,9.7084],[10.1306,9.7219],[10.1284,9.7241],[10.1126,9.7331],[10.0969,9.7421],[10.061,9.7578],[10.0453,9.7601],[10.0228,9.7668],[10.0161,9.7668],[10.0093,9.769],[10.0048,9.7668],[10.0026,9.7668],[9.9936,9.769],[9.9846,9.769],[9.9667,9.7735],[9.9667,9.7713],[9.9622,9.7556],[9.9622,9.7466],[9.9622,9.7264],[9.9712,9.7084],[9.9756,9.6904],[9.9846,9.6635],[9.9914,9.6455],[9.9914,9.6388],[9.9801,9.6231],[9.9622,9.6118],[9.942,9.6096],[9.915,9.6118],[9.906,9.6118],[9.8813,9.6073],[9.8544,9.6073],[9.8162,9.5939],[9.8095,9.5871],[9.7937,9.5669],[9.7848,9.5579],[9.7825,9.5557],[9.778,9.5512],[9.7578,9.5445],[9.7466,9.5377],[9.7421,9.5355],[9.7466,9.5287]]]}},{"type":"Feature","properties":{"id":"plateau/kanke","name":"Kanke","state":"Plateau"},"geometry":{"type":"Polygon","coordinates":[[[9.4704,9.4479],[9.4816,9.4412],[9.4838,9.4412],[9.4928,9.4412],[9.4951,9.4389],[9.5063,9.4344],[9.5108,9.4277],[9.5108,9.4187],[9.5063,9.4097],[9.504,9.403],[9.5018,9.3985],[9.5018,9.394],[9.504,9.3873],[9.5063,9.3828],[9.5085,9.3783],[9.5063,9.367],[9.504,9.3558],[9.4973,9.3513],[9.4928,9.3491],[9.4883,9.3491],[9.4748,9.3446],[9.4726,9.3423],[9.4726,9.3401],[9.4726,9.3289],[9.4748,9.3244],[9.4771,9.3199],[9.4793,9.3176],[9.4838,9.3176],[9.4928,9.3087],[9.4995,9.2997],[9.504,9.2884],[9.5085,9.2817],[9.5085,9.275],[9.513,9.2637],[9.5243,9.2548],[9.5265,9.2503],[9.5287,9.2368],[9.5287,9.2256],[9.5287,9.2121],[9.5287,9.2054],[9.5287,9.1964],[9.531,9.1941],[9.5355,9.1941],[9.5445,9.1986],[9.5557,9.2031],[9.5579,9.2054],[9.5602,9.2098],[9.5669,9.2166],[9.5781,9.2233],[9.5849,9.2256],[9.5894,9.2256],[9.5916,9.2278],[9.5984,9.2323],[9.6029,9.2368],[9.6029,9.2458],[9.6051,9.248],[9.6163,9.2682],[9.6231,9.2795],[9.6276,9.2862],[9.641,9.2884],[9.6478,9.2862],[9.6545,9.2795],[9.659,9.2772],[9.6635,9.275],[9.6725,9.275],[9.6815,9.2772],[9.6882,9.275],[9.6927,9.2727],[9.6927,9.2682],[9.6949,9.2525],[9.6994,9.2435],[9.7039,9.2368],[9.7084,9.2278],[9.7129,9.2256],[9.7219,9.2368],[9.7286,9.2435],[9.7398,9.2503],[9.7443,9.2593],[9.7466,9.2637],[9.7533,9.2795],[9.7623,9.2929],[9.769,9.2952],[9.769,9.2997],[9.7668,9.3087],[9.7645,9.3131],[9.7623,9.3199],[9.7601,9.3289],[9.7601,9.3379],[9.7645,9.3446],[9.769,9.3513],[9.7713,9.3558],[9.7735,9.3648],[9.7713,9.3693],[9.7735,9.3805],[9.7758,9.385],[9.7825,9.3962],[9.7892,9.4007],[9.7892,9.412],[9.7915,9.4299],[9.7915,9.4367],[9.7915,9.4479],[9.7892,9.4524],[9.787,9.4659],[9.7848,9.4704],[9.778,9.4883],[9.7713,9.4951],[9.7668,9.4973],[9.7578,9.5108],[9.7533,9.5198],[9.7466,9.5287],[9.7421,9.5355],[9.7331,9.5332],[9.7129,9.5287],[9.7039,9.5265],[9.6949,9.522],[9.6859,9.5198],[9.6702,9.5175],[9.659,9.5175],[9.6567,9.522],[9.6455,9.5243],[9.632,9.5198],[9.6208,9.5175],[9.6118,9.5153],[9.6073,9.5153],[9.5737,9.5085],[9.5647,9.5063],[9.5512,9.504],[9.5422,9.5085],[9.531,9.5153],[9.5287,9.522],[9.5243,9.5287],[9.5175,9.5377],[9.5085,9.54],[9.4928,9.5287],[9.4838,9.5198],[9.4816,9.5153],[9.4771,9.5085],[9.4726,9.5085],[9.4748,9.4995],[9.4771,9.4906],[9.4771,9.4838],[9.4771,9.4793],[9.4748,9.4681],[9.4726,9.4659],[9.4726,9.4614],[9.4681,9.4524],[9.4704,9.4479]]]}},{"type":"Feature","properties":{"id":"plateau/langtang-north","name":"Langtang North","state":"Plateau"},"geometry":{"type":"Polygon","coordinates":[[[9.6747,9.1268],[9.6815,9.1223],[9.6904,9.12],[9.6949,9.1133],[9.7017,9.102],[9.7062,9.102],[9.7129,9.1043],[9.7174,9.102],[9.7241,9.0931],[9.7309,9.0841],[9.7309,9.0796],[9.7309,9.0661],[9.7354,9.0571],[9.7376,9.0549],[9.7443,9.0437],[9.7466,9.0347],[9.7488,9.0302],[9.7578,9.0234],[9.7623,9.019],[9.7713,9.01],[9.7758,9.0055],[9.7915,9.001],[9.8005,9.001],[9.8184,8.9987],[9.8297,8.992],[9.8342,8.9853],[9.8342,8.9785],[9.8342,8.9695],[9.8297,8.9493],[9.8252,8.9404],[9.8229,8.9336],[9.8184,8.9291],[9.814,8.9201],[9.814,8.9157],[9.8095,8.9067],[9.8027,8.9022],[9.7892,8.8932],[9.7848,8.8932],[9.7848,8.8909],[9.7848,8.8797],[9.7803,8.873],[9.778,8.8662],[9.7803,8.8595],[9.778,8.846],[9.7758,8.8393],[9.7735,8.8326],[9.7735,8.8146],[9.7735,8.7989],[9.7803,8.7944],[9.7848,8.7944],[9.7892,8.7966],[9.7982,8.7989],[9.8005,8.8011],[9.8027,8.8034],[9.8072,8.8056],[9.8117,8.8056],[9.8184,8.8011],[9.8207,8.7966],[9.8229,8.7944],[9.8274,8.7944],[9.8342,8.7966],[9.8454,8.7944],[9.8634,8.7921],[9.8701,8.7899],[9.8791,8.7921],[9.8746,8.8011],[9.8723,8.8079],[9.8723,8.8146],[9.8723,8.8191],[9.8723,8.8236],[9.8723,8.837],[9.8723,8.8483],[9.8746,8.855],[9.8791,8.8618],[9.8791,8.8662],[9.8791,8.8707],[9.8768,8.873],[9.8723,8.8797],[9.8723,8.8887],[9.8791,8.8954],[9.8836,8.8999],[9.8858,8.9022],[9.8881,8.9112],[9.8903,8.9179],[9.8858,8.9269],[9.8836,8.9291],[9.8791,8.9336],[9.8746,8.9404],[9.8723,8.9516],[9.8723,8.9561],[9.8746,8.9606],[9.8768,8.9628],[9.8813,8.9808],[9.8813,8.9875],[9.8813,8.9898],[9.8791,8.9943],[9.8746,9.001],[9.8723,9.001],[9.8701,9.0055],[9.8679,9.01],[9.8679,9.0145],[9.8679,9.0234],[9.8701,9.0279],[9.8768,9.0347],[9.8836,9.0414],[9.8993,9.0504],[9.9083,9.0549],[9.9128,9.0571],[9.915,9.0661],[9.924,9.0886],[9.924,9.0953],[9.9195,9.1043],[9.915,9.1088],[9.915,9.111],[9.915,9.1223],[9.9195,9.1335],[9.9262,9.1425],[9.9307,9.1515],[9.9285,9.1604],[9.9262,9.1672],[9.924,9.1694],[9.9217,9.1739],[9.9173,9.1829],[9.9128,9.2009],[9.9128,9.2054],[9.915,9.2098],[9.9105,9.2121],[9.9083,9.2143],[9.9038,9.2143],[9.8926,9.2143],[9.8836,9.2143],[9.8813,9.2211],[9.8813,9.2256],[9.8813,9.2301],[9.8836,9.2435],[9.8881,9.2548],[9.8791,9.2615],[9.8723,9.2637],[9.8656,9.2682],[9.8634,9.275],[9.8611,9.284],[9.8566,9.2907],[9.8521,9.2974],[9.8319,9.2997],[9.8207,9.3019],[9.8117,9.3042],[9.8005,9.3064],[9.787,9.3042],[9.7713,9.2997],[9.769,9.2952],[9.7623,9.2929],[9.7533,9.2795],[9.7466,9.2637],[9.7443,9.2593],[9.7398,9.2503],[9.7286,9.2435],[9.7219,9.2368],[9.7129,9.2256],[9.7039,9.2188],[9.6994,9.2076],[9.6949,9.1919],[9.6949,9.1851],[9.6882,9.1694],[9.6837,9.1627],[9.6815,9.1492],[9.6792,9.1425],[9.6725,9.1312],[9.6702,9.129],[9.6747,9.1268]]]}},{"type":"Feature","properties":{"id":"plateau/langtang-south","name":"Langtang South","state":"Plateau"},"geometry":{"type":"Polygon","coordinates":[[[9.6567,8.617],[9.659,8.6057],[9.6567,8.6012],[9.6567,8.59],[9.659,8.572],[9.6612,8.5631],[9.6657,8.5563],[9.668,8.5518],[9.6725,8.5473],[9.6792,8.5384],[9.6815,8.5316],[9.6815,8.5204],[9.6815,8.5137],[9.6904,8.5047],[9.6972,8.4867],[9.7039,8.4755],[9.7039,8.4643],[9.7129,8.4508],[9.7174,8.4463],[9.7241,8.4418],[9.7264,8.4351],[9.7331,8.4238],[9.7331,8.4193],[9.7354,8.4104],[9.7354,8.4036],[9.7376,8.3969],[9.7398,8.3924],[9.7443,8.3879],[9.7511,8.3812],[9.7556,8.3744],[9.7556,8.3677],[9.7623,8.3699],[9.7735,8.3789],[9.796,8.3901],[9.8095,8.3969],[9.8252,8.4059],[9.8364,8.4126],[9.8409,8.4171],[9.8566,8.4261],[9.8634,8.4283],[9.8701,8.4306],[9.8791,8.4396],[9.8903,8.4485],[9.9083,8.4665],[9.915,8.4732],[9.9195,8.4777],[9.9262,8.4845],[9.933,8.4867],[9.9509,8.4979],[9.9532,8.5024],[9.9577,8.5069],[9.9622,8.5137],[9.9712,8.5204],[9.9824,8.5294],[9.9936,8.5361],[9.9981,8.5406],[10.0048,8.5496],[10.0071,8.5541],[10.0071,8.5563],[10.0071,8.5631],[10.0071,8.5788],[10.0093,8.599],[10.0093,8.6102],[10.0048,8.617],[9.9936,8.6259],[9.9914,8.6259],[9.9779,8.6327],[9.9689,8.6327],[9.9644,8.6327],[9.9622,8.6327],[9.9397,8.6462],[9.933,8.6507],[9.9285,8.6551],[9.9262,8.6619],[9.924,8.6641],[9.9217,8.6731],[9.915,8.6798],[9.9128,8.6978],[9.9105,8.7045],[9.9083,8.7225],[9.9038,8.736],[9.9038,8.7495],[9.9038,8.7562],[9.9015,8.7629],[9.8993,8.7652],[9.8948,8.7719],[9.8903,8.7742],[9.8881,8.7719],[9.8813,8.7854],[9.8791,8.7921],[9.8701,8.7899],[9.8634,8.7921],[9.8454,8.7944],[9.8342,8.7966],[9.8274,8.7944],[9.8229,8.7944],[9.8207,8.7966],[9.8184,8.8011],[9.8117,8.8056],[9.8072,8.8056],[9.8027,8.8034],[9.8005,8.8011],[9.7982,8.7989],[9.7892,8.7966],[9.7848,8.7944],[9.7803,8.7944],[9.7735,8.7989],[9.7713,8.7966],[9.7735,8.7921],[9.7735,8.7876],[9.7735,8.7809],[9.7645,8.7674],[9.7623,8.7652],[9.7511,8.7562],[9.7398,8.754],[9.7241,8.7495],[9.7174,8.7517],[9.7084,8.754],[9.6927,8.7472],[9.6725,8.7293],[9.6725,8.727],[9.6635,8.7135],[9.6635,8.7045],[9.6612,8.6978],[9.6612,8.6911],[9.659,8.6821],[9.6545,8.6731],[9.6545,8.6619],[9.6567,8.6529],[9.659,8.6462],[9.6567,8.6394],[9.6545,8.6327],[9.6545,8.6237],[9.6567,8.617]]]}},{"type":"Feature","properties":{"id":"plateau/mangu","name":"Mangu","state":"Plateau"},"geometry":{"type":"Polygon","coordinates":[[[9.0032,9.4322],[9.01,9.4277],[9.0167,9.4187],[9.0212,9.4097],[9.0324,9.403],[9.0437,9.3985],[9.0549,9.3873],[9.0639,9.3783],[9.0684,9.3738],[9.0818,9.3558],[9.0953,9.3446],[9.1088,9.3289],[9.12,9.3087],[9.12,9.3019],[9.12,9.2974],[9.12,9.2884],[9.1223,9.275],[9.1223,9.2548],[9.1245,9.2345],[9.1245,9.2323],[9.1268,9.2256],[9.1312,9.2121],[9.1312,9.2009],[9.129,9.1874],[9.1245,9.1762],[9.1245,9.1627],[9.1223,9.1515],[9.12,9.1447],[9.1178,9.1268],[9.1155,9.111],[9.111,9.0931],[9.1088,9.0818],[9.1043,9.0706],[9.1155,9.0661],[9.12,9.0571],[9.1223,9.0504],[9.129,9.0257],[9.129,9.0167],[9.1268,9.0032],[9.1245,8.9987],[9.1268,8.9875],[9.129,8.9808],[9.1335,8.9763],[9.1492,8.9853],[9.1515,8.9898],[9.1582,8.9965],[9.1739,9.0077],[9.1762,9.0145],[9.1829,9.0234],[9.1919,9.0257],[9.1941,9.0302],[9.2009,9.0369],[9.2031,9.0414],[9.2188,9.0571],[9.2211,9.0571],[9.2278,9.0661],[9.2301,9.0684],[9.2413,9.0773],[9.2525,9.0841],[9.2615,9.0908],[9.2997,9.1088],[9.2974,9.1133],[9.2974,9.1223],[9.2929,9.1268],[9.2862,9.1335],[9.2795,9.1425],[9.2772,9.1582],[9.275,9.1627],[9.2727,9.1739],[9.2727,9.1896],[9.275,9.2031],[9.2795,9.2166],[9.2727,9.2278],[9.2727,9.2323],[9.275,9.239],[9.2772,9.2458],[9.275,9.2548],[9.2727,9.266],[9.2682,9.284],[9.2637,9.2907],[9.2637,9.2997],[9.2637,9.3199],[9.266,9.3289],[9.2705,9.3334],[9.2727,9.3401],[9.2795,9.3491],[9.284,9.3603],[9.2907,9.367],[9.2974,9.3805],[9.3019,9.394],[9.3064,9.4052],[9.3042,9.4187],[9.3087,9.4299],[9.3154,9.4501],[9.3154,9.4569],[9.3087,9.4771],[9.3064,9.4838],[9.3042,9.4906],[9.3019,9.504],[9.2997,9.5175],[9.2952,9.531],[9.2929,9.5355],[9.2907,9.5445],[9.2907,9.5512],[9.2907,9.5602],[9.2907,9.5647],[9.2952,9.5692],[9.3019,9.5759],[9.3087,9.5781],[9.3154,9.5804],[9.3221,9.5804],[9.3289,9.5781],[9.3356,9.5781],[9.3334,9.5871],[9.3311,9.5916],[9.3266,9.5961],[9.3244,9.6006],[9.3199,9.6118],[9.3199,9.6186],[9.3131,9.6231],[9.3042,9.6208],[9.2952,9.6253],[9.284,9.6365],[9.284,9.6433],[9.2884,9.6523],[9.2907,9.6612],[9.2952,9.6725],[9.2907,9.6837],[9.2884,9.6927],[9.2795,9.7084],[9.2727,9.7151],[9.2705,9.7174],[9.2615,9.7129],[9.2503,9.7017],[9.248,9.6972],[9.2435,9.6972],[9.2368,9.6927],[9.2098,9.7017],[9.2031,9.7039],[9.1986,9.7084],[9.1829,9.7241],[9.1739,9.7309],[9.1694,9.7331],[9.1604,9.7398],[9.1515,9.7443],[9.1447,9.7421],[9.138,9.7376],[9.1268,9.7309],[9.12,9.7264],[9.1088,9.7196],[9.102,9.7174],[9.0953,9.7084],[9.0908,9.7039],[9.0863,9.6994],[9.0886,9.6972],[9.0953,9.6882],[9.0998,9.677],[9.1088,9.6657],[9.1178,9.659],[9.1268,9.6567],[9.1312,9.6523],[9.1357,9.6478],[9.138,9.641],[9.138,9.6343],[9.138,9.6231],[9.1357,9.6163],[9.1312,9.6096],[9.12,9.5984],[9.1088,9.5871],[9.0976,9.5826],[9.0818,9.5759],[9.0729,9.5759],[9.0661,9.5737],[9.0594,9.5692],[9.0571,9.5647],[9.0526,9.5579],[9.0504,9.5557],[9.0459,9.5557],[9.0369,9.5534],[9.0257,9.549],[9.0234,9.5445],[9.019,9.5355],[9.019,9.5265],[9.0212,9.5153],[9.019,9.5018],[9.0167,9.4951],[9.0145,9.4793],[9.0122,9.4704],[9.0122,9.4591],[9.01,9.4569],[9.001,9.4412],[9.0032,9.4322]]]}},{"type":"Feature","properties":{"id":"plateau/mikang","name":"Mikang","state":"Plateau"},"geometry":{"type":"Polygon","coordinates":[[[9.3446,9.001],[9.3491,8.9898],[9.3536,8.9853],[9.3581,8.983],[9.3693,8.9808],[9.3738,8.9785],[9.4007,8.983],[9.4187,8.9853],[9.4254,8.9875],[9.4434,8.9875],[9.4524,8.9875],[9.4636,8.983],[9.4681,8.9808],[9.4771,8.9718],[9.4838,8.9651],[9.4906,8.9561],[9.4928,8.9516],[9.4951,8.9493],[9.5063,8.9359],[9.5108,8.9314],[9.513,8.9291],[9.5265,8.9314],[9.531,8.9336],[9.5377,8.9336],[9.5534,8.9291],[9.5669,8.9291],[9.5826,8.9291],[9.5939,8.9269],[9.6051,8.9246],[9.6276,8.9224],[9.6455,8.9201],[9.6545,8.9246],[9.6747,8.9291],[9.6882,8.9291],[9.7017,8.9314],[9.7129,8.9381],[9.7219,8.9404],[9.7354,8.9448],[9.7488,8.9448],[9.7556,8.9448],[9.769,8.9381],[9.7758,8.9336],[9.778,8.9314],[9.7825,8.9291],[9.7848,8.9224],[9.7848,8.9179],[9.7825,8.9112],[9.7825,8.8977],[9.7848,8.8932],[9.7892,8.8932],[9.8027,8.9022],[9.8095,8.9067],[9.814,8.9157],[9.814,8.9201],[9.8184,8.9291],[9.8229,8.9336],[9.8252,8.9404],[9.8297,8.9493],[9.8342,8.9695],[9.8342,8.9785],[9.8342,8.9853],[9.8297,8.992],[9.8184,8.9987],[9.8005,9.001],[9.7915,9.001],[9.7758,9.0055],[9.7713,9.01],[9.7623,9.019],[9.7578,9.0234],[9.7488,9.0302],[9.7466,9.0347],[9.7443,9.0437],[9.7376,9.0549],[9.7354,9.0571],[9.7309,9.0661],[9.7309,9.0796],[9.7309,9.0841],[9.7241,9.0931],[9.7174,9.102],[9.7129,9.1043],[9.7062,9.102],[9.7017,9.102],[9.6949,9.1133],[9.6904,9.12],[9.6815,9.1223],[9.6747,9.1268],[9.6702,9.129],[9.6635,9.1268],[9.65,9.1245],[9.6478,9.1268],[9.6433,9.1268],[9.6298,9.12],[9.6231,9.1155],[9.6163,9.1088],[9.6029,9.0953],[9.5984,9.0886],[9.5961,9.0796],[9.5916,9.0729],[9.5894,9.0684],[9.5781,9.0661],[9.5737,9.0729],[9.5737,9.0751],[9.5714,9.0818],[9.5737,9.0863],[9.5692,9.0953],[9.5669,9.0976],[9.5579,9.0976],[9.5534,9.0931],[9.5534,9.0908],[9.5467,9.0729],[9.5445,9.0594],[9.5445,9.0526],[9.5422,9.0459],[9.54,9.0437],[9.5355,9.0459],[9.5355,9.0526],[9.5355,9.0571],[9.5332,9.0639],[9.5265,9.0639],[9.522,9.0639],[9.5153,9.0661],[9.5108,9.0706],[9.5063,9.0796],[9.5018,9.0818],[9.4928,9.0863],[9.4883,9.0863],[9.4771,9.0796],[9.4726,9.0616],[9.4726,9.0504],[9.4704,9.0392],[9.4659,9.0279],[9.4614,9.0279],[9.4501,9.0302],[9.4434,9.0347],[9.4299,9.0504],[9.4142,9.0639],[9.4142,9.0661],[9.4097,9.0729],[9.3962,9.0796],[9.3738,9.0908],[9.3626,9.0953],[9.3626,9.0931],[9.3558,9.0773],[9.3513,9.0729],[9.3468,9.0639],[9.3423,9.0549],[9.3401,9.0437],[9.3401,9.0302],[9.3401,9.0145],[9.3446,9.001]]]}},{"type":"Feature","properties":{"id":"plateau/pankshin","name":"Pankshin","state":"Plateau"},"geometry":{"type":"Polygon","coordinates":[[[9.2682,9.284],[9.2727,9.266],[9.275,9.2548],[9.2772,9.2458],[9.275,9.239],[9.2727,9.2323],[9.2727,9.2278],[9.2795,9.2166],[9.275,9.2031],[9.2727,9.1896],[9.2727,9.1739],[9.275,9.1627],[9.2772,9.1582],[9.2795,9.1425],[9.2862,9.1335],[9.2929,9.1268],[9.2974,9.1223],[9.2974,9.1133],[9.2997,9.1088],[9.3064,9.102],[9.3154,9.0998],[9.3221,9.1043],[9.3311,9.1043],[9.3491,9.0998],[9.3581,9.0976],[9.3626,9.0953],[9.3738,9.0908],[9.3962,9.0796],[9.4097,9.0729],[9.4142,9.0661],[9.4142,9.0639],[9.4299,9.0504],[9.4434,9.0347],[9.4501,9.0302],[9.4614,9.0279],[9.4659,9.0279],[9.4704,9.0392],[9.4726,9.0504],[9.4726,9.0616],[9.4771,9.0796],[9.4883,9.0863],[9.4928,9.0863],[9.5018,9.0818],[9.5063,9.0796],[9.5108,9.0706],[9.5153,9.0661],[9.522,9.0639],[9.5265,9.0639],[9.5332,9.0639],[9.5355,9.0571],[9.5355,9.0526],[9.5355,9.0459],[9.54,9.0437],[9.5422,9.0459],[9.5445,9.0526],[9.5445,9.0594],[9.5467,9.0729],[9.5534,9.0908],[9.5534,9.0931],[9.5579,9.0976],[9.5669,9.0976],[9.5692,9.0953],[9.5737,9.0863],[9.5714,9.0818],[9.5737,9.0751],[9.5737,9.0729],[9.5781,9.0661],[9.5894,9.0684],[9.5916,9.0729],[9.5961,9.0796],[9.5984,9.0886],[9.6029,9.0953],[9.6163,9.1088],[9.6231,9.1155],[9.6298,9.12],[9.6433,9.1268],[9.6478,9.1268],[9.65,9.1245],[9.6635,9.1268],[9.6702,9.129],[9.6725,9.1312],[9.6792,9.1425],[9.6815,9.1492],[9.6837,9.1627],[9.6882,9.1694],[9.6949,9.1851],[9.6949,9.1919],[9.6994,9.2076],[9.7039,9.2188],[9.7129,9.2256],[9.7084,9.2278],[9.7039,9.2368],[9.6994,9.2435],[9.6949,9.2525],[9.6927,9.2682],[9.6927,9.2727],[9.6882,9.275],[9.6815,9.2772],[9.6725,9.275],[9.6635,9.275],[9.659,9.2772],[9.6545,9.2795],[9.6478,9.2862],[9.641,9.2884],[9.6276,9.2862],[9.6231,9.2795],[9.6163,9.2682],[9.6051,9.248],[9.6029,9.2458],[9.6029,9.2368],[9.5984,9.2323],[9.5916,9.2278],[9.5894,9.2256],[9.5849,9.2256],[9.5781,9.2233],[9.5669,9.2166],[9.5602,9.2098],[9.5579,9.2054],[9.5557,9.2031],[9.5445,9.1986],[9.5355,9.1941],[9.531,9.1941],[9.5287,9.1964],[9.5287,9.2054],[9.5287,9.2121],[9.5287,9.2256],[9.5287,9.2368],[9.5265,9.2503],[9.5243,9.2548],[9.513,9.2637],[9.5085,9.275],[9.5085,9.2817],[9.504,9.2884],[9.4995,9.2997],[9.4928,9.3087],[9.4838,9.3176],[9.4793,9.3176],[9.4771,9.3199],[9.4748,9.3244],[9.4726,9.3289],[9.4726,9.3401],[9.4726,9.3423],[9.4748,9.3446],[9.4883,9.3491],[9.4928,9.3491],[9.4973,9.3513],[9.504,9.3558],[9.5063,9.367],[9.5085,9.3783],[9.5063,9.3828],[9.504,9.3873],[9.5018,9.394],[9.5018,9.3985],[9.504,9.403],[9.5063,9.4097],[9.5108,9.4187],[9.5108,9.4277],[9.5063,9.4344],[9.4951,9.4389],[9.4928,9.4412],[9.4838,9.4412],[9.4816,9.4412],[9.4704,9.4479],[9.4681,9.4524],[9.4726,9.4614],[9.4726,9.4659],[9.4748,9.4681],[9.4771,9.4793],[9.4771,9.4838],[9.4771,9.4906],[9.4748,9.4995],[9.4726,9.5085],[9.4614,9.5018],[9.4456,9.4995],[9.4367,9.4973],[9.4232,9.4995],[9.4075,9.504],[9.4052,9.5085],[9.403,9.513],[9.3985,9.531],[9.3985,9.5377],[9.394,9.5467],[9.3895,9.5512],[9.3693,9.5602],[9.3648,9.5624],[9.3626,9.5669],[9.3581,9.5714],[9.3558,9.5714],[9.3513,9.5714],[9.3401,9.5759],[9.3356,9.5781],[9.3289,9.5781],[9.3221,9.5804],[9.3154,9.5804],[9.3087,9.5781],[9.3019,9.5759],[9.2952,9.5692],[9.2907,9.5647],[9.2907,9.5602],[9.2907,9.5512],[9.2907,9.5445],[9.2929,9.5355],[9.2952,9.531],[9.2997,9.5175],[9.3019,9.504],[9.3042,9.4906],[9.3064,9.4838],[9.3087,9.4771],[9.3154,9.4569],[9.3154,9.4501],[9.3087,9.4299],[9.3042,9.4187],[9.3064,9.4052],[9.3019,9.394],[9.2974,9.3805],[9.2907,9.367],[9.284,9.3603],[9.2795,9.3491],[9.2727,9.3401],[9.2705,9.3334],[9.266,9.3289],[9.2637,9.3199],[9.2637,9.2997],[9.2637,9.2907],[9.2682,9.284]]]}},{"type":"Feature","properties":{"id":"plateau/qua-an-pan","name":"Qua'An Pan","state":"Plateau"},"geometry":{"type":"Polygon","coordinates":[[[8.8932,8.7337],[8.8977,8.727],[8.9022,8.7203],[8.9067,8.7113],[8.9112,8.7023],[8.9112,8.6978],[8.9134,8.6866],[8.9291,8.6731],[8.9404,8.6664],[8.9404,8.6596],[8.9426,8.6529],[8.9448,8.6462],[8.9471,8.6394],[8.9516,8.6215],[8.9583,8.6125],[8.9651,8.608],[8.9695,8.6057],[8.9785,8.6057],[8.9808,8.6012],[8.983,8.5968],[8.983,8.5855],[8.9808,8.5788],[8.983,8.5743],[8.983,8.572],[8.9853,8.5676],[8.9853,8.5631],[8.983,8.5541],[8.9785,8.5496],[8.974,8.5406],[8.974,8.5384],[8.9785,8.5316],[8.983,8.5271],[8.9875,8.5226],[8.9898,8.5204],[8.9965,8.5182],[9.0055,8.5137],[9.019,8.5092],[9.0324,8.5137],[9.0437,8.5182],[9.0504,8.5204],[9.0594,8.5114],[9.0594,8.5047],[9.0594,8.4979],[9.0706,8.4867],[9.0751,8.4867],[9.0796,8.489],[9.0841,8.4867],[9.0886,8.4845],[9.102,8.4732],[9.102,8.4687],[9.1043,8.4643],[9.0998,8.4575],[9.0976,8.4553],[9.0976,8.4485],[9.0976,8.4396],[9.102,8.4396],[9.111,8.4373],[9.1178,8.4373],[9.1245,8.4351],[9.129,8.4306],[9.1335,8.4283],[9.1357,8.4351],[9.1447,8.444],[9.1492,8.4463],[9.1515,8.453],[9.1582,8.4575],[9.1739,8.4665],[9.1851,8.4665],[9.2031,8.4598],[9.2121,8.4575],[9.2166,8.4575],[9.2548,8.4598],[9.2637,8.4598],[9.2727,8.4643],[9.2727,8.4687],[9.275,8.4822],[9.275,8.489],[9.2772,8.4957],[9.2795,8.5002],[9.284,8.5159],[9.2929,8.5204],[9.3019,8.5361],[9.2997,8.5451],[9.3019,8.5496],[9.3131,8.572],[9.3176,8.5788],[9.3244,8.59],[9.3311,8.6012],[9.3334,8.6057],[9.3379,8.6125],[9.3401,8.6282],[9.3446,8.6417],[9.3446,8.6507],[9.3401,8.6731],[9.3379,8.6843],[9.3401,8.6956],[9.3446,8.7113],[9.3468,8.7203],[9.3468,8.7337],[9.3513,8.7405],[9.3491,8.754],[9.3491,8.7584],[9.3468,8.7674],[9.3513,8.7719],[9.3581,8.7832],[9.3626,8.7921],[9.3626,8.7966],[9.3626,8.8011],[9.3805,8.8146],[9.3873,8.8191],[9.394,8.8213],[9.3985,8.8236],[9.403,8.8258],[9.403,8.8303],[9.4007,8.8393],[9.394,8.8415],[9.3918,8.8438],[9.3873,8.8415],[9.376,8.8415],[9.3693,8.8415],[9.3581,8.8415],[9.3513,8.8483],[9.3468,8.855],[9.3446,8.8595],[9.3423,8.864],[9.3423,8.8685],[9.3401,8.8865],[9.3401,8.9044],[9.3423,8.9112],[9.3468,8.9246],[9.3491,8.9336],[9.3558,8.9404],[9.3558,8.9471],[9.3558,8.9538],[9.3513,8.9628],[9.3491,8.9718],[9.3401,8.9808],[9.3289,8.9943],[9.3221,9.0055],[9.3199,9.0122],[9.3199,9.019],[9.3199,9.0392],[9.3221,9.0504],[9.3221,9.0616],[9.3244,9.0773],[9.3221,9.0931],[9.3221,9.0998],[9.3221,9.1043],[9.3154,9.0998],[9.3064,9.102],[9.2997,9.1088],[9.2615,9.0908],[9.2525,9.0841],[9.2413,9.0773],[9.2301,9.0684],[9.2278,9.0661],[9.2211,9.0571],[9.2188,9.0571],[9.2031,9.0414],[9.2009,9.0369],[9.1941,9.0302],[9.1919,9.0257],[9.1829,9.0234],[9.1762,9.0145],[9.1739,9.0077],[9.1582,8.9965],[9.1515,8.9898],[9.1492,8.9853],[9.1335,8.9763],[9.129,8.9808],[9.1268,8.9875],[9.1245,8.9987],[9.1268,9.0032],[9.129,9.0167],[9.129,9.0257],[9.1223,9.0504],[9.12,9.0571],[9.1155,9.0661],[9.1043,9.0706],[9.102,9.0639],[9.0863,9.0526],[9.0796,9.0481],[9.0729,9.0414],[9.0684,9.0347],[9.0661,9.0302],[9.0616,9.0234],[9.0594,9.0212],[9.0616,9.019],[9.0661,9.0077],[9.0684,8.9987],[9.0706,8.9875],[9.0684,8.9808],[9.0661,8.9673],[9.0684,8.9651],[9.0706,8.9606],[9.0729,8.9538],[9.0729,8.9448],[9.0684,8.9404],[9.0616,8.9381],[9.0526,8.9314],[9.0459,8.9224],[9.0437,8.9179],[9.0437,8.9134],[9.0392,8.9044],[9.0324,8.8954],[9.0279,8.8842],[9.0257,8.8707],[9.0234,8.8662],[9.019,8.8595],[9.0167,8.8573],[9.01,8.8528],[9.0032,8.8505],[8.9853,8.8528],[8.974,8.855],[8.9673,8.8528],[8.9583,8.8505],[8.9493,8.8348],[8.9493,8.8303],[8.9516,8.8281],[8.9516,8.8168],[8.9493,8.8101],[8.9448,8.7989],[8.9336,8.7854],[8.9246,8.7832],[8.9201,8.7832],[8.9157,8.7832],[8.9089,8.7832],[8.9044,8.7787],[8.8999,8.7764],[8.9022,8.7629],[8.9044,8.7584],[8.9044,8.754],[8.8999,8.7517],[8.8954,8.7472],[8.8909,8.7405],[8.8932,8.7337]]]}},{"type":"Feature","properties":{"id":"plateau/riyom","name":"Riyom","state":"Plateau"},"geometry":{"type":"Polygon","coordinates":[[[8.5563,9.5534],[8.5563,9.5467],[8.5586,9.54],[8.5586,9.5355],[8.5608,9.5265],[8.5676,9.504],[8.5698,9.4973],[8.581,9.4861],[8.5855,9.4816],[8.5945,9.4793],[8.6035,9.4726],[8.6057,9.4659],[8.6125,9.4479],[8.6192,9.4322],[8.6237,9.4299],[8.6327,9.4209],[8.6372,9.4097],[8.6372,9.4075],[8.6417,9.4007],[8.6484,9.3962],[8.6551,9.394],[8.6641,9.394],[8.6686,9.3962],[8.6866,9.3873],[8.6911,9.385],[8.6956,9.3783],[8.6956,9.3738],[8.7001,9.3738],[8.7023,9.3783],[8.718,9.3985],[8.7293,9.4165],[8.7315,9.4232],[8.7337,9.4322],[8.7405,9.4389],[8.7472,9.4434],[8.7517,9.4456],[8.7584,9.4546],[8.7607,9.4614],[8.7674,9.4681],[8.7719,9.4704],[8.7764,9.4748],[8.7876,9.4883],[8.7989,9.5018],[8.8056,9.504],[8.8079,9.5108],[8.8146,9.522],[8.8281,9.5332],[8.8393,9.5422],[8.8505,9.5534],[8.8618,9.5624],[8.8662,9.5669],[8.873,9.5804],[8.8775,9.5871],[8.8752,9.5939],[8.8775,9.6096],[8.8775,9.6163],[8.8775,9.6253],[8.8752,9.6343],[8.873,9.6388],[8.8707,9.6478],[8.8618,9.6388],[8.8573,9.6343],[8.8505,9.6276],[8.846,9.6253],[8.837,9.6253],[8.8236,9.632],[8.8168,9.6365],[8.8101,9.6433],[8.8034,9.6455],[8.7944,9.6388],[8.7944,9.6365],[8.7921,9.6298],[8.7899,9.6231],[8.7854,9.6141],[8.7742,9.6118],[8.7674,9.6163],[8.7652,9.6253],[8.7652,9.6298],[8.7629,9.6365],[8.754,9.641],[8.7427,9.6478],[8.7337,9.6478],[8.7158,9.6523],[8.7068,9.6523],[8.7023,9.6567],[8.6978,9.6612],[8.6978,9.6657],[8.6978,9.6725],[8.6978,9.6792],[8.7023,9.6904],[8.7068,9.6972],[8.7113,9.7106],[8.7023,9.7241],[8.6978,9.7331],[8.6821,9.7331],[8.6754,9.7286],[8.6686,9.7264],[8.6551,9.7264],[8.6304,9.7309],[8.6147,9.7421],[8.599,9.7376],[8.5945,9.7309],[8.5923,9.7219],[8.5945,9.7106],[8.5968,9.6994],[8.599,9.6904],[8.5968,9.6837],[8.5923,9.6747],[8.5878,9.668],[8.581,9.6657],[8.5765,9.668],[8.5653,9.6702],[8.5631,9.6702],[8.5541,9.6635],[8.5541,9.6523],[8.5653,9.6276],[8.5676,9.6208],[8.5676,9.6073],[8.5653,9.5961],[8.5631,9.5916],[8.5608,9.5894],[8.5541,9.5804],[8.5541,9.5692],[8.5563,9.5534]]]}},{"type":"Feature","properties":{"id":"plateau/shendam","name":"Shendam","state":"Plateau"},"geometry":{"type":"Polygon","coordinates":[[[9.2884,8.4598],[9.2974,8.4643],[9.3109,8.4687],[9.3289,8.4732],[9.3356,8.4777],[9.3446,8.48],[9.3558,8.4822],[9.367,8.4822],[9.3805,8.4777],[9.3962,8.4687],[9.4277,8.453],[9.4412,8.4463],[9.4636,8.4351],[9.4704,8.4306],[9.4883,8.4238],[9.5018,8.4193],[9.5198,8.4148],[9.5287,8.4148],[9.5332,8.4148],[9.54,8.4104],[9.5422,8.4104],[9.5445,8.4081],[9.549,8.4059],[9.5602,8.4014],[9.5737,8.3991],[9.5804,8.3969],[9.6141,8.3901],[9.6186,8.3879],[9.6208,8.3879],[9.6276,8.3879],[9.6388,8.3857],[9.6478,8.3857],[9.668,8.3812],[9.6927,8.3767],[9.7106,8.3722],[9.7331,8.3699],[9.7556,8.3677],[9.7556,8.3744],[9.7511,8.3812],[9.7443,8.3879],[9.7398,8.3924],[9.7376,8.3969],[9.7354,8.4036],[9.7354,8.4104],[9.7331,8.4193],[9.7331,8.4238],[9.7264,8.4351],[9.7241,8.4418],[9.7174,8.4463],[9.7129,8.4508],[9.7039,8.4643],[9.7039,8.4755],[9.6972,8.4867],[9.6904,8.5047],[9.6815,8.5137],[9.6815,8.5204],[9.6815,8.5316],[9.6792,8.5384],[9.6725,8.5473],[9.668,8.5518],[9.6657,8.5563],[9.6612,8.5631],[9.659,8.572],[9.6567,8.59],[9.6567,8.6012],[9.659,8.6057],[9.6567,8.617],[9.6545,8.6237],[9.6545,8.6327],[9.6567,8.6394],[9.659,8.6462],[9.6567,8.6529],[9.6545,8.6619],[9.6545,8.6731],[9.659,8.6821],[9.6612,8.6911],[9.6612,8.6978],[9.6635,8.7045],[9.6635,8.7135],[9.6725,8.727],[9.6725,8.7293],[9.6927,8.7472],[9.7084,8.754],[9.7174,8.7517],[9.7241,8.7495],[9.7398,8.754],[9.7511,8.7562],[9.7623,8.7652],[9.7645,8.7674],[9.7735,8.7809],[9.7735,8.7876],[9.7735,8.7921],[9.7713,8.7966],[9.7735,8.7989],[9.7735,8.8146],[9.7735,8.8326],[9.7758,8.8393],[9.778,8.846],[9.7803,8.8595],[9.778,8.8662],[9.7803,8.873],[9.7848,8.8797],[9.7848,8.8909],[9.7848,8.8932],[9.7825,8.8977],[9.7825,8.9112],[9.7848,8.9179],[9.7848,8.9224],[9.7825,8.9291],[9.778,8.9314],[9.7758,8.9336],[9.769,8.9381],[9.7556,8.9448],[9.7488,8.9448],[9.7354,8.9448],[9.7219,8.9404],[9.7129,8.9381],[9.7017,8.9314],[9.6882,8.9291],[9.6747,8.9291],[9.6545,8.9246],[9.6455,8.9201],[9.6276,8.9224],[9.6051,8.9246],[9.5939,8.9269],[9.5826,8.9291],[9.5669,8.9291],[9.5534,8.9291],[9.5377,8.9336],[9.531,8.9336],[9.5265,8.9314],[9.513,8.9291],[9.5108,8.9314],[9.5063,8.9359],[9.4951,8.9493],[9.4928,8.9516],[9.4906,8.9561],[9.4838,8.9651],[9.4771,8.9718],[9.4681,8.9808],[9.4636,8.983],[9.4524,8.9875],[9.4434,8.9875],[9.4254,8.9875],[9.4187,8.9853],[9.4007,8.983],[9.3738,8.9785],[9.3693,8.9808],[9.3581,8.983],[9.3536,8.9853],[9.3491,8.9898],[9.3446,9.001],[9.3401,9.0145],[9.3401,9.0302],[9.3401,9.0437],[9.3423,9.0549],[9.3468,9.0639],[9.3513,9.0729],[9.3558,9.0773],[9.3626,9.0931],[9.3626,9.0953],[9.3581,9.0976],[9.3491,9.0998],[9.3311,9.1043],[9.3221,9.1043],[9.3221,9.0998],[9.3221,9.0931],[9.3244,9.0773],[9.3221,9.0616],[9.3221,9.0504],[9.3199,9.0392],[9.3199,9.019],[9.3199,9.0122],[9.3221,9.0055],[9.3289,8.9943],[9.3401,8.9808],[9.3491,8.9718],[9.3513,8.9628],[9.3558,8.9538],[9.3558,8.9471],[9.3558,8.9404],[9.3491,8.9336],[9.3468,8.9246],[9.3423,8.9112],[9.3401,8.9044],[9.3401,8.8865],[9.3423,8.8685],[9.3423,8.864],[9.3446,8.8595],[9.3468,8.855],[9.3513,8.8483],[9.3581,8.8415],[9.3693,8.8415],[9.376,8.8415],[9.3873,8.8415],[9.3918,8.8438],[9.394,8.8415],[9.4007,8.8393],[9.403,8.8303],[9.403,8.8258],[9.3985,8.8236],[9.394,8.8213],[9.3873,8.8191],[9.3805,8.8146],[9.3626,8.8011],[9.3626,8.7966],[9.3626,8.7921],[9.3581,8.7832],[9.3513,8.7719],[9.3468,8.7674],[9.3491,8.7584],[9.3491,8.754],[9.3513,8.7405],[9.3468,8.7337],[9.3468,8.7203],[9.3446,8.7113],[9.3401,8.6956],[9.3379,8.6843],[9.3401,8.6731],[9.3446,8.6507],[9.3446,8.6417],[9.3401,8.6282],[9.3379,8.6125],[9.3334,8.6057],[9.3311,8.6012],[9.3244,8.59],[9.3176,8.5788],[9.3131,8.572],[9.3019,8.5496],[9.2997,8.5451],[9.3019,8.5361],[9.2929,8.5204],[9.284,8.5159],[9.2795,8.5002],[9.2772,8.4957],[9.275,8.489],[9.275,8.4822],[9.2727,8.4687],[9.2727,8.4643],[9.2884,8.4598]]]}},{"type":"Feature","properties":{"id":"plateau/wase","name":"Wase","state":"Plateau"},"geometry":{"type":"Polygon","coordinates":[[[9.8701,9.0055],[9.8723,9.001],[9.8746,9.001],[9.8791,8.9943],[9.8813,8.9898],[9.8813,8.9875],[9.8813,8.9808],[9.8768,8.9628],[9.8746,8.9606],[9.8723,8.9561],[9.8723,8.9516],[9.8746,8.9404],[9.8791,8.9336],[9.8836,8.9291],[9.8858,8.9269],[9.8903,8.9179],[9.8881,8.9112],[9.8858,8.9022],[9.8836,8.8999],[9.8791,8.8954],[9.8723,8.8887],[9.8723,8.8797],[9.8768,8.873],[9.8791,8.8707],[9.8791,8.8662],[9.8791,8.8618],[9.8746,8.855],[9.8723,8.8483],[9.8723,8.837],[9.8723,8.8236],[9.8723,8.8191],[9.8723,8.8146],[9.8723,8.8079],[9.8746,8.8011],[9.8791,8.7921],[9.8813,8.7854],[9.8881,8.7719],[9.8903,8.7742],[9.8948,8.7719],[9.8993,8.7652],[9.9015,8.7629],[9.9038,8.7562],[9.9038,8.7495],[9.9038,8.736],[9.9083,8.7225],[9.9105,8.7045],[9.9128,8.6978],[9.915,8.6798],[9.9217,8.6731],[9.924,8.6641],[9.9262,8.6619],[9.9285,8.6551],[9.933,8.6507],[9.9397,8.6462],[9.9622,8.6327],[9.9644,8.6327],[9.9689,8.6327],[9.9779,8.6327],[9.9914,8.6259],[9.9936,8.6259],[10.0048,8.617],[10.0093,8.6102],[10.0093,8.599],[10.0071,8.5788],[10.0071,8.5631],[10.0071,8.5563],[10.0071,8.5541],[10.0116,8.5563],[10.0228,8.5653],[10.0251,8.5698],[10.0318,8.5743],[10.043,8.5855],[10.052,8.5923],[10.061,8.6057],[10.0655,8.6125],[10.0857,8.6349],[10.0969,8.6462],[10.1037,8.6551],[10.1081,8.6619],[10.1171,8.6731],[10.1239,8.6776],[10.1486,8.7023],[10.162,8.7158],[10.1778,8.7293],[10.18,8.7315],[10.1845,8.7405],[10.189,8.7495],[10.1957,8.754],[10.207,8.7652],[10.2137,8.7742],[10.2249,8.7854],[10.2294,8.7876],[10.2362,8.7921],[10.2451,8.8034],[10.2496,8.8079],[10.2564,8.8146],[10.2676,8.8191],[10.2766,8.8258],[10.299,8.8393],[10.3058,8.846],[10.326,8.8573],[10.3305,8.864],[10.335,8.8707],[10.3417,8.8797],[10.3507,8.8887],[10.3574,8.8932],[10.3619,8.8954],[10.3687,8.9022],[10.3731,8.9044],[10.3754,8.9089],[10.3799,8.9134],[10.3889,8.9201],[10.4001,8.9269],[10.4068,8.9336],[10.4203,8.9448],[10.427,8.9471],[10.445,8.9561],[10.463,8.9628],[10.4697,8.9628],[10.4899,8.9651],[10.4989,8.9651],[10.5101,8.9695],[10.5191,8.9673],[10.5303,8.9695],[10.5393,8.9695],[10.5438,8.9695],[10.5551,8.9695],[10.5663,8.9695],[10.5887,8.974],[10.5977,8.9763],[10.6022,8.9853],[10.6067,8.992],[10.6134,9.0032],[10.6202,9.0077],[10.6269,9.019],[10.6292,9.0302],[10.6337,9.0437],[10.6381,9.0549],[10.6404,9.0729],[10.6381,9.0818],[10.6337,9.0863],[10.6269,9.0908],[10.6224,9.0931],[10.6247,9.0998],[10.6247,9.102],[10.6337,9.111],[10.6359,9.12],[10.6359,9.1268],[10.6337,9.1312],[10.6292,9.1335],[10.6247,9.138],[10.6179,9.1402],[10.6134,9.1492],[10.6134,9.1649],[10.6112,9.1672],[10.6112,9.1762],[10.6134,9.1829],[10.6112,9.1896],[10.6,9.1964],[10.5977,9.2098],[10.5977,9.2233],[10.5932,9.2323],[10.5887,9.239],[10.5798,9.2458],[10.5775,9.2907],[10.5775,9.2974],[10.5798,9.3064],[10.582,9.3131],[10.5798,9.3266],[10.5775,9.3334],[10.573,9.3334],[10.5708,9.3379],[10.5595,9.3513],[10.5618,9.3626],[10.5663,9.3715],[10.564,9.3783],[10.5595,9.3828],[10.5595,9.3895],[10.564,9.3962],[10.5685,9.4007],[10.5483,9.4052],[10.5146,9.403],[10.4944,9.403],[10.4765,9.3985],[10.4607,9.394],[10.4315,9.3873],[10.4203,9.385],[10.4091,9.3828],[10.3911,9.3873],[10.3664,9.4007],[10.3484,9.4142],[10.3417,9.4254],[10.3327,9.4344],[10.3215,9.4456],[10.308,9.4569],[10.2968,9.4614],[10.2721,9.4591],[10.2609,9.4546],[10.2519,9.4479],[10.2474,9.4456],[10.2406,9.4434],[10.2317,9.4434],[10.2227,9.4434],[10.2002,9.4456],[10.189,9.4524],[10.18,9.4591],[10.1553,9.4614],[10.1396,9.4546],[10.1284,9.4479],[10.1171,9.4367],[10.1104,9.4277],[10.1037,9.4165],[10.1037,9.4052],[10.0969,9.394],[10.0947,9.3895],[10.0969,9.3828],[10.0924,9.3715],[10.0902,9.3603],[10.0812,9.3468],[10.0745,9.3446],[10.061,9.3423],[10.0542,9.3401],[10.0318,9.3266],[10.0206,9.3199],[10.0004,9.3064],[9.9981,9.3019],[9.9914,9.2974],[9.9891,9.2884],[9.9914,9.2862],[9.9936,9.2817],[10.0004,9.275],[10.0093,9.2727],[10.0161,9.2682],[10.0206,9.2615],[10.0183,9.2548],[10.0138,9.248],[9.9936,9.239],[9.9756,9.2345],[9.9644,9.2345],[9.9599,9.2323],[9.9577,9.2301],[9.9532,9.2211],[9.942,9.2166],[9.9375,9.2143],[9.9195,9.2098],[9.915,9.2098],[9.9128,9.2054],[9.9128,9.2009],[9.9173,9.1829],[9.9217,9.1739],[9.924,9.1694],[9.9262,9.1672],[9.9285,9.1604],[9.9307,9.1515],[9.9262,9.1425],[9.9195,9.1335],[9.915,9.1223],[9.915,9.111],[9.915,9.1088],[9.9195,9.1043],[9.924,9.0953],[9.924,9.0886],[9.915,9.0661],[9.9128,9.0571],[9.9083,9.0549],[9.8993,9.0504],[9.8836,9.0414],[9.8768,9.0347],[9.8701,9.0279],[9.8679,9.0234],[9.8679,9.0145],[9.8679,9.01],[9.8701,9.0055]]]}}]}