{"type":"FeatureCollection","features":[{"type":"Feature","properties":{"id":"rivers/abua-odual","name":"Abua/Odual","state":"Rivers"},"geometry":{"type":"Polygon","coordinates":[[[6.4026,4.8261],[6.4094,4.8127],[6.4139,4.8037],[6.4229,4.7767],[6.4296,4.7655],[6.4453,4.7745],[6.4431,4.761],[6.4408,4.7453],[6.4453,4.7296],[6.4588,4.7251],[6.461,4.7138],[6.479,4.7138],[6.4902,4.7228],[6.4992,4.7318],[6.5172,4.7475],[6.5284,4.752],[6.5374,4.7565],[6.5531,4.7588],[6.5801,4.7588],[6.598,4.752],[6.607,4.7453],[6.6205,4.7543],[6.6295,4.7588],[6.6385,4.7498],[6.6497,4.7543],[6.6609,4.752],[6.6699,4.7498],[6.6924,4.7453],[6.7036,4.7475],[6.7148,4.7565],[6.7283,4.7565],[6.7395,4.7565],[6.762,4.761],[6.7642,4.7745],[6.7575,4.7835],[6.7463,4.7902],[6.7418,4.7924],[6.7418,4.7992],[6.7395,4.8104],[6.7373,4.8216],[6.726,4.8239],[6.7193,4.8329],[6.7215,4.8418],[6.7193,4.8553],[6.7103,4.8553],[6.7036,4.8621],[6.6924,4.8688],[6.6834,4.871],[6.6766,4.8778],[6.6766,4.8845],[6.6879,4.889],[6.6946,4.8935],[6.6991,4.9002],[6.6901,4.9025],[6.6766,4.898],[6.6699,4.9047],[6.6497,4.9137],[6.6407,4.9249],[6.6295,4.9339],[6.6227,4.9429],[6.616,4.9541],[6.6115,4.9631],[6.607,4.9721],[6.5958,4.9811],[6.5823,4.9811],[6.5711,4.9743],[6.5666,4.9631],[6.5599,4.9496],[6.5486,4.9407],[6.5464,4.9339],[6.5486,4.9317],[6.5643,4.9272],[6.5711,4.9182],[6.5666,4.9137],[6.5643,4.907],[6.5576,4.8957],[6.5441,4.8913],[6.5307,4.9002],[6.5217,4.9092],[6.5037,4.9272],[6.4813,4.9496],[6.4543,4.9586],[6.4408,4.9541],[6.4408,4.9429],[6.4341,4.9294],[6.4251,4.9205],[6.4206,4.907],[6.4139,4.8957],[6.4071,4.8868],[6.4004,4.8755],[6.3982,4.8643],[6.3982,4.8508],[6.3982,4.8374],[6.4026,4.8261]]]}},{"type":"Feature","properties":{"id":"rivers/ahoada-east","name":"Ahoada East","state":"Rivers"},"geometry":{"type":"Polygon","coordinates":[[[6.5374,4.9407],[6.5486,4.9407],[6.5599,4.9496],[6.5666,4.9631],[6.5711,4.9743],[6.5823,4.9811],[6.5958,4.9811],[6.607,4.9721],[6.6115,4.9631],[6.616,4.9541],[6.6227,4.9429],[6.6295,4.9339],[6.6407,4.9249],[6.6497,4.9137],[6.6699,4.9047],[6.6856,4.9182],[6.6789,4.9249],[6.6676,4.9317],[6.6766,4.9407],[6.6789,4.9519],[6.6811,4.9631],[6.6789,4.9766],[6.6721,4.9833],[6.6699,4.9901],[6.6789,5.0035],[6.6856,5.017],[6.6901,5.0282],[6.6901,5.0417],[6.6901,5.0552],[6.6968,5.0754],[6.6991,5.0889],[6.6968,5.1001],[6.6968,5.1181],[6.7013,5.1316],[6.7058,5.1428],[6.7126,5.1585],[6.7193,5.172],[6.7171,5.181],[6.7148,5.1922],[6.7148,5.2057],[6.7013,5.1989],[6.6901,5.2012],[6.6789,5.2012],[6.6676,5.1967],[6.6542,5.1989],[6.6385,5.2034],[6.634,5.1967],[6.6272,5.1854],[6.6182,5.1742],[6.6048,5.172],[6.5935,5.1742],[6.5958,5.1607],[6.5958,5.1518],[6.5935,5.1271],[6.5913,5.1113],[6.5913,5.0979],[6.5935,5.0799],[6.5958,5.0619],[6.5958,5.0462],[6.5913,5.0305],[6.5868,5.0193],[6.5801,5.008],[6.5733,4.9991],[6.5643,4.9901],[6.5531,4.9856],[6.5396,4.9766],[6.5307,4.9676],[6.5262,4.9586],[6.5262,4.9474],[6.5374,4.9407]]]}},{"type":"Feature","properties":{"id":"rivers/ahoada-west","name":"Ahoada West","state":"Rivers"},"geometry":{"type":"Polygon","coordinates":[[[6.4206,4.9811],[6.4296,4.9743],[6.4363,4.9654],[6.4408,4.9541],[6.4543,4.9586],[6.4813,4.9496],[6.5037,4.9272],[6.5217,4.9092],[6.5307,4.9002],[6.5441,4.8913],[6.5576,4.8957],[6.5643,4.907],[6.5666,4.9137],[6.5711,4.9182],[6.5643,4.9272],[6.5486,4.9317],[6.5464,4.9339],[6.5486,4.9407],[6.5374,4.9407],[6.5262,4.9474],[6.5262,4.9586],[6.5307,4.9676],[6.5396,4.9766],[6.5531,4.9856],[6.5643,4.9901],[6.5733,4.9991],[6.5801,5.008],[6.5868,5.0193],[6.5913,5.0305],[6.5958,5.0462],[6.5958,5.0619],[6.5935,5.0799],[6.5913,5.0979],[6.5913,5.1113],[6.5935,5.1271],[6.5958,5.1518],[6.5958,5.1607],[6.5935,5.1742],[6.5801,5.181],[6.5711,5.1855],[6.5643,5.1922],[6.5531,5.1899],[6.5441,5.1855],[6.5351,5.1877],[6.5262,5.1742],[6.5104,5.172],[6.4925,5.163],[6.4857,5.154],[6.4723,5.1293],[6.4633,5.1068],[6.461,5.0979],[6.4521,5.0821],[6.4431,5.0687],[6.4386,5.053],[6.4296,5.0395],[6.4251,5.0305],[6.4184,5.017],[6.4116,5.0035],[6.4094,4.9901],[6.4206,4.9811]]]}},{"type":"Feature","properties":{"id":"rivers/akuku-toru","name":"Akuku Toru","state":"Rivers"},"geometry":{"type":"Polygon","coordinates":[[[6.5149,4.368],[6.5194,4.3613],[6.5351,4.3568],[6.5441,4.3545],[6.5486,4.3433],[6.5486,4.3343],[6.5486,4.3253],[6.5733,4.3276],[6.5801,4.3253],[6.6407,4.3119],[6.6452,4.3208],[6.6474,4.3253],[6.6519,4.3276],[6.6654,4.3276],[6.6676,4.3276],[6.6834,4.3276],[6.6879,4.3298],[6.6946,4.3298],[6.7058,4.3388],[6.7036,4.3455],[6.7013,4.3613],[6.6901,4.386],[6.6879,4.3927],[6.6856,4.3972],[6.6676,4.4196],[6.6654,4.4241],[6.6632,4.4286],[6.6721,4.4421],[6.6811,4.4399],[6.6879,4.4219],[6.7013,4.4196],[6.6991,4.4488],[6.6901,4.4915],[6.6901,4.5252],[6.7126,4.5611],[6.7283,4.606],[6.7328,4.606],[6.735,4.6016],[6.7418,4.5813],[6.744,4.5701],[6.7373,4.5544],[6.7305,4.5477],[6.7305,4.5454],[6.7193,4.5252],[6.7171,4.5117],[6.7126,4.5027],[6.7103,4.4915],[6.7081,4.4578],[6.7126,4.3837],[6.7126,4.359],[6.7148,4.3545],[6.7171,4.35],[6.7193,4.3455],[6.7328,4.3366],[6.7373,4.3366],[6.7934,4.3366],[6.8496,4.3478],[6.8698,4.3523],[6.8743,4.3635],[6.872,4.3657],[6.8698,4.3657],[6.8518,4.377],[6.8406,4.3994],[6.8563,4.3972],[6.8518,4.4084],[6.8383,4.4466],[6.8361,4.4578],[6.8338,4.4691],[6.8316,4.4803],[6.8271,4.4938],[6.8226,4.505],[6.8181,4.5185],[6.8136,4.5297],[6.8091,4.5409],[6.8069,4.5611],[6.8114,4.5746],[6.8226,4.5836],[6.8316,4.5926],[6.8361,4.6038],[6.8361,4.6173],[6.8271,4.633],[6.8136,4.6465],[6.8114,4.6577],[6.8069,4.6734],[6.8024,4.6869],[6.8001,4.6981],[6.7934,4.7318],[6.7889,4.7385],[6.7822,4.7453],[6.7754,4.7453],[6.771,4.7408],[6.7665,4.7385],[6.762,4.7475],[6.762,4.761],[6.7395,4.7565],[6.7283,4.7565],[6.7148,4.7565],[6.7036,4.7475],[6.6924,4.7453],[6.6699,4.7498],[6.6609,4.752],[6.6497,4.7543],[6.6385,4.7498],[6.6295,4.7588],[6.6205,4.7543],[6.607,4.7453],[6.6003,4.7341],[6.5935,4.7228],[6.5868,4.7183],[6.5733,4.7093],[6.5666,4.7026],[6.5531,4.6891],[6.5464,4.6824],[6.5374,4.6734],[6.5284,4.6622],[6.5127,4.6442],[6.5172,4.6218],[6.5262,4.615],[6.5351,4.6083],[6.5374,4.5971],[6.5441,4.5903],[6.5486,4.5858],[6.5464,4.5813],[6.5396,4.5769],[6.5441,4.5679],[6.5509,4.5589],[6.5599,4.5544],[6.5666,4.5544],[6.5599,4.5409],[6.5531,4.5364],[6.5441,4.5342],[6.5419,4.523],[6.5509,4.5095],[6.5396,4.5005],[6.5374,4.496],[6.5351,4.4893],[6.5329,4.478],[6.5262,4.4691],[6.5239,4.4623],[6.5194,4.4533],[6.5127,4.4309],[6.5127,4.4174],[6.5127,4.3927],[6.5127,4.3792],[6.5149,4.368]]]}},{"type":"Feature","properties":{"id":"rivers/andoni","name":"Andoni","state":"Rivers"},"geometry":{"type":"Polygon","coordinates":[[[7.3054,4.5432],[7.3077,4.5409],[7.3122,4.5342],[7.3144,4.5364],[7.3189,4.5364],[7.3212,4.5387],[7.3279,4.5387],[7.3301,4.5364],[7.3324,4.5185],[7.3301,4.4915],[7.3301,4.4825],[7.3257,4.4735],[7.3234,4.4601],[7.3234,4.4511],[7.3257,4.4444],[7.3324,4.4444],[7.3391,4.4421],[7.3481,4.4421],[7.3504,4.4421],[7.3683,4.4421],[7.3908,4.4354],[7.4065,4.4331],[7.4177,4.4309],[7.429,4.4354],[7.4357,4.4376],[7.4447,4.4399],[7.4469,4.4399],[7.4582,4.4421],[7.4649,4.4444],[7.4806,4.4466],[7.4873,4.4488],[7.4918,4.4488],[7.5098,4.4511],[7.5076,4.4533],[7.5053,4.4646],[7.4986,4.4803],[7.4918,4.4848],[7.4829,4.4893],[7.4761,4.4915],[7.4739,4.496],[7.4739,4.4982],[7.4784,4.5027],[7.4806,4.505],[7.4829,4.5072],[7.4829,4.5117],[7.4806,4.514],[7.4784,4.5162],[7.4739,4.514],[7.4582,4.514],[7.4469,4.514],[7.4447,4.514],[7.4357,4.5185],[7.4312,4.523],[7.4312,4.5252],[7.4312,4.5274],[7.4267,4.5477],[7.4245,4.5589],[7.4222,4.5634],[7.4222,4.5701],[7.42,4.5679],[7.4065,4.5656],[7.3953,4.5724],[7.384,4.5724],[7.3728,4.5679],[7.3616,4.5679],[7.3526,4.5701],[7.3324,4.5813],[7.3212,4.5903],[7.3077,4.5813],[7.301,4.5746],[7.301,4.5656],[7.301,4.5589],[7.3054,4.5432]]]}},{"type":"Feature","properties":{"id":"rivers/asari-toru","name":"Asari-Toru","state":"Rivers"},"geometry":{"type":"Polygon","coordinates":[[[6.7957,4.7812],[6.7934,4.7722],[6.7912,4.7655],[6.7957,4.752],[6.8046,4.7385],[6.8114,4.7273],[6.8226,4.7183],[6.8316,4.7183],[6.8383,4.7093],[6.8496,4.7093],[6.8608,4.7161],[6.8653,4.7138],[6.8698,4.7093],[6.881,4.7071],[6.8877,4.7026],[6.8967,4.6936],[6.9035,4.6869],[6.9147,4.6869],[6.9259,4.6936],[6.9282,4.7071],[6.9237,4.7161],[6.9124,4.7341],[6.9057,4.7408],[6.8922,4.7453],[6.881,4.7475],[6.8675,4.7632],[6.863,4.7745],[6.8675,4.7812],[6.881,4.7947],[6.8877,4.7969],[6.8832,4.8014],[6.8653,4.8059],[6.854,4.8082],[6.8451,4.8149],[6.8406,4.8194],[6.8293,4.8239],[6.8249,4.8239],[6.8226,4.8194],[6.8226,4.8104],[6.8226,4.8014],[6.8181,4.7947],[6.8136,4.7902],[6.8046,4.7924],[6.8046,4.7947],[6.8046,4.7992],[6.8024,4.8014],[6.7934,4.7969],[6.7912,4.7969],[6.7889,4.7924],[6.7957,4.7812]]]}},{"type":"Feature","properties":{"id":"rivers/bonny","name":"Bonny","state":"Rivers"},"geometry":{"type":"MultiPolygon","coordinates":[[[[7.0517,4.5432],[7.0562,4.5274],[7.0629,4.5162],[7.0719,4.505],[7.0607,4.4915],[7.0584,4.4825],[7.0584,4.4713],[7.0651,4.4623],[7.0719,4.4556],[7.0764,4.4533],[7.0899,4.4421],[7.1595,4.4623],[7.164,4.4623],[7.1729,4.487],[7.1797,4.505],[7.1752,4.5836],[7.1707,4.5993],[7.1707,4.6016],[7.1595,4.5993],[7.146,4.5971],[7.1325,4.5948],[7.1235,4.5993],[7.1146,4.6038],[7.1011,4.615],[7.0876,4.624],[7.0809,4.6285],[7.0719,4.633],[7.0584,4.6397],[7.0584,4.6173],[7.0584,4.6083],[7.0539,4.5993],[7.0584,4.5903],[7.0607,4.5746],[7.0517,4.5656],[7.0494,4.5521],[7.0517,4.5432]]],[[[7.1348,4.3949],[7.1348,4.3882],[7.137,4.386],[7.1393,4.386],[7.1437,4.3837],[7.1482,4.3815],[7.1662,4.3792],[7.1797,4.377],[7.1842,4.3792],[7.2044,4.3815],[7.2134,4.3837],[7.2201,4.3837],[7.2336,4.3882],[7.2538,4.3927],[7.2785,4.3994],[7.2987,4.4039],[7.3077,4.4084],[7.3212,4.4152],[7.3279,4.4174],[7.3279,4.4196],[7.3279,4.4219],[7.3234,4.4331],[7.3234,4.4444],[7.3257,4.4444],[7.3234,4.4511],[7.3234,4.4601],[7.3257,4.4735],[7.3301,4.4825],[7.3301,4.4915],[7.3324,4.5185],[7.3301,4.5364],[7.3279,4.5387],[7.3212,4.5387],[7.3189,4.5364],[7.3144,4.5364],[7.3122,4.5342],[7.3077,4.5409],[7.3054,4.5432],[7.301,4.5589],[7.301,4.5656],[7.301,4.5746],[7.3077,4.5813],[7.3212,4.5903],[7.3144,4.5971],[7.2942,4.6016],[7.2762,4.606],[7.2673,4.6105],[7.2538,4.6173],[7.2471,4.6263],[7.2403,4.642],[7.2246,4.6352],[7.2156,4.6307],[7.2066,4.6263],[7.1976,4.6173],[7.1909,4.6105],[7.2066,4.5656],[7.2179,4.5454],[7.2179,4.5207],[7.1932,4.478],[7.1819,4.4646],[7.1707,4.4511],[7.1662,4.4488],[7.1662,4.4466],[7.1595,4.4376],[7.1482,4.4264],[7.1393,4.4152],[7.137,4.4129],[7.137,4.4107],[7.1348,4.4062],[7.1325,4.4039],[7.1348,4.3949]]]]}},{"type":"Feature","properties":{"id":"rivers/degema","name":"Degema","state":"Rivers"},"geometry":{"type":"Polygon","coordinates":[[[6.7395,4.8104],[6.7418,4.7992],[6.7418,4.7924],[6.7463,4.7902],[6.7575,4.7835],[6.7642,4.7745],[6.762,4.761],[6.762,4.7475],[6.7665,4.7385],[6.771,4.7408],[6.7754,4.7453],[6.7822,4.7453],[6.7889,4.7385],[6.7934,4.7318],[6.8001,4.6981],[6.8024,4.6869],[6.8069,4.6734],[6.8114,4.6577],[6.8136,4.6465],[6.8271,4.633],[6.8361,4.6173],[6.8361,4.6038],[6.8316,4.5926],[6.8226,4.5836],[6.8114,4.5746],[6.8069,4.5611],[6.8091,4.5409],[6.8136,4.5297],[6.8181,4.5185],[6.8226,4.505],[6.8271,4.4938],[6.8316,4.4803],[6.8338,4.4691],[6.8361,4.4578],[6.8383,4.4466],[6.8518,4.4084],[6.8563,4.3972],[6.8585,4.3972],[6.8787,4.3927],[6.9349,4.3792],[6.9484,4.3747],[6.9529,4.3747],[6.9551,4.3725],[6.9574,4.3725],[6.9618,4.3725],[6.991,4.3702],[6.9955,4.3702],[6.9978,4.3702],[7.0045,4.3702],[7.0112,4.3702],[7.0202,4.3747],[7.0225,4.3792],[7.0247,4.3837],[7.0247,4.3905],[7.0225,4.3949],[7.0202,4.3994],[7.0157,4.4062],[7.0135,4.4107],[7.009,4.4196],[6.9978,4.4376],[6.991,4.4533],[6.9865,4.4601],[6.9798,4.478],[6.9753,4.4848],[6.9753,4.487],[6.9821,4.5252],[6.9708,4.5903],[6.9708,4.6038],[6.9843,4.6173],[6.9978,4.606],[7.0023,4.5813],[7.0045,4.5701],[7.018,4.5027],[7.0202,4.4915],[7.0404,4.4399],[7.0427,4.4376],[7.0449,4.4376],[7.0449,4.4354],[7.0696,4.4354],[7.0899,4.4421],[7.0764,4.4533],[7.0719,4.4556],[7.0651,4.4623],[7.0584,4.4713],[7.0584,4.4825],[7.0607,4.4915],[7.0719,4.505],[7.0629,4.5162],[7.0562,4.5274],[7.0517,4.5432],[7.0494,4.5521],[7.0517,4.5656],[7.0607,4.5746],[7.0584,4.5903],[7.0539,4.5993],[7.0584,4.6083],[7.0584,4.6173],[7.0584,4.6397],[7.0539,4.6465],[7.0472,4.6555],[7.0404,4.6667],[7.0337,4.6802],[7.027,4.6891],[7.018,4.6981],[6.9978,4.7161],[6.9888,4.7251],[6.9821,4.7408],[6.991,4.7498],[7.0023,4.743],[7.0023,4.7475],[7.0023,4.7543],[7.0023,4.7565],[7.009,4.7677],[7.009,4.7722],[7.0023,4.7722],[6.9933,4.7677],[6.9843,4.7632],[6.9753,4.7565],[6.9641,4.7543],[6.9641,4.7588],[6.9663,4.7655],[6.9641,4.77],[6.9574,4.7745],[6.9551,4.7745],[6.9484,4.7722],[6.9439,4.779],[6.9439,4.7857],[6.9416,4.7947],[6.9237,4.7947],[6.9259,4.788],[6.9192,4.7857],[6.9124,4.7924],[6.9057,4.7924],[6.8922,4.7924],[6.8877,4.7969],[6.881,4.7947],[6.8675,4.7812],[6.863,4.7745],[6.8675,4.7632],[6.881,4.7475],[6.8922,4.7453],[6.9057,4.7408],[6.9124,4.7341],[6.9237,4.7161],[6.9282,4.7071],[6.9259,4.6936],[6.9147,4.6869],[6.9035,4.6869],[6.8967,4.6936],[6.8877,4.7026],[6.881,4.7071],[6.8698,4.7093],[6.8653,4.7138],[6.8608,4.7161],[6.8496,4.7093],[6.8383,4.7093],[6.8316,4.7183],[6.8226,4.7183],[6.8114,4.7273],[6.8046,4.7385],[6.7957,4.752],[6.7912,4.7655],[6.7934,4.7722],[6.7957,4.7812],[6.7889,4.7924],[6.7912,4.7969],[6.7844,4.8037],[6.7754,4.8037],[6.7665,4.8037],[6.753,4.8059],[6.7463,4.8127],[6.7373,4.8216],[6.7395,4.8104]]]}},{"type":"Feature","properties":{"id":"rivers/eleme","name":"Eleme","state":"Rivers"},"geometry":{"type":"Polygon","coordinates":[[[7.0831,4.7924],[7.0943,4.7835],[7.0988,4.7722],[7.1033,4.7632],[7.1078,4.7543],[7.1123,4.7475],[7.1168,4.7385],[7.137,4.7251],[7.146,4.7228],[7.155,4.7251],[7.164,4.7273],[7.1752,4.7363],[7.1842,4.743],[7.1954,4.7475],[7.1932,4.7565],[7.1976,4.7677],[7.2021,4.7745],[7.2066,4.7902],[7.2066,4.8014],[7.1976,4.8059],[7.1887,4.8127],[7.1797,4.8216],[7.1819,4.8374],[7.1617,4.8441],[7.1527,4.8508],[7.1393,4.8418],[7.128,4.8418],[7.1168,4.8418],[7.1033,4.8418],[7.0943,4.8396],[7.0831,4.8329],[7.0786,4.8239],[7.0764,4.8149],[7.0764,4.8037],[7.0831,4.7924]]]}},{"type":"Feature","properties":{"id":"rivers/emohua","name":"Emohua","state":"Rivers"},"geometry":{"type":"Polygon","coordinates":[[[6.6789,4.9249],[6.6856,4.9182],[6.6699,4.9047],[6.6766,4.898],[6.6901,4.9025],[6.6991,4.9002],[6.6946,4.8935],[6.6879,4.889],[6.6766,4.8845],[6.6766,4.8778],[6.6834,4.871],[6.6924,4.8688],[6.7036,4.8621],[6.7103,4.8553],[6.7193,4.8553],[6.7215,4.8418],[6.7193,4.8329],[6.726,4.8239],[6.7373,4.8216],[6.7463,4.8127],[6.753,4.8059],[6.7665,4.8037],[6.7754,4.8037],[6.7844,4.8037],[6.7912,4.7969],[6.7934,4.7969],[6.8024,4.8014],[6.8046,4.7992],[6.8046,4.7947],[6.8046,4.7924],[6.8136,4.7902],[6.8181,4.7947],[6.8226,4.8014],[6.8226,4.8104],[6.8226,4.8194],[6.8249,4.8239],[6.8293,4.8239],[6.8406,4.8194],[6.8451,4.8149],[6.854,4.8082],[6.8653,4.8059],[6.8832,4.8014],[6.8877,4.7969],[6.8922,4.7924],[6.9057,4.7924],[6.9124,4.7924],[6.9192,4.7857],[6.9259,4.788],[6.9237,4.7947],[6.9192,4.8014],[6.9214,4.8059],[6.9282,4.8082],[6.9304,4.8171],[6.9214,4.8239],[6.9214,4.8306],[6.9259,4.8396],[6.9169,4.8486],[6.9079,4.8486],[6.9035,4.8576],[6.9035,4.8688],[6.899,4.8755],[6.8945,4.8823],[6.8922,4.8868],[6.899,4.889],[6.9012,4.8935],[6.899,4.898],[6.899,4.9047],[6.8877,4.9025],[6.8743,4.9025],[6.8608,4.9137],[6.854,4.9249],[6.8518,4.9362],[6.8496,4.9496],[6.8473,4.9609],[6.8473,4.9743],[6.8496,4.9833],[6.8496,4.9968],[6.8406,5.0193],[6.8361,5.035],[6.8293,5.0417],[6.8204,5.0462],[6.8114,5.0507],[6.8024,5.0552],[6.7934,5.0619],[6.7844,5.0709],[6.7754,5.0866],[6.7754,5.1001],[6.7822,5.1113],[6.7934,5.1248],[6.8046,5.136],[6.8136,5.145],[6.8226,5.154],[6.8293,5.1652],[6.8316,5.181],[6.8316,5.2124],[6.8316,5.2214],[6.8361,5.2304],[6.8428,5.2416],[6.8496,5.2506],[6.8361,5.2506],[6.8271,5.2528],[6.8249,5.2551],[6.8181,5.2573],[6.8046,5.2685],[6.7934,5.2775],[6.7777,5.273],[6.7687,5.2753],[6.7575,5.2753],[6.7395,5.273],[6.7305,5.2663],[6.7215,5.2438],[6.7103,5.2169],[6.7148,5.2057],[6.7148,5.1922],[6.7171,5.181],[6.7193,5.172],[6.7126,5.1585],[6.7058,5.1428],[6.7013,5.1316],[6.6968,5.1181],[6.6968,5.1001],[6.6991,5.0889],[6.6968,5.0754],[6.6901,5.0552],[6.6901,5.0417],[6.6901,5.0282],[6.6856,5.017],[6.6789,5.0035],[6.6699,4.9901],[6.6721,4.9833],[6.6789,4.9766],[6.6811,4.9631],[6.6789,4.9519],[6.6766,4.9407],[6.6676,4.9317],[6.6789,4.9249]]]}},{"type":"Feature","properties":{"id":"rivers/etche","name":"Etche","state":"Rivers"},"geometry":{"type":"Polygon","coordinates":[[[6.9663,5.1428],[6.9708,5.1293],[6.9731,5.1158],[6.9753,5.0956],[6.9798,5.0821],[6.9821,5.0597],[6.9843,5.0485],[6.9888,5.0327],[6.9933,5.0238],[7.0023,5.0125],[7.0045,5.0035],[7.0112,4.9946],[7.018,4.9833],[7.027,4.9766],[7.036,4.9676],[7.036,4.9564],[7.0404,4.9339],[7.0539,4.9205],[7.0629,4.9205],[7.0741,4.9137],[7.0876,4.9092],[7.0966,4.9025],[7.1033,4.8935],[7.1258,4.8957],[7.1303,4.907],[7.1437,4.9137],[7.1505,4.9249],[7.1595,4.9362],[7.1685,4.9452],[7.1819,4.9496],[7.1999,4.9541],[7.2089,4.9564],[7.2179,4.9609],[7.2291,4.9699],[7.2179,4.9788],[7.2066,4.9811],[7.1932,4.9833],[7.1842,4.9833],[7.1729,4.9833],[7.1685,4.9856],[7.1617,4.9968],[7.164,5.0103],[7.1752,5.0215],[7.1819,5.0327],[7.1864,5.044],[7.1909,5.053],[7.1976,5.0574],[7.2044,5.0709],[7.2066,5.0821],[7.2066,5.0911],[7.2089,5.1046],[7.2134,5.1158],[7.2156,5.1271],[7.2224,5.1405],[7.2246,5.1518],[7.2358,5.163],[7.2403,5.1765],[7.2448,5.1854],[7.2426,5.1967],[7.2313,5.1944],[7.2291,5.1944],[7.2179,5.1967],[7.2156,5.1967],[7.2111,5.1967],[7.1976,5.1989],[7.1932,5.2012],[7.1909,5.2034],[7.1887,5.2034],[7.1864,5.2057],[7.1819,5.2079],[7.1797,5.2079],[7.1752,5.2102],[7.1662,5.2124],[7.1617,5.2124],[7.1415,5.2146],[7.1348,5.2146],[7.1235,5.2169],[7.1078,5.2214],[7.0943,5.2259],[7.0831,5.2281],[7.0809,5.2304],[7.0629,5.2393],[7.0562,5.2438],[7.0539,5.2461],[7.0449,5.2483],[7.0404,5.2506],[7.036,5.2483],[7.0292,5.2461],[7.0202,5.2438],[7.0068,5.2416],[7.0045,5.2393],[6.9978,5.2393],[6.9865,5.2349],[6.9821,5.2349],[6.9753,5.2349],[6.9708,5.2371],[6.9731,5.2259],[6.9731,5.2146],[6.9663,5.2034],[6.9641,5.1877],[6.9641,5.1675],[6.9663,5.1428]]]}},{"type":"Feature","properties":{"id":"rivers/gokana","name":"Gokana","state":"Rivers"},"geometry":{"type":"Polygon","coordinates":[[[7.2448,4.6936],[7.2515,4.6846],[7.2493,4.6779],[7.2426,4.6667],[7.2403,4.642],[7.2471,4.6263],[7.2538,4.6173],[7.2673,4.6105],[7.2762,4.606],[7.2942,4.6016],[7.3144,4.5971],[7.3212,4.6083],[7.3257,4.6195],[7.3279,4.6307],[7.3301,4.642],[7.3391,4.6555],[7.3436,4.6644],[7.3481,4.6779],[7.3481,4.6914],[7.3481,4.7049],[7.3459,4.7161],[7.3436,4.7296],[7.3279,4.7206],[7.3167,4.7206],[7.3054,4.7161],[7.2942,4.7138],[7.274,4.7116],[7.256,4.7093],[7.2471,4.7071],[7.2336,4.7026],[7.2448,4.6936]]]}},{"type":"Feature","properties":{"id":"rivers/ikwerre","name":"Ikwerre","state":"Rivers"},"geometry":{"type":"Polygon","coordinates":[[[6.7844,5.0709],[6.7934,5.0619],[6.8024,5.0552],[6.8114,5.0507],[6.8204,5.0462],[6.8293,5.0417],[6.8361,5.035],[6.8406,5.0193],[6.8496,4.9968],[6.8496,4.9833],[6.8473,4.9743],[6.8473,4.9609],[6.8496,4.9496],[6.8518,4.9362],[6.854,4.9249],[6.8608,4.9137],[6.8743,4.9025],[6.8877,4.9025],[6.899,4.9047],[6.9102,4.9047],[6.9192,4.9047],[6.9326,4.9047],[6.9416,4.9002],[6.9529,4.9002],[6.9641,4.9002],[6.9753,4.8935],[6.9843,4.8913],[6.9955,4.8935],[6.9843,4.9025],[6.9753,4.9115],[6.9798,4.9227],[6.9933,4.9272],[7.0068,4.9317],[7.0247,4.9407],[7.0404,4.9339],[7.036,4.9564],[7.036,4.9676],[7.027,4.9766],[7.018,4.9833],[7.0112,4.9946],[7.0045,5.0035],[7.0023,5.0125],[6.9933,5.0238],[6.9888,5.0327],[6.9843,5.0485],[6.9821,5.0597],[6.9798,5.0821],[6.9753,5.0956],[6.9731,5.1158],[6.9708,5.1293],[6.9663,5.1428],[6.9641,5.1675],[6.9641,5.1877],[6.9663,5.2034],[6.9731,5.2146],[6.9731,5.2259],[6.9708,5.2371],[6.9596,5.2326],[6.9394,5.2281],[6.9304,5.2259],[6.9214,5.2236],[6.9169,5.2236],[6.9035,5.2191],[6.8967,5.2214],[6.8945,5.2236],[6.8922,5.2236],[6.8877,5.2259],[6.881,5.2304],[6.8765,5.2371],[6.8675,5.2438],[6.8496,5.2506],[6.8428,5.2416],[6.8361,5.2304],[6.8316,5.2214],[6.8316,5.2124],[6.8316,5.181],[6.8293,5.1652],[6.8226,5.154],[6.8136,5.145],[6.8046,5.136],[6.7934,5.1248],[6.7822,5.1113],[6.7754,5.1001],[6.7754,5.0866],[6.7844,5.0709]]]}},{"type":"Feature","properties":{"id":"rivers/khana","name":"Khana","state":"Rivers"},"geometry":{"type":"Polygon","coordinates":[[[7.3212,4.5903],[7.3324,4.5813],[7.3526,4.5701],[7.3616,4.5679],[7.3728,4.5679],[7.384,4.5724],[7.3953,4.5724],[7.4065,4.5656],[7.42,4.5679],[7.4222,4.5701],[7.429,4.5701],[7.4447,4.5724],[7.4582,4.5724],[7.4626,4.5679],[7.4739,4.5611],[7.4829,4.5611],[7.4941,4.5611],[7.4963,4.5566],[7.4963,4.5499],[7.4986,4.5477],[7.5008,4.5409],[7.5098,4.5319],[7.5188,4.5319],[7.5255,4.5387],[7.5255,4.5409],[7.5233,4.5454],[7.521,4.5499],[7.521,4.5544],[7.5278,4.5656],[7.5435,4.5746],[7.5435,4.5791],[7.5368,4.5858],[7.5323,4.5903],[7.53,4.5971],[7.5278,4.5993],[7.5255,4.6038],[7.5255,4.6128],[7.5233,4.6173],[7.5188,4.6263],[7.5165,4.633],[7.5188,4.642],[7.5233,4.6532],[7.5233,4.6555],[7.521,4.6622],[7.5165,4.6622],[7.5165,4.6802],[7.521,4.6891],[7.5278,4.6959],[7.5345,4.7004],[7.5368,4.7026],[7.5412,4.7071],[7.5457,4.7183],[7.548,4.7251],[7.5457,4.7318],[7.5435,4.7341],[7.5412,4.7363],[7.5368,4.7385],[7.53,4.743],[7.5255,4.7498],[7.5233,4.7543],[7.5233,4.7565],[7.5233,4.7632],[7.5255,4.77],[7.5255,4.779],[7.521,4.788],[7.5165,4.7924],[7.5098,4.8014],[7.5076,4.8037],[7.5008,4.8082],[7.4896,4.8014],[7.4739,4.8014],[7.4537,4.8014],[7.4402,4.7992],[7.4312,4.8037],[7.4177,4.8082],[7.3975,4.8082],[7.3818,4.8082],[7.3773,4.7969],[7.3706,4.7835],[7.3616,4.779],[7.3459,4.779],[7.3369,4.7812],[7.3212,4.7835],[7.3234,4.7722],[7.3257,4.7588],[7.3279,4.7498],[7.3391,4.7408],[7.3436,4.7296],[7.3459,4.7161],[7.3481,4.7049],[7.3481,4.6914],[7.3481,4.6779],[7.3436,4.6644],[7.3391,4.6555],[7.3301,4.642],[7.3279,4.6307],[7.3257,4.6195],[7.3212,4.6083],[7.3144,4.5971],[7.3212,4.5903]]]}},{"type":"Feature","properties":{"id":"rivers/obia-akpor","name":"Obia/Akpor","state":"Rivers"},"geometry":{"type":"Polygon","coordinates":[[[6.8945,4.8823],[6.899,4.8755],[6.9035,4.8688],[6.9035,4.8576],[6.9079,4.8486],[6.9169,4.8486],[6.9259,4.8396],[6.9214,4.8306],[6.9214,4.8239],[6.9304,4.8171],[6.9282,4.8082],[6.9214,4.8059],[6.9192,4.8014],[6.9237,4.7947],[6.9416,4.7947],[6.9416,4.7992],[6.9439,4.7969],[6.9529,4.7969],[6.9596,4.7924],[6.9798,4.7924],[6.9821,4.8037],[6.9821,4.8149],[6.9865,4.8239],[6.9978,4.8194],[7.0045,4.8194],[7.0225,4.8216],[7.036,4.8239],[7.0472,4.8239],[7.0562,4.8216],[7.0651,4.8194],[7.0764,4.8149],[7.0786,4.8239],[7.0831,4.8329],[7.0943,4.8396],[7.1033,4.8418],[7.1168,4.8418],[7.128,4.8418],[7.1393,4.8418],[7.1527,4.8508],[7.146,4.8576],[7.137,4.8643],[7.1258,4.88],[7.1258,4.8957],[7.1033,4.8935],[7.0966,4.9025],[7.0876,4.9092],[7.0741,4.9137],[7.0629,4.9205],[7.0539,4.9205],[7.0404,4.9339],[7.0247,4.9407],[7.0068,4.9317],[6.9933,4.9272],[6.9798,4.9227],[6.9753,4.9115],[6.9843,4.9025],[6.9955,4.8935],[6.9843,4.8913],[6.9753,4.8935],[6.9641,4.9002],[6.9529,4.9002],[6.9416,4.9002],[6.9326,4.9047],[6.9192,4.9047],[6.9102,4.9047],[6.899,4.9047],[6.899,4.898],[6.9012,4.8935],[6.899,4.889],[6.8922,4.8868],[6.8945,4.8823]]]}},{"type":"Feature","properties":{"id":"rivers/ogba-egbema-ndoni","name":"Ogba/Egbema/Ndoni","state":"Rivers"},"geometry":{"type":"Polygon","coordinates":[[[6.4857,5.3786],[6.5015,5.3786],[6.5194,5.3808],[6.5396,5.3808],[6.5531,5.3808],[6.5621,5.3786],[6.5688,5.3718],[6.5688,5.3629],[6.5688,5.3471],[6.5666,5.3337],[6.5621,5.3202],[6.5554,5.3112],[6.5486,5.3022],[6.5419,5.2955],[6.5307,5.2843],[6.5329,5.273],[6.5374,5.2641],[6.5486,5.2573],[6.5666,5.2371],[6.5531,5.2259],[6.5486,5.2124],[6.5599,5.1989],[6.5531,5.1899],[6.5643,5.1922],[6.5711,5.1855],[6.5801,5.181],[6.5935,5.1742],[6.6048,5.172],[6.6182,5.1742],[6.6272,5.1854],[6.634,5.1967],[6.6385,5.2034],[6.6542,5.1989],[6.6676,5.1967],[6.6789,5.2012],[6.6901,5.2012],[6.7013,5.1989],[6.7148,5.2057],[6.7103,5.2169],[6.7215,5.2438],[6.7305,5.2663],[6.7395,5.273],[6.7575,5.2753],[6.7687,5.2753],[6.7777,5.273],[6.7934,5.2775],[6.7867,5.2843],[6.771,5.3],[6.7665,5.309],[6.7552,5.3224],[6.7575,5.3427],[6.7597,5.3539],[6.7597,5.3674],[6.7575,5.3763],[6.7575,5.3898],[6.7597,5.401],[6.762,5.41],[6.7597,5.4213],[6.7552,5.4302],[6.7485,5.4392],[6.744,5.4482],[6.744,5.4594],[6.7507,5.4639],[6.7507,5.4774],[6.7418,5.4931],[6.7328,5.4931],[6.7305,5.4931],[6.7193,5.4909],[6.7148,5.4886],[6.6519,5.4909],[6.6385,5.4931],[6.6587,5.6256],[6.6699,5.6907],[6.6744,5.7199],[6.6676,5.7222],[6.6654,5.7222],[6.6519,5.7244],[6.634,5.7289],[6.6182,5.7177],[6.6138,5.702],[6.6138,5.6907],[6.607,5.6795],[6.607,5.6705],[6.6093,5.666],[6.6115,5.6593],[6.6182,5.6503],[6.6205,5.6436],[6.6182,5.6324],[6.6138,5.6256],[6.6093,5.6211],[6.6048,5.6144],[6.6025,5.6077],[6.6003,5.5964],[6.5958,5.5874],[6.5935,5.5807],[6.5913,5.574],[6.5846,5.5627],[6.5688,5.5538],[6.5554,5.5515],[6.5419,5.5493],[6.5307,5.5313],[6.5329,5.5088],[6.5374,5.4909],[6.5374,5.4774],[6.5374,5.4707],[6.5351,5.4594],[6.5239,5.4392],[6.5127,5.428],[6.4992,5.4257],[6.4947,5.4257],[6.4835,5.4213],[6.4768,5.4033],[6.4857,5.3786]]]}},{"type":"Feature","properties":{"id":"rivers/ogu-bolo","name":"Ogu/Bolo","state":"Rivers"},"geometry":{"type":"Polygon","coordinates":[[[7.1685,4.6307],[7.1909,4.6105],[7.1976,4.6173],[7.2066,4.6263],[7.2156,4.6307],[7.2246,4.6352],[7.2403,4.642],[7.2426,4.6667],[7.2493,4.6779],[7.2515,4.6846],[7.2448,4.6936],[7.2336,4.7026],[7.2246,4.7004],[7.2134,4.7026],[7.2066,4.7093],[7.2021,4.7183],[7.2021,4.7296],[7.1999,4.7385],[7.1954,4.7475],[7.1842,4.743],[7.1752,4.7363],[7.1774,4.7318],[7.1842,4.7273],[7.1887,4.7251],[7.1909,4.7273],[7.1954,4.7228],[7.1999,4.7116],[7.1954,4.7026],[7.1887,4.7004],[7.1797,4.6981],[7.1752,4.6959],[7.1685,4.6959],[7.1595,4.6869],[7.1572,4.6712],[7.1527,4.6599],[7.1685,4.6307]]]}},{"type":"Feature","properties":{"id":"rivers/okrika","name":"Okrika","state":"Rivers"},"geometry":{"type":"Polygon","coordinates":[[[6.9888,4.7251],[6.9978,4.7161],[7.018,4.6981],[7.027,4.6891],[7.0337,4.6802],[7.0404,4.6667],[7.0472,4.6555],[7.0539,4.6465],[7.0584,4.6397],[7.0719,4.633],[7.0809,4.6285],[7.0876,4.624],[7.1011,4.615],[7.1146,4.6038],[7.1235,4.5993],[7.1325,4.5948],[7.146,4.5971],[7.1595,4.5993],[7.1707,4.6016],[7.1707,4.6038],[7.1572,4.6285],[7.1505,4.6397],[7.146,4.6442],[7.1303,4.6555],[7.1056,4.6667],[7.0966,4.6689],[7.0921,4.6757],[7.0831,4.6846],[7.0786,4.7026],[7.0809,4.7138],[7.0809,4.7183],[7.0809,4.7228],[7.0854,4.7228],[7.0876,4.7183],[7.0899,4.7116],[7.0876,4.7071],[7.0899,4.7004],[7.0921,4.6936],[7.0966,4.6869],[7.1033,4.6779],[7.1078,4.6734],[7.1235,4.6689],[7.1437,4.6644],[7.1527,4.6599],[7.1572,4.6712],[7.1595,4.6869],[7.1685,4.6959],[7.1752,4.6959],[7.1797,4.6981],[7.1887,4.7004],[7.1954,4.7026],[7.1999,4.7116],[7.1954,4.7228],[7.1909,4.7273],[7.1887,4.7251],[7.1842,4.7273],[7.1774,4.7318],[7.1752,4.7363],[7.164,4.7273],[7.155,4.7251],[7.146,4.7228],[7.137,4.7251],[7.1168,4.7385],[7.1123,4.7475],[7.1078,4.7543],[7.1033,4.7632],[7.0988,4.7722],[7.0943,4.7835],[7.0831,4.7924],[7.0764,4.8037],[7.0764,4.7969],[7.0764,4.7947],[7.0651,4.7924],[7.0629,4.788],[7.0696,4.779],[7.0674,4.77],[7.0674,4.7655],[7.0674,4.7588],[7.0764,4.7475],[7.0786,4.7363],[7.0764,4.7296],[7.0674,4.7273],[7.0562,4.7251],[7.0449,4.7228],[7.0315,4.7116],[7.0247,4.7138],[7.0202,4.7251],[7.0112,4.7318],[7.0045,4.7363],[7.0023,4.743],[6.991,4.7498],[6.9821,4.7408],[6.9888,4.7251]]]}},{"type":"Feature","properties":{"id":"rivers/omumma","name":"Omumma","state":"Rivers"},"geometry":{"type":"Polygon","coordinates":[[[7.1685,4.9856],[7.1729,4.9833],[7.1842,4.9833],[7.1932,4.9833],[7.2066,4.9811],[7.2179,4.9788],[7.2291,4.9699],[7.2358,4.9811],[7.2403,4.9946],[7.2448,5.008],[7.2493,5.017],[7.2515,5.0327],[7.2515,5.0485],[7.2538,5.0642],[7.256,5.0777],[7.265,5.0956],[7.2718,5.1046],[7.2785,5.1158],[7.2785,5.1203],[7.2807,5.1316],[7.2875,5.1473],[7.292,5.1607],[7.292,5.172],[7.2897,5.1832],[7.2875,5.1922],[7.2807,5.2012],[7.274,5.2102],[7.265,5.2146],[7.2605,5.2124],[7.2515,5.2057],[7.2515,5.2012],[7.2426,5.1967],[7.2448,5.1854],[7.2403,5.1765],[7.2358,5.163],[7.2246,5.1518],[7.2224,5.1405],[7.2156,5.1271],[7.2134,5.1158],[7.2089,5.1046],[7.2066,5.0911],[7.2066,5.0821],[7.2044,5.0709],[7.1976,5.0574],[7.1909,5.053],[7.1864,5.044],[7.1819,5.0327],[7.1752,5.0215],[7.164,5.0103],[7.1617,4.9968],[7.1685,4.9856]]]}},{"type":"Feature","properties":{"id":"rivers/opobo-nkoro","name":"Opobo/Nkoro","state":"Rivers"},"geometry":{"type":"Polygon","coordinates":[[[7.4245,4.5589],[7.4267,4.5477],[7.4312,4.5274],[7.4312,4.5252],[7.4312,4.523],[7.4357,4.5185],[7.4447,4.514],[7.4469,4.514],[7.4582,4.514],[7.4739,4.514],[7.4784,4.5162],[7.4806,4.514],[7.4829,4.5117],[7.4829,4.5072],[7.4806,4.505],[7.4784,4.5027],[7.4739,4.4982],[7.4739,4.496],[7.4761,4.4915],[7.4829,4.4893],[7.4918,4.4848],[7.4986,4.4803],[7.5053,4.4646],[7.5076,4.4533],[7.5098,4.4511],[7.5188,4.4511],[7.5615,4.4511],[7.5772,4.4488],[7.5862,4.4488],[7.5907,4.4533],[7.5907,4.4623],[7.5884,4.4623],[7.5862,4.4623],[7.5839,4.4623],[7.5817,4.4668],[7.5817,4.4691],[7.5817,4.4758],[7.5839,4.478],[7.5862,4.4825],[7.5884,4.487],[7.5884,4.4893],[7.5839,4.4938],[7.5772,4.496],[7.5704,4.4982],[7.557,4.5027],[7.5502,4.5095],[7.5435,4.514],[7.5412,4.5162],[7.539,4.5185],[7.5323,4.5252],[7.5278,4.5387],[7.5255,4.5409],[7.5255,4.5387],[7.5188,4.5319],[7.5098,4.5319],[7.5008,4.5409],[7.4986,4.5477],[7.4963,4.5499],[7.4963,4.5566],[7.4941,4.5611],[7.4829,4.5611],[7.4739,4.5611],[7.4626,4.5679],[7.4582,4.5724],[7.4447,4.5724],[7.429,4.5701],[7.4222,4.5701],[7.4222,4.5634],[7.4245,4.5589]]]}},{"type":"Feature","properties":{"id":"rivers/oyigbo","name":"Oyigbo","state":"Rivers"},"geometry":{"type":"Polygon","coordinates":[[[7.137,4.8643],[7.146,4.8576],[7.1527,4.8508],[7.1617,4.8441],[7.1819,4.8374],[7.1954,4.8351],[7.2089,4.8284],[7.2201,4.8284],[7.2313,4.8239],[7.2403,4.8171],[7.256,4.8127],[7.2673,4.8059],[7.2762,4.8014],[7.2987,4.7924],[7.3122,4.7857],[7.3212,4.7835],[7.3369,4.7812],[7.3459,4.779],[7.3616,4.779],[7.3706,4.7835],[7.3773,4.7969],[7.3818,4.8082],[7.3975,4.8082],[7.4177,4.8082],[7.4312,4.8037],[7.4402,4.7992],[7.4537,4.8014],[7.4739,4.8014],[7.4896,4.8014],[7.5008,4.8082],[7.4896,4.8216],[7.4873,4.8284],[7.4784,4.8329],[7.4739,4.8374],[7.4716,4.8418],[7.4671,4.8463],[7.4604,4.8463],[7.4559,4.8441],[7.4469,4.8463],[7.4357,4.8531],[7.429,4.8621],[7.4155,4.8666],[7.4065,4.8666],[7.393,4.8621],[7.3728,4.8621],[7.3616,4.8643],[7.3593,4.8666],[7.3526,4.871],[7.3414,4.8733],[7.3346,4.8733],[7.3301,4.8733],[7.3257,4.8755],[7.3189,4.88],[7.3077,4.8755],[7.2942,4.8755],[7.2718,4.8733],[7.256,4.8643],[7.2403,4.8576],[7.2313,4.8576],[7.2156,4.8576],[7.2044,4.8576],[7.1909,4.8643],[7.1842,4.8733],[7.1729,4.88],[7.164,4.8823],[7.155,4.8845],[7.1482,4.8913],[7.1437,4.8957],[7.1415,4.9002],[7.1437,4.9137],[7.1303,4.907],[7.1258,4.8957],[7.1258,4.88],[7.137,4.8643]]]}},{"type":"Feature","properties":{"id":"rivers/port-harcourt","name":"Port-Harcourt","state":"Rivers"},"geometry":{"type":"Polygon","coordinates":[[[6.9439,4.7857],[6.9439,4.779],[6.9484,4.7722],[6.9551,4.7745],[6.9574,4.7745],[6.9641,4.77],[6.9663,4.7655],[6.9641,4.7588],[6.9641,4.7543],[6.9753,4.7565],[6.9843,4.7632],[6.9933,4.7677],[7.0023,4.7722],[7.009,4.7722],[7.009,4.7677],[7.0023,4.7565],[7.0023,4.7543],[7.0023,4.7475],[7.0023,4.743],[7.0045,4.7363],[7.0112,4.7318],[7.0202,4.7251],[7.0247,4.7138],[7.0315,4.7116],[7.0449,4.7228],[7.0562,4.7251],[7.0674,4.7273],[7.0764,4.7296],[7.0786,4.7363],[7.0764,4.7475],[7.0674,4.7588],[7.0674,4.7655],[7.0674,4.77],[7.0696,4.779],[7.0629,4.788],[7.0651,4.7924],[7.0764,4.7947],[7.0764,4.7969],[7.0764,4.8037],[7.0764,4.8149],[7.0651,4.8194],[7.0562,4.8216],[7.0472,4.8239],[7.036,4.8239],[7.0225,4.8216],[7.0045,4.8194],[6.9978,4.8194],[6.9865,4.8239],[6.9821,4.8149],[6.9821,4.8037],[6.9798,4.7924],[6.9596,4.7924],[6.9529,4.7969],[6.9439,4.7969],[6.9416,4.7992],[6.9416,4.7947],[6.9439,4.7857]]]}},{"type":"Feature","properties":{"id":"rivers/tai","name":"Tai","state":"Rivers"},"geometry":{"type":"Polygon","coordinates":[[[7.1887,4.8127],[7.1976,4.8059],[7.2066,4.8014],[7.2066,4.7902],[7.2021,4.7745],[7.1976,4.7677],[7.1932,4.7565],[7.1954,4.7475],[7.1999,4.7385],[7.2021,4.7296],[7.2021,4.7183],[7.2066,4.7093],[7.2134,4.7026],[7.2246,4.7004],[7.2336,4.7026],[7.2471,4.7071],[7.256,4.7093],[7.274,4.7116],[7.2942,4.7138],[7.3054,4.7161],[7.3167,4.7206],[7.3279,4.7206],[7.3436,4.7296],[7.3391,4.7408],[7.3279,4.7498],[7.3257,4.7588],[7.3234,4.7722],[7.3212,4.7835],[7.3122,4.7857],[7.2987,4.7924],[7.2762,4.8014],[7.2673,4.8059],[7.256,4.8127],[7.2403,4.8171],[7.2313,4.8239],[7.2201,4.8284],[7.2089,4.8284],[7.1954,4.8351],[7.1819,4.8374],[7.1797,4.8216],[7.1887,4.8127]]]}}]}