{"type":"FeatureCollection","features":[{"type":"Feature","properties":{"id":"sokoto/binji","name":"Binji","state":"Sokoto"},"geometry":{"type":"Polygon","coordinates":[[[4.6981,13.0972],[4.7004,13.0972],[4.7093,13.104],[4.7251,13.113],[4.7341,13.1175],[4.752,13.1242],[4.7677,13.1264],[4.779,13.1264],[4.8037,13.122],[4.8171,13.1175],[4.8216,13.1107],[4.8261,13.104],[4.8351,13.1017],[4.8508,13.0972],[4.8688,13.0972],[4.8935,13.0972],[4.9025,13.0995],[4.9092,13.1017],[4.9182,13.1062],[4.9249,13.1085],[4.9294,13.1085],[4.9609,13.1242],[4.9743,13.1332],[4.9878,13.1444],[5.0035,13.1534],[5.008,13.1556],[5.0148,13.1624],[5.026,13.1669],[5.0305,13.1714],[5.0035,13.1803],[4.9878,13.1893],[4.9721,13.2006],[4.9631,13.2118],[4.9519,13.2208],[4.9407,13.2342],[4.9339,13.2455],[4.9272,13.2567],[4.9249,13.2657],[4.9137,13.2792],[4.8957,13.2926],[4.8823,13.2949],[4.8643,13.2971],[4.8486,13.2971],[4.8374,13.2949],[4.8104,13.2926],[4.8014,13.2926],[4.7767,13.2949],[4.752,13.2971],[4.7363,13.2994],[4.7251,13.3016],[4.7206,13.3016],[4.7183,13.2881],[4.7161,13.2792],[4.7138,13.2679],[4.7138,13.2612],[4.7161,13.2455],[4.7161,13.232],[4.7161,13.223],[4.7161,13.214],[4.7138,13.2028],[4.7116,13.1961],[4.7116,13.1916],[4.7138,13.1848],[4.7138,13.1781],[4.7116,13.1601],[4.7093,13.1556],[4.7071,13.1444],[4.6959,13.1175],[4.6914,13.1062],[4.6891,13.095],[4.6981,13.0972]]]}},{"type":"Feature","properties":{"id":"sokoto/bodinga","name":"Bodinga","state":"Sokoto"},"geometry":{"type":"Polygon","coordinates":[[[5.0507,12.9266],[5.0619,12.9131],[5.0664,12.9108],[5.0754,12.9041],[5.0821,12.8974],[5.0889,12.8906],[5.0889,12.8794],[5.0889,12.8682],[5.0844,12.8547],[5.0799,12.8457],[5.0777,12.8322],[5.0754,12.8233],[5.0709,12.812],[5.0687,12.8008],[5.0732,12.7986],[5.0911,12.7873],[5.0934,12.7873],[5.1271,12.7671],[5.1563,12.7469],[5.172,12.7334],[5.1832,12.72],[5.1944,12.7042],[5.2102,12.6975],[5.2326,12.6885],[5.2371,12.6863],[5.2416,12.6863],[5.273,12.6885],[5.2932,12.693],[5.309,12.6953],[5.3112,12.6997],[5.3045,12.7155],[5.2955,12.7289],[5.2888,12.7536],[5.2843,12.7761],[5.2843,12.8053],[5.2843,12.8255],[5.282,12.8435],[5.2775,12.8614],[5.2708,12.8682],[5.2641,12.8794],[5.2551,12.8929],[5.2416,12.9108],[5.2326,12.9198],[5.2326,12.9266],[5.2259,12.9333],[5.2169,12.9378],[5.2057,12.94],[5.1944,12.9423],[5.1922,12.9445],[5.1899,12.9468],[5.1854,12.9513],[5.181,12.9558],[5.1765,12.958],[5.1675,12.9603],[5.163,12.9625],[5.1495,12.9737],[5.1405,12.9827],[5.1316,12.985],[5.1158,12.9872],[5.1091,12.9872],[5.0911,12.985],[5.0732,12.9782],[5.0642,12.9715],[5.0597,12.9625],[5.053,12.9513],[5.0485,12.9378],[5.0462,12.9288],[5.0507,12.9266]]]}},{"type":"Feature","properties":{"id":"sokoto/dange-shuni","name":"Dange-Shuni","state":"Sokoto"},"geometry":{"type":"Polygon","coordinates":[[[5.1922,12.9445],[5.1944,12.9423],[5.2057,12.94],[5.2169,12.9378],[5.2259,12.9333],[5.2326,12.9266],[5.2326,12.9198],[5.2416,12.9108],[5.2551,12.8929],[5.2641,12.8794],[5.2708,12.8682],[5.2775,12.8614],[5.282,12.8435],[5.2843,12.8255],[5.2843,12.8053],[5.2843,12.7761],[5.2888,12.7536],[5.2955,12.7289],[5.3045,12.7155],[5.3112,12.6997],[5.309,12.6953],[5.3314,12.6908],[5.3629,12.684],[5.3898,12.675],[5.4168,12.6638],[5.4392,12.6526],[5.4572,12.6459],[5.4684,12.6414],[5.4931,12.6503],[5.5088,12.6616],[5.5223,12.6638],[5.5448,12.6773],[5.6256,12.7132],[5.6436,12.7155],[5.666,12.7155],[5.6818,12.711],[5.6863,12.7132],[5.6863,12.7289],[5.6773,12.7402],[5.6705,12.7492],[5.6548,12.7649],[5.6413,12.7761],[5.6279,12.7828],[5.6166,12.7896],[5.6009,12.7941],[5.5897,12.8031],[5.5762,12.812],[5.5717,12.8188],[5.5627,12.8367],[5.556,12.8525],[5.5493,12.8637],[5.5448,12.8682],[5.538,12.8794],[5.5313,12.8929],[5.5201,12.9019],[5.5066,12.9176],[5.5021,12.9356],[5.4999,12.949],[5.4976,12.958],[5.4886,12.9805],[5.4841,12.9917],[5.4796,13.0029],[5.4796,13.0074],[5.4752,13.0029],[5.4482,13.0007],[5.437,13.0029],[5.4257,13.0052],[5.4123,13.0052],[5.3988,12.9984],[5.3808,12.9962],[5.3584,12.9917],[5.3382,12.9895],[5.3314,12.9962],[5.3202,13.0029],[5.3112,13.0074],[5.3022,13.0097],[5.2865,13.0186],[5.2798,13.0231],[5.2753,13.0209],[5.2685,13.0164],[5.2641,13.0119],[5.2528,13.0074],[5.2438,13.0029],[5.2393,12.9962],[5.2371,12.9939],[5.2304,12.9939],[5.2259,12.9917],[5.2259,12.9895],[5.2236,12.985],[5.2191,12.976],[5.2124,12.967],[5.1989,12.958],[5.1944,12.9535],[5.1899,12.9468],[5.1922,12.9445]]]}},{"type":"Feature","properties":{"id":"sokoto/gada","name":"Gada","state":"Sokoto"},"geometry":{"type":"Polygon","coordinates":[[[5.5133,13.6856],[5.5178,13.6677],[5.5268,13.6542],[5.5313,13.6452],[5.5335,13.6317],[5.5425,13.6048],[5.5493,13.5913],[5.556,13.5891],[5.565,13.5756],[5.5695,13.5711],[5.574,13.5689],[5.5785,13.5689],[5.5829,13.5689],[5.6211,13.5868],[5.6279,13.5913],[5.6346,13.5913],[5.6616,13.5913],[5.6885,13.5823],[5.693,13.5756],[5.693,13.5644],[5.693,13.5531],[5.693,13.5442],[5.693,13.5262],[5.6997,13.5082],[5.7042,13.4858],[5.7087,13.4656],[5.7244,13.4498],[5.7334,13.4476],[5.7379,13.4498],[5.7536,13.4543],[5.7626,13.47],[5.7693,13.488],[5.7716,13.5037],[5.7761,13.5172],[5.7851,13.5374],[5.7918,13.5599],[5.7985,13.5666],[5.8008,13.5756],[5.8008,13.5846],[5.803,13.5868],[5.803,13.5891],[5.821,13.5868],[5.8255,13.5846],[5.839,13.5801],[5.8479,13.5801],[5.8547,13.5778],[5.8569,13.5756],[5.8592,13.5711],[5.8704,13.5711],[5.8861,13.5733],[5.9153,13.5733],[5.9153,13.5778],[5.9198,13.5846],[5.9243,13.5913],[5.9355,13.5981],[5.9535,13.6093],[5.9647,13.6183],[5.976,13.6295],[5.9804,13.6362],[5.9849,13.6497],[5.9894,13.6564],[6.0029,13.6744],[6.0164,13.6811],[6.0231,13.6856],[6.0411,13.6946],[6.0725,13.7193],[6.068,13.7193],[6.059,13.7216],[6.0186,13.735],[6.0119,13.7373],[6.0074,13.7395],[6.0007,13.7395],[5.9962,13.7418],[5.9917,13.744],[5.9827,13.7463],[5.976,13.7485],[5.9692,13.7508],[5.9602,13.753],[5.9378,13.7597],[5.931,13.762],[5.9221,13.7642],[5.9153,13.7665],[5.9063,13.771],[5.8974,13.7732],[5.8906,13.7755],[5.8816,13.7777],[5.8727,13.78],[5.8659,13.7822],[5.8569,13.7867],[5.839,13.7912],[5.8322,13.7934],[5.8277,13.7957],[5.821,13.7979],[5.812,13.7979],[5.8053,13.8002],[5.7985,13.8002],[5.7896,13.8024],[5.7828,13.8024],[5.7783,13.8047],[5.7716,13.8047],[5.7491,13.8114],[5.7446,13.8159],[5.7402,13.8159],[5.7379,13.8181],[5.7357,13.8181],[5.7289,13.8204],[5.7267,13.8226],[5.7222,13.8226],[5.7132,13.8271],[5.7065,13.8294],[5.702,13.8316],[5.6907,13.8361],[5.6818,13.8383],[5.675,13.8406],[5.6683,13.8451],[5.666,13.8451],[5.6593,13.8473],[5.6526,13.8496],[5.6458,13.8518],[5.6436,13.8518],[5.6391,13.8541],[5.6324,13.8563],[5.6189,13.8608],[5.5987,13.872],[5.5695,13.8855],[5.5582,13.8922],[5.5538,13.8945],[5.5515,13.8967],[5.5448,13.8967],[5.5358,13.899],[5.5313,13.899],[5.5246,13.9012],[5.5313,13.881],[5.5335,13.8675],[5.5358,13.8473],[5.5335,13.8316],[5.5291,13.8092],[5.5223,13.7912],[5.5133,13.7732],[5.5088,13.7485],[5.5111,13.7238],[5.5088,13.7058],[5.5133,13.6856]]]}},{"type":"Feature","properties":{"id":"sokoto/goronyo","name":"Goronyo","state":"Sokoto"},"geometry":{"type":"Polygon","coordinates":[[[5.5021,13.36],[5.5088,13.3533],[5.5156,13.3443],[5.5223,13.3331],[5.5291,13.3308],[5.5425,13.3263],[5.5448,13.3196],[5.5538,13.3151],[5.5627,13.3151],[5.574,13.3128],[5.5942,13.3106],[5.6077,13.3106],[5.6211,13.3083],[5.6548,13.3106],[5.675,13.3151],[5.6975,13.3173],[5.7199,13.3218],[5.7446,13.3196],[5.7626,13.3151],[5.7851,13.3083],[5.7985,13.3016],[5.8075,13.2881],[5.8098,13.2814],[5.8098,13.2679],[5.8075,13.2612],[5.8008,13.2545],[5.7873,13.2432],[5.7761,13.2342],[5.7559,13.232],[5.7402,13.2342],[5.7312,13.241],[5.7199,13.25],[5.7199,13.2477],[5.7199,13.2387],[5.7199,13.232],[5.7244,13.223],[5.7244,13.214],[5.7244,13.2073],[5.7244,13.205],[5.7222,13.1961],[5.7199,13.1826],[5.7199,13.1669],[5.7222,13.1601],[5.7334,13.1534],[5.7514,13.1579],[5.7671,13.1601],[5.7806,13.1624],[5.7896,13.1601],[5.794,13.1601],[5.803,13.1624],[5.8255,13.1601],[5.8367,13.1556],[5.8502,13.1489],[5.8659,13.1354],[5.8749,13.1287],[5.8906,13.1197],[5.9018,13.113],[5.9176,13.1017],[5.931,13.0905],[5.949,13.0815],[5.9625,13.0793],[5.9692,13.0725],[5.9804,13.0658],[5.9939,13.0546],[6.0141,13.0411],[6.0164,13.0523],[6.0209,13.0703],[6.0231,13.0815],[6.0343,13.1062],[6.0343,13.1085],[6.0276,13.1175],[6.0186,13.1309],[6.0029,13.1422],[5.9782,13.1601],[5.9737,13.1714],[5.9647,13.1848],[5.9535,13.1983],[5.94,13.2163],[5.9333,13.223],[5.9288,13.2455],[5.931,13.2567],[5.9333,13.2634],[5.94,13.2747],[5.9445,13.2836],[5.9535,13.3016],[5.9625,13.3173],[5.9625,13.3263],[5.9715,13.3353],[5.9782,13.3555],[5.9827,13.3622],[5.9962,13.3802],[6.0007,13.3914],[6.0029,13.4027],[5.9984,13.4161],[5.9962,13.4229],[5.9894,13.4364],[5.9827,13.4498],[5.976,13.4588],[5.967,13.4678],[5.9602,13.4768],[5.9513,13.4925],[5.9378,13.5127],[5.9243,13.5352],[5.9198,13.5486],[5.9176,13.5644],[5.9153,13.5733],[5.8861,13.5733],[5.8704,13.5711],[5.8592,13.5711],[5.8569,13.5756],[5.8547,13.5778],[5.8479,13.5801],[5.839,13.5801],[5.8255,13.5846],[5.821,13.5868],[5.803,13.5891],[5.803,13.5868],[5.8008,13.5846],[5.8008,13.5756],[5.7985,13.5666],[5.7918,13.5599],[5.7851,13.5374],[5.7761,13.5172],[5.7716,13.5037],[5.7693,13.488],[5.7626,13.47],[5.7536,13.4543],[5.7379,13.4498],[5.7334,13.4476],[5.7244,13.4498],[5.7087,13.4656],[5.7042,13.4858],[5.6997,13.5082],[5.693,13.5262],[5.693,13.5442],[5.693,13.5531],[5.693,13.5644],[5.693,13.5756],[5.6885,13.5823],[5.6616,13.5913],[5.6346,13.5913],[5.6279,13.5913],[5.6211,13.5868],[5.5829,13.5689],[5.5785,13.5689],[5.5785,13.5621],[5.5785,13.5509],[5.5762,13.5217],[5.574,13.5037],[5.5672,13.479],[5.556,13.4633],[5.5493,13.4543],[5.5403,13.4453],[5.5335,13.4341],[5.5291,13.4274],[5.5201,13.4117],[5.5088,13.4049],[5.5043,13.3937],[5.4999,13.3802],[5.4999,13.3712],[5.4976,13.3622],[5.5021,13.36]]]}},{"type":"Feature","properties":{"id":"sokoto/gudu","name":"Gudu","state":"Sokoto"},"geometry":{"type":"Polygon","coordinates":[[[4.1524,13.2522],[4.1659,13.2522],[4.1838,13.2522],[4.2018,13.2589],[4.213,13.2679],[4.2332,13.2702],[4.2535,13.2612],[4.2669,13.25],[4.2759,13.2432],[4.2871,13.2297],[4.2984,13.2297],[4.3141,13.2297],[4.3343,13.2208],[4.3455,13.214],[4.3523,13.2006],[4.3545,13.1848],[4.3657,13.1736],[4.3792,13.1691],[4.3972,13.1646],[4.4264,13.1624],[4.4466,13.1556],[4.4668,13.1511],[4.505,13.1422],[4.5274,13.1399],[4.5409,13.1287],[4.5499,13.1197],[4.5521,13.1152],[4.5701,13.1062],[4.5791,13.104],[4.6016,13.095],[4.6195,13.0928],[4.6307,13.0995],[4.642,13.1242],[4.6555,13.1467],[4.6622,13.1556],[4.6712,13.1669],[4.6846,13.1691],[4.6959,13.1691],[4.7026,13.1669],[4.7093,13.1556],[4.7116,13.1601],[4.7138,13.1781],[4.7138,13.1848],[4.7116,13.1916],[4.7116,13.1961],[4.7138,13.2028],[4.7161,13.214],[4.7161,13.223],[4.7161,13.232],[4.7161,13.2455],[4.7138,13.2612],[4.7138,13.2679],[4.7161,13.2792],[4.7183,13.2881],[4.7206,13.3016],[4.7206,13.3083],[4.7206,13.3173],[4.7206,13.3263],[4.7183,13.3353],[4.7228,13.3443],[4.7296,13.3622],[4.7363,13.3735],[4.7385,13.3847],[4.7408,13.4004],[4.7453,13.4094],[4.752,13.4341],[4.7588,13.4453],[4.7632,13.4566],[4.7677,13.4835],[4.7655,13.5037],[4.7655,13.515],[4.7655,13.5329],[4.7655,13.5531],[4.7655,13.5644],[4.7655,13.5756],[4.7722,13.5913],[4.7745,13.6025],[4.7857,13.6475],[4.7924,13.6654],[4.7947,13.6767],[4.7992,13.6969],[4.8059,13.7238],[4.8127,13.744],[4.8216,13.7597],[4.8239,13.771],[4.8239,13.7732],[4.8014,13.7687],[4.7947,13.7687],[4.779,13.7642],[4.7767,13.7642],[4.7722,13.7642],[4.7655,13.762],[4.7588,13.762],[4.7498,13.7597],[4.743,13.7575],[4.7341,13.7553],[4.7273,13.7553],[4.7206,13.753],[4.7138,13.753],[4.7049,13.7508],[4.6981,13.7485],[4.6734,13.744],[4.6644,13.744],[4.6577,13.7418],[4.6487,13.7418],[4.642,13.7395],[4.633,13.7373],[4.6263,13.7373],[4.6218,13.735],[4.6173,13.735],[4.6016,13.7306],[4.5971,13.7306],[4.5948,13.7306],[4.5903,13.7283],[4.5836,13.7283],[4.5746,13.7261],[4.5679,13.7238],[4.5611,13.7193],[4.5544,13.7148],[4.5409,13.7036],[4.5342,13.7014],[4.5274,13.6991],[4.5207,13.6969],[4.514,13.6924],[4.5072,13.6901],[4.5005,13.6856],[4.4915,13.6834],[4.4825,13.6811],[4.4735,13.6789],[4.4646,13.6767],[4.4466,13.6632],[4.4399,13.6587],[4.4286,13.6475],[4.4219,13.643],[4.4174,13.6362],[4.4084,13.6295],[4.3949,13.6183],[4.3837,13.607],[4.3815,13.6048],[4.3792,13.6048],[4.3747,13.6003],[4.3702,13.5958],[4.3635,13.5891],[4.359,13.5846],[4.3478,13.5756],[4.341,13.5711],[4.3366,13.5644],[4.3298,13.5599],[4.3253,13.5576],[4.3208,13.5531],[4.3163,13.5486],[4.3051,13.5397],[4.2984,13.5329],[4.2939,13.5284],[4.2871,13.5217],[4.2804,13.5172],[4.2737,13.5105],[4.2669,13.506],[4.2602,13.4992],[4.2557,13.4947],[4.2512,13.4903],[4.2445,13.4858],[4.24,13.4813],[4.2355,13.4768],[4.231,13.4723],[4.2243,13.4723],[4.2175,13.4723],[4.2085,13.4723],[4.2018,13.4723],[4.1883,13.4723],[4.1838,13.4723],[4.1749,13.4723],[4.1659,13.4723],[4.1569,13.4723],[4.1479,13.4723],[4.1412,13.4723],[4.1344,13.4723],[4.1344,13.4656],[4.1344,13.4611],[4.1344,13.4543],[4.1344,13.4476],[4.1344,13.4386],[4.1344,13.4319],[4.1344,13.4229],[4.1344,13.4139],[4.1344,13.4072],[4.1344,13.4004],[4.1344,13.3914],[4.1344,13.3847],[4.1344,13.3757],[4.1344,13.369],[4.1344,13.36],[4.1344,13.3533],[4.1344,13.3443],[4.1344,13.3353],[4.1344,13.3286],[4.1344,13.3241],[4.1344,13.3196],[4.1344,13.3128],[4.1344,13.3039],[4.1344,13.2971],[4.1344,13.2881],[4.1344,13.2612],[4.1524,13.2522]]]}},{"type":"Feature","properties":{"id":"sokoto/gwadabawa","name":"Gwadabawa","state":"Sokoto"},"geometry":{"type":"Polygon","coordinates":[[[5.1495,13.3173],[5.154,13.2994],[5.154,13.2904],[5.1652,13.2926],[5.172,13.2949],[5.2057,13.3173],[5.2214,13.3286],[5.2281,13.3331],[5.2438,13.3353],[5.2753,13.3331],[5.2865,13.3241],[5.2955,13.3083],[5.3112,13.2836],[5.3337,13.2702],[5.3427,13.2634],[5.3516,13.2612],[5.3539,13.2634],[5.3651,13.2769],[5.3741,13.2881],[5.3876,13.3061],[5.4078,13.3218],[5.4235,13.3331],[5.4392,13.3375],[5.4549,13.3375],[5.4729,13.3398],[5.4752,13.3398],[5.4774,13.342],[5.4864,13.3533],[5.4909,13.3555],[5.4976,13.3622],[5.4999,13.3712],[5.4999,13.3802],[5.5043,13.3937],[5.5088,13.4049],[5.5201,13.4117],[5.5291,13.4274],[5.5335,13.4341],[5.5403,13.4453],[5.5493,13.4543],[5.556,13.4633],[5.5672,13.479],[5.574,13.5037],[5.5762,13.5217],[5.5785,13.5509],[5.5785,13.5621],[5.5785,13.5689],[5.574,13.5689],[5.5717,13.5666],[5.5582,13.5621],[5.5493,13.5531],[5.5291,13.5442],[5.5178,13.5352],[5.5021,13.5239],[5.4819,13.515],[5.4752,13.506],[5.4549,13.4947],[5.4437,13.488],[5.4347,13.4858],[5.4302,13.4858],[5.4257,13.4858],[5.41,13.4925],[5.401,13.5037],[5.3966,13.5105],[5.3943,13.5194],[5.3966,13.5307],[5.401,13.5464],[5.4055,13.5599],[5.4123,13.5756],[5.41,13.5868],[5.4055,13.5958],[5.3943,13.607],[5.3853,13.616],[5.3674,13.616],[5.3494,13.6048],[5.3359,13.5936],[5.3247,13.5778],[5.3202,13.5689],[5.309,13.5486],[5.3,13.5352],[5.282,13.5194],[5.2685,13.5127],[5.2618,13.5127],[5.2506,13.5127],[5.2371,13.5127],[5.2214,13.5127],[5.2146,13.515],[5.1989,13.5239],[5.1899,13.5284],[5.181,13.5352],[5.1832,13.515],[5.1832,13.5015],[5.181,13.4745],[5.1765,13.4566],[5.172,13.4386],[5.1675,13.4251],[5.163,13.4094],[5.1607,13.3937],[5.1563,13.378],[5.1518,13.3712],[5.1495,13.3645],[5.1473,13.3488],[5.1473,13.3331],[5.1495,13.3173]]]}},{"type":"Feature","properties":{"id":"sokoto/illela","name":"Illela","state":"Sokoto"},"geometry":{"type":"Polygon","coordinates":[[[5.163,13.6587],[5.163,13.6452],[5.163,13.6272],[5.1652,13.6183],[5.1675,13.5981],[5.1675,13.5868],[5.1697,13.5689],[5.172,13.5554],[5.1765,13.5397],[5.181,13.5352],[5.1899,13.5284],[5.1989,13.5239],[5.2146,13.515],[5.2214,13.5127],[5.2371,13.5127],[5.2506,13.5127],[5.2618,13.5127],[5.2685,13.5127],[5.282,13.5194],[5.3,13.5352],[5.309,13.5486],[5.3202,13.5689],[5.3247,13.5778],[5.3359,13.5936],[5.3494,13.6048],[5.3674,13.616],[5.3853,13.616],[5.3943,13.607],[5.4055,13.5958],[5.41,13.5868],[5.4123,13.5756],[5.4055,13.5599],[5.401,13.5464],[5.3966,13.5307],[5.3943,13.5194],[5.3966,13.5105],[5.401,13.5037],[5.41,13.4925],[5.4257,13.4858],[5.4302,13.4858],[5.4347,13.4858],[5.4437,13.488],[5.4549,13.4947],[5.4752,13.506],[5.4819,13.515],[5.5021,13.5239],[5.5178,13.5352],[5.5291,13.5442],[5.5493,13.5531],[5.5582,13.5621],[5.5717,13.5666],[5.574,13.5689],[5.5695,13.5711],[5.565,13.5756],[5.556,13.5891],[5.5493,13.5913],[5.5425,13.6048],[5.5335,13.6317],[5.5313,13.6452],[5.5268,13.6542],[5.5178,13.6677],[5.5133,13.6856],[5.5088,13.7058],[5.5111,13.7238],[5.5088,13.7485],[5.5133,13.7732],[5.5223,13.7912],[5.5291,13.8092],[5.5335,13.8316],[5.5358,13.8473],[5.5335,13.8675],[5.5313,13.881],[5.5246,13.9012],[5.5223,13.899],[5.5201,13.899],[5.5111,13.8945],[5.4999,13.89],[5.4931,13.8855],[5.4864,13.881],[5.4796,13.8788],[5.4707,13.8743],[5.4639,13.8698],[5.4594,13.8675],[5.4527,13.8675],[5.446,13.8653],[5.437,13.8631],[5.4235,13.8586],[5.4213,13.8563],[5.4168,13.8563],[5.41,13.8541],[5.4033,13.8518],[5.3966,13.8496],[5.3808,13.8451],[5.3718,13.8428],[5.3629,13.8406],[5.3539,13.8383],[5.3516,13.8316],[5.3471,13.8249],[5.3449,13.8181],[5.3427,13.8092],[5.3157,13.78],[5.3112,13.7755],[5.3045,13.7687],[5.3,13.762],[5.2955,13.7575],[5.291,13.753],[5.2865,13.7485],[5.2798,13.7395],[5.2775,13.7395],[5.2685,13.7395],[5.2618,13.7395],[5.2551,13.7395],[5.2461,13.7373],[5.2393,13.7373],[5.2304,13.7373],[5.2214,13.7373],[5.2057,13.7373],[5.1944,13.7373],[5.1877,13.7373],[5.1787,13.7395],[5.172,13.7395],[5.1697,13.7171],[5.1697,13.7058],[5.1652,13.6901],[5.1607,13.6767],[5.163,13.6587]]]}},{"type":"Feature","properties":{"id":"sokoto/isa","name":"Isa","state":"Sokoto"},"geometry":{"type":"Polygon","coordinates":[[[5.9333,13.223],[5.94,13.2163],[5.9535,13.1983],[5.9647,13.1848],[5.9737,13.1714],[5.9782,13.1601],[6.0029,13.1422],[6.0186,13.1309],[6.0276,13.1175],[6.0343,13.1085],[6.0343,13.1062],[6.0231,13.0815],[6.0209,13.0703],[6.0164,13.0523],[6.0141,13.0411],[6.0141,13.0344],[6.0186,13.0119],[6.0209,13.0074],[6.0276,13.0209],[6.0411,13.0276],[6.0725,13.0389],[6.1017,13.0591],[6.1309,13.0725],[6.1511,13.0748],[6.1668,13.0681],[6.1893,13.0658],[6.2028,13.0591],[6.2207,13.0433],[6.2454,13.0276],[6.2544,13.0321],[6.2567,13.0456],[6.2589,13.0703],[6.2589,13.0815],[6.2612,13.086],[6.2567,13.1017],[6.2612,13.122],[6.2612,13.1309],[6.2612,13.1399],[6.2657,13.1489],[6.2701,13.1556],[6.2836,13.1556],[6.2993,13.1579],[6.3173,13.1579],[6.3285,13.1556],[6.3465,13.1534],[6.3555,13.1534],[6.3622,13.1534],[6.3712,13.1489],[6.3847,13.1444],[6.3937,13.1377],[6.4004,13.1309],[6.4071,13.1264],[6.4206,13.1242],[6.4318,13.1175],[6.4453,13.1107],[6.47,13.095],[6.479,13.0905],[6.4925,13.086],[6.5037,13.0815],[6.5194,13.0793],[6.5351,13.0748],[6.5531,13.0748],[6.5711,13.0748],[6.5846,13.0748],[6.5935,13.0703],[6.607,13.0658],[6.6227,13.0658],[6.6407,13.0703],[6.6542,13.077],[6.6609,13.077],[6.6632,13.0793],[6.6654,13.0815],[6.6699,13.0815],[6.6834,13.0838],[6.6968,13.0995],[6.7103,13.1062],[6.726,13.113],[6.7418,13.1175],[6.7507,13.1264],[6.7687,13.1354],[6.7754,13.1467],[6.7844,13.1534],[6.7912,13.1601],[6.7889,13.1646],[6.7844,13.1736],[6.7799,13.1803],[6.7777,13.1871],[6.7732,13.1938],[6.7687,13.2006],[6.7642,13.2073],[6.7507,13.2297],[6.7485,13.2342],[6.7463,13.2365],[6.744,13.2432],[6.7395,13.25],[6.7373,13.2567],[6.7328,13.2612],[6.7283,13.2679],[6.726,13.2747],[6.7215,13.2814],[6.7171,13.2881],[6.6991,13.3196],[6.6946,13.3263],[6.6901,13.3331],[6.6856,13.342],[6.6811,13.3488],[6.6789,13.3555],[6.6744,13.3578],[6.6744,13.3555],[6.6587,13.351],[6.6452,13.3375],[6.625,13.3241],[6.607,13.3173],[6.598,13.3061],[6.5778,13.3016],[6.5464,13.2949],[6.5149,13.2971],[6.4745,13.2904],[6.4588,13.2926],[6.4431,13.2926],[6.4274,13.2904],[6.4094,13.2881],[6.3892,13.2881],[6.3735,13.2881],[6.3622,13.2881],[6.3443,13.2971],[6.324,13.3083],[6.3083,13.3151],[6.2814,13.3106],[6.2634,13.3106],[6.2432,13.3106],[6.2297,13.3083],[6.2118,13.3106],[6.1983,13.3151],[6.1826,13.3241],[6.1713,13.3196],[6.1556,13.3196],[6.1377,13.3218],[6.1242,13.3263],[6.1062,13.3308],[6.0815,13.342],[6.0658,13.3443],[6.0523,13.3555],[6.0456,13.3645],[6.0343,13.3735],[6.0164,13.3869],[6.0052,13.3982],[6.0029,13.4027],[6.0007,13.3914],[5.9962,13.3802],[5.9827,13.3622],[5.9782,13.3555],[5.9715,13.3353],[5.9625,13.3263],[5.9625,13.3173],[5.9535,13.3016],[5.9445,13.2836],[5.94,13.2747],[5.9333,13.2634],[5.931,13.2567],[5.9288,13.2455],[5.9333,13.223]]]}},{"type":"Feature","properties":{"id":"sokoto/kebbe","name":"Kebbe","state":"Sokoto"},"geometry":{"type":"Polygon","coordinates":[[[4.4017,11.6689],[4.4107,11.6555],[4.4354,11.6308],[4.4488,11.6195],[4.4713,11.5948],[4.487,11.5836],[4.4982,11.5814],[4.505,11.5859],[4.5185,11.5993],[4.5319,11.6083],[4.5432,11.6195],[4.5477,11.633],[4.5589,11.6465],[4.5769,11.66],[4.5836,11.6622],[4.5903,11.66],[4.606,11.6555],[4.6128,11.6555],[4.6218,11.6577],[4.6285,11.6667],[4.6397,11.6712],[4.6442,11.6712],[4.6577,11.6689],[4.6689,11.6645],[4.6779,11.6577],[4.6891,11.6577],[4.7004,11.66],[4.7138,11.6689],[4.7273,11.6757],[4.7385,11.6757],[4.7498,11.6734],[4.7543,11.6757],[4.7588,11.6802],[4.7655,11.6892],[4.77,11.6914],[4.779,11.6937],[4.7835,11.6981],[4.7857,11.7026],[4.788,11.7116],[4.7947,11.7251],[4.8059,11.7273],[4.8239,11.7228],[4.8329,11.7161],[4.8396,11.7116],[4.8508,11.7139],[4.8598,11.7206],[4.8666,11.7273],[4.8755,11.7296],[4.8868,11.7251],[4.889,11.7184],[4.8935,11.7116],[4.9047,11.7139],[4.9115,11.7206],[4.9249,11.7206],[4.9317,11.7206],[4.9407,11.7251],[4.9429,11.7318],[4.9294,11.7408],[4.9294,11.779],[4.9407,11.8351],[4.9452,11.8621],[4.9452,11.88],[4.9474,11.8958],[4.9474,11.9362],[4.9519,11.9923],[4.9564,12.0305],[4.9564,12.0709],[4.9564,12.1069],[4.9564,12.1361],[4.9564,12.1608],[4.9541,12.1967],[4.9519,12.2192],[4.9496,12.2304],[4.9496,12.2461],[4.9407,12.2416],[4.9249,12.2281],[4.9025,12.2259],[4.8823,12.2326],[4.8621,12.2326],[4.8329,12.2304],[4.8037,12.2326],[4.7835,12.2304],[4.77,12.2214],[4.7565,12.2034],[4.7341,12.1765],[4.7183,12.163],[4.6914,12.145],[4.6622,12.1361],[4.6375,12.1338],[4.6038,12.1181],[4.5634,12.1069],[4.5521,12.1024],[4.5521,12.0844],[4.5544,12.0597],[4.5566,12.0283],[4.5566,12.0238],[4.5611,11.9923],[4.5611,11.9789],[4.5611,11.9586],[4.5611,11.9295],[4.5566,11.898],[4.5409,11.8756],[4.5342,11.8643],[4.5364,11.8621],[4.5387,11.8239],[4.5387,11.8172],[4.5364,11.8037],[4.5319,11.7925],[4.5207,11.7767],[4.5027,11.7678],[4.4938,11.7588],[4.4758,11.7453],[4.4578,11.7386],[4.4331,11.7206],[4.4219,11.7071],[4.4062,11.6959],[4.3994,11.6847],[4.3994,11.6802],[4.3994,11.6757],[4.4017,11.6689]]]}},{"type":"Feature","properties":{"id":"sokoto/kware","name":"Kware","state":"Sokoto"},"geometry":{"type":"Polygon","coordinates":[[[5.136,13.223],[5.1518,13.2163],[5.1607,13.2095],[5.1652,13.2028],[5.1787,13.1983],[5.1967,13.1961],[5.2057,13.1961],[5.2124,13.1983],[5.2281,13.1983],[5.2506,13.1871],[5.2528,13.1803],[5.2551,13.1646],[5.2528,13.1601],[5.2506,13.1556],[5.2483,13.1467],[5.2461,13.122],[5.2483,13.113],[5.2483,13.1017],[5.2551,13.0928],[5.2618,13.086],[5.2641,13.0793],[5.2685,13.0725],[5.2708,13.0658],[5.2708,13.0636],[5.2708,13.0591],[5.2753,13.0456],[5.2775,13.0389],[5.2798,13.0276],[5.2798,13.0231],[5.2865,13.0186],[5.3022,13.0097],[5.3112,13.0074],[5.3202,13.0029],[5.3314,12.9962],[5.3382,12.9895],[5.3584,12.9917],[5.3808,12.9962],[5.3988,12.9984],[5.4123,13.0052],[5.4257,13.0052],[5.437,13.0029],[5.4482,13.0007],[5.4752,13.0029],[5.4796,13.0074],[5.4796,13.0097],[5.4729,13.0254],[5.4684,13.0389],[5.4639,13.0501],[5.4549,13.0748],[5.446,13.0838],[5.428,13.0883],[5.4213,13.086],[5.3808,13.0793],[5.3696,13.0793],[5.3606,13.0793],[5.3561,13.0905],[5.3539,13.095],[5.3516,13.113],[5.3471,13.1175],[5.3359,13.1242],[5.3292,13.1354],[5.3224,13.1534],[5.3224,13.1624],[5.3202,13.1758],[5.3179,13.1916],[5.3157,13.2006],[5.309,13.2163],[5.309,13.2275],[5.3247,13.241],[5.3427,13.2455],[5.3449,13.2455],[5.3494,13.2477],[5.3539,13.2589],[5.3516,13.2612],[5.3427,13.2634],[5.3337,13.2702],[5.3112,13.2836],[5.2955,13.3083],[5.2865,13.3241],[5.2753,13.3331],[5.2438,13.3353],[5.2281,13.3331],[5.2214,13.3286],[5.2057,13.3173],[5.172,13.2949],[5.1652,13.2926],[5.154,13.2904],[5.1518,13.2836],[5.1473,13.2747],[5.1428,13.2679],[5.1271,13.2342],[5.1271,13.232],[5.1248,13.2275],[5.136,13.223]]]}},{"type":"Feature","properties":{"id":"sokoto/rabah","name":"Rabah","state":"Sokoto"},"geometry":{"type":"Polygon","coordinates":[[[5.3539,13.095],[5.3561,13.0905],[5.3606,13.0793],[5.3696,13.0793],[5.3808,13.0793],[5.4213,13.086],[5.428,13.0883],[5.446,13.0838],[5.4549,13.0748],[5.4639,13.0501],[5.4684,13.0389],[5.4729,13.0254],[5.4796,13.0097],[5.4796,13.0074],[5.4796,13.0029],[5.4841,12.9917],[5.4886,12.9805],[5.4976,12.958],[5.4999,12.949],[5.5021,12.9356],[5.5066,12.9176],[5.5201,12.9019],[5.5313,12.8929],[5.538,12.8794],[5.5448,12.8682],[5.5493,12.8637],[5.556,12.8525],[5.5627,12.8367],[5.5717,12.8188],[5.5762,12.812],[5.5897,12.8031],[5.6009,12.7941],[5.6166,12.7896],[5.6279,12.7828],[5.6413,12.7761],[5.6548,12.7649],[5.6705,12.7492],[5.6773,12.7402],[5.6863,12.7289],[5.6907,12.7424],[5.7154,12.7716],[5.7267,12.7896],[5.7357,12.8008],[5.7514,12.8165],[5.7716,12.83],[5.812,12.839],[5.8367,12.8345],[5.8524,12.8188],[5.8771,12.8031],[5.8951,12.7873],[5.9221,12.7716],[5.9513,12.7626],[5.967,12.7604],[5.9872,12.7536],[6.0052,12.7424],[6.0209,12.7357],[6.0366,12.7424],[6.0456,12.7536],[6.0321,12.7873],[6.0254,12.812],[6.0186,12.8367],[6.0096,12.8749],[6.0074,12.8929],[6.0074,12.9064],[6.0164,12.9266],[6.0254,12.967],[6.0254,12.9939],[6.0209,13.0074],[6.0186,13.0119],[6.0141,13.0344],[6.0141,13.0411],[5.9939,13.0546],[5.9804,13.0658],[5.9692,13.0725],[5.9625,13.0793],[5.949,13.0815],[5.931,13.0905],[5.9176,13.1017],[5.9018,13.113],[5.8906,13.1197],[5.8749,13.1287],[5.8659,13.1354],[5.8502,13.1489],[5.8367,13.1556],[5.8255,13.1601],[5.803,13.1624],[5.794,13.1601],[5.7896,13.1601],[5.7806,13.1624],[5.7671,13.1601],[5.7514,13.1579],[5.7334,13.1534],[5.7222,13.1601],[5.7199,13.1669],[5.7199,13.1826],[5.7222,13.1961],[5.7244,13.205],[5.7244,13.2073],[5.7244,13.214],[5.7244,13.223],[5.7199,13.232],[5.7199,13.2387],[5.7199,13.2477],[5.7199,13.25],[5.711,13.2589],[5.6997,13.2657],[5.684,13.2679],[5.6571,13.2612],[5.6346,13.2567],[5.6144,13.2477],[5.6054,13.2387],[5.5964,13.232],[5.565,13.2118],[5.5201,13.1781],[5.4886,13.1601],[5.4549,13.1444],[5.4302,13.1332],[5.41,13.1287],[5.3831,13.122],[5.3606,13.1152],[5.3516,13.113],[5.3539,13.095]]]}},{"type":"Feature","properties":{"id":"sokoto/sabon-birni","name":"Sabon Birni","state":"Sokoto"},"geometry":{"type":"Polygon","coordinates":[[[5.9176,13.5644],[5.9198,13.5486],[5.9243,13.5352],[5.9378,13.5127],[5.9513,13.4925],[5.9602,13.4768],[5.967,13.4678],[5.976,13.4588],[5.9827,13.4498],[5.9894,13.4364],[5.9962,13.4229],[5.9984,13.4161],[6.0029,13.4027],[6.0052,13.3982],[6.0164,13.3869],[6.0343,13.3735],[6.0456,13.3645],[6.0523,13.3555],[6.0658,13.3443],[6.0815,13.342],[6.1062,13.3308],[6.1242,13.3263],[6.1377,13.3218],[6.1556,13.3196],[6.1713,13.3196],[6.1826,13.3241],[6.1983,13.3151],[6.2118,13.3106],[6.2297,13.3083],[6.2432,13.3106],[6.2634,13.3106],[6.2814,13.3106],[6.3083,13.3151],[6.324,13.3083],[6.3443,13.2971],[6.3622,13.2881],[6.3735,13.2881],[6.3892,13.2881],[6.4094,13.2881],[6.4274,13.2904],[6.4431,13.2926],[6.4588,13.2926],[6.4745,13.2904],[6.5149,13.2971],[6.5464,13.2949],[6.5778,13.3016],[6.598,13.3061],[6.607,13.3173],[6.625,13.3241],[6.6452,13.3375],[6.6587,13.351],[6.6744,13.3555],[6.6744,13.3578],[6.6721,13.3622],[6.6654,13.3667],[6.6609,13.3712],[6.6587,13.3735],[6.6587,13.3757],[6.6542,13.378],[6.6497,13.3825],[6.6429,13.3892],[6.6362,13.3959],[6.6295,13.4004],[6.6227,13.4072],[6.6182,13.4139],[6.6115,13.4206],[6.6048,13.4274],[6.598,13.4341],[6.5913,13.4408],[6.5846,13.4453],[6.5801,13.4521],[6.5756,13.4566],[6.5688,13.4611],[6.5643,13.4656],[6.5576,13.4723],[6.5509,13.4768],[6.5464,13.4835],[6.5396,13.4903],[6.5329,13.497],[6.5262,13.5015],[6.5217,13.5105],[6.5194,13.5172],[6.5149,13.5262],[6.5104,13.5329],[6.506,13.5397],[6.5037,13.5486],[6.4992,13.5554],[6.4925,13.5599],[6.4655,13.5891],[6.4543,13.5981],[6.4498,13.6048],[6.4431,13.6093],[6.4408,13.6115],[6.4386,13.616],[6.4318,13.6205],[6.4274,13.6272],[6.4206,13.634],[6.4139,13.6385],[6.4071,13.643],[6.3982,13.6475],[6.3892,13.6519],[6.3824,13.6564],[6.3735,13.6609],[6.3577,13.6677],[6.351,13.6722],[6.3443,13.6767],[6.3353,13.6811],[6.3285,13.6834],[6.3196,13.6879],[6.3128,13.6924],[6.3038,13.6969],[6.2971,13.7014],[6.2881,13.7058],[6.2859,13.7058],[6.2814,13.7081],[6.2769,13.7103],[6.2724,13.7126],[6.2657,13.7171],[6.2589,13.7171],[6.2522,13.7171],[6.2499,13.7171],[6.2477,13.7171],[6.2387,13.7148],[6.2297,13.7148],[6.2163,13.7148],[6.2095,13.7126],[6.196,13.7058],[6.1915,13.7058],[6.1893,13.7036],[6.1871,13.7014],[6.1803,13.7014],[6.1668,13.6946],[6.1511,13.6879],[6.1399,13.6856],[6.1309,13.6901],[6.1287,13.6901],[6.1219,13.6946],[6.1152,13.6991],[6.0905,13.7103],[6.0838,13.7148],[6.0793,13.7171],[6.077,13.7171],[6.0725,13.7193],[6.0411,13.6946],[6.0231,13.6856],[6.0164,13.6811],[6.0029,13.6744],[5.9894,13.6564],[5.9849,13.6497],[5.9804,13.6362],[5.976,13.6295],[5.9647,13.6183],[5.9535,13.6093],[5.9355,13.5981],[5.9243,13.5913],[5.9198,13.5846],[5.9153,13.5778],[5.9153,13.5733],[5.9176,13.5644]]]}},{"type":"Feature","properties":{"id":"sokoto/shagari","name":"Shagari","state":"Sokoto"},"geometry":{"type":"Polygon","coordinates":[[[4.8823,12.565],[4.8935,12.5425],[4.9002,12.5336],[4.9025,12.5291],[4.9047,12.5201],[4.907,12.5089],[4.907,12.4954],[4.907,12.4864],[4.907,12.4707],[4.9047,12.4617],[4.8957,12.4437],[4.8957,12.4325],[4.9002,12.4235],[4.9227,12.4056],[4.9317,12.3988],[4.9474,12.3943],[4.9586,12.3943],[4.9654,12.3966],[4.9699,12.4056],[4.9721,12.4168],[4.9699,12.4347],[4.9699,12.4415],[4.9721,12.4527],[4.9766,12.4639],[4.9788,12.4797],[4.9833,12.4886],[4.9923,12.4954],[5.0058,12.4954],[5.0282,12.4886],[5.0372,12.4819],[5.053,12.4707],[5.0619,12.4617],[5.0754,12.446],[5.0956,12.4213],[5.1024,12.41],[5.1068,12.3988],[5.1068,12.3966],[5.1158,12.3921],[5.1316,12.3876],[5.1428,12.3853],[5.1495,12.3741],[5.1675,12.3539],[5.1697,12.3427],[5.1697,12.3314],[5.1652,12.3202],[5.1607,12.3022],[5.163,12.2843],[5.1854,12.2843],[5.2191,12.2865],[5.2483,12.282],[5.2708,12.282],[5.2708,12.2888],[5.2708,12.3112],[5.2708,12.3292],[5.273,12.3449],[5.2753,12.3584],[5.273,12.3921],[5.273,12.41],[5.2663,12.4325],[5.2663,12.455],[5.2708,12.4662],[5.273,12.4864],[5.2596,12.5089],[5.2483,12.5313],[5.2461,12.5425],[5.2461,12.565],[5.2528,12.592],[5.2641,12.6234],[5.2596,12.6503],[5.2596,12.6548],[5.2573,12.6638],[5.2416,12.684],[5.2371,12.6863],[5.2326,12.6885],[5.2102,12.6975],[5.1944,12.7042],[5.1832,12.72],[5.172,12.7334],[5.1563,12.7469],[5.1271,12.7671],[5.0934,12.7873],[5.0911,12.7873],[5.0732,12.7986],[5.0687,12.8008],[5.0664,12.8008],[5.0619,12.7986],[5.0552,12.7941],[5.0462,12.7716],[5.044,12.7559],[5.0462,12.7424],[5.0485,12.7289],[5.0552,12.7222],[5.0664,12.7087],[5.0732,12.6908],[5.0777,12.6885],[5.0799,12.6795],[5.0732,12.6616],[5.0552,12.6548],[5.035,12.6526],[5.017,12.6593],[5.0035,12.6593],[4.9833,12.6571],[4.9654,12.6436],[4.9519,12.6301],[4.9384,12.6099],[4.9137,12.5942],[4.8913,12.583],[4.8755,12.5785],[4.8823,12.565]]]}},{"type":"Feature","properties":{"id":"sokoto/silame","name":"Silame","state":"Sokoto"},"geometry":{"type":"Polygon","coordinates":[[[4.6487,12.9692],[4.6555,12.958],[4.6622,12.9513],[4.6779,12.94],[4.6891,12.9243],[4.7004,12.9041],[4.7093,12.8929],[4.7161,12.8884],[4.7228,12.8794],[4.7296,12.8772],[4.743,12.8704],[4.752,12.8637],[4.7677,12.857],[4.7745,12.857],[4.7902,12.8637],[4.7992,12.8682],[4.8104,12.8682],[4.8194,12.8704],[4.8329,12.8704],[4.8486,12.8749],[4.8643,12.8749],[4.8755,12.8749],[4.8868,12.8749],[4.9092,12.8794],[4.9182,12.8817],[4.9429,12.8929],[4.9496,12.9041],[4.9541,12.9108],[4.9586,12.9176],[4.9586,12.9288],[4.9631,12.9423],[4.9676,12.9468],[4.9699,12.949],[4.9631,12.9558],[4.9609,12.9647],[4.9586,12.9715],[4.9586,12.9805],[4.9586,12.9872],[4.9654,13.0029],[4.9676,13.0254],[4.9676,13.0433],[4.9631,13.0501],[4.9564,13.0636],[4.9496,13.0703],[4.9384,13.0793],[4.9272,13.086],[4.9227,13.0928],[4.9227,13.0995],[4.9249,13.1085],[4.9182,13.1062],[4.9092,13.1017],[4.9025,13.0995],[4.8935,13.0972],[4.8688,13.0972],[4.8508,13.0972],[4.8351,13.1017],[4.8261,13.104],[4.8216,13.1107],[4.8171,13.1175],[4.8037,13.122],[4.779,13.1264],[4.7677,13.1264],[4.752,13.1242],[4.7341,13.1175],[4.7251,13.113],[4.7093,13.104],[4.7004,13.0972],[4.6981,13.0972],[4.6891,13.095],[4.6869,13.0838],[4.6846,13.0681],[4.6824,13.0501],[4.6779,13.0411],[4.6734,13.0321],[4.6689,13.0276],[4.6622,13.0231],[4.6555,13.0164],[4.6442,13.0029],[4.6397,12.9939],[4.6375,12.985],[4.6487,12.9692]]]}},{"type":"Feature","properties":{"id":"sokoto/sokoto-north","name":"Sokoto North","state":"Sokoto"},"geometry":{"type":"Polygon","coordinates":[[[5.1877,13.0456],[5.1899,13.0411],[5.1944,13.0411],[5.2102,13.0433],[5.2236,13.0433],[5.2393,13.0456],[5.2573,13.0546],[5.2708,13.0636],[5.2708,13.0658],[5.2685,13.0725],[5.2641,13.0793],[5.2618,13.086],[5.2551,13.0928],[5.2483,13.1017],[5.2461,13.1017],[5.2393,13.104],[5.2304,13.1085],[5.2259,13.1085],[5.2191,13.1062],[5.1967,13.0995],[5.1922,13.0972],[5.1877,13.0905],[5.1877,13.086],[5.1899,13.0793],[5.1877,13.0725],[5.1854,13.0636],[5.1877,13.0456]]]}},{"type":"Feature","properties":{"id":"sokoto/sokoto-south","name":"Sokoto South","state":"Sokoto"},"geometry":{"type":"Polygon","coordinates":[[[5.1967,13.0321],[5.2034,13.0231],[5.2079,13.0142],[5.2102,13.0074],[5.2169,12.9939],[5.2214,12.9895],[5.2259,12.9895],[5.2259,12.9917],[5.2304,12.9939],[5.2371,12.9939],[5.2393,12.9962],[5.2438,13.0029],[5.2528,13.0074],[5.2641,13.0119],[5.2685,13.0164],[5.2753,13.0209],[5.2798,13.0231],[5.2798,13.0276],[5.2775,13.0389],[5.2753,13.0456],[5.2708,13.0591],[5.2708,13.0636],[5.2573,13.0546],[5.2393,13.0456],[5.2236,13.0433],[5.2102,13.0433],[5.1944,13.0411],[5.1899,13.0411],[5.1899,13.0389],[5.1967,13.0321]]]}},{"type":"Feature","properties":{"id":"sokoto/tambuwal","name":"Tambuwal","state":"Sokoto"},"geometry":{"type":"Polygon","coordinates":[[[4.5274,12.2147],[4.5319,12.1989],[4.5319,12.1945],[4.5387,12.1608],[4.5432,12.145],[4.5499,12.1271],[4.5521,12.1114],[4.5521,12.1024],[4.5634,12.1069],[4.6038,12.1181],[4.6375,12.1338],[4.6622,12.1361],[4.6914,12.145],[4.7183,12.163],[4.7341,12.1765],[4.7565,12.2034],[4.77,12.2214],[4.7835,12.2304],[4.8037,12.2326],[4.8329,12.2304],[4.8621,12.2326],[4.8823,12.2326],[4.9025,12.2259],[4.9249,12.2281],[4.9407,12.2416],[4.9519,12.2484],[4.9564,12.2708],[4.9721,12.2933],[4.9811,12.3],[4.9968,12.3],[5.0238,12.291],[5.0485,12.2843],[5.0687,12.2775],[5.1181,12.2775],[5.1473,12.282],[5.163,12.282],[5.163,12.2843],[5.1607,12.3022],[5.1652,12.3202],[5.1697,12.3314],[5.1697,12.3427],[5.1675,12.3539],[5.1495,12.3741],[5.1428,12.3853],[5.1316,12.3876],[5.1158,12.3921],[5.1068,12.3966],[5.1068,12.3988],[5.1024,12.41],[5.0956,12.4213],[5.0754,12.446],[5.0619,12.4617],[5.053,12.4707],[5.0372,12.4819],[5.0282,12.4886],[5.0058,12.4954],[4.9923,12.4954],[4.9833,12.4886],[4.9788,12.4797],[4.9766,12.4639],[4.9721,12.4527],[4.9699,12.4415],[4.9699,12.4347],[4.9721,12.4168],[4.9699,12.4056],[4.9654,12.3966],[4.9586,12.3943],[4.9474,12.3943],[4.9317,12.3988],[4.9227,12.4056],[4.9002,12.4235],[4.8957,12.4325],[4.8957,12.4437],[4.9047,12.4617],[4.907,12.4707],[4.907,12.4864],[4.907,12.4954],[4.907,12.5089],[4.9047,12.5201],[4.9025,12.5291],[4.9002,12.5336],[4.8935,12.5425],[4.8823,12.565],[4.8755,12.5785],[4.8755,12.5897],[4.8755,12.6009],[4.88,12.6256],[4.8868,12.6503],[4.8868,12.6683],[4.871,12.6908],[4.8621,12.7042],[4.8531,12.711],[4.8418,12.72],[4.8216,12.7357],[4.8127,12.7447],[4.8082,12.7492],[4.7924,12.7357],[4.7857,12.72],[4.7835,12.7155],[4.7767,12.7042],[4.7767,12.6975],[4.7767,12.6908],[4.7767,12.6773],[4.779,12.6391],[4.788,12.6211],[4.8014,12.5987],[4.8149,12.5875],[4.8284,12.5785],[4.8396,12.5695],[4.8576,12.5538],[4.8643,12.547],[4.8688,12.5425],[4.871,12.5336],[4.8688,12.5156],[4.8598,12.4999],[4.8508,12.4797],[4.8374,12.4662],[4.8261,12.455],[4.8104,12.4415],[4.7947,12.4347],[4.7835,12.4145],[4.7812,12.4011],[4.7812,12.3831],[4.7835,12.3517],[4.7767,12.3292],[4.752,12.3112],[4.7363,12.3157],[4.7251,12.3247],[4.7206,12.3449],[4.7183,12.3606],[4.7161,12.3943],[4.7116,12.4078],[4.6959,12.4168],[4.6891,12.4213],[4.6779,12.4325],[4.6667,12.4437],[4.6442,12.4482],[4.624,12.446],[4.6173,12.4347],[4.6128,12.4213],[4.6105,12.4011],[4.6083,12.3831],[4.6083,12.3651],[4.606,12.3584],[4.5993,12.3427],[4.5724,12.3225],[4.5611,12.3202],[4.5409,12.3067],[4.5319,12.2933],[4.5252,12.2865],[4.5252,12.282],[4.5185,12.2618],[4.5185,12.2416],[4.5274,12.2147]]]}},{"type":"Feature","properties":{"id":"sokoto/tangaza","name":"Tangaza","state":"Sokoto"},"geometry":{"type":"Polygon","coordinates":[[[4.7206,13.3263],[4.7206,13.3173],[4.7206,13.3083],[4.7206,13.3016],[4.7251,13.3016],[4.7363,13.2994],[4.752,13.2971],[4.7767,13.2949],[4.8014,13.2926],[4.8104,13.2926],[4.8374,13.2949],[4.8486,13.2971],[4.8643,13.2971],[4.8823,13.2949],[4.8957,13.2926],[4.9137,13.2792],[4.9249,13.2657],[4.9272,13.2567],[4.9339,13.2455],[4.9407,13.2342],[4.9519,13.2208],[4.9631,13.2118],[4.9721,13.2006],[4.9878,13.1893],[5.0035,13.1803],[5.0305,13.1714],[5.0372,13.1669],[5.053,13.1646],[5.0687,13.1691],[5.0956,13.1826],[5.1068,13.1893],[5.1136,13.2006],[5.1203,13.2185],[5.1248,13.2275],[5.1271,13.232],[5.1271,13.2342],[5.1428,13.2679],[5.1473,13.2747],[5.1518,13.2836],[5.154,13.2904],[5.154,13.2994],[5.1495,13.3173],[5.1473,13.3331],[5.1473,13.3488],[5.1495,13.3645],[5.1518,13.3712],[5.1563,13.378],[5.1607,13.3937],[5.163,13.4094],[5.1675,13.4251],[5.172,13.4386],[5.1765,13.4566],[5.181,13.4745],[5.1832,13.5015],[5.1832,13.515],[5.181,13.5352],[5.1765,13.5397],[5.172,13.5554],[5.1697,13.5689],[5.1675,13.5868],[5.1675,13.5981],[5.1652,13.6183],[5.163,13.6272],[5.163,13.6452],[5.163,13.6587],[5.1607,13.6767],[5.1652,13.6901],[5.1697,13.7058],[5.1697,13.7171],[5.172,13.7395],[5.1652,13.7395],[5.1585,13.7418],[5.1563,13.7418],[5.1495,13.7418],[5.1473,13.7418],[5.1383,13.7418],[5.1293,13.744],[5.1203,13.744],[5.1113,13.744],[5.1024,13.744],[5.0956,13.7463],[5.0889,13.7463],[5.0799,13.7463],[5.0754,13.7463],[5.0619,13.7418],[5.0552,13.7418],[5.053,13.7418],[5.0462,13.7395],[5.0372,13.7373],[5.0282,13.7373],[5.0238,13.735],[5.017,13.7328],[5.008,13.7328],[5.0013,13.7328],[4.9946,13.7373],[4.9878,13.744],[4.9811,13.744],[4.9676,13.744],[4.9586,13.744],[4.9519,13.7463],[4.9452,13.7463],[4.9362,13.7463],[4.9272,13.7485],[4.9182,13.7485],[4.9092,13.7485],[4.898,13.7553],[4.8755,13.7755],[4.871,13.7822],[4.8621,13.78],[4.8441,13.7777],[4.8239,13.7732],[4.8239,13.771],[4.8216,13.7597],[4.8127,13.744],[4.8059,13.7238],[4.7992,13.6969],[4.7947,13.6767],[4.7924,13.6654],[4.7857,13.6475],[4.7745,13.6025],[4.7722,13.5913],[4.7655,13.5756],[4.7655,13.5644],[4.7655,13.5531],[4.7655,13.5329],[4.7655,13.515],[4.7655,13.5037],[4.7677,13.4835],[4.7632,13.4566],[4.7588,13.4453],[4.752,13.4341],[4.7453,13.4094],[4.7408,13.4004],[4.7385,13.3847],[4.7363,13.3735],[4.7296,13.3622],[4.7228,13.3443],[4.7183,13.3353],[4.7206,13.3263]]]}},{"type":"Feature","properties":{"id":"sokoto/tureta","name":"Tureta","state":"Sokoto"},"geometry":{"type":"Polygon","coordinates":[[[5.2416,12.684],[5.2573,12.6638],[5.2596,12.6548],[5.2596,12.6503],[5.2641,12.6234],[5.2528,12.592],[5.2461,12.565],[5.2461,12.5425],[5.2483,12.5313],[5.2596,12.5089],[5.273,12.4864],[5.2708,12.4662],[5.2663,12.455],[5.2663,12.4325],[5.273,12.41],[5.273,12.3921],[5.2753,12.3584],[5.273,12.3449],[5.2708,12.3292],[5.2708,12.3112],[5.2708,12.2888],[5.2708,12.282],[5.273,12.282],[5.2932,12.2775],[5.3269,12.2731],[5.3494,12.2663],[5.3831,12.2618],[5.4078,12.2596],[5.41,12.2596],[5.437,12.2528],[5.4752,12.2528],[5.5246,12.2618],[5.5403,12.2731],[5.5762,12.2731],[5.5852,12.2731],[5.6121,12.2753],[5.6301,12.2888],[5.6526,12.291],[5.6728,12.2888],[5.684,12.2775],[5.711,12.2663],[5.7267,12.2708],[5.7267,12.2753],[5.7289,12.2843],[5.7379,12.309],[5.7446,12.3247],[5.7424,12.3314],[5.7536,12.3404],[5.7581,12.3427],[5.7604,12.3674],[5.7649,12.4258],[5.7671,12.4617],[5.7671,12.4842],[5.7604,12.4886],[5.7536,12.5066],[5.7446,12.5313],[5.7334,12.5605],[5.7289,12.5897],[5.7222,12.6054],[5.7132,12.6369],[5.7065,12.6526],[5.6997,12.6683],[5.6952,12.6863],[5.6863,12.7087],[5.6863,12.7132],[5.6818,12.711],[5.666,12.7155],[5.6436,12.7155],[5.6256,12.7132],[5.5448,12.6773],[5.5223,12.6638],[5.5088,12.6616],[5.4931,12.6503],[5.4684,12.6414],[5.4572,12.6459],[5.4392,12.6526],[5.4168,12.6638],[5.3898,12.675],[5.3629,12.684],[5.3314,12.6908],[5.309,12.6953],[5.2932,12.693],[5.273,12.6885],[5.2416,12.6863],[5.2371,12.6863],[5.2416,12.684]]]}},{"type":"Feature","properties":{"id":"sokoto/wamako","name":"Wamako","state":"Sokoto"},"geometry":{"type":"Polygon","coordinates":[[[4.9272,13.086],[4.9384,13.0793],[4.9496,13.0703],[4.9564,13.0636],[4.9631,13.0501],[4.9676,13.0433],[4.9676,13.0254],[4.9654,13.0029],[4.9586,12.9872],[4.9586,12.9805],[4.9586,12.9715],[4.9609,12.9647],[4.9631,12.9558],[4.9699,12.949],[4.9766,12.9468],[4.9856,12.949],[4.9923,12.949],[5.0058,12.949],[5.017,12.9445],[5.0282,12.94],[5.0372,12.9333],[5.0462,12.9288],[5.0485,12.9378],[5.053,12.9513],[5.0597,12.9625],[5.0642,12.9715],[5.0732,12.9782],[5.0911,12.985],[5.1091,12.9872],[5.1158,12.9872],[5.1316,12.985],[5.1405,12.9827],[5.1495,12.9737],[5.163,12.9625],[5.1675,12.9603],[5.1765,12.958],[5.181,12.9558],[5.1854,12.9513],[5.1899,12.9468],[5.1944,12.9535],[5.1989,12.958],[5.2124,12.967],[5.2191,12.976],[5.2236,12.985],[5.2259,12.9895],[5.2214,12.9895],[5.2169,12.9939],[5.2102,13.0074],[5.2079,13.0142],[5.2034,13.0231],[5.1967,13.0321],[5.1899,13.0389],[5.1899,13.0411],[5.1877,13.0456],[5.1854,13.0636],[5.1877,13.0725],[5.1899,13.0793],[5.1877,13.086],[5.1877,13.0905],[5.1922,13.0972],[5.1967,13.0995],[5.2191,13.1062],[5.2259,13.1085],[5.2304,13.1085],[5.2393,13.104],[5.2461,13.1017],[5.2483,13.1017],[5.2483,13.113],[5.2461,13.122],[5.2483,13.1467],[5.2506,13.1556],[5.2528,13.1601],[5.2551,13.1646],[5.2528,13.1803],[5.2506,13.1871],[5.2281,13.1983],[5.2124,13.1983],[5.2057,13.1961],[5.1967,13.1961],[5.1787,13.1983],[5.1652,13.2028],[5.1607,13.2095],[5.1518,13.2163],[5.136,13.223],[5.1248,13.2275],[5.1203,13.2185],[5.1136,13.2006],[5.1068,13.1893],[5.0956,13.1826],[5.0687,13.1691],[5.053,13.1646],[5.0372,13.1669],[5.0305,13.1714],[5.026,13.1669],[5.0148,13.1624],[5.008,13.1556],[5.0035,13.1534],[4.9878,13.1444],[4.9743,13.1332],[4.9609,13.1242],[4.9294,13.1085],[4.9249,13.1085],[4.9227,13.0995],[4.9227,13.0928],[4.9272,13.086]]]}},{"type":"Feature","properties":{"id":"sokoto/wurno","name":"Wurno","state":"Sokoto"},"geometry":{"type":"Polygon","coordinates":[[[5.3157,13.2006],[5.3179,13.1916],[5.3202,13.1758],[5.3224,13.1624],[5.3224,13.1534],[5.3292,13.1354],[5.3359,13.1242],[5.3471,13.1175],[5.3516,13.113],[5.3606,13.1152],[5.3831,13.122],[5.41,13.1287],[5.4302,13.1332],[5.4549,13.1444],[5.4886,13.1601],[5.5201,13.1781],[5.565,13.2118],[5.5964,13.232],[5.6054,13.2387],[5.6144,13.2477],[5.6346,13.2567],[5.6571,13.2612],[5.684,13.2679],[5.6997,13.2657],[5.711,13.2589],[5.7199,13.25],[5.7312,13.241],[5.7402,13.2342],[5.7559,13.232],[5.7761,13.2342],[5.7873,13.2432],[5.8008,13.2545],[5.8075,13.2612],[5.8098,13.2679],[5.8098,13.2814],[5.8075,13.2881],[5.7985,13.3016],[5.7851,13.3083],[5.7626,13.3151],[5.7446,13.3196],[5.7199,13.3218],[5.6975,13.3173],[5.675,13.3151],[5.6548,13.3106],[5.6211,13.3083],[5.6077,13.3106],[5.5942,13.3106],[5.574,13.3128],[5.5627,13.3151],[5.5538,13.3151],[5.5448,13.3196],[5.5425,13.3263],[5.5291,13.3308],[5.5223,13.3331],[5.5156,13.3443],[5.5088,13.3533],[5.5021,13.36],[5.4976,13.3622],[5.4909,13.3555],[5.4864,13.3533],[5.4774,13.342],[5.4752,13.3398],[5.4729,13.3398],[5.4549,13.3375],[5.4392,13.3375],[5.4235,13.3331],[5.4078,13.3218],[5.3876,13.3061],[5.3741,13.2881],[5.3651,13.2769],[5.3539,13.2634],[5.3516,13.2612],[5.3539,13.2589],[5.3494,13.2477],[5.3449,13.2455],[5.3427,13.2455],[5.3247,13.241],[5.309,13.2275],[5.309,13.2163],[5.3157,13.2006]]]}},{"type":"Feature","properties":{"id":"sokoto/yabo","name":"Yabo","state":"Sokoto"},"geometry":{"type":"Polygon","coordinates":[[[4.7812,12.8502],[4.7902,12.8435],[4.7924,12.8367],[4.7969,12.8278],[4.7969,12.8255],[4.7969,12.8188],[4.7992,12.8098],[4.8014,12.8075],[4.8127,12.7873],[4.8171,12.7739],[4.8149,12.7581],[4.8104,12.7536],[4.8082,12.7492],[4.8127,12.7447],[4.8216,12.7357],[4.8418,12.72],[4.8531,12.711],[4.8621,12.7042],[4.871,12.6908],[4.8868,12.6683],[4.8868,12.6503],[4.88,12.6256],[4.8755,12.6009],[4.8755,12.5897],[4.8755,12.5785],[4.8913,12.583],[4.9137,12.5942],[4.9384,12.6099],[4.9519,12.6301],[4.9654,12.6436],[4.9833,12.6571],[5.0035,12.6593],[5.017,12.6593],[5.035,12.6526],[5.0552,12.6548],[5.0732,12.6616],[5.0799,12.6795],[5.0777,12.6885],[5.0732,12.6908],[5.0664,12.7087],[5.0552,12.7222],[5.0485,12.7289],[5.0462,12.7424],[5.044,12.7559],[5.0462,12.7716],[5.0552,12.7941],[5.0619,12.7986],[5.0664,12.8008],[5.0687,12.8008],[5.0709,12.812],[5.0754,12.8233],[5.0777,12.8322],[5.0799,12.8457],[5.0844,12.8547],[5.0889,12.8682],[5.0889,12.8794],[5.0889,12.8906],[5.0821,12.8974],[5.0754,12.9041],[5.0664,12.9108],[5.0619,12.9131],[5.0507,12.9266],[5.0462,12.9288],[5.0372,12.9333],[5.0282,12.94],[5.017,12.9445],[5.0058,12.949],[4.9923,12.949],[4.9856,12.949],[4.9766,12.9468],[4.9699,12.949],[4.9676,12.9468],[4.9631,12.9423],[4.9586,12.9288],[4.9586,12.9176],[4.9541,12.9108],[4.9496,12.9041],[4.9429,12.8929],[4.9182,12.8817],[4.9092,12.8794],[4.8868,12.8749],[4.8755,12.8749],[4.8643,12.8749],[4.8486,12.8749],[4.8329,12.8704],[4.8194,12.8704],[4.8104,12.8682],[4.7992,12.8682],[4.7902,12.8637],[4.7745,12.857],[4.7812,12.8502]]]}}]}