{"type":"FeatureCollection","features":[{"type":"Feature","properties":{"id":"taraba/ardo-kola","name":"Ardo-Kola","state":"Taraba"},"geometry":{"type":"Polygon","coordinates":[[[10.8874,8.8034],[10.9009,8.7899],[10.9099,8.7876],[10.9144,8.7854],[10.9234,8.7742],[10.9278,8.7674],[10.9413,8.7584],[10.9503,8.7517],[10.9615,8.7405],[10.9795,8.7225],[10.9907,8.7068],[10.9952,8.7023],[11.002,8.7001],[11.0132,8.6978],[11.0222,8.6933],[11.0222,8.6866],[11.0267,8.6821],[11.0581,8.6529],[11.0716,8.6439],[11.0806,8.6394],[11.0873,8.6394],[11.103,8.6349],[11.1098,8.6304],[11.1165,8.6259],[11.1255,8.617],[11.1412,8.6057],[11.1479,8.6012],[11.1659,8.5923],[11.1816,8.5833],[11.2041,8.5743],[11.2175,8.572],[11.2265,8.5698],[11.2333,8.5698],[11.24,8.572],[11.258,8.5788],[11.267,8.5833],[11.2872,8.5923],[11.2962,8.5945],[11.3141,8.599],[11.3321,8.6102],[11.3433,8.6125],[11.3545,8.6147],[11.3658,8.6192],[11.3837,8.6282],[11.395,8.6304],[11.4062,8.6349],[11.4219,8.6372],[11.4331,8.6394],[11.4421,8.6439],[11.4489,8.6462],[11.4623,8.6507],[11.4781,8.6551],[11.4893,8.6574],[11.4983,8.6596],[11.5185,8.6641],[11.532,8.6664],[11.5252,8.6798],[11.5185,8.6933],[11.5028,8.7113],[11.496,8.7203],[11.4893,8.7337],[11.487,8.7382],[11.4781,8.745],[11.4736,8.7517],[11.4691,8.7629],[11.4646,8.7809],[11.4578,8.7876],[11.4511,8.7876],[11.4399,8.7921],[11.4264,8.8011],[11.4107,8.8079],[11.3927,8.8168],[11.3837,8.8281],[11.377,8.8326],[11.3725,8.837],[11.3658,8.8438],[11.3545,8.8528],[11.3433,8.8618],[11.3411,8.864],[11.3366,8.8685],[11.3253,8.8775],[11.3164,8.882],[11.3074,8.8909],[11.2939,8.9089],[11.2894,8.9112],[11.2827,8.9157],[11.2714,8.9201],[11.2692,8.9224],[11.2602,8.9359],[11.2557,8.9448],[11.249,8.9561],[11.2423,8.9718],[11.2288,8.9987],[11.2265,9.0032],[11.222,9.0077],[11.2175,9.0167],[11.2018,9.0167],[11.1794,9.0257],[11.1592,9.0302],[11.1502,9.0347],[11.1322,9.0392],[11.1255,9.0437],[11.121,9.0526],[11.1142,9.0571],[11.112,9.0594],[11.1053,9.0639],[11.0985,9.0751],[11.0918,9.0841],[11.0873,9.0908],[11.0806,9.0976],[11.0738,9.102],[11.0693,9.1065],[11.0671,9.111],[11.0603,9.1223],[11.0581,9.1223],[11.0514,9.1133],[11.0334,9.102],[11.0222,9.0931],[11.0154,9.0841],[10.9817,9.0392],[10.9705,9.0257],[10.9638,9.0145],[10.957,9.0032],[10.9548,8.9898],[10.9503,8.9808],[10.9413,8.9628],[10.9368,8.9471],[10.9323,8.9314],[10.9278,8.9157],[10.9211,8.8999],[10.9099,8.8707],[10.9054,8.8573],[10.8987,8.8415],[10.8919,8.8258],[10.8829,8.8101],[10.8874,8.8034]]]}},{"type":"Feature","properties":{"id":"taraba/bali","name":"Bali","state":"Taraba"},"geometry":{"type":"Polygon","coordinates":[[[10.3215,7.6513],[10.3282,7.6378],[10.335,7.6243],[10.3395,7.6154],[10.3417,7.6064],[10.3462,7.5974],[10.3507,7.5907],[10.3597,7.5727],[10.3619,7.5704],[10.3754,7.5615],[10.3799,7.5547],[10.3844,7.5502],[10.3889,7.539],[10.3978,7.5323],[10.4068,7.521],[10.4136,7.5121],[10.4248,7.5053],[10.4405,7.5008],[10.4495,7.5008],[10.4607,7.5031],[10.4832,7.5098],[10.4899,7.5121],[10.5056,7.5143],[10.5124,7.521],[10.5146,7.5233],[10.5214,7.53],[10.5348,7.5435],[10.5461,7.548],[10.5618,7.5637],[10.573,7.5682],[10.5798,7.5704],[10.5887,7.5727],[10.5932,7.5749],[10.6,7.5794],[10.6112,7.5884],[10.6157,7.5907],[10.6224,7.5907],[10.6292,7.5929],[10.6471,7.5996],[10.6628,7.6064],[10.6786,7.6131],[10.6898,7.6176],[10.7033,7.6288],[10.7167,7.6333],[10.7235,7.6333],[10.7325,7.6333],[10.7392,7.6311],[10.7459,7.6266],[10.7549,7.6176],[10.7594,7.6198],[10.7662,7.6221],[10.7706,7.6243],[10.7864,7.6378],[10.7886,7.6401],[10.7931,7.6446],[10.8043,7.6535],[10.8066,7.6558],[10.8111,7.6625],[10.8201,7.6693],[10.8313,7.6782],[10.8448,7.685],[10.8492,7.6872],[10.8582,7.6895],[10.8717,7.6917],[10.8784,7.6985],[10.8874,7.7074],[10.8852,7.7209],[10.8829,7.7321],[10.8807,7.7389],[10.8807,7.7546],[10.8964,7.7658],[10.9076,7.7703],[10.9189,7.7703],[10.9391,7.7815],[10.957,7.7905],[10.966,7.795],[10.9705,7.7995],[10.9773,7.8085],[10.9885,7.831],[11.0042,7.8579],[11.0177,7.8759],[11.0289,7.8893],[11.0334,7.8961],[11.0446,7.9073],[11.0693,7.9275],[11.0738,7.9365],[11.0783,7.9432],[11.0895,7.9522],[11.103,7.9657],[11.1098,7.9724],[11.1165,7.9769],[11.1232,7.9814],[11.1277,7.9837],[11.1345,7.9882],[11.1412,7.9926],[11.1592,7.9994],[11.1726,8.0061],[11.1906,8.0084],[11.1973,8.0084],[11.2108,8.0106],[11.2243,8.0129],[11.2378,8.0129],[11.2535,8.0151],[11.2647,8.0151],[11.2849,8.0151],[11.2962,8.0173],[11.3029,8.0196],[11.3074,8.0196],[11.3141,8.0241],[11.3321,8.0218],[11.3411,8.0196],[11.3411,8.0218],[11.3433,8.0286],[11.3478,8.0308],[11.35,8.0286],[11.3545,8.0263],[11.3545,8.0331],[11.3523,8.0353],[11.3478,8.0353],[11.3456,8.0376],[11.3456,8.0421],[11.3523,8.0465],[11.3568,8.0555],[11.3635,8.0645],[11.377,8.078],[11.3792,8.0825],[11.3837,8.087],[11.3905,8.0937],[11.4017,8.1004],[11.4084,8.1072],[11.4264,8.1229],[11.4399,8.1364],[11.4623,8.1566],[11.4781,8.1701],[11.496,8.1858],[11.505,8.1948],[11.514,8.206],[11.523,8.215],[11.5387,8.2352],[11.5454,8.2464],[11.5499,8.2509],[11.5544,8.2599],[11.5612,8.2734],[11.5656,8.2846],[11.5724,8.2981],[11.5769,8.3048],[11.5859,8.3205],[11.5903,8.3318],[11.6016,8.352],[11.615,8.3699],[11.6195,8.3722],[11.6218,8.3767],[11.6285,8.3857],[11.633,8.3924],[11.6375,8.4036],[11.6465,8.4171],[11.651,8.4261],[11.6555,8.4306],[11.6622,8.4351],[11.6689,8.4418],[11.6734,8.4485],[11.6847,8.453],[11.6892,8.4575],[11.6981,8.4598],[11.7094,8.4643],[11.7161,8.4643],[11.7296,8.471],[11.7498,8.489],[11.7655,8.5047],[11.7812,8.5137],[11.7857,8.5226],[11.7902,8.5316],[11.797,8.5473],[11.7925,8.5631],[11.7902,8.5698],[11.7857,8.5788],[11.779,8.5968],[11.779,8.6057],[11.779,8.6102],[11.7498,8.6192],[11.7251,8.6282],[11.7071,8.6372],[11.6981,8.6462],[11.6757,8.6574],[11.6465,8.6709],[11.6375,8.6731],[11.6173,8.6754],[11.6083,8.6776],[11.5948,8.6776],[11.5769,8.6731],[11.5679,8.6709],[11.5634,8.6709],[11.5544,8.6686],[11.5387,8.6664],[11.532,8.6664],[11.5185,8.6641],[11.4983,8.6596],[11.4893,8.6574],[11.4781,8.6551],[11.4623,8.6507],[11.4489,8.6462],[11.4421,8.6439],[11.4331,8.6394],[11.4219,8.6372],[11.4062,8.6349],[11.395,8.6304],[11.3837,8.6282],[11.3658,8.6192],[11.3545,8.6147],[11.3433,8.6125],[11.3321,8.6102],[11.3141,8.599],[11.2962,8.5945],[11.2872,8.5923],[11.267,8.5833],[11.258,8.5788],[11.24,8.572],[11.2333,8.5698],[11.2265,8.5698],[11.2175,8.572],[11.2041,8.5743],[11.1816,8.5833],[11.1659,8.5923],[11.1479,8.6012],[11.1412,8.6057],[11.1255,8.617],[11.1165,8.6259],[11.1098,8.6304],[11.1075,8.6215],[11.103,8.617],[11.0985,8.6102],[11.0963,8.6057],[11.0918,8.59],[11.0895,8.5788],[11.0828,8.5698],[11.0806,8.5631],[11.0738,8.5451],[11.0716,8.5406],[11.0671,8.5339],[11.0603,8.5271],[11.0514,8.5182],[11.0446,8.5092],[11.0379,8.5024],[11.0312,8.4934],[11.0199,8.4845],[11.0132,8.4777],[11.002,8.471],[10.993,8.4665],[10.9817,8.4598],[10.9795,8.4575],[10.975,8.453],[10.966,8.4485],[10.9615,8.4485],[10.9413,8.4396],[10.9189,8.4306],[10.9099,8.4216],[10.9054,8.4171],[10.9031,8.4126],[10.8942,8.3991],[10.8829,8.3857],[10.8762,8.3767],[10.8627,8.3609],[10.847,8.3497],[10.8425,8.3452],[10.829,8.3385],[10.8201,8.334],[10.8133,8.3295],[10.7953,8.3183],[10.7864,8.3071],[10.7819,8.2981],[10.7751,8.2891],[10.7729,8.2846],[10.7639,8.2779],[10.7527,8.2711],[10.7414,8.2644],[10.7347,8.2576],[10.7167,8.2442],[10.71,8.2397],[10.6965,8.2329],[10.6831,8.2195],[10.6651,8.2105],[10.6561,8.2105],[10.6381,8.1993],[10.6269,8.1925],[10.6112,8.179],[10.5798,8.1543],[10.5551,8.1364],[10.5461,8.1251],[10.5393,8.1207],[10.5348,8.1117],[10.5214,8.0982],[10.5146,8.0892],[10.5034,8.0825],[10.4922,8.0735],[10.4765,8.06],[10.4585,8.0488],[10.454,8.0443],[10.4405,8.0331],[10.436,8.0263],[10.4293,8.0173],[10.4226,8.0106],[10.4068,7.9994],[10.3978,7.9949],[10.3934,7.9904],[10.3889,7.9837],[10.3844,7.9814],[10.3754,7.9724],[10.3619,7.9657],[10.3529,7.9612],[10.3417,7.959],[10.344,7.95],[10.3417,7.941],[10.3395,7.9298],[10.3462,7.9208],[10.3552,7.9006],[10.3574,7.8961],[10.3597,7.8871],[10.3597,7.8714],[10.3597,7.8646],[10.3597,7.8377],[10.3642,7.822],[10.3709,7.813],[10.3731,7.8085],[10.3754,7.8018],[10.3754,7.7905],[10.3731,7.7838],[10.3731,7.7771],[10.3754,7.7703],[10.3754,7.7658],[10.3754,7.7523],[10.3709,7.7434],[10.3687,7.7321],[10.3687,7.7276],[10.3687,7.7187],[10.3619,7.7029],[10.3574,7.6962],[10.3395,7.685],[10.335,7.685],[10.326,7.6827],[10.3215,7.676],[10.3148,7.6693],[10.3148,7.6603],[10.3215,7.6513]]]}},{"type":"Feature","properties":{"id":"taraba/donga","name":"Donga","state":"Taraba"},"geometry":{"type":"Polygon","coordinates":[[[9.8095,7.6064],[9.8162,7.5974],[9.8207,7.5951],[9.8409,7.5794],[9.8544,7.5884],[9.8701,7.5974],[9.8836,7.6019],[9.9038,7.6086],[9.9128,7.6064],[9.9307,7.6041],[9.9509,7.6019],[9.9667,7.5996],[9.9779,7.5974],[10.0004,7.5907],[10.0161,7.5862],[10.0295,7.5794],[10.0542,7.566],[10.0677,7.5592],[10.0857,7.5457],[10.1149,7.5255],[10.1306,7.5143],[10.1418,7.5053],[10.1531,7.4963],[10.18,7.4784],[10.2227,7.4514],[10.2272,7.4492],[10.2474,7.4335],[10.2451,7.4245],[10.2429,7.4222],[10.2451,7.42],[10.2451,7.411],[10.2496,7.402],[10.2541,7.3975],[10.2519,7.393],[10.2451,7.393],[10.2384,7.3863],[10.2362,7.3751],[10.2294,7.3616],[10.2317,7.3459],[10.2496,7.3167],[10.2564,7.3054],[10.2653,7.283],[10.2676,7.2785],[10.2743,7.274],[10.2901,7.2583],[10.3125,7.2493],[10.3237,7.2471],[10.3327,7.256],[10.3417,7.256],[10.3507,7.2493],[10.3574,7.2493],[10.3709,7.2493],[10.3821,7.2493],[10.3889,7.2628],[10.3934,7.265],[10.4023,7.256],[10.4068,7.265],[10.4091,7.2785],[10.4113,7.2875],[10.4181,7.3122],[10.4203,7.3189],[10.4383,7.3369],[10.4607,7.3459],[10.472,7.3481],[10.4809,7.3526],[10.4854,7.3593],[10.4899,7.3683],[10.4967,7.3773],[10.5034,7.384],[10.5124,7.393],[10.5214,7.3975],[10.5259,7.402],[10.5326,7.4087],[10.5393,7.4155],[10.5461,7.4267],[10.5506,7.4335],[10.5618,7.4492],[10.573,7.4559],[10.591,7.4694],[10.6067,7.4806],[10.6134,7.4873],[10.6224,7.4963],[10.6292,7.5031],[10.6539,7.5255],[10.6786,7.548],[10.6876,7.5547],[10.6943,7.5637],[10.701,7.5704],[10.7145,7.5839],[10.7212,7.5884],[10.737,7.6019],[10.7482,7.6131],[10.7549,7.6176],[10.7459,7.6266],[10.7392,7.6311],[10.7325,7.6333],[10.7235,7.6333],[10.7167,7.6333],[10.7033,7.6288],[10.6898,7.6176],[10.6786,7.6131],[10.6628,7.6064],[10.6471,7.5996],[10.6292,7.5929],[10.6224,7.5907],[10.6157,7.5907],[10.6112,7.5884],[10.6,7.5794],[10.5932,7.5749],[10.5887,7.5727],[10.5798,7.5704],[10.573,7.5682],[10.5618,7.5637],[10.5461,7.548],[10.5348,7.5435],[10.5214,7.53],[10.5146,7.5233],[10.5124,7.521],[10.5056,7.5143],[10.4899,7.5121],[10.4832,7.5098],[10.4607,7.5031],[10.4495,7.5008],[10.4405,7.5008],[10.4248,7.5053],[10.4136,7.5121],[10.4068,7.521],[10.3978,7.5323],[10.3889,7.539],[10.3844,7.5502],[10.3799,7.5547],[10.3754,7.5615],[10.3619,7.5704],[10.3597,7.5727],[10.3507,7.5907],[10.3462,7.5974],[10.3417,7.6064],[10.3395,7.6154],[10.335,7.6243],[10.3282,7.6378],[10.3215,7.6513],[10.3148,7.6603],[10.3148,7.6693],[10.3215,7.676],[10.326,7.6827],[10.335,7.685],[10.3395,7.685],[10.3574,7.6962],[10.3619,7.7029],[10.3687,7.7187],[10.3687,7.7276],[10.3687,7.7321],[10.3709,7.7434],[10.3754,7.7523],[10.3754,7.7658],[10.3754,7.7703],[10.3731,7.7771],[10.3731,7.7838],[10.3754,7.7905],[10.3754,7.8018],[10.3731,7.8085],[10.3709,7.813],[10.3642,7.822],[10.3597,7.8377],[10.3597,7.8646],[10.3597,7.8714],[10.3597,7.8871],[10.3574,7.8961],[10.3552,7.9006],[10.3462,7.9208],[10.3395,7.9298],[10.3417,7.941],[10.344,7.95],[10.3417,7.959],[10.3395,7.9657],[10.335,7.9747],[10.3282,7.9837],[10.326,7.9949],[10.326,8.0016],[10.3305,8.0084],[10.3305,8.0129],[10.3327,8.0196],[10.3327,8.0286],[10.335,8.0421],[10.3327,8.0555],[10.3305,8.0757],[10.3305,8.0825],[10.3148,8.0757],[10.2878,8.0712],[10.2811,8.069],[10.2721,8.0668],[10.2429,8.0465],[10.2384,8.0421],[10.2294,8.0331],[10.2047,8.0039],[10.198,7.9926],[10.1912,7.9837],[10.1867,7.9747],[10.18,7.9657],[10.1688,7.9477],[10.1598,7.9343],[10.1486,7.9208],[10.1351,7.9073],[10.1306,7.9006],[10.1171,7.8893],[10.1126,7.8826],[10.0879,7.8669],[10.0722,7.8579],[10.0273,7.8197],[10.0004,7.7928],[9.9936,7.7838],[9.9801,7.7703],[9.9756,7.7613],[9.9622,7.7434],[9.9509,7.7321],[9.9487,7.7321],[9.9352,7.7276],[9.9262,7.7254],[9.9217,7.7254],[9.8881,7.7029],[9.8813,7.6985],[9.8656,7.6872],[9.8589,7.6805],[9.8544,7.6737],[9.8454,7.6625],[9.8387,7.6535],[9.8342,7.6468],[9.8162,7.6333],[9.8117,7.6311],[9.7982,7.6154],[9.8095,7.6064]]]}},{"type":"Feature","properties":{"id":"taraba/gashaka","name":"Gashaka","state":"Taraba"},"geometry":{"type":"Polygon","coordinates":[[[10.7931,7.6378],[10.8088,7.6266],[10.8245,7.6086],[10.8313,7.5996],[10.847,7.5862],[10.8515,7.5817],[10.8739,7.566],[10.8852,7.5547],[10.8919,7.548],[10.8964,7.539],[10.9009,7.5278],[10.9054,7.5165],[10.9099,7.5053],[10.9121,7.5008],[10.9211,7.4761],[10.9211,7.4626],[10.9211,7.4559],[10.9211,7.4447],[10.9234,7.429],[10.9278,7.4065],[10.9413,7.3751],[10.9458,7.3661],[10.9503,7.3548],[10.9548,7.3459],[10.957,7.3391],[10.9683,7.3212],[10.9728,7.3144],[10.9773,7.3099],[10.984,7.3077],[10.9907,7.3077],[10.9997,7.3099],[11.0109,7.3144],[11.0244,7.3212],[11.0312,7.3279],[11.0334,7.3324],[11.0446,7.3414],[11.0491,7.3436],[11.0559,7.3481],[11.0693,7.3593],[11.0761,7.3593],[11.0828,7.3593],[11.103,7.3526],[11.1142,7.3436],[11.1232,7.3369],[11.1232,7.3301],[11.1277,7.3167],[11.1322,7.301],[11.1367,7.2942],[11.1367,7.2785],[11.1367,7.274],[11.1367,7.2673],[11.1367,7.2583],[11.1367,7.2515],[11.1345,7.2426],[11.1322,7.2246],[11.13,7.2089],[11.1345,7.1954],[11.1389,7.1887],[11.1479,7.1819],[11.1569,7.1707],[11.1637,7.1662],[11.1726,7.1595],[11.1794,7.1505],[11.1861,7.1437],[11.1973,7.137],[11.2108,7.1303],[11.2153,7.1235],[11.2198,7.1146],[11.2355,7.0988],[11.2445,7.0921],[11.2535,7.0854],[11.2602,7.0786],[11.2692,7.0696],[11.2714,7.0629],[11.2759,7.0584],[11.2917,7.0449],[11.3029,7.0382],[11.3186,7.036],[11.3343,7.0337],[11.3658,7.0427],[11.3837,7.0517],[11.3927,7.0562],[11.3995,7.0562],[11.4152,7.0607],[11.4376,7.0651],[11.4578,7.0674],[11.4668,7.0696],[11.4758,7.0719],[11.4848,7.0741],[11.496,7.0764],[11.5073,7.0786],[11.5252,7.0786],[11.5342,7.0786],[11.5499,7.0764],[11.5589,7.0719],[11.5836,7.0629],[11.5948,7.0494],[11.5993,7.0427],[11.6083,7.0292],[11.6195,7.0135],[11.6263,7.009],[11.6353,7.0023],[11.6577,6.9933],[11.6577,6.9955],[11.6577,6.9978],[11.66,6.9978],[11.6622,6.9978],[11.6645,6.9978],[11.6689,6.9978],[11.6689,7.0],[11.6712,7.0],[11.6712,7.0023],[11.6712,7.0045],[11.6734,7.0045],[11.6757,7.0045],[11.6779,7.0045],[11.6779,7.0068],[11.6802,7.0068],[11.6802,7.009],[11.6802,7.0112],[11.6802,7.0135],[11.6779,7.0135],[11.6779,7.0157],[11.6802,7.0157],[11.6869,7.0225],[11.6959,7.027],[11.7004,7.027],[11.7026,7.0292],[11.7071,7.0315],[11.7094,7.0315],[11.7094,7.0337],[11.7116,7.0315],[11.7139,7.0315],[11.7139,7.0337],[11.7139,7.036],[11.7139,7.0382],[11.7116,7.0382],[11.7116,7.0404],[11.7139,7.0427],[11.7184,7.0449],[11.7184,7.0472],[11.7228,7.0494],[11.7296,7.0494],[11.7318,7.0494],[11.7341,7.0494],[11.7363,7.0494],[11.7386,7.0494],[11.7408,7.0494],[11.7431,7.0472],[11.7453,7.0472],[11.7475,7.0472],[11.7498,7.0472],[11.752,7.0472],[11.7543,7.0472],[11.7565,7.0449],[11.7588,7.0449],[11.7633,7.0427],[11.7655,7.0427],[11.7678,7.0427],[11.77,7.0427],[11.7723,7.0427],[11.7745,7.0427],[11.779,7.0449],[11.779,7.0472],[11.7857,7.0607],[11.7857,7.0629],[11.7857,7.0651],[11.7857,7.0674],[11.788,7.0674],[11.788,7.0696],[11.7902,7.0696],[11.7925,7.0696],[11.7947,7.0719],[11.797,7.0719],[11.7992,7.0764],[11.8014,7.0786],[11.8014,7.0809],[11.8037,7.0809],[11.8037,7.0831],[11.8082,7.0809],[11.8104,7.0809],[11.8104,7.0786],[11.8127,7.0786],[11.8127,7.0764],[11.8194,7.0741],[11.8239,7.0696],[11.8261,7.0674],[11.8284,7.0674],[11.8329,7.0741],[11.8329,7.0764],[11.8329,7.0786],[11.8306,7.0786],[11.8306,7.0809],[11.8329,7.0831],[11.8351,7.0854],[11.8374,7.0876],[11.8396,7.0854],[11.8419,7.0854],[11.8441,7.0854],[11.8441,7.0876],[11.8464,7.0876],[11.8486,7.0876],[11.8486,7.0854],[11.8486,7.0831],[11.8486,7.0809],[11.8509,7.0809],[11.8531,7.0809],[11.8553,7.0809],[11.8576,7.0809],[11.8598,7.0809],[11.8621,7.0786],[11.8621,7.0764],[11.8666,7.0764],[11.8666,7.0786],[11.8688,7.0854],[11.8688,7.0876],[11.8688,7.0899],[11.8688,7.0921],[11.8711,7.0943],[11.8733,7.0943],[11.8756,7.0966],[11.8778,7.0966],[11.8778,7.0988],[11.88,7.0988],[11.88,7.1011],[11.8778,7.1011],[11.8778,7.1033],[11.88,7.1056],[11.88,7.1078],[11.88,7.1101],[11.88,7.1123],[11.8778,7.1123],[11.8733,7.1168],[11.8733,7.119],[11.8711,7.1213],[11.8711,7.1235],[11.8711,7.1258],[11.8688,7.1258],[11.8666,7.1258],[11.8666,7.128],[11.8643,7.1303],[11.8621,7.1393],[11.8598,7.1415],[11.8598,7.1437],[11.8621,7.1505],[11.8621,7.1527],[11.8643,7.1527],[11.8643,7.155],[11.8643,7.1572],[11.8643,7.1595],[11.8621,7.1595],[11.8621,7.1617],[11.8598,7.1617],[11.8576,7.1662],[11.8576,7.1685],[11.8576,7.1729],[11.8598,7.1752],[11.8598,7.1774],[11.8621,7.1774],[11.8643,7.1797],[11.8643,7.1819],[11.8643,7.1842],[11.8643,7.1864],[11.8621,7.1864],[11.8621,7.1887],[11.8598,7.1887],[11.8576,7.1909],[11.8553,7.1909],[11.8553,7.1932],[11.8576,7.1999],[11.8576,7.2021],[11.8598,7.2021],[11.8598,7.2044],[11.8598,7.2066],[11.8576,7.2089],[11.8576,7.2156],[11.8598,7.2179],[11.8643,7.2179],[11.8643,7.2201],[11.8666,7.2201],[11.8666,7.2224],[11.8666,7.2291],[11.8688,7.2336],[11.8711,7.2358],[11.8733,7.2381],[11.8756,7.2381],[11.88,7.2426],[11.88,7.2448],[11.8823,7.2448],[11.8823,7.2471],[11.88,7.2471],[11.88,7.2493],[11.8778,7.2493],[11.8733,7.2493],[11.8711,7.2493],[11.8643,7.2515],[11.8621,7.2515],[11.8598,7.2515],[11.8576,7.2515],[11.8576,7.2538],[11.8553,7.2538],[11.8531,7.2538],[11.8509,7.2538],[11.8486,7.2538],[11.8464,7.2538],[11.8441,7.2605],[11.8419,7.2673],[11.8419,7.2695],[11.8441,7.2718],[11.8464,7.274],[11.8509,7.2762],[11.8531,7.2762],[11.8553,7.2785],[11.8576,7.2852],[11.8576,7.2875],[11.8598,7.292],[11.8598,7.2942],[11.8621,7.2987],[11.8643,7.2987],[11.8643,7.301],[11.8688,7.3054],[11.8711,7.3077],[11.8733,7.3077],[11.8733,7.3099],[11.8778,7.3167],[11.8823,7.3234],[11.8868,7.3301],[11.889,7.3324],[11.8531,7.3773],[11.8509,7.3863],[11.8441,7.3975],[11.8329,7.4177],[11.8104,7.4424],[11.8037,7.4469],[11.8014,7.4492],[11.7767,7.4806],[11.7723,7.4873],[11.7678,7.5121],[11.7633,7.5412],[11.7633,7.548],[11.7633,7.5592],[11.7655,7.5682],[11.7655,7.5749],[11.7678,7.5817],[11.7678,7.5907],[11.7678,7.5974],[11.7655,7.6041],[11.7655,7.6154],[11.77,7.6266],[11.7723,7.6513],[11.7723,7.6648],[11.77,7.6827],[11.7655,7.694],[11.7588,7.7254],[11.7543,7.7321],[11.7475,7.7434],[11.7341,7.7591],[11.7139,7.7748],[11.7116,7.7771],[11.7049,7.786],[11.6869,7.795],[11.6824,7.8018],[11.6802,7.8107],[11.6757,7.8197],[11.6712,7.8287],[11.6577,7.8467],[11.651,7.8579],[11.6465,7.8669],[11.6353,7.8759],[11.624,7.8848],[11.5948,7.8983],[11.5791,7.9051],[11.5701,7.9051],[11.5634,7.9051],[11.5522,7.9028],[11.5499,7.9028],[11.5454,7.8961],[11.5409,7.8916],[11.5387,7.8871],[11.5387,7.8826],[11.5342,7.8736],[11.532,7.8669],[11.5275,7.8534],[11.5252,7.8444],[11.5162,7.8242],[11.514,7.8152],[11.5073,7.8062],[11.5005,7.7995],[11.4938,7.7995],[11.4893,7.7995],[11.4825,7.8107],[11.4736,7.8152],[11.4646,7.8287],[11.4534,7.8422],[11.4354,7.8669],[11.4264,7.8759],[11.4197,7.8871],[11.4107,7.8983],[11.3995,7.923],[11.3927,7.9387],[11.3837,7.95],[11.3725,7.9657],[11.3658,7.9747],[11.3658,7.9769],[11.3635,7.9837],[11.359,7.9904],[11.3568,7.9926],[11.3545,7.9971],[11.3523,8.0016],[11.35,8.0129],[11.3411,8.0196],[11.3321,8.0218],[11.3141,8.0241],[11.3074,8.0196],[11.3029,8.0196],[11.2962,8.0173],[11.2849,8.0151],[11.2647,8.0151],[11.2535,8.0151],[11.2378,8.0129],[11.2243,8.0129],[11.2108,8.0106],[11.1973,8.0084],[11.1906,8.0084],[11.1726,8.0061],[11.1592,7.9994],[11.1412,7.9926],[11.1345,7.9882],[11.1277,7.9837],[11.1232,7.9814],[11.1165,7.9769],[11.1098,7.9724],[11.103,7.9657],[11.0895,7.9522],[11.0783,7.9432],[11.0738,7.9365],[11.0693,7.9275],[11.0446,7.9073],[11.0334,7.8961],[11.0289,7.8893],[11.0177,7.8759],[11.0042,7.8579],[10.9885,7.831],[10.9773,7.8085],[10.9705,7.7995],[10.966,7.795],[10.957,7.7905],[10.9391,7.7815],[10.9189,7.7703],[10.9076,7.7703],[10.8964,7.7658],[10.8807,7.7546],[10.8807,7.7389],[10.8829,7.7321],[10.8852,7.7209],[10.8874,7.7074],[10.8784,7.6985],[10.8717,7.6917],[10.8582,7.6895],[10.8492,7.6872],[10.8448,7.685],[10.8313,7.6782],[10.8201,7.6693],[10.8111,7.6625],[10.8066,7.6558],[10.8043,7.6535],[10.7931,7.6446],[10.7886,7.6401],[10.7931,7.6378]]]}},{"type":"Feature","properties":{"id":"taraba/gassol","name":"Gassol","state":"Taraba"},"geometry":{"type":"Polygon","coordinates":[[[10.0116,8.2576],[10.0206,8.2509],[10.0228,8.2464],[10.0295,8.2419],[10.0318,8.2374],[10.0565,8.2352],[10.061,8.2352],[10.1014,8.2352],[10.1463,8.2374],[10.198,8.2554],[10.2002,8.2554],[10.207,8.2576],[10.2159,8.2576],[10.2474,8.2576],[10.2519,8.2554],[10.2743,8.2509],[10.2923,8.2397],[10.2968,8.2374],[10.3125,8.2105],[10.317,8.1993],[10.3237,8.188],[10.326,8.1858],[10.3282,8.1678],[10.3305,8.1588],[10.3305,8.1543],[10.3327,8.1341],[10.3327,8.1207],[10.3327,8.0982],[10.3305,8.0892],[10.3305,8.0825],[10.3305,8.0757],[10.3327,8.0555],[10.335,8.0421],[10.3327,8.0286],[10.3327,8.0196],[10.3305,8.0129],[10.3305,8.0084],[10.326,8.0016],[10.326,7.9949],[10.3282,7.9837],[10.335,7.9747],[10.3395,7.9657],[10.3417,7.959],[10.3529,7.9612],[10.3619,7.9657],[10.3754,7.9724],[10.3844,7.9814],[10.3889,7.9837],[10.3934,7.9904],[10.3978,7.9949],[10.4068,7.9994],[10.4226,8.0106],[10.4293,8.0173],[10.436,8.0263],[10.4405,8.0331],[10.454,8.0443],[10.4585,8.0488],[10.4765,8.06],[10.4922,8.0735],[10.5034,8.0825],[10.5146,8.0892],[10.5214,8.0982],[10.5348,8.1117],[10.5393,8.1207],[10.5461,8.1251],[10.5551,8.1364],[10.5798,8.1543],[10.6112,8.179],[10.6269,8.1925],[10.6381,8.1993],[10.6561,8.2105],[10.6651,8.2105],[10.6831,8.2195],[10.6965,8.2329],[10.71,8.2397],[10.7167,8.2442],[10.7347,8.2576],[10.7414,8.2644],[10.7527,8.2711],[10.7639,8.2779],[10.7729,8.2846],[10.7751,8.2891],[10.7819,8.2981],[10.7864,8.3071],[10.7953,8.3183],[10.8133,8.3295],[10.8201,8.334],[10.829,8.3385],[10.8425,8.3452],[10.847,8.3497],[10.8627,8.3609],[10.8762,8.3767],[10.8829,8.3857],[10.8942,8.3991],[10.9031,8.4126],[10.9054,8.4171],[10.9099,8.4216],[10.9189,8.4306],[10.9413,8.4396],[10.9615,8.4485],[10.966,8.4485],[10.975,8.453],[10.9795,8.4575],[10.9817,8.4598],[10.993,8.4665],[11.002,8.471],[11.0132,8.4777],[11.0199,8.4845],[11.0312,8.4934],[11.0379,8.5024],[11.0446,8.5092],[11.0514,8.5182],[11.0603,8.5271],[11.0671,8.5339],[11.0716,8.5406],[11.0738,8.5451],[11.0806,8.5631],[11.0828,8.5698],[11.0895,8.5788],[11.0918,8.59],[11.0963,8.6057],[11.0985,8.6102],[11.103,8.617],[11.1075,8.6215],[11.1098,8.6304],[11.103,8.6349],[11.0873,8.6394],[11.0806,8.6394],[11.0716,8.6439],[11.0581,8.6529],[11.0267,8.6821],[11.0222,8.6866],[11.0222,8.6933],[11.0132,8.6978],[11.002,8.7001],[10.9952,8.7023],[10.9907,8.7068],[10.9795,8.7225],[10.9615,8.7405],[10.9503,8.7517],[10.9413,8.7584],[10.9278,8.7674],[10.9234,8.7742],[10.9144,8.7854],[10.9099,8.7876],[10.9009,8.7899],[10.8874,8.8034],[10.8829,8.8101],[10.856,8.7832],[10.8537,8.7809],[10.8403,8.7697],[10.8313,8.7607],[10.8245,8.7584],[10.7953,8.7427],[10.7886,8.7405],[10.7774,8.7315],[10.7639,8.7248],[10.7347,8.7248],[10.7033,8.7225],[10.6831,8.7248],[10.6741,8.727],[10.6606,8.7248],[10.6359,8.7293],[10.6202,8.7337],[10.609,8.736],[10.5887,8.736],[10.5753,8.7337],[10.5595,8.7315],[10.5461,8.727],[10.5281,8.7203],[10.5191,8.7225],[10.5101,8.7203],[10.4989,8.7158],[10.4877,8.709],[10.4697,8.6978],[10.4607,8.6911],[10.4495,8.6866],[10.436,8.6843],[10.4226,8.6821],[10.4158,8.6798],[10.4136,8.6776],[10.4046,8.6754],[10.3866,8.6754],[10.3642,8.6776],[10.3529,8.6754],[10.344,8.6776],[10.3395,8.6798],[10.3305,8.6798],[10.3103,8.6776],[10.2968,8.6731],[10.2901,8.6709],[10.2743,8.6619],[10.2676,8.6596],[10.2609,8.6529],[10.2496,8.6394],[10.2406,8.6237],[10.2384,8.6125],[10.2339,8.6012],[10.2317,8.5968],[10.2227,8.59],[10.2115,8.5788],[10.207,8.572],[10.198,8.5653],[10.189,8.5608],[10.1823,8.5518],[10.1778,8.5451],[10.1665,8.5361],[10.1553,8.5226],[10.1486,8.5159],[10.1396,8.5092],[10.1306,8.5047],[10.1149,8.4912],[10.1081,8.4845],[10.1059,8.4822],[10.0879,8.4575],[10.0834,8.453],[10.079,8.4396],[10.0677,8.4171],[10.0632,8.4059],[10.0587,8.3924],[10.0475,8.3812],[10.043,8.3767],[10.0385,8.3722],[10.034,8.3654],[10.0251,8.3542],[10.0116,8.3385],[10.0071,8.3318],[9.9936,8.3205],[9.9846,8.3115],[9.9801,8.3026],[9.9734,8.2958],[10.0116,8.2576]]]}},{"type":"Feature","properties":{"id":"taraba/ibi","name":"Ibi","state":"Taraba"},"geometry":{"type":"Polygon","coordinates":[[[9.3266,8.2464],[9.3289,8.2374],[9.3468,8.2262],[9.3536,8.224],[9.3581,8.2217],[9.3715,8.215],[9.3805,8.2082],[9.3895,8.2015],[9.3985,8.197],[9.4052,8.188],[9.412,8.1768],[9.4052,8.1656],[9.4007,8.1588],[9.3918,8.1566],[9.3873,8.1498],[9.3918,8.1319],[9.3918,8.1184],[9.3918,8.1027],[9.394,8.0937],[9.3985,8.087],[9.403,8.0802],[9.4142,8.0712],[9.4165,8.0623],[9.4052,8.0465],[9.3873,8.0331],[9.3783,8.0286],[9.3693,8.0173],[9.3603,8.0129],[9.3513,8.0061],[9.3468,8.0016],[9.3401,7.9904],[9.3356,7.9859],[9.3581,7.9994],[9.385,8.0196],[9.3985,8.0263],[9.4344,8.0398],[9.4704,8.06],[9.4906,8.0712],[9.5243,8.078],[9.5377,8.0915],[9.5624,8.1004],[9.6073,8.1049],[9.6186,8.1049],[9.632,8.1072],[9.65,8.1049],[9.6927,8.0937],[9.7129,8.0892],[9.7264,8.0825],[9.7578,8.0825],[9.7668,8.0825],[9.7758,8.0847],[9.805,8.0915],[9.8095,8.0959],[9.8207,8.1027],[9.8364,8.1162],[9.8679,8.1813],[9.8858,8.2307],[9.8993,8.2554],[9.9195,8.2689],[9.9397,8.2823],[9.9712,8.2958],[9.9734,8.2958],[9.9801,8.3026],[9.9846,8.3115],[9.9936,8.3205],[10.0071,8.3318],[10.0116,8.3385],[10.0251,8.3542],[10.034,8.3654],[10.0385,8.3722],[10.043,8.3767],[10.0475,8.3812],[10.0587,8.3924],[10.0632,8.4059],[10.0677,8.4171],[10.079,8.4396],[10.0834,8.453],[10.0879,8.4575],[10.1059,8.4822],[10.1081,8.4845],[10.1149,8.4912],[10.1306,8.5047],[10.1396,8.5092],[10.1486,8.5159],[10.1553,8.5226],[10.1665,8.5361],[10.1778,8.5451],[10.1823,8.5518],[10.189,8.5608],[10.198,8.5653],[10.207,8.572],[10.2115,8.5788],[10.2227,8.59],[10.2317,8.5968],[10.2339,8.6012],[10.2384,8.6125],[10.2406,8.6237],[10.2496,8.6394],[10.2609,8.6529],[10.2676,8.6596],[10.2743,8.6619],[10.2901,8.6709],[10.2968,8.6731],[10.3103,8.6776],[10.3305,8.6798],[10.3395,8.6798],[10.344,8.6776],[10.3529,8.6754],[10.3642,8.6776],[10.3866,8.6754],[10.4046,8.6754],[10.4136,8.6776],[10.4068,8.6843],[10.4023,8.6888],[10.3934,8.6933],[10.3866,8.6956],[10.3821,8.7045],[10.3799,8.7135],[10.3754,8.7203],[10.3687,8.7248],[10.3597,8.7337],[10.3552,8.7405],[10.3484,8.7427],[10.335,8.745],[10.3282,8.7427],[10.3215,8.7427],[10.3125,8.7427],[10.308,8.745],[10.3035,8.7495],[10.3035,8.7562],[10.2945,8.7629],[10.2901,8.7652],[10.2811,8.7652],[10.2766,8.7674],[10.2698,8.7787],[10.2631,8.7809],[10.2586,8.7876],[10.2519,8.7966],[10.2496,8.8011],[10.2451,8.8034],[10.2362,8.7921],[10.2294,8.7876],[10.2249,8.7854],[10.2137,8.7742],[10.207,8.7652],[10.1957,8.754],[10.189,8.7495],[10.1845,8.7405],[10.18,8.7315],[10.1778,8.7293],[10.162,8.7158],[10.1486,8.7023],[10.1239,8.6776],[10.1171,8.6731],[10.1081,8.6619],[10.1037,8.6551],[10.0969,8.6462],[10.0857,8.6349],[10.0655,8.6125],[10.061,8.6057],[10.052,8.5923],[10.043,8.5855],[10.0318,8.5743],[10.0251,8.5698],[10.0228,8.5653],[10.0116,8.5563],[10.0071,8.5541],[10.0048,8.5496],[9.9981,8.5406],[9.9936,8.5361],[9.9824,8.5294],[9.9712,8.5204],[9.9622,8.5137],[9.9577,8.5069],[9.9532,8.5024],[9.9509,8.4979],[9.933,8.4867],[9.9262,8.4845],[9.9195,8.4777],[9.915,8.4732],[9.9083,8.4665],[9.8903,8.4485],[9.8791,8.4396],[9.8701,8.4306],[9.8634,8.4283],[9.8566,8.4261],[9.8409,8.4171],[9.8364,8.4126],[9.8252,8.4059],[9.8095,8.3969],[9.796,8.3901],[9.7735,8.3789],[9.7623,8.3699],[9.7556,8.3677],[9.7331,8.3699],[9.7106,8.3722],[9.6927,8.3767],[9.668,8.3812],[9.6478,8.3857],[9.6388,8.3857],[9.6276,8.3879],[9.6208,8.3879],[9.6231,8.3834],[9.6186,8.3767],[9.6141,8.3609],[9.6118,8.3497],[9.6118,8.3407],[9.6118,8.3295],[9.6141,8.3183],[9.6186,8.3026],[9.6163,8.2958],[9.6096,8.2913],[9.6006,8.2936],[9.5849,8.2981],[9.5624,8.3026],[9.5467,8.3048],[9.5355,8.3026],[9.5243,8.3026],[9.513,8.3026],[9.4928,8.3048],[9.4838,8.3071],[9.4659,8.3115],[9.4524,8.3183],[9.4322,8.3273],[9.4209,8.3318],[9.4075,8.3385],[9.4007,8.343],[9.3895,8.3497],[9.3828,8.3497],[9.376,8.3497],[9.367,8.343],[9.3626,8.3407],[9.3603,8.334],[9.3558,8.3273],[9.3536,8.316],[9.3491,8.3026],[9.3423,8.2846],[9.3356,8.2756],[9.3311,8.2689],[9.3266,8.2644],[9.3244,8.2532],[9.3266,8.2464]]]}},{"type":"Feature","properties":{"id":"taraba/jalingo","name":"Jalingo","state":"Taraba"},"geometry":{"type":"Polygon","coordinates":[[[11.222,9.0077],[11.2265,9.0032],[11.2288,8.9987],[11.2423,8.9718],[11.249,8.9561],[11.2557,8.9448],[11.2602,8.9359],[11.2692,8.9224],[11.2714,8.9201],[11.2827,8.9157],[11.2894,8.9112],[11.2939,8.9089],[11.3074,8.8909],[11.3164,8.882],[11.3253,8.8775],[11.3366,8.8685],[11.3411,8.864],[11.3433,8.8618],[11.3545,8.8528],[11.3658,8.8438],[11.3725,8.837],[11.377,8.8326],[11.3837,8.8281],[11.3927,8.8168],[11.4107,8.8079],[11.4264,8.8011],[11.4399,8.7921],[11.4511,8.7876],[11.4578,8.7876],[11.4556,8.7966],[11.4466,8.8079],[11.4421,8.8168],[11.4399,8.8213],[11.4331,8.8303],[11.4197,8.8415],[11.4107,8.8528],[11.3972,8.8707],[11.3882,8.8842],[11.3815,8.8977],[11.3748,8.9067],[11.3703,8.9134],[11.359,8.9224],[11.3523,8.9269],[11.3433,8.9336],[11.3388,8.9404],[11.3366,8.9516],[11.3343,8.9583],[11.3253,8.9718],[11.3231,8.9808],[11.3209,8.9853],[11.3209,8.9875],[11.3141,8.992],[11.3074,8.992],[11.3006,8.9965],[11.2962,9.01],[11.2939,9.0167],[11.2894,9.0212],[11.2714,9.0257],[11.2625,9.0234],[11.2535,9.019],[11.2423,9.0167],[11.2265,9.0145],[11.2175,9.0167],[11.222,9.0077]]]}},{"type":"Feature","properties":{"id":"taraba/karim-lamido","name":"Karim Lamido","state":"Taraba"},"geometry":{"type":"Polygon","coordinates":[[[10.2496,8.8011],[10.2519,8.7966],[10.2586,8.7876],[10.2631,8.7809],[10.2698,8.7787],[10.2766,8.7674],[10.2811,8.7652],[10.2901,8.7652],[10.2945,8.7629],[10.3035,8.7562],[10.3035,8.7495],[10.308,8.745],[10.3125,8.7427],[10.3215,8.7427],[10.3282,8.7427],[10.335,8.745],[10.3484,8.7427],[10.3552,8.7405],[10.3597,8.7337],[10.3687,8.7248],[10.3754,8.7203],[10.3799,8.7135],[10.3821,8.7045],[10.3866,8.6956],[10.3934,8.6933],[10.4023,8.6888],[10.4068,8.6843],[10.4136,8.6776],[10.4158,8.6798],[10.4226,8.6821],[10.436,8.6843],[10.4495,8.6866],[10.4607,8.6911],[10.4697,8.6978],[10.4877,8.709],[10.4989,8.7158],[10.5101,8.7203],[10.5191,8.7225],[10.5281,8.7203],[10.5461,8.727],[10.5595,8.7315],[10.5753,8.7337],[10.5887,8.736],[10.609,8.736],[10.6202,8.7337],[10.6359,8.7293],[10.6606,8.7248],[10.6741,8.727],[10.6831,8.7248],[10.7033,8.7225],[10.7347,8.7248],[10.7639,8.7248],[10.7774,8.7315],[10.7886,8.7405],[10.7953,8.7427],[10.8245,8.7584],[10.8313,8.7607],[10.8403,8.7697],[10.8537,8.7809],[10.856,8.7832],[10.8829,8.8101],[10.8919,8.8258],[10.8987,8.8415],[10.9054,8.8573],[10.9099,8.8707],[10.9211,8.8999],[10.9278,8.9157],[10.9323,8.9314],[10.9368,8.9471],[10.9413,8.9628],[10.9503,8.9808],[10.9548,8.9898],[10.957,9.0032],[10.9638,9.0145],[10.9705,9.0257],[10.9817,9.0392],[11.0154,9.0841],[11.0222,9.0931],[11.0334,9.102],[11.0514,9.1133],[11.0581,9.1223],[11.0603,9.1223],[11.0648,9.1245],[11.0716,9.1268],[11.0828,9.1335],[11.0895,9.138],[11.0985,9.1447],[11.112,9.1559],[11.121,9.1627],[11.13,9.1672],[11.1547,9.1762],[11.1659,9.1806],[11.1749,9.1829],[11.1839,9.1829],[11.2086,9.1874],[11.2355,9.1964],[11.2512,9.2054],[11.2602,9.2098],[11.2692,9.2233],[11.2849,9.2413],[11.2917,9.2503],[11.3006,9.266],[11.3074,9.275],[11.3141,9.2817],[11.3276,9.2862],[11.3411,9.2952],[11.3635,9.3087],[11.386,9.3221],[11.3927,9.3289],[11.4017,9.3356],[11.4129,9.3446],[11.4287,9.3536],[11.4444,9.3648],[11.4489,9.3648],[11.4578,9.3693],[11.4691,9.376],[11.4803,9.3805],[11.5005,9.3918],[11.5162,9.4007],[11.5252,9.4075],[11.5162,9.4209],[11.5117,9.4277],[11.5073,9.4344],[11.4983,9.4412],[11.4938,9.4501],[11.4848,9.4636],[11.4781,9.4659],[11.4691,9.4771],[11.4578,9.4951],[11.4511,9.5063],[11.4421,9.5287],[11.4354,9.54],[11.4287,9.549],[11.4197,9.5467],[11.4062,9.5445],[11.3815,9.5467],[11.3748,9.5467],[11.368,9.5467],[11.3456,9.549],[11.3388,9.549],[11.3209,9.549],[11.2984,9.549],[11.2939,9.549],[11.2782,9.5467],[11.2692,9.549],[11.2557,9.5534],[11.2445,9.5624],[11.2265,9.5692],[11.222,9.5692],[11.2108,9.5647],[11.1996,9.5602],[11.1928,9.5579],[11.1816,9.5557],[11.1704,9.5534],[11.1614,9.5512],[11.1502,9.5512],[11.1389,9.5512],[11.1255,9.5512],[11.0985,9.5512],[11.0716,9.5512],[11.0626,9.5512],[11.0356,9.549],[11.0267,9.549],[11.0199,9.549],[11.0087,9.5512],[10.993,9.5602],[10.984,9.5647],[10.9795,9.5714],[10.9773,9.5737],[10.975,9.5939],[10.9728,9.5916],[10.9458,9.5939],[10.9323,9.5984],[10.9256,9.6006],[10.9144,9.6051],[10.9054,9.6073],[10.9009,9.6118],[10.8874,9.6163],[10.8762,9.6163],[10.856,9.6186],[10.838,9.6186],[10.8201,9.6163],[10.7998,9.6141],[10.7841,9.6118],[10.7796,9.6096],[10.7706,9.6051],[10.7617,9.5984],[10.7572,9.5916],[10.7504,9.5849],[10.7437,9.5804],[10.7302,9.5647],[10.7235,9.5624],[10.7167,9.5602],[10.71,9.5557],[10.7055,9.5512],[10.6853,9.5422],[10.6786,9.54],[10.6718,9.54],[10.6561,9.5445],[10.6247,9.5557],[10.609,9.5624],[10.6022,9.5624],[10.5887,9.5647],[10.5798,9.5602],[10.5685,9.5534],[10.5528,9.5422],[10.5483,9.5377],[10.5416,9.5332],[10.5371,9.5265],[10.5214,9.5175],[10.5169,9.5108],[10.5191,9.504],[10.5326,9.4928],[10.5483,9.4771],[10.5573,9.4726],[10.5663,9.4659],[10.5775,9.4456],[10.5798,9.4389],[10.5798,9.4187],[10.5775,9.4097],[10.5708,9.4007],[10.5685,9.4007],[10.564,9.3962],[10.5595,9.3895],[10.5595,9.3828],[10.564,9.3783],[10.5663,9.3715],[10.5618,9.3626],[10.5595,9.3513],[10.5708,9.3379],[10.573,9.3334],[10.5775,9.3334],[10.5798,9.3266],[10.582,9.3131],[10.5798,9.3064],[10.5775,9.2974],[10.5775,9.2907],[10.5798,9.2458],[10.5887,9.239],[10.5932,9.2323],[10.5977,9.2233],[10.5977,9.2098],[10.6,9.1964],[10.6112,9.1896],[10.6134,9.1829],[10.6112,9.1762],[10.6112,9.1672],[10.6134,9.1649],[10.6134,9.1492],[10.6179,9.1402],[10.6247,9.138],[10.6292,9.1335],[10.6337,9.1312],[10.6359,9.1268],[10.6359,9.12],[10.6337,9.111],[10.6247,9.102],[10.6247,9.0998],[10.6224,9.0931],[10.6269,9.0908],[10.6337,9.0863],[10.6381,9.0818],[10.6404,9.0729],[10.6381,9.0549],[10.6337,9.0437],[10.6292,9.0302],[10.6269,9.019],[10.6202,9.0077],[10.6134,9.0032],[10.6067,8.992],[10.6022,8.9853],[10.5977,8.9763],[10.5887,8.974],[10.5663,8.9695],[10.5551,8.9695],[10.5438,8.9695],[10.5393,8.9695],[10.5303,8.9695],[10.5191,8.9673],[10.5101,8.9695],[10.4989,8.9651],[10.4899,8.9651],[10.4697,8.9628],[10.463,8.9628],[10.445,8.9561],[10.427,8.9471],[10.4203,8.9448],[10.4068,8.9336],[10.4001,8.9269],[10.3889,8.9201],[10.3799,8.9134],[10.3754,8.9089],[10.3731,8.9044],[10.3687,8.9022],[10.3619,8.8954],[10.3574,8.8932],[10.3507,8.8887],[10.3417,8.8797],[10.335,8.8707],[10.3305,8.864],[10.326,8.8573],[10.3058,8.846],[10.299,8.8393],[10.2766,8.8258],[10.2676,8.8191],[10.2564,8.8146],[10.2496,8.8079],[10.2451,8.8034],[10.2496,8.8011]]]}},{"type":"Feature","properties":{"id":"taraba/kurmi","name":"Kurmi","state":"Taraba"},"geometry":{"type":"Polygon","coordinates":[[[10.1598,7.0382],[10.162,7.0382],[10.162,7.036],[10.162,7.0337],[10.162,7.0292],[10.1598,7.0247],[10.1576,7.0225],[10.1576,7.0202],[10.1598,7.0202],[10.171,7.0157],[10.1733,7.0157],[10.1755,7.0157],[10.1755,7.0135],[10.1755,7.0112],[10.1733,7.0112],[10.171,7.009],[10.1688,7.0068],[10.1665,7.0023],[10.1665,7.0],[10.1688,6.9955],[10.1688,6.991],[10.1733,6.9865],[10.1755,6.9865],[10.1778,6.9865],[10.18,6.9865],[10.18,6.9843],[10.1778,6.9843],[10.1778,6.9821],[10.1778,6.9798],[10.1778,6.9776],[10.1778,6.9731],[10.1778,6.9708],[10.18,6.9686],[10.18,6.9596],[10.1778,6.9529],[10.1733,6.9439],[10.1733,6.9416],[10.1778,6.9349],[10.1845,6.9282],[10.189,6.9214],[10.1957,6.9124],[10.2002,6.9057],[10.207,6.899],[10.2115,6.8922],[10.2159,6.8855],[10.2249,6.8855],[10.2339,6.8855],[10.2429,6.8832],[10.2519,6.8832],[10.2609,6.8832],[10.2698,6.8832],[10.2788,6.8832],[10.2878,6.881],[10.2968,6.881],[10.3058,6.881],[10.3148,6.881],[10.3237,6.881],[10.3327,6.8787],[10.3417,6.8787],[10.3507,6.8787],[10.3597,6.8787],[10.3687,6.8787],[10.3776,6.8765],[10.3866,6.8765],[10.3956,6.8765],[10.4046,6.8765],[10.4136,6.8765],[10.4203,6.8765],[10.4226,6.8765],[10.4226,6.8743],[10.427,6.8743],[10.4315,6.8743],[10.4405,6.8743],[10.4495,6.8743],[10.4585,6.8743],[10.4675,6.8743],[10.4765,6.872],[10.4854,6.872],[10.4944,6.872],[10.4944,6.8765],[10.4922,6.881],[10.4922,6.8855],[10.4922,6.89],[10.4899,6.8922],[10.4922,6.8967],[10.4922,6.9035],[10.4922,6.9079],[10.4944,6.9102],[10.4944,6.9124],[10.4944,6.9147],[10.4967,6.9147],[10.4967,6.9169],[10.4989,6.9169],[10.4989,6.9147],[10.5012,6.9147],[10.5012,6.9169],[10.5034,6.9169],[10.5056,6.9192],[10.5124,6.9214],[10.5169,6.9237],[10.5191,6.9237],[10.5214,6.9237],[10.5236,6.9237],[10.5259,6.9237],[10.5303,6.9259],[10.5303,6.9282],[10.5303,6.9304],[10.5326,6.9326],[10.5348,6.9371],[10.5348,6.9394],[10.5371,6.9394],[10.5393,6.9394],[10.5393,6.9371],[10.5416,6.9371],[10.5416,6.9394],[10.5416,6.9416],[10.5416,6.9439],[10.5416,6.9574],[10.5416,6.9596],[10.5438,6.9686],[10.5461,6.9731],[10.5483,6.9731],[10.5506,6.9753],[10.5506,6.9776],[10.5528,6.9776],[10.5528,6.9798],[10.5528,6.9865],[10.5528,6.9888],[10.5528,6.9933],[10.5551,6.9955],[10.5573,7.0045],[10.5551,7.0045],[10.5551,7.0068],[10.5551,7.0135],[10.5551,7.0157],[10.5573,7.018],[10.5595,7.0292],[10.5595,7.036],[10.5595,7.0382],[10.5595,7.0404],[10.5573,7.0427],[10.5573,7.0472],[10.5573,7.0539],[10.5595,7.0562],[10.5595,7.0607],[10.5595,7.0651],[10.5595,7.0674],[10.5595,7.0696],[10.5595,7.0764],[10.5595,7.0831],[10.5595,7.0854],[10.5618,7.0854],[10.5618,7.0876],[10.564,7.0876],[10.5618,7.0899],[10.5618,7.0921],[10.5618,7.0943],[10.564,7.0966],[10.564,7.1011],[10.564,7.1033],[10.564,7.1123],[10.564,7.119],[10.564,7.1213],[10.5663,7.1235],[10.5663,7.128],[10.5663,7.1348],[10.5663,7.1393],[10.5663,7.1415],[10.5663,7.1437],[10.5663,7.146],[10.5663,7.1482],[10.5663,7.1505],[10.5663,7.1527],[10.5685,7.155],[10.5685,7.1572],[10.5708,7.1595],[10.5708,7.1617],[10.5775,7.1595],[10.5798,7.1572],[10.582,7.1572],[10.582,7.155],[10.5842,7.1527],[10.5842,7.1505],[10.5865,7.1482],[10.5887,7.1482],[10.591,7.1482],[10.5932,7.1482],[10.5955,7.1482],[10.5955,7.146],[10.5977,7.1393],[10.6,7.1393],[10.6,7.1325],[10.6,7.1303],[10.6,7.128],[10.6,7.1258],[10.6,7.1235],[10.6,7.1213],[10.6,7.119],[10.6,7.1168],[10.6,7.1146],[10.6022,7.1123],[10.6045,7.1101],[10.6045,7.1078],[10.6067,7.1056],[10.6045,7.1056],[10.6045,7.1033],[10.6045,7.1011],[10.6045,7.0988],[10.6045,7.0966],[10.6045,7.0943],[10.6022,7.0943],[10.6022,7.0921],[10.6022,7.0899],[10.6022,7.0876],[10.6,7.0876],[10.6,7.0854],[10.5977,7.0854],[10.5977,7.0831],[10.5955,7.0786],[10.5955,7.0764],[10.5977,7.0764],[10.5977,7.0741],[10.6,7.0741],[10.6022,7.0719],[10.6045,7.0719],[10.6045,7.0696],[10.6067,7.0674],[10.609,7.0629],[10.6112,7.0629],[10.6157,7.0562],[10.6247,7.0494],[10.6269,7.0494],[10.6292,7.0494],[10.6314,7.0494],[10.6337,7.0472],[10.6359,7.0472],[10.6381,7.0472],[10.6404,7.0472],[10.6426,7.0472],[10.6426,7.0449],[10.6449,7.0449],[10.6471,7.0449],[10.6516,7.0427],[10.6539,7.0427],[10.6539,7.0449],[10.6561,7.0449],[10.6561,7.0472],[10.6561,7.0494],[10.6561,7.0517],[10.6584,7.0517],[10.6651,7.0472],[10.6718,7.0427],[10.6786,7.0404],[10.6786,7.0382],[10.6808,7.0382],[10.6808,7.036],[10.6786,7.0292],[10.6786,7.0247],[10.6786,7.0225],[10.6808,7.0225],[10.6831,7.0225],[10.6831,7.0202],[10.6831,7.018],[10.6831,7.0157],[10.6853,7.0157],[10.6876,7.0157],[10.6898,7.0157],[10.692,7.0157],[10.6988,7.0135],[10.701,7.0135],[10.7033,7.009],[10.7033,7.0068],[10.7055,7.0068],[10.7055,7.0045],[10.7078,7.0],[10.7078,6.9978],[10.71,6.9978],[10.7145,6.9955],[10.7167,6.9933],[10.7167,6.991],[10.719,6.991],[10.719,6.9888],[10.7212,6.9888],[10.728,6.9888],[10.7302,6.9888],[10.7325,6.991],[10.7347,6.991],[10.7392,6.9888],[10.7392,6.9865],[10.7392,6.9843],[10.7437,6.9798],[10.7459,6.9776],[10.7482,6.9753],[10.7482,6.9731],[10.7459,6.9708],[10.7482,6.9708],[10.7482,6.9686],[10.7504,6.9686],[10.7527,6.9663],[10.7549,6.9663],[10.7572,6.9641],[10.7594,6.9641],[10.7594,6.9618],[10.7617,6.9596],[10.7617,6.9574],[10.7639,6.9551],[10.7662,6.9551],[10.7684,6.9574],[10.7684,6.9596],[10.7706,6.9618],[10.7706,6.9641],[10.7751,6.9663],[10.7774,6.9663],[10.7796,6.9663],[10.7841,6.9663],[10.7841,6.9641],[10.7864,6.9641],[10.7864,6.9618],[10.7886,6.9596],[10.7909,6.9596],[10.7953,6.9618],[10.7976,6.9618],[10.7998,6.9618],[10.7998,6.9596],[10.8021,6.9574],[10.8066,6.9529],[10.8088,6.9506],[10.8111,6.9484],[10.8133,6.9484],[10.8156,6.9484],[10.8178,6.9461],[10.8201,6.9461],[10.8223,6.9461],[10.8268,6.9439],[10.8335,6.9394],[10.8358,6.9394],[10.8403,6.9506],[10.8515,6.9596],[10.8582,6.9663],[10.8672,6.9798],[10.8739,6.9865],[10.8919,7.0],[10.8987,7.0045],[10.9076,7.0112],[10.9211,7.0225],[10.9301,7.0315],[10.9368,7.0404],[10.9413,7.0494],[10.9503,7.0584],[10.9728,7.0854],[10.9773,7.0966],[10.984,7.1101],[10.9885,7.119],[10.9907,7.1303],[10.993,7.137],[10.9952,7.1572],[10.9975,7.1662],[10.9952,7.1774],[10.993,7.1887],[10.9975,7.2044],[10.9975,7.2179],[10.9975,7.2336],[10.9975,7.2471],[10.9952,7.2605],[10.9952,7.2785],[10.9885,7.292],[10.9817,7.3032],[10.9773,7.3099],[10.9728,7.3144],[10.9683,7.3212],[10.957,7.3391],[10.9548,7.3459],[10.9503,7.3548],[10.9458,7.3661],[10.9413,7.3751],[10.9278,7.4065],[10.9234,7.429],[10.9211,7.4447],[10.9211,7.4559],[10.9211,7.4626],[10.9211,7.4761],[10.9121,7.5008],[10.9099,7.5053],[10.9054,7.5165],[10.9009,7.5278],[10.8964,7.539],[10.8919,7.548],[10.8852,7.5547],[10.8739,7.566],[10.8515,7.5817],[10.847,7.5862],[10.8313,7.5996],[10.8245,7.6086],[10.8088,7.6266],[10.7931,7.6378],[10.7886,7.6401],[10.7864,7.6378],[10.7706,7.6243],[10.7662,7.6221],[10.7594,7.6198],[10.7549,7.6176],[10.7482,7.6131],[10.737,7.6019],[10.7212,7.5884],[10.7145,7.5839],[10.701,7.5704],[10.6943,7.5637],[10.6876,7.5547],[10.6786,7.548],[10.6539,7.5255],[10.6292,7.5031],[10.6224,7.4963],[10.6134,7.4873],[10.6067,7.4806],[10.591,7.4694],[10.573,7.4559],[10.5618,7.4492],[10.5506,7.4335],[10.5461,7.4267],[10.5393,7.4155],[10.5326,7.4087],[10.5259,7.402],[10.5214,7.3975],[10.5124,7.393],[10.5034,7.384],[10.4967,7.3773],[10.4899,7.3683],[10.4854,7.3593],[10.4809,7.3526],[10.472,7.3481],[10.4607,7.3459],[10.4383,7.3369],[10.4203,7.3189],[10.4181,7.3122],[10.4113,7.2875],[10.4091,7.2785],[10.4068,7.265],[10.4023,7.256],[10.3934,7.265],[10.3889,7.2628],[10.3821,7.2493],[10.3709,7.2493],[10.3574,7.2493],[10.3507,7.2493],[10.3417,7.256],[10.3327,7.256],[10.3237,7.2471],[10.3125,7.2493],[10.2901,7.2583],[10.2743,7.274],[10.2676,7.2785],[10.2631,7.2673],[10.2496,7.2605],[10.2384,7.2403],[10.2362,7.2224],[10.2339,7.2066],[10.2384,7.1819],[10.2362,7.164],[10.2317,7.1415],[10.2227,7.1146],[10.2137,7.0943],[10.2002,7.0741],[10.1553,7.0404],[10.1553,7.0382],[10.1598,7.0382]]]}},{"type":"Feature","properties":{"id":"taraba/lau","name":"Lau","state":"Taraba"},"geometry":{"type":"Polygon","coordinates":[[[11.0671,9.111],[11.0693,9.1065],[11.0738,9.102],[11.0806,9.0976],[11.0873,9.0908],[11.0918,9.0841],[11.0985,9.0751],[11.1053,9.0639],[11.112,9.0594],[11.1142,9.0571],[11.121,9.0526],[11.1255,9.0437],[11.1322,9.0392],[11.1502,9.0347],[11.1592,9.0302],[11.1794,9.0257],[11.2018,9.0167],[11.2175,9.0167],[11.2265,9.0145],[11.2423,9.0167],[11.2535,9.019],[11.2625,9.0234],[11.2714,9.0257],[11.2894,9.0212],[11.2939,9.0167],[11.2962,9.01],[11.3006,8.9965],[11.3074,8.992],[11.3141,8.992],[11.3209,8.9875],[11.3209,8.9853],[11.3298,8.9898],[11.3366,8.992],[11.3411,8.9943],[11.3478,8.9965],[11.35,8.9987],[11.3613,9.0167],[11.3658,9.0257],[11.368,9.0324],[11.3703,9.0369],[11.3837,9.0481],[11.395,9.0594],[11.4152,9.0706],[11.4219,9.0729],[11.4489,9.0773],[11.4646,9.0729],[11.4781,9.0706],[11.4915,9.0684],[11.5073,9.0661],[11.514,9.0684],[11.5207,9.0773],[11.5387,9.0886],[11.5544,9.102],[11.5656,9.111],[11.5814,9.1268],[11.5926,9.1335],[11.6038,9.1357],[11.6106,9.1357],[11.6308,9.1425],[11.6398,9.1425],[11.6465,9.1402],[11.6577,9.1425],[11.6689,9.1425],[11.6757,9.1447],[11.6824,9.147],[11.6959,9.1447],[11.6981,9.1447],[11.7004,9.1492],[11.7026,9.1604],[11.7026,9.1762],[11.7026,9.1806],[11.7004,9.1896],[11.6981,9.1986],[11.6981,9.2031],[11.7004,9.2098],[11.6937,9.2188],[11.6869,9.2301],[11.6779,9.2435],[11.6712,9.2525],[11.6667,9.266],[11.6622,9.2727],[11.66,9.2772],[11.6555,9.2862],[11.6532,9.2907],[11.651,9.2952],[11.6487,9.2974],[11.6487,9.3064],[11.6353,9.3221],[11.6285,9.3289],[11.6218,9.3379],[11.6128,9.3513],[11.6038,9.367],[11.6016,9.3715],[11.5971,9.3783],[11.5769,9.3805],[11.5567,9.3805],[11.5499,9.385],[11.5409,9.3918],[11.5364,9.3985],[11.5342,9.403],[11.5252,9.4075],[11.5162,9.4007],[11.5005,9.3918],[11.4803,9.3805],[11.4691,9.376],[11.4578,9.3693],[11.4489,9.3648],[11.4444,9.3648],[11.4287,9.3536],[11.4129,9.3446],[11.4017,9.3356],[11.3927,9.3289],[11.386,9.3221],[11.3635,9.3087],[11.3411,9.2952],[11.3276,9.2862],[11.3141,9.2817],[11.3074,9.275],[11.3006,9.266],[11.2917,9.2503],[11.2849,9.2413],[11.2692,9.2233],[11.2602,9.2098],[11.2512,9.2054],[11.2355,9.1964],[11.2086,9.1874],[11.1839,9.1829],[11.1749,9.1829],[11.1659,9.1806],[11.1547,9.1762],[11.13,9.1672],[11.121,9.1627],[11.112,9.1559],[11.0985,9.1447],[11.0895,9.138],[11.0828,9.1335],[11.0716,9.1268],[11.0648,9.1245],[11.0603,9.1223],[11.0671,9.111]]]}},{"type":"Feature","properties":{"id":"taraba/sardauna","name":"Sardauna","state":"Taraba"},"geometry":{"type":"Polygon","coordinates":[[[10.8156,6.854],[10.8156,6.8518],[10.8178,6.8518],[10.8201,6.8518],[10.8201,6.8496],[10.8178,6.8473],[10.8156,6.8451],[10.8156,6.8428],[10.8178,6.8428],[10.8201,6.8406],[10.8201,6.8383],[10.8223,6.8338],[10.8223,6.8316],[10.8223,6.8293],[10.8245,6.8293],[10.8245,6.8271],[10.8268,6.8271],[10.829,6.8226],[10.8335,6.8159],[10.8358,6.8159],[10.8358,6.8136],[10.838,6.8114],[10.8403,6.8114],[10.847,6.8091],[10.8492,6.8069],[10.8515,6.8091],[10.8537,6.8091],[10.856,6.8091],[10.8582,6.8069],[10.8605,6.8046],[10.8627,6.8046],[10.8627,6.8024],[10.865,6.8024],[10.8672,6.8024],[10.8695,6.8001],[10.8717,6.8001],[10.8762,6.7957],[10.8829,6.7844],[10.8852,6.7799],[10.8852,6.7777],[10.8852,6.7754],[10.8852,6.7732],[10.8874,6.771],[10.8919,6.7665],[10.8964,6.762],[10.8987,6.762],[10.8987,6.7642],[10.9009,6.7642],[10.9009,6.7665],[10.9009,6.7687],[10.9009,6.771],[10.9009,6.7732],[10.9031,6.7732],[10.9031,6.771],[10.9099,6.7665],[10.9121,6.7642],[10.9144,6.7575],[10.9144,6.753],[10.9121,6.7485],[10.9121,6.7463],[10.9121,6.744],[10.9099,6.7395],[10.9121,6.7373],[10.9121,6.735],[10.9121,6.7305],[10.9121,6.7283],[10.9121,6.726],[10.9121,6.7238],[10.9121,6.7215],[10.9144,6.7215],[10.9144,6.7193],[10.9166,6.7103],[10.9166,6.7081],[10.9189,6.7081],[10.9211,6.7058],[10.9256,6.7036],[10.9278,6.7036],[10.9278,6.7013],[10.9301,6.6991],[10.9323,6.6991],[10.9323,6.6968],[10.9391,6.6924],[10.9413,6.6924],[10.9413,6.6901],[10.9458,6.6879],[10.9481,6.6879],[10.9481,6.6901],[10.9481,6.6924],[10.9481,6.6946],[10.9503,6.6946],[10.9526,6.6924],[10.957,6.6924],[10.9593,6.6924],[10.9615,6.6924],[10.9638,6.6901],[10.966,6.6901],[10.966,6.6879],[10.9705,6.6879],[10.9728,6.6901],[10.975,6.6901],[10.975,6.6924],[10.9773,6.6901],[10.9795,6.6901],[10.9862,6.6879],[10.9862,6.6856],[10.9907,6.6879],[10.993,6.6879],[10.9975,6.6901],[10.9997,6.6924],[11.002,6.6924],[11.0042,6.6924],[11.0064,6.6946],[11.0087,6.6968],[11.0154,6.7013],[11.0177,6.7036],[11.0177,6.7058],[11.0199,6.7058],[11.0199,6.7081],[11.0222,6.7103],[11.0289,6.7148],[11.0334,6.7126],[11.0356,6.7126],[11.0356,6.7103],[11.0379,6.7103],[11.0401,6.7103],[11.0424,6.7103],[11.0446,6.7103],[11.0469,6.7081],[11.0491,6.7081],[11.0514,6.7081],[11.0536,6.7081],[11.0536,6.7103],[11.0536,6.7126],[11.0536,6.7148],[11.0559,6.7148],[11.0581,6.7148],[11.0603,6.7126],[11.0671,6.7081],[11.0693,6.7058],[11.0716,6.7036],[11.0738,6.6991],[11.0783,6.6946],[11.0828,6.6901],[11.0873,6.6856],[11.0895,6.6834],[11.0918,6.6811],[11.094,6.6811],[11.094,6.6789],[11.0963,6.6721],[11.0963,6.6699],[11.094,6.6676],[11.0918,6.6587],[11.0918,6.6542],[11.0918,6.6497],[11.0918,6.6429],[11.0918,6.6362],[11.0918,6.634],[11.0918,6.6227],[11.0918,6.6138],[11.0918,6.6115],[11.094,6.6048],[11.094,6.598],[11.094,6.5958],[11.094,6.5935],[11.0963,6.5913],[11.0963,6.5868],[11.0963,6.5823],[11.0963,6.5801],[11.094,6.5756],[11.094,6.5733],[11.094,6.5711],[11.094,6.5688],[11.0963,6.5666],[11.0963,6.5576],[11.0963,6.5509],[11.0963,6.5486],[11.0963,6.5374],[11.0963,6.5329],[11.0963,6.5307],[11.0963,6.5239],[11.0985,6.5194],[11.1008,6.5194],[11.103,6.5194],[11.1075,6.5172],[11.1098,6.5172],[11.112,6.5149],[11.1165,6.5149],[11.1232,6.5172],[11.1255,6.5194],[11.1277,6.5217],[11.1277,6.5239],[11.13,6.5284],[11.1322,6.5284],[11.1345,6.5307],[11.1367,6.5307],[11.1389,6.5307],[11.1389,6.5284],[11.1389,6.5262],[11.1389,6.5217],[11.1389,6.5194],[11.1389,6.5172],[11.1389,6.5127],[11.1389,6.5104],[11.1412,6.5082],[11.1434,6.506],[11.1457,6.506],[11.1479,6.5037],[11.1502,6.5037],[11.1569,6.5037],[11.1614,6.5015],[11.1681,6.4992],[11.1681,6.5037],[11.1726,6.5037],[11.1749,6.5037],[11.1794,6.506],[11.1839,6.5082],[11.1861,6.5082],[11.1884,6.5082],[11.1973,6.5104],[11.1996,6.5127],[11.1996,6.5149],[11.1996,6.5172],[11.1973,6.5194],[11.1973,6.5217],[11.1973,6.5239],[11.1973,6.5262],[11.1973,6.5284],[11.1951,6.5284],[11.1951,6.5307],[11.1951,6.5329],[11.1951,6.5351],[11.1951,6.5374],[11.1973,6.5374],[11.1996,6.5374],[11.2086,6.5351],[11.2108,6.5351],[11.2108,6.5374],[11.2131,6.5374],[11.2153,6.5374],[11.2175,6.5374],[11.222,6.5374],[11.2243,6.5351],[11.2243,6.5329],[11.2288,6.5329],[11.231,6.5329],[11.2355,6.5329],[11.2378,6.5307],[11.24,6.5307],[11.2467,6.5262],[11.249,6.5262],[11.249,6.5284],[11.2512,6.5284],[11.2535,6.5284],[11.2557,6.5284],[11.258,6.5284],[11.2602,6.5307],[11.2625,6.5329],[11.2647,6.5351],[11.2714,6.5374],[11.2782,6.5374],[11.2804,6.5374],[11.2827,6.5374],[11.2827,6.5351],[11.2827,6.5329],[11.2849,6.5329],[11.2849,6.5307],[11.2872,6.5307],[11.2894,6.5307],[11.2917,6.5307],[11.2939,6.5284],[11.2962,6.5284],[11.2984,6.5262],[11.3029,6.5217],[11.3051,6.5217],[11.3074,6.5172],[11.3096,6.5172],[11.3096,6.5149],[11.3119,6.5104],[11.3164,6.506],[11.3186,6.506],[11.3209,6.506],[11.3231,6.506],[11.3253,6.506],[11.3276,6.506],[11.3276,6.5037],[11.3298,6.5037],[11.3321,6.5037],[11.3343,6.506],[11.3343,6.5082],[11.3366,6.5082],[11.3388,6.5082],[11.3388,6.506],[11.3411,6.506],[11.3411,6.5037],[11.3411,6.5015],[11.3433,6.5015],[11.3456,6.5015],[11.35,6.4992],[11.3545,6.5015],[11.359,6.5015],[11.359,6.5037],[11.3568,6.506],[11.3545,6.5104],[11.3523,6.5104],[11.35,6.5104],[11.35,6.5127],[11.35,6.5149],[11.3523,6.5172],[11.3545,6.5239],[11.3568,6.5262],[11.3568,6.5239],[11.359,6.5239],[11.3613,6.5239],[11.3635,6.5239],[11.3635,6.5262],[11.3658,6.5262],[11.368,6.5262],[11.3703,6.5262],[11.3703,6.5239],[11.3725,6.5239],[11.377,6.5239],[11.3792,6.5239],[11.3815,6.5239],[11.3815,6.5262],[11.386,6.5284],[11.3882,6.5284],[11.3927,6.5307],[11.395,6.5307],[11.3995,6.5307],[11.3995,6.5284],[11.4017,6.5284],[11.4084,6.5307],[11.4107,6.5307],[11.4107,6.5329],[11.4129,6.5329],[11.4174,6.5307],[11.4242,6.5307],[11.4264,6.5307],[11.4264,6.5329],[11.4287,6.5329],[11.4264,6.5351],[11.4242,6.5351],[11.4219,6.5351],[11.4197,6.5351],[11.4197,6.5374],[11.4174,6.5374],[11.4174,6.5396],[11.4174,6.5419],[11.4197,6.5419],[11.4219,6.5419],[11.4242,6.5441],[11.4309,6.5441],[11.4309,6.5464],[11.4331,6.5464],[11.4331,6.5486],[11.4331,6.5531],[11.4331,6.5554],[11.4309,6.5554],[11.4287,6.5554],[11.4287,6.5576],[11.4287,6.5599],[11.4287,6.5643],[11.4287,6.5666],[11.4264,6.5711],[11.4264,6.5733],[11.4264,6.5778],[11.4242,6.5846],[11.4219,6.5868],[11.4197,6.5868],[11.4174,6.5868],[11.4174,6.589],[11.4152,6.589],[11.4152,6.5913],[11.4129,6.5913],[11.4129,6.5958],[11.4129,6.598],[11.4152,6.598],[11.4174,6.598],[11.4197,6.598],[11.4219,6.598],[11.4242,6.598],[11.4242,6.6003],[11.4264,6.6025],[11.4287,6.6025],[11.4309,6.6025],[11.4309,6.6003],[11.4331,6.6003],[11.4354,6.6003],[11.4376,6.6025],[11.4399,6.6025],[11.4421,6.6025],[11.4444,6.6025],[11.4444,6.6003],[11.4466,6.6003],[11.4489,6.6003],[11.4511,6.6025],[11.4511,6.6048],[11.4601,6.6115],[11.4623,6.6115],[11.4646,6.6093],[11.4668,6.607],[11.4691,6.6048],[11.4713,6.6048],[11.4713,6.6025],[11.4736,6.6025],[11.4758,6.6025],[11.4758,6.6048],[11.4781,6.6048],[11.4781,6.6025],[11.4803,6.6025],[11.4825,6.6003],[11.4825,6.598],[11.4848,6.598],[11.496,6.6003],[11.496,6.6025],[11.4983,6.6025],[11.5005,6.6048],[11.5028,6.6093],[11.505,6.6093],[11.5073,6.6115],[11.5073,6.6138],[11.5117,6.6182],[11.5162,6.625],[11.5185,6.6272],[11.5185,6.6295],[11.5207,6.6317],[11.5207,6.634],[11.523,6.634],[11.523,6.6362],[11.5252,6.6362],[11.523,6.6385],[11.523,6.6407],[11.523,6.6429],[11.5252,6.6452],[11.5275,6.6452],[11.5297,6.6452],[11.5342,6.6474],[11.5342,6.6497],[11.5342,6.6519],[11.532,6.6519],[11.532,6.6542],[11.532,6.6564],[11.5342,6.6564],[11.5409,6.6609],[11.5432,6.6609],[11.5454,6.6632],[11.5477,6.6632],[11.5499,6.6632],[11.5522,6.6632],[11.5544,6.6654],[11.5544,6.6676],[11.5544,6.6699],[11.5522,6.6721],[11.5499,6.6721],[11.5499,6.6744],[11.5477,6.6766],[11.5477,6.6789],[11.5499,6.6789],[11.5499,6.6811],[11.5522,6.6811],[11.5522,6.6834],[11.5522,6.6856],[11.5522,6.6879],[11.5499,6.6879],[11.5499,6.6901],[11.5477,6.6901],[11.5477,6.6924],[11.5477,6.6946],[11.5454,6.7013],[11.5477,6.7036],[11.5499,6.7058],[11.5499,6.7126],[11.5499,6.7148],[11.5522,6.7171],[11.5544,6.7215],[11.5567,6.7215],[11.5567,6.7238],[11.5589,6.7238],[11.5612,6.7238],[11.5634,6.7238],[11.5656,6.7238],[11.5679,6.7238],[11.5701,6.726],[11.5701,6.7283],[11.5701,6.7305],[11.5724,6.7305],[11.5724,6.7328],[11.5746,6.7328],[11.5769,6.7328],[11.5814,6.7328],[11.5836,6.7328],[11.5836,6.735],[11.5836,6.7373],[11.5859,6.7373],[11.5859,6.7395],[11.5836,6.744],[11.5814,6.7507],[11.5814,6.7552],[11.5791,6.7552],[11.5769,6.7597],[11.5746,6.7642],[11.5724,6.7665],[11.5701,6.771],[11.5701,6.7732],[11.5701,6.7754],[11.5701,6.7799],[11.5701,6.7822],[11.5724,6.7822],[11.5724,6.7844],[11.5746,6.7889],[11.5746,6.7912],[11.5769,6.7912],[11.5791,6.7934],[11.5836,6.7957],[11.5859,6.7957],[11.5881,6.7979],[11.5903,6.7979],[11.5903,6.8001],[11.5903,6.8024],[11.5903,6.8046],[11.5859,6.8091],[11.5859,6.8114],[11.5859,6.8136],[11.5814,6.8159],[11.5791,6.8159],[11.5791,6.8181],[11.5791,6.8204],[11.5791,6.8226],[11.5791,6.8249],[11.5791,6.8271],[11.5814,6.8271],[11.5814,6.8316],[11.5814,6.8338],[11.5791,6.8406],[11.5791,6.8428],[11.5769,6.8428],[11.5746,6.8428],[11.5746,6.8451],[11.5724,6.8451],[11.5724,6.8473],[11.5701,6.8473],[11.5701,6.8496],[11.5679,6.8496],[11.5656,6.8518],[11.5612,6.8518],[11.5612,6.8496],[11.5589,6.8496],[11.5589,6.8518],[11.5567,6.8518],[11.5544,6.8518],[11.5544,6.854],[11.5544,6.8585],[11.5567,6.8653],[11.5589,6.8653],[11.5612,6.8698],[11.5656,6.8743],[11.5656,6.8765],[11.5634,6.8787],[11.5634,6.881],[11.5634,6.8832],[11.5634,6.8855],[11.5656,6.8855],[11.5656,6.8877],[11.5679,6.8877],[11.5679,6.89],[11.5701,6.8922],[11.5724,6.8967],[11.5746,6.899],[11.5769,6.9035],[11.5814,6.9057],[11.5814,6.9079],[11.5836,6.9079],[11.5859,6.9079],[11.5926,6.9057],[11.5948,6.9057],[11.5993,6.9057],[11.5993,6.9079],[11.6038,6.9079],[11.6038,6.9102],[11.6083,6.9124],[11.6083,6.9147],[11.6083,6.9169],[11.6083,6.9192],[11.6083,6.9214],[11.6083,6.9237],[11.6061,6.9237],[11.6061,6.9259],[11.6038,6.9304],[11.6038,6.9326],[11.6038,6.9349],[11.6061,6.9371],[11.6106,6.9416],[11.615,6.9416],[11.615,6.9439],[11.6195,6.9461],[11.6218,6.9484],[11.624,6.9506],[11.624,6.9529],[11.624,6.9551],[11.6218,6.9596],[11.6218,6.9708],[11.6218,6.9731],[11.624,6.9776],[11.624,6.9798],[11.6308,6.9888],[11.6353,6.9888],[11.6487,6.9888],[11.651,6.9888],[11.6532,6.9888],[11.6555,6.9888],[11.6555,6.9865],[11.6577,6.9865],[11.6577,6.9888],[11.66,6.9888],[11.66,6.991],[11.6353,7.0023],[11.6263,7.009],[11.6195,7.0135],[11.6083,7.0292],[11.5993,7.0427],[11.5948,7.0494],[11.5836,7.0629],[11.5589,7.0719],[11.5499,7.0764],[11.5342,7.0786],[11.5252,7.0786],[11.5073,7.0786],[11.496,7.0764],[11.4848,7.0741],[11.4758,7.0719],[11.4668,7.0696],[11.4578,7.0674],[11.4376,7.0651],[11.4152,7.0607],[11.3995,7.0562],[11.3927,7.0562],[11.3837,7.0517],[11.3658,7.0427],[11.3343,7.0337],[11.3186,7.036],[11.3029,7.0382],[11.2917,7.0449],[11.2759,7.0584],[11.2714,7.0629],[11.2692,7.0696],[11.2602,7.0786],[11.2535,7.0854],[11.2445,7.0921],[11.2355,7.0988],[11.2198,7.1146],[11.2153,7.1235],[11.2108,7.1303],[11.1973,7.137],[11.1861,7.1437],[11.1794,7.1505],[11.1726,7.1595],[11.1637,7.1662],[11.1569,7.1707],[11.1479,7.1819],[11.1389,7.1887],[11.1345,7.1954],[11.13,7.2089],[11.1322,7.2246],[11.1345,7.2426],[11.1367,7.2515],[11.1367,7.2583],[11.1367,7.2673],[11.1367,7.274],[11.1367,7.2785],[11.1367,7.2942],[11.1322,7.301],[11.1277,7.3167],[11.1232,7.3301],[11.1232,7.3369],[11.1142,7.3436],[11.103,7.3526],[11.0828,7.3593],[11.0761,7.3593],[11.0693,7.3593],[11.0559,7.3481],[11.0491,7.3436],[11.0446,7.3414],[11.0334,7.3324],[11.0312,7.3279],[11.0244,7.3212],[11.0109,7.3144],[10.9997,7.3099],[10.9907,7.3077],[10.984,7.3077],[10.9773,7.3099],[10.9817,7.3032],[10.9885,7.292],[10.9952,7.2785],[10.9952,7.2605],[10.9975,7.2471],[10.9975,7.2336],[10.9975,7.2179],[10.9975,7.2044],[10.993,7.1887],[10.9952,7.1774],[10.9975,7.1662],[10.9952,7.1572],[10.993,7.137],[10.9907,7.1303],[10.9885,7.119],[10.984,7.1101],[10.9773,7.0966],[10.9728,7.0854],[10.9503,7.0584],[10.9413,7.0494],[10.9368,7.0404],[10.9301,7.0315],[10.9211,7.0225],[10.9076,7.0112],[10.8987,7.0045],[10.8919,7.0],[10.8739,6.9865],[10.8672,6.9798],[10.8582,6.9663],[10.8515,6.9596],[10.8403,6.9506],[10.8358,6.9394],[10.838,6.9394],[10.838,6.9371],[10.8403,6.9326],[10.8403,6.9304],[10.8403,6.9259],[10.8403,6.9237],[10.8403,6.9214],[10.838,6.9214],[10.8358,6.9192],[10.8358,6.9169],[10.8358,6.9147],[10.8335,6.9079],[10.8313,6.9012],[10.8313,6.899],[10.8268,6.8922],[10.8268,6.89],[10.8245,6.8877],[10.8245,6.8855],[10.8245,6.8832],[10.8245,6.881],[10.8223,6.8787],[10.8223,6.8765],[10.8201,6.8743],[10.8201,6.872],[10.8223,6.8698],[10.8223,6.8675],[10.8223,6.8653],[10.8201,6.8653],[10.8178,6.8653],[10.8178,6.863],[10.8133,6.8563],[10.8133,6.854],[10.8156,6.854]]]}},{"type":"Feature","properties":{"id":"taraba/takum","name":"Takum","state":"Taraba"},"geometry":{"type":"Polygon","coordinates":[[[9.6051,6.5284],[9.6073,6.5262],[9.6096,6.5262],[9.6096,6.5239],[9.6118,6.5239],[9.6141,6.5239],[9.6163,6.5239],[9.6186,6.5239],[9.6208,6.5239],[9.6231,6.5239],[9.6253,6.5239],[9.6253,6.5217],[9.6276,6.5217],[9.6298,6.5194],[9.632,6.5194],[9.6343,6.5194],[9.6365,6.5217],[9.641,6.5217],[9.6433,6.5217],[9.6455,6.5217],[9.6478,6.5217],[9.6478,6.5239],[9.65,6.5239],[9.65,6.5262],[9.65,6.5284],[9.65,6.5307],[9.6523,6.5284],[9.6545,6.5262],[9.6545,6.5239],[9.6545,6.5217],[9.6567,6.5217],[9.6567,6.5194],[9.659,6.5194],[9.6612,6.5194],[9.6612,6.5172],[9.6612,6.5149],[9.6635,6.5127],[9.6635,6.5104],[9.6657,6.5104],[9.668,6.5104],[9.6702,6.5104],[9.6725,6.5104],[9.6725,6.5127],[9.6747,6.5127],[9.677,6.5127],[9.6792,6.5127],[9.6815,6.5104],[9.6859,6.5127],[9.6882,6.5127],[9.6882,6.5149],[9.6904,6.5149],[9.6927,6.5149],[9.6927,6.5127],[9.6949,6.5104],[9.6972,6.5104],[9.6972,6.5082],[9.6994,6.5082],[9.7039,6.5104],[9.7062,6.5127],[9.7084,6.5172],[9.7084,6.5194],[9.7084,6.5217],[9.7084,6.5239],[9.7084,6.5284],[9.7106,6.5329],[9.7106,6.5374],[9.7129,6.5396],[9.7129,6.5419],[9.7129,6.5441],[9.7129,6.5464],[9.7151,6.5464],[9.7151,6.5486],[9.7151,6.5509],[9.7151,6.5531],[9.7151,6.5554],[9.7174,6.5599],[9.7196,6.5643],[9.7196,6.5666],[9.7196,6.5688],[9.7196,6.5711],[9.7219,6.5733],[9.7219,6.5756],[9.7219,6.5778],[9.7241,6.5846],[9.7264,6.5913],[9.7264,6.5935],[9.7264,6.5958],[9.7286,6.5958],[9.7286,6.598],[9.7309,6.6003],[9.7309,6.6048],[9.7309,6.607],[9.7309,6.6093],[9.7331,6.6115],[9.7331,6.6138],[9.7354,6.6138],[9.7376,6.6205],[9.7398,6.6227],[9.7398,6.625],[9.7398,6.6272],[9.7398,6.6295],[9.7421,6.6317],[9.7421,6.6362],[9.7443,6.6407],[9.7466,6.6452],[9.7443,6.6452],[9.7443,6.6474],[9.7466,6.6497],[9.7488,6.6497],[9.7511,6.6519],[9.7533,6.6542],[9.7533,6.6564],[9.7533,6.6609],[9.7533,6.6632],[9.7533,6.6654],[9.7533,6.6676],[9.7533,6.6699],[9.7533,6.6721],[9.7533,6.6744],[9.7511,6.6766],[9.7511,6.6789],[9.7533,6.6789],[9.7556,6.6789],[9.7601,6.6789],[9.7623,6.6789],[9.7645,6.6789],[9.7668,6.6856],[9.7645,6.6901],[9.7645,6.6924],[9.7623,6.6924],[9.7601,6.6924],[9.7578,6.6946],[9.7556,6.6946],[9.7578,6.6968],[9.7578,6.6991],[9.7601,6.6991],[9.7601,6.7013],[9.7601,6.7036],[9.7601,6.7058],[9.7623,6.7081],[9.7623,6.7103],[9.7623,6.7126],[9.7601,6.7148],[9.7601,6.7171],[9.7623,6.7193],[9.7645,6.7238],[9.7645,6.7305],[9.7668,6.7305],[9.7668,6.7328],[9.7645,6.735],[9.7645,6.7373],[9.7645,6.7395],[9.7668,6.7395],[9.7668,6.7418],[9.769,6.7485],[9.769,6.7507],[9.769,6.753],[9.769,6.7552],[9.769,6.7575],[9.7668,6.7575],[9.7645,6.7575],[9.7645,6.7597],[9.7645,6.762],[9.7668,6.762],[9.769,6.7665],[9.7713,6.7665],[9.7713,6.7687],[9.7713,6.771],[9.7713,6.7754],[9.7735,6.7799],[9.7735,6.7822],[9.7735,6.7844],[9.7758,6.7889],[9.778,6.7934],[9.7803,6.7957],[9.7803,6.7934],[9.7825,6.7934],[9.7825,6.7912],[9.7848,6.7912],[9.7848,6.7889],[9.787,6.7889],[9.7892,6.7889],[9.7915,6.7889],[9.7937,6.7889],[9.7937,6.7867],[9.7982,6.7844],[9.8005,6.7844],[9.8027,6.7844],[9.8027,6.7867],[9.8027,6.7889],[9.805,6.7889],[9.805,6.7912],[9.8072,6.7912],[9.8072,6.7889],[9.8095,6.7867],[9.8117,6.7844],[9.814,6.7822],[9.8162,6.7822],[9.8162,6.7844],[9.8162,6.7889],[9.8117,6.8024],[9.8027,6.8181],[9.8072,6.8585],[9.8162,6.872],[9.8274,6.89],[9.8342,6.9259],[9.8521,6.9821],[9.8611,7.0068],[9.8679,7.0404],[9.8723,7.0607],[9.8813,7.0876],[9.8948,7.1168],[9.9105,7.1437],[9.9352,7.1662],[9.9712,7.1932],[9.9959,7.2179],[10.0228,7.2358],[10.052,7.2448],[10.0857,7.2493],[10.1149,7.256],[10.1396,7.283],[10.162,7.3234],[10.1778,7.3414],[10.1845,7.3638],[10.2159,7.3953],[10.2249,7.411],[10.2429,7.4222],[10.2451,7.4245],[10.2474,7.4335],[10.2272,7.4492],[10.2227,7.4514],[10.18,7.4784],[10.1531,7.4963],[10.1418,7.5053],[10.1306,7.5143],[10.1149,7.5255],[10.0857,7.5457],[10.0677,7.5592],[10.0542,7.566],[10.0295,7.5794],[10.0161,7.5862],[10.0004,7.5907],[9.9779,7.5974],[9.9667,7.5996],[9.9509,7.6019],[9.9307,7.6041],[9.9128,7.6064],[9.9038,7.6086],[9.8836,7.6019],[9.8701,7.5974],[9.8544,7.5884],[9.8409,7.5794],[9.8454,7.5749],[9.8701,7.5412],[9.8836,7.5076],[9.8881,7.4626],[9.8836,7.4132],[9.8656,7.3638],[9.8566,7.3257],[9.8409,7.2807],[9.8274,7.2583],[9.8252,7.2538],[9.8297,7.2358],[9.8342,7.2179],[9.8342,7.1999],[9.8229,7.1729],[9.7623,7.1011],[9.7376,7.0786],[9.6994,7.0112],[9.6882,6.9865],[9.6635,6.9349],[9.6455,6.8945],[9.641,6.8675],[9.6433,6.8428],[9.6478,6.8001],[9.6455,6.7395],[9.6365,6.7126],[9.6231,6.6632],[9.6073,6.5711],[9.6029,6.5374],[9.6029,6.5307],[9.6029,6.5284],[9.6051,6.5284]]]}},{"type":"Feature","properties":{"id":"taraba/ussa","name":"Ussa","state":"Taraba"},"geometry":{"type":"Polygon","coordinates":[[[9.8117,6.8024],[9.8162,6.7889],[9.8162,6.7844],[9.8162,6.7822],[9.8184,6.7822],[9.8252,6.7822],[9.8297,6.7822],[9.8364,6.7822],[9.8409,6.7799],[9.8454,6.7799],[9.8499,6.7799],[9.8521,6.7799],[9.8589,6.7777],[9.8611,6.7777],[9.8634,6.7732],[9.8656,6.771],[9.8679,6.7732],[9.8723,6.7777],[9.8881,6.7934],[9.8903,6.7979],[9.8926,6.8001],[9.897,6.8046],[9.9038,6.8114],[9.9083,6.8159],[9.915,6.8204],[9.9195,6.8249],[9.9262,6.8293],[9.9262,6.8316],[9.9285,6.8316],[9.9307,6.8338],[9.9352,6.8383],[9.9397,6.8428],[9.9397,6.8451],[9.9442,6.8496],[9.9509,6.8563],[9.9554,6.8608],[9.9599,6.8675],[9.9667,6.872],[9.9712,6.8765],[9.9779,6.8832],[9.9846,6.8877],[9.9891,6.8945],[9.9959,6.899],[10.0026,6.9012],[10.0071,6.9012],[10.0138,6.9035],[10.0183,6.9079],[10.0228,6.9147],[10.0273,6.9192],[10.034,6.9259],[10.0408,6.9304],[10.0453,6.9371],[10.0475,6.9394],[10.0498,6.9394],[10.0655,6.9551],[10.07,6.9596],[10.0745,6.9663],[10.0767,6.9663],[10.0812,6.9708],[10.0857,6.9753],[10.0902,6.9821],[10.0969,6.9865],[10.1014,6.991],[10.1059,6.9955],[10.1171,7.0068],[10.1239,7.0112],[10.1306,7.018],[10.1351,7.0225],[10.1396,7.0247],[10.1463,7.0337],[10.1508,7.036],[10.1508,7.0382],[10.1531,7.0382],[10.1553,7.0382],[10.1553,7.0404],[10.2002,7.0741],[10.2137,7.0943],[10.2227,7.1146],[10.2317,7.1415],[10.2362,7.164],[10.2384,7.1819],[10.2339,7.2066],[10.2362,7.2224],[10.2384,7.2403],[10.2496,7.2605],[10.2631,7.2673],[10.2676,7.2785],[10.2653,7.283],[10.2564,7.3054],[10.2496,7.3167],[10.2317,7.3459],[10.2294,7.3616],[10.2362,7.3751],[10.2384,7.3863],[10.2451,7.393],[10.2519,7.393],[10.2541,7.3975],[10.2496,7.402],[10.2451,7.411],[10.2451,7.42],[10.2429,7.4222],[10.2249,7.411],[10.2159,7.3953],[10.1845,7.3638],[10.1778,7.3414],[10.162,7.3234],[10.1396,7.283],[10.1149,7.256],[10.0857,7.2493],[10.052,7.2448],[10.0228,7.2358],[9.9959,7.2179],[9.9712,7.1932],[9.9352,7.1662],[9.9105,7.1437],[9.8948,7.1168],[9.8813,7.0876],[9.8723,7.0607],[9.8679,7.0404],[9.8611,7.0068],[9.8521,6.9821],[9.8342,6.9259],[9.8274,6.89],[9.8162,6.872],[9.8072,6.8585],[9.8027,6.8181],[9.8117,6.8024]]]}},{"type":"Feature","properties":{"id":"taraba/wukari","name":"Wukari","state":"Taraba"},"geometry":{"type":"Polygon","coordinates":[[[9.12,7.7928],[9.1312,7.7883],[9.1559,7.7973],[9.1896,7.8107],[9.2256,7.8175],[9.2727,7.822],[9.3154,7.8354],[9.3783,7.8444],[9.3873,7.8444],[9.4995,7.8422],[9.5624,7.8377],[9.6006,7.8287],[9.6433,7.7995],[9.6702,7.7636],[9.7017,7.7097],[9.7466,7.6558],[9.7982,7.6154],[9.8117,7.6311],[9.8162,7.6333],[9.8342,7.6468],[9.8387,7.6535],[9.8454,7.6625],[9.8544,7.6737],[9.8589,7.6805],[9.8656,7.6872],[9.8813,7.6985],[9.8881,7.7029],[9.9217,7.7254],[9.9262,7.7254],[9.9352,7.7276],[9.9487,7.7321],[9.9509,7.7321],[9.9622,7.7434],[9.9756,7.7613],[9.9801,7.7703],[9.9936,7.7838],[10.0004,7.7928],[10.0273,7.8197],[10.0722,7.8579],[10.0879,7.8669],[10.1126,7.8826],[10.1171,7.8893],[10.1306,7.9006],[10.1351,7.9073],[10.1486,7.9208],[10.1598,7.9343],[10.1688,7.9477],[10.18,7.9657],[10.1867,7.9747],[10.1912,7.9837],[10.198,7.9926],[10.2047,8.0039],[10.2294,8.0331],[10.2384,8.0421],[10.2429,8.0465],[10.2721,8.0668],[10.2811,8.069],[10.2878,8.0712],[10.3148,8.0757],[10.3305,8.0825],[10.3305,8.0892],[10.3327,8.0982],[10.3327,8.1207],[10.3327,8.1341],[10.3305,8.1543],[10.3305,8.1588],[10.3282,8.1678],[10.326,8.1858],[10.3237,8.188],[10.317,8.1993],[10.3125,8.2105],[10.2968,8.2374],[10.2923,8.2397],[10.2743,8.2509],[10.2519,8.2554],[10.2474,8.2576],[10.2159,8.2576],[10.207,8.2576],[10.2002,8.2554],[10.198,8.2554],[10.1463,8.2374],[10.1014,8.2352],[10.061,8.2352],[10.0565,8.2352],[10.0318,8.2374],[10.0295,8.2419],[10.0228,8.2464],[10.0206,8.2509],[10.0116,8.2576],[9.9734,8.2958],[9.9712,8.2958],[9.9397,8.2823],[9.9195,8.2689],[9.8993,8.2554],[9.8858,8.2307],[9.8679,8.1813],[9.8364,8.1162],[9.8207,8.1027],[9.8095,8.0959],[9.805,8.0915],[9.7758,8.0847],[9.7668,8.0825],[9.7578,8.0825],[9.7264,8.0825],[9.7129,8.0892],[9.6927,8.0937],[9.65,8.1049],[9.632,8.1072],[9.6186,8.1049],[9.6073,8.1049],[9.5624,8.1004],[9.5377,8.0915],[9.5243,8.078],[9.4906,8.0712],[9.4704,8.06],[9.4344,8.0398],[9.3985,8.0263],[9.385,8.0196],[9.3581,7.9994],[9.3356,7.9859],[9.3064,7.9679],[9.2817,7.9567],[9.2503,7.9455],[9.2211,7.9275],[9.1784,7.9073],[9.1806,7.9028],[9.1829,7.8961],[9.1829,7.8916],[9.1784,7.8893],[9.1739,7.8871],[9.1717,7.8871],[9.1694,7.8826],[9.1627,7.8691],[9.1492,7.8601],[9.1402,7.8489],[9.1245,7.8265],[9.1155,7.8085],[9.12,7.7928]]]}},{"type":"Feature","properties":{"id":"taraba/yorro","name":"Yorro","state":"Taraba"},"geometry":{"type":"Polygon","coordinates":[[[11.3231,8.9808],[11.3253,8.9718],[11.3343,8.9583],[11.3366,8.9516],[11.3388,8.9404],[11.3433,8.9336],[11.3523,8.9269],[11.359,8.9224],[11.3703,8.9134],[11.3748,8.9067],[11.3815,8.8977],[11.3882,8.8842],[11.3972,8.8707],[11.4107,8.8528],[11.4197,8.8415],[11.4331,8.8303],[11.4399,8.8213],[11.4421,8.8168],[11.4466,8.8079],[11.4556,8.7966],[11.4578,8.7876],[11.4646,8.7809],[11.4691,8.7629],[11.4736,8.7517],[11.4781,8.745],[11.487,8.7382],[11.4893,8.7337],[11.496,8.7203],[11.5028,8.7113],[11.5185,8.6933],[11.5252,8.6798],[11.532,8.6664],[11.5387,8.6664],[11.5544,8.6686],[11.5634,8.6709],[11.5679,8.6709],[11.5769,8.6731],[11.5948,8.6776],[11.6083,8.6776],[11.6173,8.6754],[11.6375,8.6731],[11.6465,8.6709],[11.6757,8.6574],[11.6981,8.6462],[11.7071,8.6372],[11.7251,8.6282],[11.7498,8.6192],[11.779,8.6102],[11.7812,8.617],[11.7835,8.6304],[11.788,8.6417],[11.7902,8.6439],[11.761,8.6664],[11.752,8.6731],[11.7318,8.6821],[11.7206,8.6956],[11.7116,8.7001],[11.7026,8.7068],[11.6937,8.718],[11.6779,8.7427],[11.6689,8.7584],[11.6645,8.7652],[11.6622,8.7697],[11.6622,8.7764],[11.6532,8.7876],[11.6465,8.7989],[11.6353,8.8168],[11.6308,8.8281],[11.6353,8.837],[11.633,8.8483],[11.6308,8.8595],[11.6285,8.8685],[11.6263,8.8752],[11.6195,8.8865],[11.6106,8.8932],[11.6061,8.8977],[11.5993,8.9044],[11.5903,8.9112],[11.5859,8.9179],[11.5859,8.9246],[11.5791,8.9381],[11.5656,8.9516],[11.5589,8.9583],[11.5567,8.9673],[11.5567,8.974],[11.5679,8.9898],[11.5746,8.9943],[11.5836,8.9987],[11.5926,9.001],[11.5993,9.0055],[11.6106,9.0122],[11.6308,9.0212],[11.6398,9.0234],[11.651,9.0257],[11.6577,9.0279],[11.6712,9.0369],[11.6847,9.0459],[11.6937,9.0526],[11.7094,9.0706],[11.7071,9.0751],[11.6981,9.0953],[11.6959,9.1065],[11.6959,9.1133],[11.6959,9.12],[11.6959,9.1268],[11.6959,9.1335],[11.6981,9.1447],[11.6959,9.1447],[11.6824,9.147],[11.6757,9.1447],[11.6689,9.1425],[11.6577,9.1425],[11.6465,9.1402],[11.6398,9.1425],[11.6308,9.1425],[11.6106,9.1357],[11.6038,9.1357],[11.5926,9.1335],[11.5814,9.1268],[11.5656,9.111],[11.5544,9.102],[11.5387,9.0886],[11.5207,9.0773],[11.514,9.0684],[11.5073,9.0661],[11.4915,9.0684],[11.4781,9.0706],[11.4646,9.0729],[11.4489,9.0773],[11.4219,9.0729],[11.4152,9.0706],[11.395,9.0594],[11.3837,9.0481],[11.3703,9.0369],[11.368,9.0324],[11.3658,9.0257],[11.3613,9.0167],[11.35,8.9987],[11.3478,8.9965],[11.3411,8.9943],[11.3366,8.992],[11.3298,8.9898],[11.3209,8.9853],[11.3231,8.9808]]]}},{"type":"Feature","properties":{"id":"taraba/zing","name":"Zing","state":"Taraba"},"geometry":{"type":"Polygon","coordinates":[[[11.5589,8.9583],[11.5656,8.9516],[11.5791,8.9381],[11.5859,8.9246],[11.5859,8.9179],[11.5903,8.9112],[11.5993,8.9044],[11.6061,8.8977],[11.6106,8.8932],[11.6195,8.8865],[11.6263,8.8752],[11.6285,8.8685],[11.6308,8.8595],[11.633,8.8483],[11.6353,8.837],[11.6308,8.8281],[11.6353,8.8168],[11.6465,8.7989],[11.6532,8.7876],[11.6622,8.7764],[11.6622,8.7697],[11.6645,8.7652],[11.6689,8.7584],[11.6779,8.7427],[11.6937,8.718],[11.7026,8.7068],[11.7116,8.7001],[11.7206,8.6956],[11.7318,8.6821],[11.752,8.6731],[11.761,8.6664],[11.7902,8.6439],[11.7902,8.6507],[11.797,8.6641],[11.8104,8.6798],[11.8127,8.6888],[11.8172,8.7023],[11.8261,8.7203],[11.8284,8.727],[11.8306,8.7405],[11.8621,8.8034],[11.8733,8.8146],[11.8778,8.8213],[11.8913,8.8438],[11.9003,8.8573],[11.9025,8.8707],[11.9025,8.8909],[11.9025,8.9022],[11.9003,8.9157],[11.898,8.9269],[11.8958,8.9336],[11.8935,8.9448],[11.8845,8.9561],[11.88,8.9673],[11.8756,8.9763],[11.8643,8.992],[11.8576,9.0032],[11.8486,9.0055],[11.8441,9.0055],[11.8306,9.0077],[11.8194,9.0122],[11.8037,9.0145],[11.7925,9.019],[11.7767,9.0279],[11.7678,9.0347],[11.7588,9.0437],[11.752,9.0504],[11.7498,9.0504],[11.7431,9.0526],[11.7341,9.0526],[11.7296,9.0616],[11.7228,9.0639],[11.7161,9.0684],[11.7094,9.0706],[11.6937,9.0526],[11.6847,9.0459],[11.6712,9.0369],[11.6577,9.0279],[11.651,9.0257],[11.6398,9.0234],[11.6308,9.0212],[11.6106,9.0122],[11.5993,9.0055],[11.5926,9.001],[11.5836,8.9987],[11.5746,8.9943],[11.5679,8.9898],[11.5567,8.974],[11.5567,8.9673],[11.5589,8.9583]]]}}]}