{"type":"FeatureCollection","features":[{"type":"Feature","properties":{"id":"yobe/bade","name":"Bade","state":"Yobe"},"geometry":{"type":"MultiPolygon","coordinates":[[[[10.9952,12.6526],[10.9952,12.6481],[11.0064,12.6324],[11.0154,12.6211],[11.0222,12.6099],[11.0267,12.6054],[11.0379,12.583],[11.0469,12.5672],[11.0536,12.5493],[11.0648,12.5291],[11.0716,12.5134],[11.0716,12.5089],[11.0806,12.5044],[11.0828,12.5021],[11.0895,12.4976],[11.1053,12.4931],[11.1232,12.4931],[11.1322,12.4931],[11.1389,12.4931],[11.1547,12.4954],[11.1592,12.4976],[11.1659,12.4976],[11.1726,12.4976],[11.1816,12.4976],[11.1884,12.4976],[11.1884,12.4999],[11.1884,12.5066],[11.1861,12.5156],[11.1816,12.5268],[11.1771,12.5291],[11.1681,12.5538],[11.1637,12.5628],[11.1592,12.5807],[11.1569,12.5897],[11.1547,12.5942],[11.1547,12.6032],[11.1569,12.6099],[11.1547,12.6211],[11.1547,12.6279],[11.1524,12.6346],[11.1502,12.6414],[11.1479,12.6459],[11.1434,12.6526],[11.1389,12.6548],[11.1367,12.6593],[11.1345,12.6661],[11.1255,12.6795],[11.1098,12.6953],[11.0963,12.702],[11.0895,12.7065],[11.0806,12.7132],[11.0648,12.7289],[11.0536,12.7379],[11.0514,12.7424],[11.0491,12.7447],[11.0401,12.7581],[11.0379,12.7604],[11.0379,12.7671],[11.0334,12.7626],[11.0289,12.7581],[11.0199,12.7469],[11.0132,12.7379],[11.0109,12.7312],[11.002,12.702],[10.9975,12.6908],[10.9952,12.6818],[10.993,12.6683],[10.993,12.6638],[10.9952,12.6526]]],[[[10.573,12.7986],[10.5775,12.7918],[10.5775,12.7828],[10.5753,12.7716],[10.573,12.7649],[10.5753,12.7536],[10.5775,12.7469],[10.5865,12.7357],[10.5932,12.72],[10.5977,12.7132],[10.6,12.7042],[10.6,12.702],[10.6,12.693],[10.6022,12.693],[10.609,12.6975],[10.6157,12.702],[10.6179,12.7065],[10.6247,12.7132],[10.6337,12.7245],[10.6359,12.7267],[10.6449,12.7357],[10.6494,12.7402],[10.6561,12.7469],[10.6606,12.7492],[10.6718,12.7536],[10.6786,12.7559],[10.6831,12.7559],[10.6876,12.7559],[10.692,12.7559],[10.701,12.7581],[10.7055,12.7581],[10.7167,12.7604],[10.719,12.7626],[10.7235,12.7649],[10.7325,12.7671],[10.737,12.7694],[10.7482,12.7716],[10.7527,12.7716],[10.7662,12.7761],[10.7706,12.7784],[10.7774,12.7806],[10.7819,12.7851],[10.7976,12.7918],[10.8223,12.7986],[10.829,12.8008],[10.8358,12.8031],[10.8425,12.8075],[10.8492,12.812],[10.8515,12.8143],[10.8605,12.8165],[10.865,12.8188],[10.8829,12.821],[10.8964,12.8255],[10.9009,12.8255],[10.9166,12.8278],[10.9301,12.83],[10.9391,12.83],[10.9593,12.8322],[10.9683,12.8322],[10.9862,12.83],[11.0064,12.8278],[11.0222,12.8278],[11.0267,12.8278],[11.0289,12.8278],[11.0356,12.8278],[11.0379,12.8278],[11.0424,12.8255],[11.0469,12.8255],[11.0514,12.8278],[11.0559,12.8322],[11.0626,12.8435],[11.0648,12.848],[11.0648,12.8525],[11.0626,12.857],[11.0626,12.8659],[11.0536,12.8727],[11.0514,12.8727],[11.0469,12.8749],[11.0424,12.8749],[11.0379,12.8727],[11.0244,12.8682],[11.0199,12.8682],[11.0154,12.8659],[11.0087,12.8659],[10.993,12.8682],[10.9885,12.8682],[10.984,12.8704],[10.9795,12.8704],[10.966,12.8682],[10.9548,12.8659],[10.9458,12.8682],[10.9391,12.8682],[10.9278,12.8682],[10.8964,12.8682],[10.8874,12.8682],[10.8762,12.8727],[10.8672,12.8749],[10.8605,12.8749],[10.8448,12.8727],[10.8313,12.8704],[10.8245,12.8682],[10.8223,12.8682],[10.8088,12.8704],[10.8043,12.8727],[10.7976,12.8749],[10.7909,12.8749],[10.7751,12.8727],[10.7706,12.8704],[10.7617,12.8659],[10.7482,12.8614],[10.7347,12.8592],[10.7325,12.8592],[10.728,12.8592],[10.719,12.8614],[10.6965,12.8614],[10.692,12.8614],[10.6763,12.8592],[10.6673,12.857],[10.6449,12.848],[10.6359,12.8435],[10.6337,12.8412],[10.6247,12.8367],[10.6202,12.8345],[10.609,12.83],[10.6022,12.8278],[10.5955,12.8255],[10.5842,12.821],[10.5775,12.8143],[10.5775,12.8075],[10.5708,12.8031],[10.573,12.7986]]]]}},{"type":"Feature","properties":{"id":"yobe/bursari","name":"Bursari","state":"Yobe"},"geometry":{"type":"Polygon","coordinates":[[[11.0312,12.7986],[11.0334,12.7963],[11.0356,12.7941],[11.0379,12.7918],[11.0424,12.7851],[11.0424,12.7784],[11.0379,12.7739],[11.0379,12.7671],[11.0379,12.7604],[11.0401,12.7581],[11.0491,12.7447],[11.0514,12.7424],[11.0536,12.7379],[11.0648,12.7289],[11.0806,12.7132],[11.0895,12.7065],[11.0963,12.702],[11.1098,12.6953],[11.1255,12.6795],[11.1345,12.6661],[11.1367,12.6593],[11.1389,12.6548],[11.1434,12.6526],[11.1479,12.6459],[11.1502,12.6414],[11.1524,12.6346],[11.1547,12.6279],[11.1547,12.6211],[11.1569,12.6099],[11.1547,12.6032],[11.1547,12.5942],[11.1569,12.5897],[11.1592,12.5807],[11.1637,12.5628],[11.1681,12.5538],[11.1771,12.5291],[11.1816,12.5268],[11.1861,12.5156],[11.1884,12.5066],[11.1884,12.4999],[11.1884,12.4976],[11.1928,12.4931],[11.1951,12.4864],[11.1973,12.4819],[11.1996,12.4774],[11.2018,12.4752],[11.2018,12.4729],[11.2041,12.4707],[11.2108,12.4617],[11.2131,12.455],[11.222,12.4392],[11.2288,12.428],[11.2378,12.4168],[11.24,12.4123],[11.2423,12.41],[11.2423,12.4056],[11.2467,12.4056],[11.258,12.4078],[11.2625,12.4078],[11.2714,12.4078],[11.2759,12.4078],[11.2804,12.4078],[11.2894,12.41],[11.3051,12.4168],[11.3074,12.4168],[11.3276,12.4258],[11.3343,12.4258],[11.3456,12.4303],[11.3568,12.437],[11.3658,12.4415],[11.377,12.4437],[11.4129,12.4527],[11.4264,12.455],[11.4354,12.455],[11.4399,12.455],[11.4511,12.455],[11.4534,12.4572],[11.4601,12.4595],[11.4691,12.4617],[11.4758,12.4639],[11.4803,12.4595],[11.4848,12.4572],[11.4915,12.4617],[11.5028,12.4662],[11.5073,12.4684],[11.5117,12.4662],[11.5185,12.4662],[11.523,12.4662],[11.5342,12.4662],[11.5364,12.4662],[11.5432,12.4684],[11.5454,12.4684],[11.5499,12.4707],[11.5522,12.4684],[11.5567,12.4662],[11.5589,12.4617],[11.5634,12.4617],[11.5679,12.4617],[11.5724,12.4662],[11.5881,12.4752],[11.6016,12.4797],[11.6061,12.4797],[11.624,12.4842],[11.6308,12.4819],[11.6555,12.4774],[11.6645,12.4752],[11.6712,12.4707],[11.6757,12.4797],[11.6779,12.4842],[11.6981,12.5021],[11.7071,12.5111],[11.7161,12.5156],[11.7318,12.5313],[11.7363,12.5381],[11.7363,12.5403],[11.7453,12.5515],[11.7475,12.5538],[11.752,12.5583],[11.7588,12.5628],[11.7633,12.5785],[11.7655,12.583],[11.7678,12.5964],[11.7655,12.6032],[11.7633,12.6122],[11.7633,12.6167],[11.761,12.6211],[11.761,12.6279],[11.7633,12.6346],[11.7655,12.6391],[11.7678,12.6459],[11.7678,12.6526],[11.7655,12.6661],[11.7655,12.6728],[11.761,12.6795],[11.752,12.6908],[11.7543,12.6997],[11.7543,12.7042],[11.7543,12.7155],[11.7543,12.7245],[11.7431,12.7469],[11.7408,12.7559],[11.7363,12.7694],[11.7318,12.7761],[11.7273,12.7828],[11.7228,12.7941],[11.7206,12.7986],[11.7184,12.8098],[11.7139,12.8188],[11.7116,12.8233],[11.7049,12.8367],[11.7049,12.848],[11.7049,12.8547],[11.7094,12.8637],[11.7139,12.8772],[11.7184,12.8929],[11.7184,12.9064],[11.7161,12.9176],[11.7094,12.9311],[11.7049,12.9356],[11.6959,12.9423],[11.6869,12.9468],[11.6667,12.9603],[11.6487,12.9692],[11.6375,12.9715],[11.6195,12.9737],[11.6061,12.9737],[11.5814,12.9782],[11.5612,12.9782],[11.5544,12.9782],[11.5387,12.976],[11.5297,12.9737],[11.5207,12.9715],[11.5117,12.9715],[11.5028,12.9715],[11.4915,12.9692],[11.487,12.9715],[11.4825,12.9737],[11.4736,12.9737],[11.4646,12.9737],[11.4287,12.9782],[11.4242,12.9782],[11.4152,12.9782],[11.4017,12.9827],[11.395,12.985],[11.3905,12.9895],[11.3882,12.9872],[11.3837,12.985],[11.3792,12.985],[11.377,12.985],[11.3658,12.9782],[11.3568,12.9737],[11.3433,12.967],[11.3366,12.9625],[11.3321,12.9603],[11.3164,12.9558],[11.3141,12.9558],[11.2984,12.9535],[11.2894,12.9535],[11.2872,12.9558],[11.2827,12.9558],[11.2737,12.9558],[11.2647,12.9535],[11.2602,12.9535],[11.2535,12.9513],[11.2445,12.9513],[11.2243,12.9513],[11.2153,12.9535],[11.2108,12.9535],[11.2018,12.9535],[11.1973,12.9535],[11.1906,12.9513],[11.1726,12.9468],[11.1614,12.949],[11.1569,12.949],[11.1479,12.949],[11.1232,12.94],[11.1165,12.9356],[11.112,12.9311],[11.1075,12.9288],[11.103,12.9243],[11.094,12.9198],[11.0895,12.9176],[11.0851,12.9176],[11.0828,12.9153],[11.0716,12.9041],[11.0671,12.9019],[11.0648,12.8974],[11.0626,12.8906],[11.0581,12.8839],[11.0536,12.8727],[11.0626,12.8659],[11.0626,12.857],[11.0648,12.8525],[11.0648,12.848],[11.0626,12.8435],[11.0559,12.8322],[11.0514,12.8278],[11.0469,12.8255],[11.0424,12.8255],[11.0379,12.8278],[11.0356,12.8278],[11.0289,12.8278],[11.0267,12.8278],[11.0267,12.821],[11.0267,12.8188],[11.0267,12.8143],[11.0267,12.8098],[11.0267,12.8075],[11.0312,12.7986]]]}},{"type":"Feature","properties":{"id":"yobe/damaturu","name":"Damaturu","state":"Yobe"},"geometry":{"type":"Polygon","coordinates":[[[11.6465,11.9362],[11.651,11.9317],[11.6622,11.9227],[11.6757,11.9092],[11.6802,11.898],[11.6869,11.8958],[11.6959,11.8868],[11.7094,11.8711],[11.7139,11.8643],[11.7184,11.8553],[11.7206,11.8486],[11.7251,11.8441],[11.7273,11.8374],[11.7318,11.8351],[11.7341,11.8261],[11.7363,11.8194],[11.7386,11.8082],[11.7408,11.797],[11.7431,11.7925],[11.7498,11.7723],[11.7588,11.7565],[11.7633,11.7475],[11.7655,11.7431],[11.7655,11.7386],[11.7655,11.7296],[11.7655,11.7139],[11.7633,11.6981],[11.761,11.6847],[11.761,11.6779],[11.7588,11.6689],[11.7565,11.6465],[11.7543,11.6263],[11.752,11.624],[11.7543,11.6173],[11.7565,11.5993],[11.7565,11.5948],[11.7588,11.5881],[11.7588,11.5859],[11.7588,11.5769],[11.7565,11.5746],[11.7543,11.5612],[11.7543,11.5432],[11.7543,11.5275],[11.7543,11.5207],[11.7565,11.5162],[11.7588,11.5073],[11.761,11.5095],[11.7723,11.5162],[11.7767,11.5207],[11.7812,11.5252],[11.7835,11.5275],[11.7857,11.5297],[11.7902,11.5297],[11.8059,11.5364],[11.8194,11.5387],[11.8329,11.5454],[11.8374,11.5477],[11.8509,11.5522],[11.8756,11.5589],[11.9048,11.5656],[11.9339,11.5679],[11.9384,11.5701],[11.9452,11.5724],[11.9474,11.5724],[11.9519,11.5746],[11.9542,11.5769],[11.9564,11.5791],[11.9631,11.5814],[11.9699,11.5814],[11.9744,11.5836],[11.9834,11.5859],[11.9946,11.5903],[12.0058,11.5948],[12.0148,11.5948],[12.035,11.5993],[12.053,11.6016],[12.0687,11.6038],[12.0799,11.6061],[12.0867,11.6083],[12.1001,11.6106],[12.1159,11.6106],[12.1293,11.6128],[12.1383,11.615],[12.1495,11.6195],[12.154,11.6218],[12.1653,11.6308],[12.1698,11.6353],[12.172,11.6375],[12.1742,11.6398],[12.1742,11.6465],[12.1742,11.6487],[12.1765,11.6555],[12.181,11.6667],[12.1877,11.6779],[12.1877,11.6824],[12.1945,11.7004],[12.1989,11.7228],[12.2034,11.7296],[12.2102,11.7408],[12.2124,11.7475],[12.2192,11.7588],[12.2371,11.779],[12.2416,11.7835],[12.2439,11.788],[12.2484,11.7992],[12.2528,11.8149],[12.2528,11.8261],[12.2506,11.8351],[12.2506,11.8419],[12.2484,11.8553],[12.2461,11.8711],[12.2461,11.8935],[12.2461,11.9092],[12.2461,11.916],[12.2461,11.925],[12.2439,11.9362],[12.2461,11.9407],[12.2484,11.9609],[12.2484,11.9721],[12.2484,11.9766],[12.2484,11.9878],[12.2506,12.0058],[12.2506,12.0081],[12.2439,12.0081],[12.2416,12.0081],[12.2371,12.0058],[12.2326,12.0058],[12.2124,12.0058],[12.2034,12.0058],[12.1989,12.0058],[12.1832,12.0058],[12.1742,12.0036],[12.1585,12.0013],[12.154,11.9991],[12.1473,11.9968],[12.1383,11.9923],[12.1316,11.9901],[12.1203,11.9834],[12.1114,11.9834],[12.0979,11.9811],[12.0889,11.9811],[12.0799,11.9834],[12.0732,11.9834],[12.062,11.9789],[12.053,11.9789],[12.0485,11.9789],[12.0417,11.9811],[12.026,11.9878],[12.017,11.9923],[12.0148,11.9968],[12.0081,11.9968],[12.0013,11.9968],[11.9946,11.9968],[11.9878,11.9923],[11.9789,11.9856],[11.9721,11.9834],[11.9519,11.9744],[11.9362,11.9676],[11.925,11.9631],[11.916,11.9609],[11.9137,11.9586],[11.9092,11.9586],[11.9048,11.9586],[11.8958,11.9564],[11.8913,11.9542],[11.8778,11.9497],[11.8711,11.9497],[11.8666,11.9497],[11.8553,11.9474],[11.8509,11.9474],[11.8351,11.9474],[11.8261,11.9519],[11.8172,11.9586],[11.8082,11.9631],[11.8037,11.9676],[11.7992,11.9699],[11.779,11.9721],[11.7655,11.9766],[11.7543,11.9766],[11.7475,11.9766],[11.7363,11.9766],[11.7318,11.9744],[11.7184,11.9676],[11.7049,11.9654],[11.6914,11.9564],[11.6757,11.9519],[11.6487,11.9407],[11.6442,11.9384],[11.6465,11.9362]]]}},{"type":"Feature","properties":{"id":"yobe/fika","name":"Fika","state":"Yobe"},"geometry":{"type":"Polygon","coordinates":[[[10.8582,11.35],[10.865,11.3456],[10.8784,11.3388],[10.8874,11.3343],[10.8942,11.3298],[10.9256,11.3141],[10.9346,11.3096],[10.9526,11.3029],[10.9728,11.2939],[10.9773,11.2939],[10.9862,11.2962],[11.002,11.2962],[11.0064,11.2962],[11.0132,11.2984],[11.0199,11.2984],[11.0289,11.2984],[11.0312,11.3029],[11.0334,11.3051],[11.0379,11.3074],[11.0424,11.3074],[11.0514,11.3074],[11.0559,11.3074],[11.0581,11.3096],[11.0626,11.3096],[11.0716,11.3119],[11.0806,11.3096],[11.0895,11.3029],[11.0918,11.3006],[11.0985,11.2962],[11.1075,11.2894],[11.1142,11.2872],[11.121,11.2827],[11.1322,11.2804],[11.1367,11.2804],[11.1412,11.2782],[11.1479,11.2737],[11.1502,11.2714],[11.1547,11.2692],[11.1592,11.2692],[11.1704,11.267],[11.1816,11.2647],[11.1973,11.2602],[11.2018,11.2602],[11.2063,11.2602],[11.2108,11.258],[11.2175,11.2535],[11.2243,11.249],[11.2265,11.249],[11.231,11.2467],[11.2333,11.2445],[11.2378,11.2423],[11.2423,11.2423],[11.2467,11.2423],[11.2602,11.24],[11.2625,11.24],[11.2692,11.2423],[11.2737,11.2445],[11.2759,11.2467],[11.2872,11.2535],[11.2917,11.2535],[11.2962,11.2535],[11.3006,11.2512],[11.3029,11.249],[11.3096,11.2445],[11.3141,11.2378],[11.3186,11.2265],[11.3209,11.2243],[11.3253,11.2131],[11.3276,11.2063],[11.3366,11.1906],[11.3411,11.1816],[11.3411,11.1794],[11.35,11.1614],[11.3635,11.13],[11.368,11.1232],[11.3792,11.1098],[11.3815,11.1075],[11.386,11.1008],[11.3927,11.0963],[11.3995,11.0918],[11.3995,11.0895],[11.4017,11.0873],[11.4129,11.0806],[11.4152,11.0761],[11.4287,11.0626],[11.4399,11.0536],[11.4444,11.0514],[11.4489,11.0469],[11.4511,11.0424],[11.4623,11.0536],[11.4668,11.0581],[11.4758,11.0738],[11.4803,11.0783],[11.487,11.0873],[11.4915,11.094],[11.4938,11.0985],[11.5005,11.1075],[11.5028,11.112],[11.5117,11.13],[11.5162,11.1457],[11.523,11.1592],[11.5252,11.1614],[11.5275,11.1681],[11.5297,11.1794],[11.5342,11.1973],[11.5342,11.2131],[11.5342,11.2175],[11.5342,11.222],[11.5364,11.2288],[11.5364,11.2333],[11.5364,11.24],[11.5387,11.2445],[11.5387,11.2625],[11.5364,11.2714],[11.532,11.2759],[11.5297,11.2782],[11.5275,11.2827],[11.5252,11.2849],[11.523,11.2872],[11.5207,11.2917],[11.5207,11.2962],[11.5207,11.3006],[11.523,11.3029],[11.5207,11.3074],[11.5185,11.3119],[11.5162,11.3164],[11.514,11.3186],[11.514,11.3209],[11.5095,11.3321],[11.5073,11.3366],[11.5073,11.3411],[11.5073,11.3456],[11.5095,11.3523],[11.514,11.3568],[11.5005,11.359],[11.487,11.3613],[11.4713,11.359],[11.4668,11.359],[11.4601,11.359],[11.4534,11.3568],[11.4511,11.3545],[11.4489,11.3523],[11.4331,11.3523],[11.4242,11.3523],[11.4174,11.3568],[11.4062,11.3545],[11.3995,11.3545],[11.395,11.3545],[11.386,11.3613],[11.386,11.3635],[11.3815,11.3658],[11.377,11.3703],[11.3725,11.3703],[11.368,11.368],[11.3613,11.3703],[11.3568,11.3725],[11.3523,11.377],[11.3478,11.3815],[11.3433,11.3882],[11.3366,11.3972],[11.3276,11.4152],[11.3186,11.4376],[11.3119,11.4511],[11.3096,11.4556],[11.3074,11.4601],[11.3051,11.4668],[11.3029,11.4803],[11.3006,11.487],[11.3006,11.4938],[11.3006,11.514],[11.3006,11.5162],[11.3006,11.523],[11.3029,11.5297],[11.3051,11.532],[11.3096,11.5387],[11.3096,11.5409],[11.3096,11.5454],[11.3074,11.5612],[11.3051,11.5769],[11.3074,11.5881],[11.3074,11.5926],[11.3074,11.5993],[11.3074,11.6038],[11.3006,11.6195],[11.2984,11.624],[11.2917,11.6285],[11.2849,11.633],[11.2759,11.6442],[11.2737,11.651],[11.2737,11.6555],[11.2714,11.66],[11.2625,11.6645],[11.2423,11.6712],[11.2333,11.6734],[11.2243,11.6712],[11.2175,11.6667],[11.2131,11.6645],[11.2063,11.6622],[11.2018,11.66],[11.1996,11.6555],[11.1973,11.6532],[11.1951,11.6487],[11.1951,11.6442],[11.1928,11.6398],[11.1906,11.6353],[11.1861,11.6285],[11.1771,11.6173],[11.1726,11.6106],[11.1704,11.6061],[11.1434,11.5971],[11.1389,11.5948],[11.13,11.5926],[11.1255,11.5926],[11.094,11.5881],[11.0851,11.5881],[11.0693,11.5881],[11.0626,11.5881],[11.0446,11.5859],[11.0379,11.5859],[11.0334,11.5881],[11.0244,11.5903],[11.0154,11.5859],[11.0132,11.5903],[11.0109,11.5859],[11.0064,11.5814],[11.002,11.5791],[10.9907,11.5679],[10.9817,11.5544],[10.9728,11.5454],[10.966,11.5387],[10.9593,11.532],[10.9391,11.5207],[10.9346,11.5185],[10.9301,11.5162],[10.9301,11.514],[10.9301,11.505],[10.9301,11.5005],[10.9346,11.4915],[10.9346,11.4825],[10.9346,11.4736],[10.9323,11.4623],[10.9301,11.4444],[10.9256,11.4354],[10.9211,11.4242],[10.9189,11.4219],[10.9099,11.4107],[10.9054,11.4062],[10.8987,11.4017],[10.8942,11.395],[10.8852,11.3882],[10.8807,11.386],[10.8762,11.3815],[10.8672,11.3748],[10.8582,11.3703],[10.8537,11.368],[10.8515,11.3635],[10.8515,11.3568],[10.8582,11.35]]]}},{"type":"Feature","properties":{"id":"yobe/fune","name":"Fune","state":"Yobe"},"geometry":{"type":"Polygon","coordinates":[[[11.0154,11.9609],[11.0177,11.9542],[11.0199,11.9452],[11.0244,11.9339],[11.0379,11.916],[11.0424,11.9092],[11.0514,11.9025],[11.0603,11.8913],[11.0671,11.8823],[11.0716,11.88],[11.0761,11.8756],[11.0806,11.8733],[11.0873,11.8688],[11.094,11.8621],[11.0985,11.8576],[11.1098,11.8464],[11.1187,11.8396],[11.1232,11.8374],[11.1255,11.8351],[11.13,11.8351],[11.1434,11.8306],[11.1524,11.8261],[11.1547,11.8284],[11.1637,11.8284],[11.1681,11.8261],[11.1726,11.8261],[11.1771,11.8284],[11.1839,11.8284],[11.1973,11.8261],[11.2108,11.8284],[11.2198,11.8306],[11.2378,11.8351],[11.249,11.8351],[11.267,11.8374],[11.2759,11.8396],[11.2827,11.8396],[11.2894,11.8329],[11.2917,11.8104],[11.2917,11.8059],[11.2894,11.8014],[11.2872,11.797],[11.2872,11.7925],[11.2849,11.7767],[11.2872,11.7723],[11.2872,11.761],[11.2849,11.7453],[11.2827,11.7341],[11.2827,11.7273],[11.2782,11.7071],[11.2759,11.6937],[11.2714,11.6734],[11.2714,11.6645],[11.2714,11.66],[11.2737,11.6555],[11.2737,11.651],[11.2759,11.6442],[11.2849,11.633],[11.2917,11.6285],[11.2984,11.624],[11.3006,11.6195],[11.3074,11.6038],[11.3074,11.5993],[11.3074,11.5926],[11.3074,11.5881],[11.3051,11.5769],[11.3074,11.5612],[11.3096,11.5454],[11.3096,11.5409],[11.3096,11.5387],[11.3051,11.532],[11.3029,11.5297],[11.3006,11.523],[11.3006,11.5162],[11.3006,11.514],[11.3006,11.4938],[11.3006,11.487],[11.3029,11.4803],[11.3051,11.4668],[11.3074,11.4601],[11.3096,11.4556],[11.3119,11.4511],[11.3186,11.4376],[11.3276,11.4152],[11.3366,11.3972],[11.3433,11.3882],[11.3478,11.3815],[11.3523,11.377],[11.3568,11.3725],[11.3613,11.3703],[11.368,11.368],[11.3725,11.3703],[11.377,11.3703],[11.3815,11.3658],[11.386,11.3635],[11.386,11.3613],[11.395,11.3545],[11.3995,11.3545],[11.4062,11.3545],[11.4174,11.3568],[11.4242,11.3523],[11.4331,11.3523],[11.4489,11.3523],[11.4511,11.3545],[11.4534,11.3568],[11.4601,11.359],[11.4668,11.359],[11.4713,11.359],[11.487,11.3613],[11.5005,11.359],[11.514,11.3568],[11.5162,11.3568],[11.5252,11.359],[11.5297,11.3613],[11.5454,11.3635],[11.5656,11.368],[11.5701,11.368],[11.5769,11.368],[11.5814,11.368],[11.5881,11.3658],[11.5948,11.3658],[11.5993,11.3658],[11.6128,11.368],[11.633,11.3748],[11.6442,11.377],[11.6577,11.3837],[11.6667,11.3882],[11.6689,11.3882],[11.6824,11.4017],[11.6959,11.4129],[11.6981,11.4197],[11.7004,11.4242],[11.7026,11.4331],[11.7026,11.4354],[11.7026,11.4399],[11.7071,11.4489],[11.7116,11.4578],[11.7206,11.4736],[11.7228,11.4781],[11.7273,11.4825],[11.7431,11.496],[11.752,11.5028],[11.7588,11.5073],[11.7565,11.5162],[11.7543,11.5207],[11.7543,11.5275],[11.7543,11.5432],[11.7543,11.5612],[11.7565,11.5746],[11.7588,11.5769],[11.7588,11.5859],[11.7588,11.5881],[11.7565,11.5948],[11.7565,11.5993],[11.7543,11.6173],[11.752,11.624],[11.7543,11.6263],[11.7565,11.6465],[11.7588,11.6689],[11.761,11.6779],[11.761,11.6847],[11.7633,11.6981],[11.7655,11.7139],[11.7655,11.7296],[11.7655,11.7386],[11.7655,11.7431],[11.7633,11.7475],[11.7588,11.7565],[11.7498,11.7723],[11.7431,11.7925],[11.7408,11.797],[11.7386,11.8082],[11.7363,11.8194],[11.7341,11.8261],[11.7318,11.8351],[11.7273,11.8374],[11.7251,11.8441],[11.7206,11.8486],[11.7184,11.8553],[11.7139,11.8643],[11.7094,11.8711],[11.6959,11.8868],[11.6869,11.8958],[11.6802,11.898],[11.6757,11.9092],[11.6622,11.9227],[11.651,11.9317],[11.6465,11.9362],[11.6442,11.9384],[11.6398,11.9429],[11.633,11.9497],[11.6263,11.9519],[11.6173,11.9631],[11.6083,11.9699],[11.6061,11.9699],[11.6016,11.9721],[11.5971,11.9766],[11.5903,11.9856],[11.5881,11.9901],[11.5859,11.9923],[11.5791,11.9968],[11.5656,12.0081],[11.5589,12.0103],[11.5477,12.0103],[11.5409,12.0103],[11.5364,12.0103],[11.532,12.0103],[11.5185,12.0125],[11.5117,12.0148],[11.5095,12.017],[11.5028,12.017],[11.4983,12.017],[11.4915,12.017],[11.4803,12.0215],[11.4736,12.0283],[11.4713,12.0305],[11.4668,12.035],[11.4623,12.044],[11.4623,12.0485],[11.4601,12.053],[11.4534,12.0799],[11.4511,12.0979],[11.4511,12.1069],[11.4511,12.1226],[11.4511,12.1361],[11.4489,12.145],[11.4466,12.1563],[11.4444,12.1608],[11.4399,12.1675],[11.4242,12.1855],[11.4219,12.1877],[11.4129,12.1922],[11.4062,12.1945],[11.3927,12.1922],[11.3837,12.1922],[11.3792,12.1922],[11.3658,12.1945],[11.3568,12.2012],[11.3523,12.2034],[11.3388,12.2147],[11.3321,12.2236],[11.3276,12.2326],[11.3209,12.2484],[11.3164,12.2596],[11.3096,12.2753],[11.3051,12.2843],[11.3074,12.2955],[11.3074,12.2978],[11.3051,12.3045],[11.3029,12.3135],[11.2962,12.327],[11.2917,12.3337],[11.2827,12.3494],[11.2804,12.3539],[11.2782,12.3584],[11.2737,12.3629],[11.2692,12.3719],[11.2692,12.3764],[11.267,12.3831],[11.2647,12.3853],[11.2602,12.3876],[11.2512,12.3943],[11.2535,12.3876],[11.2535,12.3831],[11.249,12.3719],[11.2467,12.3651],[11.2423,12.3606],[11.2355,12.3517],[11.2333,12.3472],[11.2265,12.3404],[11.222,12.3359],[11.222,12.3314],[11.2198,12.327],[11.2108,12.318],[11.2063,12.3157],[11.1973,12.309],[11.1906,12.3],[11.1771,12.2843],[11.1681,12.2731],[11.1592,12.2641],[11.1524,12.2573],[11.1479,12.2528],[11.1457,12.2484],[11.1457,12.2461],[11.1367,12.2304],[11.1322,12.2169],[11.121,12.1967],[11.1165,12.19],[11.1075,12.1742],[11.1008,12.163],[11.094,12.1495],[11.0873,12.1406],[11.0828,12.1316],[11.0761,12.1226],[11.0716,12.1181],[11.0693,12.1136],[11.0559,12.0979],[11.0514,12.0934],[11.0491,12.0889],[11.0401,12.0844],[11.0379,12.0822],[11.0356,12.0777],[11.0334,12.0732],[11.0312,12.0687],[11.0289,12.0597],[11.0244,12.0462],[11.0199,12.0373],[11.0154,12.0305],[11.0154,12.0238],[11.0109,12.0013],[11.0109,11.9901],[11.0109,11.9789],[11.0154,11.9609]]]}},{"type":"Feature","properties":{"id":"yobe/geidam","name":"Geidam","state":"Yobe"},"geometry":{"type":"Polygon","coordinates":[[[11.6667,12.4056],[11.6712,12.3988],[11.6802,12.3876],[11.6847,12.3853],[11.6892,12.3809],[11.7026,12.3719],[11.7094,12.3696],[11.7206,12.3651],[11.7251,12.3629],[11.7296,12.3629],[11.761,12.3606],[11.7723,12.3606],[11.779,12.3584],[11.7812,12.3584],[11.7857,12.3561],[11.797,12.3517],[11.8104,12.3539],[11.8127,12.3584],[11.8217,12.3629],[11.8284,12.3629],[11.8329,12.3606],[11.8464,12.3584],[11.8509,12.3584],[11.8576,12.3606],[11.8733,12.3606],[11.8868,12.3606],[11.898,12.3584],[11.9025,12.3584],[11.9048,12.3561],[11.9115,12.3539],[11.9182,12.3539],[11.9272,12.3539],[11.9317,12.3561],[11.9519,12.3606],[11.9542,12.3606],[11.9609,12.3606],[11.9699,12.3584],[11.9744,12.3561],[11.9789,12.3539],[11.9834,12.3517],[11.9923,12.3494],[11.9968,12.3494],[12.0081,12.3494],[12.0193,12.3539],[12.035,12.3584],[12.0417,12.3629],[12.044,12.3674],[12.0485,12.3696],[12.053,12.3696],[12.0575,12.3674],[12.062,12.3651],[12.0777,12.3651],[12.0911,12.3651],[12.1001,12.3674],[12.1046,12.3696],[12.1181,12.3719],[12.1293,12.3741],[12.1495,12.3741],[12.1765,12.3741],[12.1832,12.3764],[12.1877,12.3764],[12.1989,12.3764],[12.2057,12.3786],[12.2124,12.3831],[12.2192,12.3853],[12.2214,12.3876],[12.2281,12.3943],[12.2484,12.4168],[12.2528,12.419],[12.2596,12.4213],[12.2618,12.4235],[12.2663,12.4303],[12.2686,12.4347],[12.2865,12.4482],[12.291,12.4505],[12.3,12.455],[12.309,12.4572],[12.3157,12.4595],[12.3314,12.4684],[12.3427,12.4774],[12.3539,12.4819],[12.3561,12.4819],[12.3629,12.4864],[12.3696,12.4931],[12.3898,12.5089],[12.3943,12.5156],[12.3988,12.5201],[12.3988,12.5246],[12.4056,12.5358],[12.4056,12.5403],[12.4145,12.5515],[12.419,12.5538],[12.4213,12.556],[12.4235,12.5605],[12.4235,12.5628],[12.428,12.5672],[12.4303,12.574],[12.4347,12.5807],[12.437,12.5852],[12.4415,12.5987],[12.4415,12.6032],[12.4437,12.6077],[12.4437,12.6122],[12.4527,12.6211],[12.4595,12.6279],[12.4639,12.6301],[12.4729,12.6346],[12.4774,12.6391],[12.4819,12.6481],[12.4864,12.6616],[12.4864,12.6661],[12.4864,12.6885],[12.4864,12.693],[12.4774,12.7087],[12.4729,12.7177],[12.4639,12.7267],[12.4572,12.7334],[12.437,12.7514],[12.4325,12.7581],[12.428,12.7626],[12.4258,12.7649],[12.419,12.7739],[12.4123,12.7828],[12.4033,12.7941],[12.3988,12.7986],[12.3943,12.8008],[12.3921,12.8031],[12.3831,12.8165],[12.3741,12.8278],[12.3719,12.8322],[12.3651,12.8502],[12.3629,12.857],[12.3606,12.8614],[12.3606,12.8727],[12.3584,12.8861],[12.3606,12.8974],[12.3629,12.9019],[12.3674,12.9108],[12.3696,12.9131],[12.3786,12.9266],[12.3876,12.9445],[12.3876,12.949],[12.3898,12.9535],[12.3943,12.967],[12.3988,12.9805],[12.3988,12.9827],[12.4011,12.9917],[12.4011,12.9984],[12.3966,12.9962],[12.3898,12.9917],[12.3719,12.985],[12.3674,12.985],[12.3606,12.9827],[12.3561,12.9827],[12.3427,12.9782],[12.3225,12.9715],[12.3202,12.9692],[12.3135,12.9647],[12.3067,12.9625],[12.3,12.958],[12.2775,12.949],[12.2731,12.9468],[12.2686,12.9468],[12.2663,12.9468],[12.2618,12.9468],[12.2573,12.9423],[12.2551,12.9378],[12.2506,12.9333],[12.2484,12.9288],[12.2416,12.9266],[12.2371,12.9266],[12.2326,12.9243],[12.2281,12.9243],[12.2192,12.9243],[12.2057,12.9221],[12.2034,12.9176],[12.19,12.9153],[12.1832,12.9153],[12.1698,12.9131],[12.154,12.9131],[12.1518,12.9108],[12.1473,12.9108],[12.145,12.9086],[12.1406,12.9064],[12.1316,12.9064],[12.0934,12.9019],[12.0822,12.8996],[12.0777,12.8996],[12.0732,12.8996],[12.0485,12.8996],[12.0373,12.9041],[12.0193,12.9086],[12.0103,12.9108],[11.9923,12.9176],[11.9721,12.9266],[11.9654,12.9288],[11.9564,12.9288],[11.9362,12.9288],[11.9272,12.9288],[11.9227,12.9288],[11.9205,12.9266],[11.9048,12.9221],[11.8913,12.9176],[11.8913,12.9131],[11.889,12.9086],[11.8935,12.8951],[11.8958,12.8951],[11.9003,12.8929],[11.9025,12.8817],[11.9025,12.8794],[11.9025,12.8749],[11.9003,12.8727],[11.8958,12.8704],[11.8935,12.8682],[11.8845,12.8659],[11.8778,12.8637],[11.8688,12.8637],[11.8643,12.8637],[11.8621,12.8659],[11.8576,12.8659],[11.8509,12.8637],[11.8419,12.8614],[11.8396,12.8592],[11.8306,12.857],[11.8239,12.857],[11.8059,12.8525],[11.8014,12.8525],[11.7925,12.848],[11.7857,12.8435],[11.7835,12.8412],[11.7767,12.8412],[11.77,12.8412],[11.7588,12.839],[11.7498,12.8367],[11.7453,12.8345],[11.7318,12.83],[11.7296,12.8278],[11.7161,12.821],[11.7139,12.8188],[11.7184,12.8098],[11.7206,12.7986],[11.7228,12.7941],[11.7273,12.7828],[11.7318,12.7761],[11.7363,12.7694],[11.7408,12.7559],[11.7431,12.7469],[11.7543,12.7245],[11.7543,12.7155],[11.7543,12.7042],[11.7543,12.6997],[11.752,12.6908],[11.761,12.6795],[11.7655,12.6728],[11.7655,12.6661],[11.7678,12.6526],[11.7678,12.6459],[11.7655,12.6391],[11.7633,12.6346],[11.761,12.6279],[11.761,12.6211],[11.7633,12.6167],[11.7633,12.6122],[11.7655,12.6032],[11.7678,12.5964],[11.7655,12.583],[11.7633,12.5785],[11.7588,12.5628],[11.752,12.5583],[11.7475,12.5538],[11.7453,12.5515],[11.7363,12.5403],[11.7363,12.5381],[11.7318,12.5313],[11.7161,12.5156],[11.7071,12.5111],[11.6981,12.5021],[11.6779,12.4842],[11.6757,12.4797],[11.6712,12.4707],[11.6689,12.4684],[11.6667,12.4617],[11.6689,12.4595],[11.6667,12.455],[11.6645,12.4482],[11.6622,12.4415],[11.6622,12.437],[11.6622,12.4213],[11.6667,12.4056]]]}},{"type":"Feature","properties":{"id":"yobe/gujba","name":"Gujba","state":"Yobe"},"geometry":{"type":"Polygon","coordinates":[[[11.5095,11.3321],[11.514,11.3209],[11.514,11.3186],[11.5162,11.3164],[11.5185,11.3119],[11.5207,11.3074],[11.523,11.3029],[11.5207,11.3006],[11.5207,11.2962],[11.5207,11.2917],[11.523,11.2872],[11.5252,11.2849],[11.5275,11.2827],[11.5297,11.2782],[11.532,11.2759],[11.5364,11.2714],[11.5387,11.2625],[11.5387,11.2445],[11.5364,11.24],[11.5364,11.2333],[11.5364,11.2288],[11.5342,11.222],[11.5342,11.2175],[11.5387,11.2175],[11.5544,11.2131],[11.5701,11.2086],[11.5769,11.2086],[11.5859,11.2063],[11.6016,11.2063],[11.6083,11.2041],[11.624,11.2018],[11.6375,11.1996],[11.6487,11.1996],[11.6532,11.1996],[11.6645,11.1973],[11.6757,11.1951],[11.6847,11.1928],[11.7004,11.1906],[11.7161,11.1906],[11.7408,11.1884],[11.7543,11.1861],[11.761,11.1839],[11.7655,11.1839],[11.7812,11.1749],[11.788,11.1704],[11.7947,11.1659],[11.7992,11.1637],[11.8059,11.1569],[11.8194,11.1434],[11.8217,11.1367],[11.8261,11.1322],[11.8284,11.1277],[11.8329,11.1232],[11.8396,11.1142],[11.8419,11.112],[11.8531,11.103],[11.8643,11.0985],[11.8711,11.0963],[11.88,11.1008],[11.8823,11.103],[11.8823,11.112],[11.8868,11.1255],[11.8958,11.1345],[11.9003,11.1345],[11.9025,11.1322],[11.916,11.121],[11.9429,11.0963],[11.9542,11.0851],[11.9744,11.0671],[11.9789,11.0626],[11.9834,11.0603],[11.9901,11.0581],[12.0013,11.0446],[12.0036,11.0424],[12.0081,11.0334],[12.0125,11.0424],[12.0193,11.0536],[12.0215,11.0581],[12.0283,11.0626],[12.035,11.0626],[12.0417,11.0648],[12.0462,11.0648],[12.0552,11.0626],[12.0575,11.0626],[12.0709,11.0581],[12.0754,11.0536],[12.0822,11.0514],[12.0889,11.0514],[12.0979,11.0514],[12.1069,11.0514],[12.1248,11.0559],[12.1293,11.0559],[12.1383,11.0626],[12.145,11.0693],[12.1473,11.0761],[12.1495,11.0783],[12.1495,11.0806],[12.145,11.0895],[12.1406,11.0918],[12.1383,11.0963],[12.1361,11.103],[12.1361,11.1075],[12.1361,11.1165],[12.1361,11.1187],[12.1338,11.1277],[12.1293,11.1367],[12.1271,11.1389],[12.1203,11.1389],[12.1181,11.1479],[12.1136,11.1547],[12.1136,11.1704],[12.1136,11.1794],[12.1136,11.1861],[12.1136,11.1928],[12.1114,11.1951],[12.1091,11.2086],[12.1024,11.2288],[12.1024,11.2378],[12.1024,11.2445],[12.1046,11.2512],[12.1069,11.2557],[12.1181,11.2625],[12.1248,11.2692],[12.1383,11.2737],[12.154,11.2827],[12.1675,11.2894],[12.1787,11.2962],[12.1877,11.3029],[12.19,11.3051],[12.1922,11.3074],[12.1945,11.3119],[12.1967,11.3186],[12.1989,11.3343],[12.1989,11.3411],[12.2012,11.3523],[12.2034,11.3613],[12.2124,11.386],[12.2147,11.3905],[12.2214,11.3995],[12.2304,11.4107],[12.2371,11.4152],[12.2506,11.4264],[12.2551,11.4309],[12.2641,11.4376],[12.2663,11.4399],[12.2708,11.4444],[12.2798,11.4489],[12.3045,11.4668],[12.309,11.4713],[12.3112,11.4758],[12.3157,11.4825],[12.3225,11.4893],[12.3247,11.4983],[12.3225,11.5028],[12.3225,11.5073],[12.3202,11.5185],[12.3157,11.5342],[12.3135,11.5409],[12.309,11.5499],[12.3067,11.5634],[12.3045,11.5701],[12.3,11.5836],[12.3,11.5881],[12.291,11.5971],[12.2775,11.6128],[12.2708,11.6218],[12.2618,11.6285],[12.2484,11.633],[12.2394,11.6353],[12.2259,11.633],[12.2124,11.6308],[12.2034,11.6308],[12.1698,11.6285],[12.1698,11.6353],[12.1653,11.6308],[12.154,11.6218],[12.1495,11.6195],[12.1383,11.615],[12.1293,11.6128],[12.1159,11.6106],[12.1001,11.6106],[12.0867,11.6083],[12.0799,11.6061],[12.0687,11.6038],[12.053,11.6016],[12.035,11.5993],[12.0148,11.5948],[12.0058,11.5948],[11.9946,11.5903],[11.9834,11.5859],[11.9744,11.5836],[11.9699,11.5814],[11.9631,11.5814],[11.9564,11.5791],[11.9542,11.5769],[11.9519,11.5746],[11.9474,11.5724],[11.9452,11.5724],[11.9384,11.5701],[11.9339,11.5679],[11.9048,11.5656],[11.8756,11.5589],[11.8509,11.5522],[11.8374,11.5477],[11.8329,11.5454],[11.8194,11.5387],[11.8059,11.5364],[11.7902,11.5297],[11.7857,11.5297],[11.7835,11.5275],[11.7812,11.5252],[11.7767,11.5207],[11.7723,11.5162],[11.761,11.5095],[11.7588,11.5073],[11.752,11.5028],[11.7431,11.496],[11.7273,11.4825],[11.7228,11.4781],[11.7206,11.4736],[11.7116,11.4578],[11.7071,11.4489],[11.7026,11.4399],[11.7026,11.4354],[11.7026,11.4331],[11.7004,11.4242],[11.6981,11.4197],[11.6959,11.4129],[11.6824,11.4017],[11.6689,11.3882],[11.6667,11.3882],[11.6577,11.3837],[11.6442,11.377],[11.633,11.3748],[11.6128,11.368],[11.5993,11.3658],[11.5948,11.3658],[11.5881,11.3658],[11.5814,11.368],[11.5769,11.368],[11.5701,11.368],[11.5656,11.368],[11.5454,11.3635],[11.5297,11.3613],[11.5252,11.359],[11.5162,11.3568],[11.514,11.3568],[11.5095,11.3523],[11.5073,11.3456],[11.5073,11.3411],[11.5073,11.3366],[11.5095,11.3321]]]}},{"type":"Feature","properties":{"id":"yobe/gulani","name":"Gulani","state":"Yobe"},"geometry":{"type":"Polygon","coordinates":[[[11.4578,11.0356],[11.4713,11.0222],[11.4758,11.0154],[11.4825,11.002],[11.4893,10.9952],[11.496,10.9907],[11.514,10.9683],[11.5162,10.9615],[11.5275,10.9413],[11.5297,10.9391],[11.5297,10.9346],[11.5297,10.9323],[11.532,10.9301],[11.532,10.9234],[11.532,10.9189],[11.532,10.9031],[11.5297,10.8942],[11.5275,10.8919],[11.5275,10.8874],[11.5275,10.8807],[11.5297,10.8762],[11.532,10.8717],[11.5342,10.8672],[11.5364,10.8627],[11.5387,10.8515],[11.5387,10.8403],[11.5364,10.829],[11.5342,10.8133],[11.5297,10.7998],[11.5297,10.7909],[11.5275,10.7729],[11.5275,10.7572],[11.523,10.7504],[11.5207,10.7459],[11.5162,10.7325],[11.5162,10.7212],[11.5162,10.7033],[11.514,10.6943],[11.5162,10.6831],[11.5207,10.6673],[11.523,10.6606],[11.5252,10.6606],[11.5207,10.6404],[11.5162,10.6179],[11.514,10.6112],[11.514,10.6067],[11.5117,10.6022],[11.5117,10.6],[11.5117,10.5842],[11.5162,10.5708],[11.523,10.5685],[11.5275,10.5685],[11.532,10.5708],[11.5364,10.5753],[11.5477,10.5842],[11.5522,10.5887],[11.5612,10.591],[11.5724,10.5932],[11.5836,10.5932],[11.5926,10.5977],[11.6016,10.6022],[11.6128,10.6045],[11.624,10.6067],[11.6285,10.609],[11.633,10.609],[11.6398,10.609],[11.6465,10.6112],[11.6622,10.6157],[11.6689,10.6179],[11.6757,10.6179],[11.6847,10.6202],[11.6892,10.6224],[11.7026,10.6292],[11.7094,10.6314],[11.7139,10.6359],[11.7161,10.6381],[11.7206,10.6404],[11.7228,10.6449],[11.7273,10.6494],[11.7318,10.6539],[11.7475,10.6673],[11.7543,10.6696],[11.761,10.6696],[11.7633,10.6718],[11.7678,10.6741],[11.7678,10.6786],[11.7678,10.6808],[11.7678,10.6898],[11.7655,10.6965],[11.7565,10.7145],[11.7498,10.7212],[11.7475,10.7257],[11.7408,10.728],[11.7273,10.737],[11.7206,10.7437],[11.7228,10.7572],[11.7251,10.7594],[11.7296,10.7662],[11.7363,10.7774],[11.7363,10.7819],[11.7408,10.7931],[11.7386,10.7976],[11.7363,10.8021],[11.7318,10.8066],[11.7273,10.8066],[11.7228,10.8066],[11.7116,10.8111],[11.7049,10.8201],[11.7004,10.8245],[11.6937,10.829],[11.6847,10.8335],[11.6622,10.829],[11.6577,10.829],[11.651,10.8268],[11.6465,10.8335],[11.6442,10.8403],[11.642,10.8448],[11.6375,10.847],[11.6353,10.8492],[11.624,10.856],[11.624,10.8605],[11.6263,10.8672],[11.633,10.8717],[11.6398,10.8739],[11.6465,10.8784],[11.6667,10.8852],[11.6802,10.8852],[11.6892,10.8874],[11.6937,10.8897],[11.7161,10.8964],[11.7273,10.9009],[11.7498,10.9099],[11.7745,10.9189],[11.7902,10.9234],[11.8037,10.9278],[11.8217,10.9368],[11.8351,10.9391],[11.8419,10.9391],[11.8486,10.9413],[11.8553,10.9413],[11.8666,10.9458],[11.8711,10.9481],[11.88,10.9503],[11.8845,10.9526],[11.8958,10.9548],[11.9048,10.957],[11.916,10.9593],[11.9295,10.9638],[11.9362,10.966],[11.9497,10.9773],[11.9654,10.9885],[11.9789,11.0042],[12.0058,11.0312],[12.0081,11.0334],[12.0036,11.0424],[12.0013,11.0446],[11.9901,11.0581],[11.9834,11.0603],[11.9789,11.0626],[11.9744,11.0671],[11.9542,11.0851],[11.9429,11.0963],[11.916,11.121],[11.9025,11.1322],[11.9003,11.1345],[11.8958,11.1345],[11.8868,11.1255],[11.8823,11.112],[11.8823,11.103],[11.88,11.1008],[11.8711,11.0963],[11.8643,11.0985],[11.8531,11.103],[11.8419,11.112],[11.8396,11.1142],[11.8329,11.1232],[11.8284,11.1277],[11.8261,11.1322],[11.8217,11.1367],[11.8194,11.1434],[11.8059,11.1569],[11.7992,11.1637],[11.7947,11.1659],[11.788,11.1704],[11.7812,11.1749],[11.7655,11.1839],[11.761,11.1839],[11.7543,11.1861],[11.7408,11.1884],[11.7161,11.1906],[11.7004,11.1906],[11.6847,11.1928],[11.6757,11.1951],[11.6645,11.1973],[11.6532,11.1996],[11.6487,11.1996],[11.6375,11.1996],[11.624,11.2018],[11.6083,11.2041],[11.6016,11.2063],[11.5859,11.2063],[11.5769,11.2086],[11.5701,11.2086],[11.5544,11.2131],[11.5387,11.2175],[11.5342,11.2175],[11.5342,11.2131],[11.5342,11.1973],[11.5297,11.1794],[11.5275,11.1681],[11.5252,11.1614],[11.523,11.1592],[11.5162,11.1457],[11.5117,11.13],[11.5028,11.112],[11.5005,11.1075],[11.4938,11.0985],[11.4915,11.094],[11.487,11.0873],[11.4803,11.0783],[11.4758,11.0738],[11.4668,11.0581],[11.4623,11.0536],[11.4511,11.0424],[11.4578,11.0356]]]}},{"type":"Feature","properties":{"id":"yobe/jakusko","name":"Jakusko","state":"Yobe"},"geometry":{"type":"Polygon","coordinates":[[[10.591,12.5223],[10.5932,12.5201],[10.6045,12.5223],[10.6112,12.5223],[10.6134,12.5201],[10.6224,12.5178],[10.6292,12.5156],[10.6337,12.5134],[10.6359,12.5111],[10.6359,12.5066],[10.6426,12.4976],[10.6471,12.4954],[10.6651,12.4842],[10.6853,12.4729],[10.6898,12.4707],[10.6988,12.4662],[10.7167,12.4572],[10.7235,12.4527],[10.7235,12.4505],[10.7257,12.446],[10.7257,12.4415],[10.7257,12.4303],[10.7257,12.4056],[10.7257,12.3853],[10.7257,12.3809],[10.728,12.3561],[10.728,12.3314],[10.7302,12.3112],[10.7302,12.2978],[10.7347,12.2618],[10.737,12.2506],[10.7392,12.2394],[10.7392,12.2326],[10.7414,12.2236],[10.7414,12.2192],[10.7414,12.2169],[10.7459,12.2012],[10.7459,12.1945],[10.7549,12.1698],[10.7572,12.1585],[10.7639,12.1473],[10.7706,12.1316],[10.7729,12.1226],[10.7796,12.1024],[10.7841,12.0844],[10.7841,12.0709],[10.7841,12.0507],[10.7841,12.0462],[10.7864,12.0417],[10.7841,12.0328],[10.7819,12.0193],[10.7819,12.0125],[10.7819,12.0013],[10.7819,11.9946],[10.7819,11.9834],[10.7819,11.9744],[10.7841,11.9676],[10.7909,11.9564],[10.7931,11.9452],[10.7976,11.9407],[10.8021,11.9339],[10.8088,11.925],[10.8111,11.9205],[10.8133,11.916],[10.8133,11.9137],[10.8156,11.907],[10.8156,11.8958],[10.8178,11.8868],[10.8223,11.8868],[10.8268,11.8913],[10.8313,11.8958],[10.838,11.907],[10.8425,11.916],[10.847,11.9227],[10.8537,11.9317],[10.865,11.9452],[10.8717,11.9519],[10.8739,11.9564],[10.8897,11.9699],[10.9031,11.9856],[10.9121,11.9946],[10.9211,12.0036],[10.9323,12.0125],[10.9413,12.0193],[10.966,12.0395],[10.9683,12.044],[10.9817,12.053],[10.9862,12.0552],[10.9907,12.0575],[10.9952,12.0597],[10.9997,12.062],[11.0064,12.0642],[11.0132,12.0687],[11.0312,12.0777],[11.0379,12.0822],[11.0401,12.0844],[11.0491,12.0889],[11.0514,12.0934],[11.0559,12.0979],[11.0693,12.1136],[11.0716,12.1181],[11.0761,12.1226],[11.0828,12.1316],[11.0873,12.1406],[11.094,12.1495],[11.1008,12.163],[11.1075,12.1742],[11.1165,12.19],[11.121,12.1967],[11.1322,12.2169],[11.1367,12.2304],[11.1457,12.2461],[11.1457,12.2484],[11.1479,12.2528],[11.1524,12.2573],[11.1592,12.2641],[11.1681,12.2731],[11.1771,12.2843],[11.1906,12.3],[11.1973,12.309],[11.2063,12.3157],[11.2108,12.318],[11.2198,12.327],[11.222,12.3314],[11.222,12.3359],[11.2265,12.3404],[11.2333,12.3472],[11.2355,12.3517],[11.2423,12.3606],[11.2467,12.3651],[11.249,12.3719],[11.2535,12.3831],[11.2535,12.3876],[11.2512,12.3943],[11.2423,12.4056],[11.2423,12.41],[11.24,12.4123],[11.2378,12.4168],[11.2288,12.428],[11.222,12.4392],[11.2131,12.455],[11.2108,12.4617],[11.2041,12.4707],[11.2018,12.4729],[11.2018,12.4752],[11.1996,12.4774],[11.1973,12.4819],[11.1951,12.4864],[11.1928,12.4931],[11.1884,12.4976],[11.1816,12.4976],[11.1726,12.4976],[11.1659,12.4976],[11.1592,12.4976],[11.1547,12.4954],[11.1389,12.4931],[11.1322,12.4931],[11.1232,12.4931],[11.1053,12.4931],[11.0895,12.4976],[11.0828,12.5021],[11.0806,12.5044],[11.0716,12.5089],[11.0716,12.5134],[11.0648,12.5291],[11.0536,12.5493],[11.0469,12.5672],[11.0379,12.583],[11.0267,12.6054],[11.0222,12.6099],[11.0154,12.6211],[11.0064,12.6324],[10.9952,12.6481],[10.9952,12.6526],[10.993,12.6638],[10.993,12.6683],[10.9952,12.6818],[10.9975,12.6908],[11.002,12.702],[11.0109,12.7312],[11.0132,12.7379],[11.0199,12.7469],[11.0289,12.7581],[11.0334,12.7626],[11.0379,12.7671],[11.0379,12.7739],[11.0424,12.7784],[11.0424,12.7851],[11.0379,12.7918],[11.0356,12.7941],[11.0334,12.7963],[11.0312,12.7986],[11.0267,12.8075],[11.0267,12.8098],[11.0267,12.8143],[11.0267,12.8188],[11.0267,12.821],[11.0267,12.8278],[11.0222,12.8278],[11.0064,12.8278],[10.9862,12.83],[10.9683,12.8322],[10.9593,12.8322],[10.9391,12.83],[10.9301,12.83],[10.9166,12.8278],[10.9009,12.8255],[10.8964,12.8255],[10.8829,12.821],[10.865,12.8188],[10.8605,12.8165],[10.8515,12.8143],[10.8492,12.812],[10.8425,12.8075],[10.8358,12.8031],[10.829,12.8008],[10.8223,12.7986],[10.7976,12.7918],[10.7819,12.7851],[10.7774,12.7806],[10.7706,12.7784],[10.7662,12.7761],[10.7527,12.7716],[10.7482,12.7716],[10.737,12.7694],[10.7325,12.7671],[10.7235,12.7649],[10.719,12.7626],[10.7167,12.7604],[10.7055,12.7581],[10.701,12.7581],[10.692,12.7559],[10.6876,12.7559],[10.6831,12.7559],[10.6786,12.7559],[10.6718,12.7536],[10.6606,12.7492],[10.6561,12.7469],[10.6494,12.7402],[10.6449,12.7357],[10.6359,12.7267],[10.6337,12.7245],[10.6247,12.7132],[10.6179,12.7065],[10.6157,12.702],[10.609,12.6975],[10.6022,12.693],[10.6,12.693],[10.5977,12.6908],[10.5977,12.6863],[10.5977,12.684],[10.5955,12.6706],[10.5955,12.6571],[10.5955,12.6548],[10.5977,12.6481],[10.5977,12.6414],[10.5977,12.6391],[10.5977,12.6324],[10.5955,12.6234],[10.5977,12.6167],[10.5977,12.592],[10.6,12.5807],[10.5977,12.5762],[10.5955,12.5695],[10.591,12.5583],[10.591,12.5448],[10.5932,12.5358],[10.591,12.5313],[10.5887,12.5268],[10.591,12.5223]]]}},{"type":"Feature","properties":{"id":"yobe/karasuwa","name":"Karasuwa","state":"Yobe"},"geometry":{"type":"Polygon","coordinates":[[[10.5146,12.8278],[10.5236,12.83],[10.5371,12.83],[10.5506,12.8255],[10.5595,12.8233],[10.5663,12.8188],[10.5708,12.8165],[10.5753,12.812],[10.5775,12.8075],[10.5775,12.8143],[10.5842,12.821],[10.5955,12.8255],[10.6022,12.8278],[10.609,12.83],[10.6202,12.8345],[10.6247,12.8367],[10.6337,12.8412],[10.6359,12.8435],[10.6449,12.848],[10.6673,12.857],[10.6763,12.8592],[10.692,12.8614],[10.6965,12.8614],[10.719,12.8614],[10.728,12.8592],[10.7325,12.8592],[10.7347,12.8592],[10.7482,12.8614],[10.7617,12.8659],[10.7706,12.8704],[10.7751,12.8727],[10.7909,12.8749],[10.7976,12.8749],[10.8043,12.8727],[10.8088,12.8704],[10.8223,12.8682],[10.8245,12.8682],[10.8313,12.8704],[10.8448,12.8727],[10.8605,12.8749],[10.8672,12.8749],[10.8762,12.8727],[10.8874,12.8682],[10.8964,12.8682],[10.9278,12.8682],[10.9391,12.8682],[10.9458,12.8682],[10.9548,12.8659],[10.966,12.8682],[10.9795,12.8704],[10.984,12.8704],[10.9885,12.8682],[10.993,12.8682],[11.0087,12.8659],[11.0154,12.8659],[11.0199,12.8682],[11.0244,12.8682],[11.0379,12.8727],[11.0424,12.8749],[11.0469,12.8749],[11.0514,12.8727],[11.0536,12.8727],[11.0581,12.8839],[11.0626,12.8906],[11.0648,12.8974],[11.0648,12.9019],[11.0648,12.9041],[11.0648,12.9131],[11.0626,12.9221],[11.0626,12.9311],[11.0603,12.94],[11.0603,12.9423],[11.0514,12.9603],[11.0469,12.9647],[11.0469,12.9692],[11.0379,12.976],[11.0334,12.9805],[11.0222,12.9872],[11.0177,12.9895],[11.0042,12.9917],[10.9952,12.9917],[10.9885,12.9939],[10.984,12.9939],[10.9795,12.9939],[10.9705,12.9917],[10.9548,12.9939],[10.9278,12.9984],[10.9166,12.9984],[10.9099,12.9962],[10.9054,12.9962],[10.8987,12.9984],[10.8919,13.0007],[10.8784,13.0097],[10.8739,13.0119],[10.8717,13.0142],[10.8672,13.0209],[10.8672,13.0231],[10.8672,13.0299],[10.8672,13.0344],[10.8695,13.0366],[10.8717,13.0433],[10.8739,13.0456],[10.8784,13.0456],[10.8852,13.0501],[10.8942,13.0613],[10.8964,13.0658],[10.8987,13.0815],[10.8964,13.0905],[10.8919,13.104],[10.8852,13.1085],[10.8672,13.1152],[10.8425,13.122],[10.8335,13.1264],[10.8313,13.1264],[10.8178,13.1264],[10.7909,13.1242],[10.7841,13.1242],[10.7774,13.1242],[10.7639,13.1242],[10.7572,13.1264],[10.7504,13.1264],[10.7437,13.1242],[10.7414,13.122],[10.7347,13.1175],[10.7325,13.1175],[10.728,13.1152],[10.7235,13.1152],[10.7167,13.1107],[10.7123,13.1062],[10.6988,13.095],[10.692,13.0883],[10.6876,13.0838],[10.6808,13.0748],[10.6741,13.0636],[10.6718,13.0591],[10.6718,13.0546],[10.6718,13.0523],[10.6741,13.0478],[10.6786,13.0456],[10.6808,13.0456],[10.701,13.0433],[10.7235,13.0433],[10.728,13.0433],[10.7302,13.0411],[10.7347,13.0344],[10.7347,13.0321],[10.737,13.0276],[10.7347,13.0231],[10.7302,13.0186],[10.728,13.0164],[10.7257,13.0164],[10.7167,13.0164],[10.7033,13.0142],[10.6988,13.0142],[10.692,13.0142],[10.6786,13.0164],[10.6696,13.0186],[10.6651,13.0164],[10.6606,13.0164],[10.6426,13.0164],[10.6202,13.0186],[10.6067,13.0186],[10.591,13.0209],[10.582,13.0231],[10.5753,13.0231],[10.5708,13.0231],[10.5685,13.0186],[10.5663,13.0164],[10.564,13.0142],[10.5573,13.0097],[10.5506,13.0074],[10.5483,13.0029],[10.5416,12.9984],[10.5214,12.985],[10.5191,12.9805],[10.5146,12.976],[10.5124,12.9715],[10.5101,12.9692],[10.5079,12.958],[10.5101,12.9468],[10.5146,12.9378],[10.5169,12.9356],[10.5303,12.9221],[10.5348,12.9153],[10.5483,12.8996],[10.5685,12.8794],[10.573,12.8727],[10.5753,12.8704],[10.573,12.857],[10.5708,12.8457],[10.5663,12.839],[10.5595,12.8345],[10.5461,12.8367],[10.5393,12.839],[10.5281,12.839],[10.5236,12.8367],[10.5146,12.8322],[10.5124,12.83],[10.5079,12.8255],[10.5146,12.8278]]]}},{"type":"Feature","properties":{"id":"yobe/machina","name":"Machina","state":"Yobe"},"geometry":{"type":"Polygon","coordinates":[[[9.6702,12.8098],[9.6815,12.8098],[9.6927,12.812],[9.7017,12.812],[9.7106,12.812],[9.7174,12.812],[9.7241,12.812],[9.7264,12.812],[9.7354,12.8098],[9.7443,12.8098],[9.7488,12.8098],[9.7645,12.8098],[9.7735,12.8098],[9.7803,12.812],[9.796,12.8143],[9.8005,12.8143],[9.8117,12.8165],[9.8229,12.8188],[9.8342,12.821],[9.8454,12.8255],[9.8701,12.8345],[9.8746,12.8367],[9.8881,12.848],[9.8926,12.8547],[9.9015,12.8659],[9.906,12.8727],[9.915,12.8884],[9.9195,12.9019],[9.9262,12.9198],[9.9375,12.9445],[9.9397,12.9468],[9.9442,12.9513],[9.9487,12.9558],[9.9554,12.9603],[9.9734,12.9692],[9.9824,12.9737],[9.9891,12.9737],[9.9959,12.9737],[10.0026,12.9737],[10.0183,12.9827],[10.0295,12.9827],[10.0363,12.985],[10.043,12.9872],[10.0498,12.9917],[10.0587,12.9939],[10.0655,12.9984],[10.07,12.9984],[10.0879,13.0029],[10.0969,13.0029],[10.1014,13.0029],[10.1059,13.0029],[10.1149,13.0029],[10.1171,13.0029],[10.1216,13.0029],[10.1373,13.0074],[10.1418,13.0097],[10.1463,13.0097],[10.1553,13.0142],[10.1688,13.0186],[10.1823,13.0231],[10.1867,13.0254],[10.198,13.0344],[10.2025,13.0366],[10.2047,13.0389],[10.207,13.0411],[10.2182,13.0433],[10.2204,13.0433],[10.2272,13.0433],[10.2339,13.0433],[10.2362,13.0411],[10.2451,13.0344],[10.2474,13.0344],[10.2496,13.0389],[10.2519,13.0501],[10.2564,13.0613],[10.2564,13.0681],[10.2541,13.077],[10.2496,13.095],[10.2474,13.1017],[10.2519,13.1287],[10.2519,13.1422],[10.2541,13.1646],[10.2541,13.1714],[10.2586,13.1848],[10.2609,13.1893],[10.2609,13.1938],[10.2631,13.2028],[10.2631,13.2095],[10.2609,13.214],[10.2609,13.2208],[10.2609,13.2253],[10.2631,13.2297],[10.2631,13.2365],[10.2653,13.2432],[10.2676,13.2455],[10.2766,13.2612],[10.2811,13.2679],[10.2811,13.2702],[10.2811,13.2724],[10.2766,13.2702],[10.2698,13.2702],[10.2631,13.2702],[10.2586,13.2724],[10.2496,13.2702],[10.2429,13.2702],[10.2339,13.2679],[10.2249,13.2679],[10.2227,13.2679],[10.2159,13.2679],[10.207,13.2679],[10.2025,13.2657],[10.1957,13.2634],[10.189,13.2612],[10.1823,13.2589],[10.1755,13.2545],[10.1688,13.2522],[10.162,13.2477],[10.1531,13.2455],[10.1463,13.241],[10.1396,13.2387],[10.1328,13.2365],[10.1306,13.2342],[10.1261,13.232],[10.1239,13.2297],[10.1149,13.2275],[10.1081,13.223],[10.0992,13.2208],[10.0924,13.2163],[10.0834,13.214],[10.0767,13.2095],[10.0677,13.2073],[10.061,13.2028],[10.0385,13.1893],[10.034,13.1826],[10.0273,13.1803],[10.0228,13.1781],[10.0161,13.1758],[10.0116,13.1714],[10.0048,13.1691],[10.0004,13.1646],[9.9959,13.1624],[9.9914,13.1556],[9.9846,13.1534],[9.9824,13.1489],[9.9801,13.1444],[9.9465,13.1085],[9.9352,13.095],[9.9128,13.0703],[9.9015,13.0591],[9.897,13.0568],[9.8948,13.0568],[9.8903,13.0523],[9.8858,13.0478],[9.8813,13.0433],[9.8768,13.0411],[9.8723,13.0366],[9.8701,13.0366],[9.8634,13.0299],[9.8589,13.0254],[9.8521,13.0209],[9.8476,13.0142],[9.8431,13.0097],[9.8364,13.0029],[9.8319,12.9962],[9.8297,12.9895],[9.8252,12.9827],[9.8207,12.976],[9.8162,12.9692],[9.8117,12.967],[9.8072,12.9603],[9.8027,12.9535],[9.7937,12.9423],[9.7892,12.94],[9.7848,12.9356],[9.7803,12.9311],[9.7758,12.9266],[9.7735,12.9221],[9.769,12.9176],[9.7623,12.9108],[9.7421,12.8906],[9.7354,12.8839],[9.7286,12.8772],[9.7219,12.8704],[9.7174,12.8637],[9.7106,12.8592],[9.7062,12.8547],[9.6994,12.848],[9.6949,12.8435],[9.6927,12.839],[9.6882,12.8345],[9.677,12.8233],[9.6657,12.8143],[9.659,12.8098],[9.6702,12.8098]]]}},{"type":"Feature","properties":{"id":"yobe/nangere","name":"Nangere","state":"Yobe"},"geometry":{"type":"Polygon","coordinates":[[[10.8088,11.8531],[10.8111,11.8486],[10.8156,11.8419],[10.8268,11.8284],[10.8313,11.8239],[10.8335,11.8239],[10.838,11.8239],[10.847,11.8217],[10.8515,11.8194],[10.856,11.8172],[10.8627,11.7992],[10.8627,11.7835],[10.865,11.779],[10.8672,11.7723],[10.8717,11.7633],[10.8762,11.7565],[10.8807,11.7543],[10.8852,11.7498],[10.8897,11.7408],[10.9054,11.7049],[10.9076,11.6914],[10.9099,11.6869],[10.9099,11.6824],[10.9099,11.6779],[10.9121,11.6712],[10.9144,11.6667],[10.9189,11.6645],[10.9211,11.6622],[10.9234,11.6555],[10.9256,11.651],[10.9256,11.6465],[10.9256,11.6353],[10.9256,11.6195],[10.9278,11.5993],[10.9278,11.5859],[10.9301,11.5814],[10.9323,11.5701],[10.9323,11.5656],[10.9323,11.5499],[10.9301,11.5387],[10.9278,11.5297],[10.9278,11.5252],[10.9278,11.5185],[10.9301,11.5162],[10.9346,11.5185],[10.9391,11.5207],[10.9593,11.532],[10.966,11.5387],[10.9728,11.5454],[10.9817,11.5544],[10.9907,11.5679],[11.002,11.5791],[11.0064,11.5814],[11.0109,11.5859],[11.0132,11.5903],[11.0154,11.5926],[11.0222,11.5993],[11.0312,11.6195],[11.0356,11.6263],[11.0379,11.6353],[11.0401,11.6442],[11.0379,11.6487],[11.0334,11.651],[11.0289,11.6555],[11.0267,11.6577],[11.0244,11.66],[11.0222,11.6622],[11.0199,11.6689],[11.0199,11.6734],[11.0199,11.6869],[11.0222,11.6914],[11.0222,11.6959],[11.0244,11.7004],[11.0267,11.7049],[11.0312,11.7116],[11.0424,11.7184],[11.0514,11.7273],[11.0581,11.7341],[11.0581,11.7386],[11.0603,11.7453],[11.0626,11.7475],[11.0671,11.7565],[11.0716,11.7588],[11.0783,11.7655],[11.0851,11.7723],[11.103,11.7857],[11.1075,11.7902],[11.1142,11.7947],[11.1255,11.7992],[11.13,11.8037],[11.1389,11.8104],[11.1502,11.8172],[11.1569,11.8194],[11.1614,11.8217],[11.1659,11.8217],[11.1681,11.8261],[11.1637,11.8284],[11.1547,11.8284],[11.1524,11.8261],[11.1434,11.8306],[11.13,11.8351],[11.1255,11.8351],[11.1232,11.8374],[11.1187,11.8396],[11.1098,11.8464],[11.0985,11.8576],[11.094,11.8621],[11.0873,11.8688],[11.0806,11.8733],[11.0761,11.8756],[11.0716,11.88],[11.0671,11.8823],[11.0603,11.8913],[11.0514,11.9025],[11.0424,11.9092],[11.0379,11.916],[11.0244,11.9339],[11.0199,11.9452],[11.0177,11.9542],[11.0154,11.9609],[11.0109,11.9789],[11.0109,11.9901],[11.0109,12.0013],[11.0154,12.0238],[11.0154,12.0305],[11.0199,12.0373],[11.0244,12.0462],[11.0289,12.0597],[11.0312,12.0687],[11.0334,12.0732],[11.0356,12.0777],[11.0379,12.0822],[11.0312,12.0777],[11.0132,12.0687],[11.0064,12.0642],[10.9997,12.062],[10.9952,12.0597],[10.9907,12.0575],[10.9862,12.0552],[10.9817,12.053],[10.9683,12.044],[10.966,12.0395],[10.9413,12.0193],[10.9323,12.0125],[10.9211,12.0036],[10.9121,11.9946],[10.9031,11.9856],[10.8897,11.9699],[10.8739,11.9564],[10.8717,11.9519],[10.865,11.9452],[10.8537,11.9317],[10.847,11.9227],[10.8425,11.916],[10.838,11.907],[10.8313,11.8958],[10.8268,11.8913],[10.8223,11.8868],[10.8178,11.8868],[10.8156,11.8823],[10.8133,11.88],[10.8111,11.8756],[10.8066,11.8666],[10.8066,11.8621],[10.8066,11.8576],[10.8088,11.8531]]]}},{"type":"Feature","properties":{"id":"yobe/nguru","name":"Nguru","state":"Yobe"},"geometry":{"type":"Polygon","coordinates":[[[10.2496,12.8457],[10.2519,12.8435],[10.2676,12.8412],[10.2721,12.8412],[10.2788,12.8412],[10.299,12.848],[10.3058,12.8502],[10.3192,12.8547],[10.3215,12.8547],[10.3305,12.857],[10.335,12.8592],[10.3417,12.8592],[10.3484,12.8614],[10.3664,12.8614],[10.3754,12.8592],[10.3911,12.8525],[10.3934,12.8525],[10.4046,12.8435],[10.4158,12.8412],[10.4203,12.8412],[10.436,12.839],[10.4428,12.8367],[10.445,12.8322],[10.454,12.8255],[10.4607,12.821],[10.4787,12.821],[10.4854,12.821],[10.4899,12.821],[10.5012,12.8233],[10.5034,12.8255],[10.5056,12.8255],[10.5079,12.8255],[10.5124,12.83],[10.5146,12.8322],[10.5236,12.8367],[10.5281,12.839],[10.5393,12.839],[10.5461,12.8367],[10.5595,12.8345],[10.5663,12.839],[10.5708,12.8457],[10.573,12.857],[10.5753,12.8704],[10.573,12.8727],[10.5685,12.8794],[10.5483,12.8996],[10.5348,12.9153],[10.5303,12.9221],[10.5169,12.9356],[10.5146,12.9378],[10.5101,12.9468],[10.5079,12.958],[10.5101,12.9692],[10.5124,12.9715],[10.5146,12.976],[10.5191,12.9805],[10.5214,12.985],[10.5416,12.9984],[10.5483,13.0029],[10.5506,13.0074],[10.5573,13.0097],[10.564,13.0142],[10.5663,13.0164],[10.5685,13.0186],[10.5708,13.0231],[10.5685,13.0254],[10.564,13.0276],[10.5595,13.0299],[10.5573,13.0321],[10.5528,13.0321],[10.5438,13.0411],[10.5416,13.0433],[10.5393,13.0456],[10.5348,13.0523],[10.5281,13.0636],[10.5281,13.0658],[10.5236,13.0725],[10.5101,13.086],[10.5012,13.0928],[10.4967,13.0972],[10.4809,13.1062],[10.4697,13.113],[10.4517,13.1242],[10.436,13.1287],[10.4203,13.1332],[10.4068,13.1354],[10.3956,13.1354],[10.3889,13.1354],[10.3664,13.1377],[10.3529,13.1377],[10.335,13.1332],[10.3305,13.1332],[10.317,13.1287],[10.3058,13.1242],[10.2968,13.1197],[10.2945,13.1152],[10.2923,13.1107],[10.2901,13.1085],[10.2833,13.1085],[10.2766,13.104],[10.2743,13.0995],[10.2743,13.0972],[10.2721,13.0928],[10.2653,13.0838],[10.2631,13.077],[10.2564,13.0681],[10.2564,13.0613],[10.2519,13.0501],[10.2496,13.0389],[10.2474,13.0344],[10.2474,13.0299],[10.2496,13.0254],[10.2541,13.0186],[10.2564,13.0074],[10.2586,13.0007],[10.2631,12.9872],[10.2653,12.9827],[10.2743,12.9715],[10.2766,12.967],[10.2788,12.9647],[10.2788,12.9603],[10.2811,12.9558],[10.2811,12.9513],[10.2811,12.949],[10.2811,12.9378],[10.2811,12.9333],[10.2788,12.9266],[10.2766,12.9198],[10.2743,12.9153],[10.2721,12.8996],[10.2721,12.8929],[10.2721,12.8884],[10.2721,12.8861],[10.2676,12.8772],[10.2609,12.8704],[10.2564,12.8659],[10.2519,12.8614],[10.2474,12.8547],[10.2474,12.8502],[10.2496,12.8457]]]}},{"type":"Feature","properties":{"id":"yobe/potiskum","name":"Potiskum","state":"Yobe"},"geometry":{"type":"Polygon","coordinates":[[[11.0154,11.5859],[11.0244,11.5903],[11.0334,11.5881],[11.0379,11.5859],[11.0446,11.5859],[11.0626,11.5881],[11.0693,11.5881],[11.0851,11.5881],[11.094,11.5881],[11.1255,11.5926],[11.13,11.5926],[11.1389,11.5948],[11.1434,11.5971],[11.1704,11.6061],[11.1726,11.6106],[11.1771,11.6173],[11.1861,11.6285],[11.1906,11.6353],[11.1928,11.6398],[11.1951,11.6442],[11.1951,11.6487],[11.1973,11.6532],[11.1996,11.6555],[11.2018,11.66],[11.2063,11.6622],[11.2131,11.6645],[11.2175,11.6667],[11.2243,11.6712],[11.2333,11.6734],[11.2423,11.6712],[11.2625,11.6645],[11.2714,11.66],[11.2714,11.6645],[11.2714,11.6734],[11.2759,11.6937],[11.2782,11.7071],[11.2827,11.7273],[11.2827,11.7341],[11.2849,11.7453],[11.2872,11.761],[11.2872,11.7723],[11.2849,11.7767],[11.2872,11.7925],[11.2872,11.797],[11.2894,11.8014],[11.2917,11.8059],[11.2917,11.8104],[11.2894,11.8329],[11.2827,11.8396],[11.2759,11.8396],[11.267,11.8374],[11.249,11.8351],[11.2378,11.8351],[11.2198,11.8306],[11.2108,11.8284],[11.1973,11.8261],[11.1839,11.8284],[11.1771,11.8284],[11.1726,11.8261],[11.1681,11.8261],[11.1659,11.8217],[11.1614,11.8217],[11.1569,11.8194],[11.1502,11.8172],[11.1389,11.8104],[11.13,11.8037],[11.1255,11.7992],[11.1142,11.7947],[11.1075,11.7902],[11.103,11.7857],[11.0851,11.7723],[11.0783,11.7655],[11.0716,11.7588],[11.0671,11.7565],[11.0626,11.7475],[11.0603,11.7453],[11.0581,11.7386],[11.0581,11.7341],[11.0514,11.7273],[11.0424,11.7184],[11.0312,11.7116],[11.0267,11.7049],[11.0244,11.7004],[11.0222,11.6959],[11.0222,11.6914],[11.0199,11.6869],[11.0199,11.6734],[11.0199,11.6689],[11.0222,11.6622],[11.0244,11.66],[11.0267,11.6577],[11.0289,11.6555],[11.0334,11.651],[11.0379,11.6487],[11.0401,11.6442],[11.0379,11.6353],[11.0356,11.6263],[11.0312,11.6195],[11.0222,11.5993],[11.0154,11.5926],[11.0132,11.5903],[11.0154,11.5859]]]}},{"type":"Feature","properties":{"id":"yobe/tarmuwa","name":"Tarmuwa","state":"Yobe"},"geometry":{"type":"Polygon","coordinates":[[[11.2512,12.3943],[11.2602,12.3876],[11.2647,12.3853],[11.267,12.3831],[11.2692,12.3764],[11.2692,12.3719],[11.2737,12.3629],[11.2782,12.3584],[11.2804,12.3539],[11.2827,12.3494],[11.2917,12.3337],[11.2962,12.327],[11.3029,12.3135],[11.3051,12.3045],[11.3074,12.2978],[11.3074,12.2955],[11.3051,12.2843],[11.3096,12.2753],[11.3164,12.2596],[11.3209,12.2484],[11.3276,12.2326],[11.3321,12.2236],[11.3388,12.2147],[11.3523,12.2034],[11.3568,12.2012],[11.3658,12.1945],[11.3792,12.1922],[11.3837,12.1922],[11.3927,12.1922],[11.4062,12.1945],[11.4129,12.1922],[11.4219,12.1877],[11.4242,12.1855],[11.4399,12.1675],[11.4444,12.1608],[11.4466,12.1563],[11.4489,12.145],[11.4511,12.1361],[11.4511,12.1226],[11.4511,12.1069],[11.4511,12.0979],[11.4534,12.0799],[11.4601,12.053],[11.4623,12.0485],[11.4623,12.044],[11.4668,12.035],[11.4713,12.0305],[11.4736,12.0283],[11.4803,12.0215],[11.4915,12.017],[11.4983,12.017],[11.5028,12.017],[11.5095,12.017],[11.5117,12.0148],[11.5185,12.0125],[11.532,12.0103],[11.5364,12.0103],[11.5409,12.0103],[11.5477,12.0103],[11.5589,12.0103],[11.5656,12.0081],[11.5791,11.9968],[11.5859,11.9923],[11.5881,11.9901],[11.5903,11.9856],[11.5971,11.9766],[11.6016,11.9721],[11.6061,11.9699],[11.6083,11.9699],[11.6173,11.9631],[11.6263,11.9519],[11.633,11.9497],[11.6398,11.9429],[11.6442,11.9384],[11.6487,11.9407],[11.6757,11.9519],[11.6914,11.9564],[11.7049,11.9654],[11.7184,11.9676],[11.7318,11.9744],[11.7363,11.9766],[11.7475,11.9766],[11.7543,11.9766],[11.7655,11.9766],[11.779,11.9721],[11.7992,11.9699],[11.8037,11.9676],[11.8082,11.9631],[11.8172,11.9586],[11.8261,11.9519],[11.8351,11.9474],[11.8509,11.9474],[11.8553,11.9474],[11.8666,11.9497],[11.8711,11.9497],[11.8778,11.9497],[11.8913,11.9542],[11.8958,11.9564],[11.9048,11.9586],[11.9092,11.9586],[11.9137,11.9586],[11.916,11.9609],[11.925,11.9631],[11.9362,11.9676],[11.9519,11.9744],[11.9721,11.9834],[11.9789,11.9856],[11.9878,11.9923],[11.9946,11.9968],[12.0013,11.9968],[12.0081,11.9968],[12.0148,11.9968],[12.017,11.9923],[12.026,11.9878],[12.0417,11.9811],[12.0485,11.9789],[12.053,11.9789],[12.062,11.9789],[12.0732,11.9834],[12.0799,11.9834],[12.0889,11.9811],[12.0979,11.9811],[12.1114,11.9834],[12.1203,11.9834],[12.1316,11.9901],[12.1383,11.9923],[12.1473,11.9968],[12.154,11.9991],[12.1585,12.0013],[12.1742,12.0036],[12.1832,12.0058],[12.1989,12.0058],[12.2034,12.0058],[12.2124,12.0058],[12.2326,12.0058],[12.2371,12.0058],[12.2416,12.0081],[12.2439,12.0081],[12.2506,12.0081],[12.2506,12.0125],[12.2528,12.017],[12.2573,12.0462],[12.2618,12.0642],[12.2686,12.0889],[12.2708,12.0979],[12.2753,12.1091],[12.2843,12.1428],[12.2888,12.163],[12.291,12.1698],[12.3,12.2012],[12.3022,12.2192],[12.3045,12.2281],[12.3045,12.2349],[12.3045,12.2484],[12.3045,12.2573],[12.3045,12.2618],[12.3045,12.2775],[12.3067,12.2843],[12.3067,12.291],[12.3045,12.3135],[12.3022,12.3202],[12.2978,12.3292],[12.2865,12.3539],[12.2775,12.3674],[12.2753,12.3786],[12.2686,12.3921],[12.2618,12.4145],[12.2596,12.4213],[12.2528,12.419],[12.2484,12.4168],[12.2281,12.3943],[12.2214,12.3876],[12.2192,12.3853],[12.2124,12.3831],[12.2057,12.3786],[12.1989,12.3764],[12.1877,12.3764],[12.1832,12.3764],[12.1765,12.3741],[12.1495,12.3741],[12.1293,12.3741],[12.1181,12.3719],[12.1046,12.3696],[12.1001,12.3674],[12.0911,12.3651],[12.0777,12.3651],[12.062,12.3651],[12.0575,12.3674],[12.053,12.3696],[12.0485,12.3696],[12.044,12.3674],[12.0417,12.3629],[12.035,12.3584],[12.0193,12.3539],[12.0081,12.3494],[11.9968,12.3494],[11.9923,12.3494],[11.9834,12.3517],[11.9789,12.3539],[11.9744,12.3561],[11.9699,12.3584],[11.9609,12.3606],[11.9542,12.3606],[11.9519,12.3606],[11.9317,12.3561],[11.9272,12.3539],[11.9182,12.3539],[11.9115,12.3539],[11.9048,12.3561],[11.9025,12.3584],[11.898,12.3584],[11.8868,12.3606],[11.8733,12.3606],[11.8576,12.3606],[11.8509,12.3584],[11.8464,12.3584],[11.8329,12.3606],[11.8284,12.3629],[11.8217,12.3629],[11.8127,12.3584],[11.8104,12.3539],[11.797,12.3517],[11.7857,12.3561],[11.7812,12.3584],[11.779,12.3584],[11.7723,12.3606],[11.761,12.3606],[11.7296,12.3629],[11.7251,12.3629],[11.7206,12.3651],[11.7094,12.3696],[11.7026,12.3719],[11.6892,12.3809],[11.6847,12.3853],[11.6802,12.3876],[11.6712,12.3988],[11.6667,12.4056],[11.6622,12.4213],[11.6622,12.437],[11.6622,12.4415],[11.6645,12.4482],[11.6667,12.455],[11.6689,12.4595],[11.6667,12.4617],[11.6689,12.4684],[11.6712,12.4707],[11.6645,12.4752],[11.6555,12.4774],[11.6308,12.4819],[11.624,12.4842],[11.6061,12.4797],[11.6016,12.4797],[11.5881,12.4752],[11.5724,12.4662],[11.5679,12.4617],[11.5634,12.4617],[11.5589,12.4617],[11.5567,12.4662],[11.5522,12.4684],[11.5499,12.4707],[11.5454,12.4684],[11.5432,12.4684],[11.5364,12.4662],[11.5342,12.4662],[11.523,12.4662],[11.5185,12.4662],[11.5117,12.4662],[11.5073,12.4684],[11.5028,12.4662],[11.4915,12.4617],[11.4848,12.4572],[11.4803,12.4595],[11.4758,12.4639],[11.4691,12.4617],[11.4601,12.4595],[11.4534,12.4572],[11.4511,12.455],[11.4399,12.455],[11.4354,12.455],[11.4264,12.455],[11.4129,12.4527],[11.377,12.4437],[11.3658,12.4415],[11.3568,12.437],[11.3456,12.4303],[11.3343,12.4258],[11.3276,12.4258],[11.3074,12.4168],[11.3051,12.4168],[11.2894,12.41],[11.2804,12.4078],[11.2759,12.4078],[11.2714,12.4078],[11.2625,12.4078],[11.258,12.4078],[11.2467,12.4056],[11.2423,12.4056],[11.2512,12.3943]]]}},{"type":"Feature","properties":{"id":"yobe/yunusari","name":"Yunusari","state":"Yobe"},"geometry":{"type":"Polygon","coordinates":[[[12.2775,13.0838],[12.2753,13.0838],[12.2753,13.0815],[12.2731,13.0815],[12.2708,13.0838],[12.2708,13.0905],[12.2708,13.095],[12.2731,13.0972],[12.2731,13.104],[12.2731,13.1062],[12.2708,13.1062],[12.2708,13.1085],[12.2641,13.1152],[12.2573,13.1175],[12.2551,13.1175],[12.2506,13.1175],[12.2461,13.1175],[12.2394,13.1175],[12.2371,13.1175],[12.2371,13.1152],[12.2349,13.1107],[12.2304,13.1107],[12.2281,13.113],[12.2259,13.1152],[12.2236,13.1152],[12.2236,13.113],[12.2214,13.113],[12.2147,13.1152],[12.2124,13.1152],[12.2102,13.1175],[12.2079,13.1197],[12.2079,13.122],[12.2102,13.1242],[12.2057,13.1242],[12.2034,13.1264],[12.2034,13.1287],[12.2012,13.1309],[12.1989,13.1309],[12.19,13.1264],[12.1877,13.1242],[12.1855,13.1242],[12.1855,13.122],[12.1855,13.1197],[12.1832,13.1197],[12.181,13.1175],[12.181,13.1197],[12.1787,13.1197],[12.1787,13.122],[12.181,13.122],[12.181,13.1242],[12.181,13.1264],[12.1787,13.1264],[12.1765,13.1242],[12.1765,13.1197],[12.1765,13.1175],[12.1832,13.113],[12.1832,13.1107],[12.1855,13.1107],[12.1877,13.1107],[12.1877,13.1085],[12.1855,13.1085],[12.181,13.1062],[12.181,13.1085],[12.1787,13.1085],[12.1765,13.1085],[12.1742,13.1062],[12.172,13.104],[12.1698,13.104],[12.163,13.1017],[12.163,13.104],[12.1608,13.104],[12.1585,13.1062],[12.1585,13.1085],[12.1518,13.1085],[12.1495,13.1062],[12.1518,13.0995],[12.1495,13.0972],[12.1383,13.0995],[12.1338,13.104],[12.1316,13.1017],[12.1316,13.095],[12.1293,13.0905],[12.1226,13.0905],[12.1203,13.0928],[12.1181,13.0928],[12.1136,13.0905],[12.1046,13.0928],[12.0956,13.0972],[12.0889,13.1017],[12.0822,13.1062],[12.0732,13.1107],[12.0664,13.1152],[12.0597,13.1197],[12.053,13.122],[12.0462,13.1264],[12.0462,13.1287],[12.0417,13.1309],[12.026,13.1399],[12.0148,13.1511],[12.0125,13.1579],[12.0058,13.1624],[12.0013,13.1691],[11.9946,13.1736],[11.9901,13.1758],[11.9429,13.2118],[11.9295,13.223],[11.9227,13.2253],[11.916,13.2297],[11.9115,13.232],[11.9048,13.2365],[11.898,13.2387],[11.8913,13.2432],[11.8845,13.2455],[11.88,13.2477],[11.8756,13.25],[11.8666,13.2522],[11.8598,13.2522],[11.8509,13.2545],[11.8441,13.2567],[11.8351,13.2589],[11.8284,13.2589],[11.8149,13.2634],[11.8104,13.2634],[11.8014,13.2657],[11.7947,13.2679],[11.7857,13.2679],[11.7767,13.2679],[11.7723,13.2724],[11.7655,13.2724],[11.761,13.2724],[11.7588,13.2747],[11.752,13.2747],[11.7431,13.2747],[11.7386,13.2769],[11.7341,13.2792],[11.7273,13.2792],[11.6959,13.2859],[11.6869,13.2904],[11.6802,13.2926],[11.6712,13.2949],[11.6667,13.2949],[11.6622,13.2994],[11.6577,13.3016],[11.651,13.3016],[11.6442,13.3039],[11.6375,13.3061],[11.6308,13.3083],[11.6263,13.3106],[11.6173,13.3128],[11.6106,13.3173],[11.6016,13.3196],[11.5971,13.3218],[11.5903,13.3263],[11.5836,13.3286],[11.5769,13.3308],[11.5679,13.3353],[11.5612,13.3375],[11.5544,13.342],[11.5477,13.3443],[11.5387,13.3488],[11.532,13.351],[11.523,13.351],[11.523,13.3533],[11.5162,13.3533],[11.5095,13.3533],[11.5005,13.3555],[11.4938,13.3555],[11.4848,13.3578],[11.4803,13.3555],[11.4691,13.3578],[11.4646,13.36],[11.4578,13.36],[11.4511,13.3622],[11.4444,13.3622],[11.4287,13.3645],[11.4197,13.3667],[11.4129,13.3667],[11.4039,13.369],[11.395,13.369],[11.3882,13.3712],[11.3815,13.3712],[11.3748,13.3712],[11.368,13.3712],[11.359,13.3712],[11.35,13.3735],[11.3433,13.3735],[11.3343,13.3735],[11.3253,13.3735],[11.3186,13.3735],[11.3096,13.3735],[11.3029,13.3735],[11.2962,13.3735],[11.2894,13.3735],[11.2849,13.3735],[11.2804,13.3735],[11.2827,13.3667],[11.2827,13.36],[11.2804,13.3555],[11.2804,13.3465],[11.2804,13.3286],[11.2827,13.3016],[11.2849,13.2904],[11.2872,13.2859],[11.2939,13.2769],[11.2962,13.2679],[11.2984,13.2589],[11.3029,13.241],[11.3051,13.2297],[11.3051,13.2208],[11.3051,13.2118],[11.3051,13.2073],[11.3029,13.2006],[11.3029,13.1983],[11.3051,13.1826],[11.3051,13.1669],[11.3074,13.1579],[11.3096,13.1511],[11.3119,13.1444],[11.3209,13.1377],[11.3276,13.1354],[11.3343,13.1309],[11.3433,13.1242],[11.3523,13.1175],[11.3658,13.1062],[11.3703,13.0995],[11.3725,13.095],[11.377,13.086],[11.3792,13.0815],[11.3815,13.077],[11.3837,13.0703],[11.3927,13.0613],[11.3927,13.0568],[11.3995,13.0523],[11.4039,13.0501],[11.4084,13.0411],[11.4107,13.0366],[11.4129,13.0321],[11.4129,13.0276],[11.4152,13.0119],[11.4152,13.0097],[11.4129,13.0052],[11.3995,12.9939],[11.3972,12.9917],[11.3905,12.9895],[11.395,12.985],[11.4017,12.9827],[11.4152,12.9782],[11.4242,12.9782],[11.4287,12.9782],[11.4646,12.9737],[11.4736,12.9737],[11.4825,12.9737],[11.487,12.9715],[11.4915,12.9692],[11.5028,12.9715],[11.5117,12.9715],[11.5207,12.9715],[11.5297,12.9737],[11.5387,12.976],[11.5544,12.9782],[11.5612,12.9782],[11.5814,12.9782],[11.6061,12.9737],[11.6195,12.9737],[11.6375,12.9715],[11.6487,12.9692],[11.6667,12.9603],[11.6869,12.9468],[11.6959,12.9423],[11.7049,12.9356],[11.7094,12.9311],[11.7161,12.9176],[11.7184,12.9064],[11.7184,12.8929],[11.7139,12.8772],[11.7094,12.8637],[11.7049,12.8547],[11.7049,12.848],[11.7049,12.8367],[11.7116,12.8233],[11.7139,12.8188],[11.7161,12.821],[11.7296,12.8278],[11.7318,12.83],[11.7453,12.8345],[11.7498,12.8367],[11.7588,12.839],[11.77,12.8412],[11.7767,12.8412],[11.7835,12.8412],[11.7857,12.8435],[11.7925,12.848],[11.8014,12.8525],[11.8059,12.8525],[11.8239,12.857],[11.8306,12.857],[11.8396,12.8592],[11.8419,12.8614],[11.8509,12.8637],[11.8576,12.8659],[11.8621,12.8659],[11.8643,12.8637],[11.8688,12.8637],[11.8778,12.8637],[11.8845,12.8659],[11.8935,12.8682],[11.8958,12.8704],[11.9003,12.8727],[11.9025,12.8749],[11.9025,12.8794],[11.9025,12.8817],[11.9003,12.8929],[11.8958,12.8951],[11.8935,12.8951],[11.889,12.9086],[11.8913,12.9131],[11.8913,12.9176],[11.9048,12.9221],[11.9205,12.9266],[11.9227,12.9288],[11.9272,12.9288],[11.9362,12.9288],[11.9564,12.9288],[11.9654,12.9288],[11.9721,12.9266],[11.9923,12.9176],[12.0103,12.9108],[12.0193,12.9086],[12.0373,12.9041],[12.0485,12.8996],[12.0732,12.8996],[12.0777,12.8996],[12.0822,12.8996],[12.0934,12.9019],[12.1316,12.9064],[12.1406,12.9064],[12.145,12.9086],[12.1473,12.9108],[12.1518,12.9108],[12.154,12.9131],[12.1698,12.9131],[12.1832,12.9153],[12.19,12.9153],[12.2034,12.9176],[12.2057,12.9221],[12.2192,12.9243],[12.2281,12.9243],[12.2326,12.9243],[12.2371,12.9266],[12.2416,12.9266],[12.2484,12.9288],[12.2506,12.9333],[12.2551,12.9378],[12.2573,12.9423],[12.2618,12.9468],[12.2663,12.9468],[12.2686,12.9468],[12.2731,12.9468],[12.2775,12.949],[12.3,12.958],[12.3067,12.9625],[12.3135,12.9647],[12.3202,12.9692],[12.3225,12.9715],[12.3427,12.9782],[12.3561,12.9827],[12.3606,12.9827],[12.3674,12.985],[12.3719,12.985],[12.3898,12.9917],[12.3966,12.9962],[12.4011,12.9984],[12.4033,13.0097],[12.4033,13.0119],[12.4033,13.0164],[12.4011,13.0209],[12.4011,13.0231],[12.4011,13.0299],[12.3966,13.0478],[12.3943,13.0681],[12.3943,13.077],[12.3921,13.0748],[12.3898,13.0748],[12.3831,13.0748],[12.3831,13.077],[12.3809,13.077],[12.3809,13.0793],[12.3764,13.0793],[12.3741,13.0793],[12.3741,13.077],[12.3719,13.077],[12.3696,13.0748],[12.3696,13.077],[12.3674,13.077],[12.3674,13.0793],[12.3674,13.0815],[12.3696,13.0838],[12.3696,13.086],[12.3719,13.086],[12.3719,13.0883],[12.3719,13.0905],[12.3696,13.0928],[12.3674,13.0928],[12.3651,13.0905],[12.3561,13.0838],[12.3561,13.0815],[12.3584,13.0815],[12.3584,13.0793],[12.3561,13.0793],[12.3561,13.077],[12.3539,13.077],[12.3539,13.0793],[12.3517,13.0793],[12.3517,13.0815],[12.3494,13.086],[12.3472,13.0883],[12.3427,13.0883],[12.3404,13.0883],[12.3382,13.086],[12.3382,13.0838],[12.3382,13.0815],[12.3382,13.0793],[12.3382,13.077],[12.3404,13.077],[12.3404,13.0748],[12.3404,13.0725],[12.3382,13.0725],[12.3337,13.0725],[12.3314,13.0725],[12.3314,13.0748],[12.3314,13.077],[12.3337,13.0793],[12.3337,13.0838],[12.3337,13.086],[12.3314,13.086],[12.3292,13.086],[12.327,13.086],[12.3247,13.086],[12.3225,13.086],[12.3202,13.0883],[12.318,13.0905],[12.318,13.0928],[12.3157,13.0928],[12.3135,13.0972],[12.3112,13.0972],[12.3067,13.0972],[12.3022,13.0995],[12.3,13.0995],[12.2978,13.0995],[12.2955,13.0995],[12.2933,13.0995],[12.291,13.0995],[12.2888,13.0972],[12.2843,13.095],[12.2775,13.0905],[12.2775,13.0883],[12.2775,13.086],[12.2798,13.086],[12.2798,13.0838],[12.2775,13.0838]],[[12.2798,13.0838],[12.2798,13.0815],[12.282,13.0815],[12.282,13.0793],[12.2843,13.0793],[12.2888,13.0793],[12.2888,13.0815],[12.291,13.0815],[12.2888,13.0838],[12.2865,13.0838],[12.2843,13.0838],[12.282,13.0838],[12.2798,13.0838]]]}},{"type":"Feature","properties":{"id":"yobe/yusufari","name":"Yusufari","state":"Yobe"},"geometry":{"type":"Polygon","coordinates":[[[10.2496,13.095],[10.2541,13.077],[10.2564,13.0681],[10.2631,13.077],[10.2653,13.0838],[10.2721,13.0928],[10.2743,13.0972],[10.2743,13.0995],[10.2766,13.104],[10.2833,13.1085],[10.2901,13.1085],[10.2923,13.1107],[10.2945,13.1152],[10.2968,13.1197],[10.3058,13.1242],[10.317,13.1287],[10.3305,13.1332],[10.335,13.1332],[10.3529,13.1377],[10.3664,13.1377],[10.3889,13.1354],[10.3956,13.1354],[10.4068,13.1354],[10.4203,13.1332],[10.436,13.1287],[10.4517,13.1242],[10.4697,13.113],[10.4809,13.1062],[10.4967,13.0972],[10.5012,13.0928],[10.5101,13.086],[10.5236,13.0725],[10.5281,13.0658],[10.5281,13.0636],[10.5348,13.0523],[10.5393,13.0456],[10.5416,13.0433],[10.5438,13.0411],[10.5528,13.0321],[10.5573,13.0321],[10.5595,13.0299],[10.564,13.0276],[10.5685,13.0254],[10.5708,13.0231],[10.5753,13.0231],[10.582,13.0231],[10.591,13.0209],[10.6067,13.0186],[10.6202,13.0186],[10.6426,13.0164],[10.6606,13.0164],[10.6651,13.0164],[10.6696,13.0186],[10.6786,13.0164],[10.692,13.0142],[10.6988,13.0142],[10.7033,13.0142],[10.7167,13.0164],[10.7257,13.0164],[10.728,13.0164],[10.7302,13.0186],[10.7347,13.0231],[10.737,13.0276],[10.7347,13.0321],[10.7347,13.0344],[10.7302,13.0411],[10.728,13.0433],[10.7235,13.0433],[10.701,13.0433],[10.6808,13.0456],[10.6786,13.0456],[10.6741,13.0478],[10.6718,13.0523],[10.6718,13.0546],[10.6718,13.0591],[10.6741,13.0636],[10.6808,13.0748],[10.6876,13.0838],[10.692,13.0883],[10.6988,13.095],[10.7123,13.1062],[10.7167,13.1107],[10.7235,13.1152],[10.728,13.1152],[10.7325,13.1175],[10.7347,13.1175],[10.7414,13.122],[10.7437,13.1242],[10.7504,13.1264],[10.7572,13.1264],[10.7639,13.1242],[10.7774,13.1242],[10.7841,13.1242],[10.7909,13.1242],[10.8178,13.1264],[10.8313,13.1264],[10.8335,13.1264],[10.8425,13.122],[10.8672,13.1152],[10.8852,13.1085],[10.8919,13.104],[10.8964,13.0905],[10.8987,13.0815],[10.8964,13.0658],[10.8942,13.0613],[10.8852,13.0501],[10.8784,13.0456],[10.8739,13.0456],[10.8717,13.0433],[10.8695,13.0366],[10.8672,13.0344],[10.8672,13.0299],[10.8672,13.0231],[10.8672,13.0209],[10.8717,13.0142],[10.8739,13.0119],[10.8784,13.0097],[10.8919,13.0007],[10.8987,12.9984],[10.9054,12.9962],[10.9099,12.9962],[10.9166,12.9984],[10.9278,12.9984],[10.9548,12.9939],[10.9705,12.9917],[10.9795,12.9939],[10.984,12.9939],[10.9885,12.9939],[10.9952,12.9917],[11.0042,12.9917],[11.0177,12.9895],[11.0222,12.9872],[11.0334,12.9805],[11.0379,12.976],[11.0469,12.9692],[11.0469,12.9647],[11.0514,12.9603],[11.0603,12.9423],[11.0603,12.94],[11.0626,12.9311],[11.0626,12.9221],[11.0648,12.9131],[11.0648,12.9041],[11.0648,12.9019],[11.0648,12.8974],[11.0671,12.9019],[11.0716,12.9041],[11.0828,12.9153],[11.0851,12.9176],[11.0895,12.9176],[11.094,12.9198],[11.103,12.9243],[11.1075,12.9288],[11.112,12.9311],[11.1165,12.9356],[11.1232,12.94],[11.1479,12.949],[11.1569,12.949],[11.1614,12.949],[11.1726,12.9468],[11.1906,12.9513],[11.1973,12.9535],[11.2018,12.9535],[11.2108,12.9535],[11.2153,12.9535],[11.2243,12.9513],[11.2445,12.9513],[11.2535,12.9513],[11.2602,12.9535],[11.2647,12.9535],[11.2737,12.9558],[11.2827,12.9558],[11.2872,12.9558],[11.2894,12.9535],[11.2984,12.9535],[11.3141,12.9558],[11.3164,12.9558],[11.3321,12.9603],[11.3366,12.9625],[11.3433,12.967],[11.3568,12.9737],[11.3658,12.9782],[11.377,12.985],[11.3792,12.985],[11.3837,12.985],[11.3882,12.9872],[11.3905,12.9895],[11.3972,12.9917],[11.3995,12.9939],[11.4129,13.0052],[11.4152,13.0097],[11.4152,13.0119],[11.4129,13.0276],[11.4129,13.0321],[11.4107,13.0366],[11.4084,13.0411],[11.4039,13.0501],[11.3995,13.0523],[11.3927,13.0568],[11.3927,13.0613],[11.3837,13.0703],[11.3815,13.077],[11.3792,13.0815],[11.377,13.086],[11.3725,13.095],[11.3703,13.0995],[11.3658,13.1062],[11.3523,13.1175],[11.3433,13.1242],[11.3343,13.1309],[11.3276,13.1354],[11.3209,13.1377],[11.3119,13.1444],[11.3096,13.1511],[11.3074,13.1579],[11.3051,13.1669],[11.3051,13.1826],[11.3029,13.1983],[11.3029,13.2006],[11.3051,13.2073],[11.3051,13.2118],[11.3051,13.2208],[11.3051,13.2297],[11.3029,13.241],[11.2984,13.2589],[11.2962,13.2679],[11.2939,13.2769],[11.2872,13.2859],[11.2849,13.2904],[11.2827,13.3016],[11.2804,13.3286],[11.2804,13.3465],[11.2804,13.3555],[11.2827,13.36],[11.2827,13.3667],[11.2804,13.3735],[11.2759,13.3735],[11.267,13.3735],[11.258,13.3735],[11.249,13.3735],[11.24,13.3735],[11.231,13.3757],[11.222,13.3757],[11.2131,13.3757],[11.2063,13.3757],[11.1816,13.3757],[11.1749,13.3757],[11.1659,13.3757],[11.1592,13.3757],[11.1547,13.3757],[11.1524,13.3757],[11.1434,13.3757],[11.1389,13.3757],[11.1345,13.3757],[11.1322,13.3757],[11.1232,13.3757],[11.1142,13.3757],[11.1053,13.3757],[11.0963,13.3735],[11.0873,13.3735],[11.0783,13.3735],[11.0693,13.3735],[11.0648,13.3757],[11.0603,13.3735],[11.0514,13.3735],[11.0424,13.3735],[11.0356,13.3735],[11.0289,13.3735],[11.0244,13.3735],[11.0177,13.3735],[11.0087,13.3735],[11.002,13.3735],[10.993,13.3735],[10.9862,13.3735],[10.9773,13.3712],[10.9683,13.3712],[10.9593,13.3712],[10.9503,13.3712],[10.9413,13.3712],[10.9323,13.369],[10.9234,13.369],[10.9166,13.369],[10.9054,13.369],[10.9009,13.369],[10.8942,13.3667],[10.8874,13.3667],[10.8807,13.3667],[10.8739,13.3667],[10.8672,13.3667],[10.8605,13.3667],[10.8537,13.3667],[10.8492,13.3645],[10.8403,13.3645],[10.8313,13.3645],[10.8223,13.3645],[10.8133,13.3645],[10.8066,13.3645],[10.7998,13.3622],[10.7909,13.3622],[10.7819,13.3622],[10.7729,13.3622],[10.7639,13.36],[10.7549,13.36],[10.7459,13.36],[10.737,13.36],[10.7302,13.36],[10.7212,13.36],[10.7123,13.3578],[10.7033,13.3578],[10.6876,13.3578],[10.6786,13.3578],[10.6696,13.3578],[10.6628,13.3555],[10.6539,13.3533],[10.6471,13.351],[10.6404,13.3488],[10.6314,13.3465],[10.6247,13.3443],[10.6179,13.3398],[10.609,13.3375],[10.6,13.3331],[10.5932,13.3308],[10.5865,13.3286],[10.5798,13.3263],[10.5708,13.3241],[10.5663,13.3218],[10.5618,13.3196],[10.5551,13.3173],[10.5461,13.3128],[10.5393,13.3106],[10.5326,13.3083],[10.5259,13.3061],[10.5169,13.3039],[10.5079,13.2994],[10.5012,13.2971],[10.4922,13.2949],[10.4854,13.2904],[10.4787,13.2881],[10.472,13.2859],[10.4675,13.2814],[10.4585,13.2814],[10.4517,13.2814],[10.445,13.2814],[10.4405,13.2814],[10.4383,13.2792],[10.4383,13.2814],[10.4315,13.2814],[10.4226,13.2792],[10.4136,13.2792],[10.4023,13.2769],[10.3934,13.2769],[10.3844,13.2769],[10.3776,13.2769],[10.3687,13.2769],[10.3597,13.2747],[10.3529,13.2747],[10.344,13.2747],[10.3305,13.2747],[10.326,13.2747],[10.317,13.2724],[10.308,13.2724],[10.2945,13.2724],[10.2878,13.2724],[10.2811,13.2724],[10.2811,13.2702],[10.2811,13.2679],[10.2766,13.2612],[10.2676,13.2455],[10.2653,13.2432],[10.2631,13.2365],[10.2631,13.2297],[10.2609,13.2253],[10.2609,13.2208],[10.2609,13.214],[10.2631,13.2095],[10.2631,13.2028],[10.2609,13.1938],[10.2609,13.1893],[10.2586,13.1848],[10.2541,13.1714],[10.2541,13.1646],[10.2519,13.1422],[10.2519,13.1287],[10.2474,13.1017],[10.2496,13.095]]]}}]}