{"type":"FeatureCollection","features":[{"type":"Feature","properties":{"id":"zamfara/anka","name":"Anka","state":"Zamfara"},"geometry":{"type":"Polygon","coordinates":[[[5.7244,12.1338],[5.7289,12.1159],[5.7379,12.1046],[5.7446,12.0956],[5.7536,12.0956],[5.7693,12.0911],[5.7828,12.0911],[5.8075,12.0867],[5.8165,12.0754],[5.8232,12.0507],[5.8255,12.0395],[5.83,12.0283],[5.8345,12.0081],[5.8345,11.9901],[5.8345,11.9811],[5.8345,11.9699],[5.8367,11.9564],[5.8435,11.9362],[5.8435,11.9205],[5.8457,11.9092],[5.8435,11.898],[5.8435,11.8823],[5.8435,11.8643],[5.8435,11.8396],[5.8435,11.8306],[5.8435,11.8194],[5.8435,11.8104],[5.839,11.7947],[5.8345,11.7767],[5.8367,11.7633],[5.8345,11.7475],[5.8322,11.7386],[5.8277,11.7116],[5.83,11.7049],[5.83,11.6981],[5.8232,11.6847],[5.821,11.6734],[5.821,11.6689],[5.8255,11.6712],[5.8435,11.6712],[5.8569,11.6689],[5.8749,11.6667],[5.8861,11.6645],[5.8929,11.6667],[5.9041,11.6667],[5.9198,11.6622],[5.9288,11.6532],[5.94,11.6465],[5.9557,11.642],[5.9647,11.6375],[5.9692,11.633],[5.9827,11.6263],[5.9917,11.6195],[6.0007,11.6106],[6.0096,11.6061],[6.0209,11.6038],[6.0343,11.5971],[6.0411,11.5948],[6.0501,11.5881],[6.0568,11.5881],[6.0725,11.5836],[6.0882,11.5814],[6.0995,11.5791],[6.1107,11.5746],[6.1287,11.5746],[6.1421,11.5701],[6.1511,11.5724],[6.1624,11.5746],[6.1713,11.5881],[6.1713,11.6061],[6.1758,11.615],[6.1803,11.624],[6.1803,11.633],[6.1871,11.651],[6.1915,11.6622],[6.2005,11.6847],[6.2118,11.6937],[6.2252,11.7026],[6.2365,11.7094],[6.2454,11.7139],[6.2499,11.7228],[6.2589,11.7363],[6.2657,11.7475],[6.2701,11.7543],[6.2724,11.7633],[6.2769,11.7723],[6.2814,11.779],[6.2679,11.7857],[6.2499,11.7902],[6.2342,11.8082],[6.2207,11.8509],[6.2095,11.8823],[6.196,11.9048],[6.1803,11.925],[6.1624,11.9339],[6.1466,11.9654],[6.1332,12.0013],[6.1264,12.035],[6.1309,12.0597],[6.1332,12.0799],[6.1332,12.1024],[6.1332,12.1203],[6.1332,12.1293],[6.1309,12.1338],[6.1129,12.1316],[6.095,12.1248],[6.059,12.1248],[6.0164,12.1316],[5.9917,12.1361],[5.9692,12.145],[5.9468,12.1653],[5.94,12.181],[5.9333,12.2102],[5.931,12.2304],[5.9221,12.2416],[5.9131,12.2618],[5.9108,12.2708],[5.9041,12.2888],[5.9018,12.309],[5.8951,12.3314],[5.8884,12.3561],[5.8861,12.3561],[5.8749,12.3494],[5.8547,12.3427],[5.8412,12.3449],[5.8075,12.3427],[5.7828,12.3427],[5.7581,12.3427],[5.7536,12.3404],[5.7424,12.3314],[5.7446,12.3247],[5.7379,12.309],[5.7289,12.2843],[5.7267,12.2753],[5.7267,12.2708],[5.7244,12.2596],[5.7222,12.2484],[5.7244,12.2349],[5.7244,12.2169],[5.7199,12.1989],[5.7222,12.1855],[5.7222,12.1698],[5.7199,12.1563],[5.7244,12.1338]]]}},{"type":"Feature","properties":{"id":"zamfara/bakura","name":"Bakura","state":"Zamfara"},"geometry":{"type":"Polygon","coordinates":[[[5.6952,12.6863],[5.6997,12.6683],[5.7065,12.6526],[5.7132,12.6369],[5.7222,12.6054],[5.7289,12.5897],[5.7334,12.5605],[5.7446,12.5313],[5.7536,12.5066],[5.7604,12.4886],[5.7671,12.4842],[5.7671,12.4617],[5.7649,12.4258],[5.7604,12.3674],[5.7581,12.3427],[5.7828,12.3427],[5.8075,12.3427],[5.8412,12.3449],[5.8547,12.3427],[5.8749,12.3494],[5.8861,12.3561],[5.8861,12.3629],[5.8749,12.3921],[5.8749,12.428],[5.8794,12.4505],[5.8951,12.4752],[5.9153,12.4842],[5.9378,12.4954],[5.9513,12.4999],[5.9602,12.5021],[5.9715,12.5134],[5.9827,12.5223],[5.9939,12.5493],[6.0052,12.5717],[6.0299,12.5942],[6.0388,12.5987],[6.059,12.6256],[6.0703,12.6414],[6.0703,12.6571],[6.0748,12.6795],[6.0815,12.6885],[6.0838,12.6885],[6.0793,12.693],[6.077,12.7042],[6.0748,12.7087],[6.0703,12.7222],[6.0546,12.7424],[6.0478,12.7469],[6.0456,12.7536],[6.0366,12.7424],[6.0209,12.7357],[6.0052,12.7424],[5.9872,12.7536],[5.967,12.7604],[5.9513,12.7626],[5.9221,12.7716],[5.8951,12.7873],[5.8771,12.8031],[5.8524,12.8188],[5.8367,12.8345],[5.812,12.839],[5.7716,12.83],[5.7514,12.8165],[5.7357,12.8008],[5.7267,12.7896],[5.7154,12.7716],[5.6907,12.7424],[5.6863,12.7289],[5.6863,12.7132],[5.6863,12.7087],[5.6952,12.6863]]]}},{"type":"Feature","properties":{"id":"zamfara/birnin-magaji","name":"Birnin Magaji","state":"Zamfara"},"geometry":{"type":"Polygon","coordinates":[[[6.6789,12.4797],[6.6856,12.4639],[6.6901,12.4437],[6.6924,12.4303],[6.7013,12.4011],[6.7103,12.3853],[6.7395,12.3629],[6.762,12.3494],[6.7799,12.3382],[6.7867,12.3337],[6.7957,12.3247],[6.8069,12.3135],[6.8316,12.2978],[6.8451,12.291],[6.8585,12.282],[6.8608,12.2798],[6.9012,12.2843],[6.9169,12.291],[6.9506,12.2933],[6.9753,12.2978],[6.9955,12.2933],[7.0202,12.291],[7.0404,12.291],[7.0584,12.291],[7.0764,12.2933],[7.0899,12.2955],[7.1056,12.2955],[7.1033,12.2978],[7.1033,12.3022],[7.1033,12.309],[7.1011,12.3225],[7.1011,12.3247],[7.0988,12.3337],[7.0988,12.3359],[7.0921,12.3606],[7.0899,12.3674],[7.0876,12.3719],[7.0854,12.3786],[7.0831,12.3831],[7.0786,12.3921],[7.0764,12.3988],[7.0719,12.4056],[7.0674,12.4123],[7.0651,12.4325],[7.0651,12.4392],[7.0651,12.4482],[7.0629,12.455],[7.0607,12.4819],[7.0562,12.5044],[7.0539,12.5111],[7.0539,12.5156],[7.0517,12.5358],[7.0517,12.5448],[7.0517,12.5672],[7.0517,12.5875],[7.0517,12.5897],[7.0472,12.5875],[7.0292,12.583],[7.0068,12.583],[6.9955,12.5807],[6.9708,12.5785],[6.9596,12.583],[6.9461,12.583],[6.9304,12.5762],[6.9079,12.574],[6.8922,12.574],[6.8787,12.5717],[6.8675,12.5695],[6.8585,12.5583],[6.8473,12.5448],[6.8361,12.5246],[6.8226,12.5201],[6.8136,12.5246],[6.8046,12.5381],[6.8091,12.5515],[6.8181,12.5583],[6.8249,12.5628],[6.8204,12.5762],[6.8136,12.5785],[6.8046,12.5785],[6.7912,12.5785],[6.7844,12.5672],[6.7665,12.565],[6.7575,12.5717],[6.7463,12.5785],[6.7418,12.574],[6.7215,12.565],[6.7013,12.5493],[6.6879,12.5313],[6.6766,12.5201],[6.6721,12.5044],[6.6789,12.4797]]]}},{"type":"Feature","properties":{"id":"zamfara/bukkuyum","name":"Bukkuyum","state":"Zamfara"},"geometry":{"type":"Polygon","coordinates":[[[5.3067,11.7835],[5.309,11.7767],[5.3112,11.77],[5.3179,11.7655],[5.3224,11.761],[5.3314,11.7475],[5.3314,11.7386],[5.3404,11.7296],[5.3449,11.7206],[5.3449,11.7116],[5.3539,11.7049],[5.3629,11.7094],[5.3718,11.7049],[5.3718,11.7094],[5.3763,11.7094],[5.3898,11.7071],[5.3988,11.7049],[5.4078,11.7026],[5.4235,11.7026],[5.4302,11.7049],[5.4437,11.7026],[5.4504,11.6981],[5.4549,11.6802],[5.4572,11.6712],[5.4617,11.6667],[5.4707,11.6689],[5.4774,11.6689],[5.4864,11.6689],[5.5021,11.6689],[5.5111,11.6689],[5.5246,11.6622],[5.5425,11.6667],[5.5448,11.6734],[5.556,11.6757],[5.556,11.6824],[5.5605,11.6869],[5.565,11.6824],[5.5897,11.6712],[5.5942,11.6689],[5.6054,11.6689],[5.6166,11.6667],[5.6391,11.6622],[5.6458,11.6622],[5.6593,11.6689],[5.6728,11.66],[5.693,11.6667],[5.7065,11.6757],[5.7199,11.6847],[5.7244,11.6914],[5.7312,11.6937],[5.7379,11.6892],[5.7446,11.6802],[5.7581,11.6824],[5.7581,11.6869],[5.7649,11.6937],[5.7828,11.6757],[5.8075,11.6577],[5.8188,11.6487],[5.821,11.6689],[5.821,11.6734],[5.8232,11.6847],[5.83,11.6981],[5.83,11.7049],[5.8277,11.7116],[5.8322,11.7386],[5.8345,11.7475],[5.8367,11.7633],[5.8345,11.7767],[5.839,11.7947],[5.8435,11.8104],[5.8435,11.8194],[5.8435,11.8306],[5.8435,11.8396],[5.8435,11.8643],[5.8435,11.8823],[5.8435,11.898],[5.8457,11.9092],[5.8435,11.9205],[5.8435,11.9362],[5.8367,11.9564],[5.8345,11.9699],[5.8345,11.9811],[5.8345,11.9901],[5.8345,12.0081],[5.83,12.0283],[5.8255,12.0395],[5.8232,12.0507],[5.8165,12.0754],[5.8075,12.0867],[5.7828,12.0911],[5.7693,12.0911],[5.7536,12.0956],[5.7446,12.0956],[5.7379,12.1046],[5.7289,12.1159],[5.7244,12.1338],[5.7199,12.1563],[5.7222,12.1698],[5.7222,12.1855],[5.7199,12.1989],[5.7244,12.2169],[5.7244,12.2349],[5.7222,12.2484],[5.7244,12.2596],[5.7267,12.2708],[5.711,12.2663],[5.684,12.2775],[5.6728,12.2888],[5.6526,12.291],[5.6301,12.2888],[5.6121,12.2753],[5.5852,12.2731],[5.5762,12.2731],[5.5403,12.2731],[5.5246,12.2618],[5.4752,12.2528],[5.437,12.2528],[5.41,12.2596],[5.4055,12.2304],[5.4033,12.2259],[5.401,12.2169],[5.3966,12.2079],[5.3966,12.1967],[5.3943,12.181],[5.3876,12.1698],[5.3853,12.1608],[5.3876,12.1518],[5.3921,12.1406],[5.3921,12.1338],[5.3921,12.1248],[5.3898,12.1159],[5.3921,12.1091],[5.3921,12.0956],[5.3876,12.0889],[5.3786,12.0664],[5.3786,12.053],[5.3763,12.044],[5.3741,12.0373],[5.3584,12.017],[5.3449,12.0081],[5.3337,12.0081],[5.3224,12.0058],[5.3135,12.0058],[5.3112,11.9968],[5.3112,11.9789],[5.3112,11.9699],[5.309,11.9564],[5.309,11.9452],[5.3135,11.9339],[5.3112,11.9182],[5.3157,11.9048],[5.3157,11.8958],[5.3135,11.8868],[5.3135,11.8688],[5.3157,11.8486],[5.3179,11.8284],[5.3157,11.8127],[5.3067,11.7925],[5.3045,11.7835],[5.3067,11.7835]]]}},{"type":"Feature","properties":{"id":"zamfara/bungudu","name":"Bungudu","state":"Zamfara"},"geometry":{"type":"Polygon","coordinates":[[[6.2859,11.7767],[6.2926,11.7633],[6.2993,11.7543],[6.3196,11.7386],[6.333,11.7341],[6.3465,11.7228],[6.3667,11.7139],[6.3892,11.6981],[6.4139,11.6824],[6.4184,11.6734],[6.4341,11.6667],[6.4408,11.6622],[6.4476,11.6734],[6.4565,11.6847],[6.4588,11.6981],[6.4678,11.7273],[6.47,11.7408],[6.4745,11.7543],[6.4813,11.7655],[6.4947,11.7812],[6.5015,11.7947],[6.5082,11.8059],[6.5194,11.8172],[6.5239,11.8374],[6.5307,11.8733],[6.5396,11.8823],[6.5486,11.889],[6.5554,11.898],[6.5554,11.9182],[6.5554,11.9384],[6.5486,11.9542],[6.5441,11.9744],[6.5531,11.9878],[6.5621,12.0013],[6.5688,12.0103],[6.5711,12.035],[6.5711,12.0664],[6.5711,12.0844],[6.5756,12.0979],[6.5846,12.1114],[6.5801,12.1316],[6.5823,12.145],[6.589,12.1742],[6.6025,12.2079],[6.6227,12.2192],[6.6497,12.2192],[6.6632,12.2147],[6.6744,12.2034],[6.6789,12.1855],[6.6879,12.1698],[6.6968,12.1518],[6.7058,12.1338],[6.7238,12.1114],[6.7283,12.1001],[6.7395,12.0844],[6.7552,12.0687],[6.7687,12.062],[6.7889,12.0507],[6.8069,12.044],[6.8271,12.0462],[6.8406,12.0575],[6.8496,12.0732],[6.8585,12.0979],[6.8585,12.1159],[6.8585,12.1316],[6.8563,12.1495],[6.8563,12.1585],[6.8563,12.1832],[6.8585,12.1967],[6.8563,12.2169],[6.8518,12.2281],[6.8518,12.2416],[6.8563,12.2528],[6.8563,12.2753],[6.854,12.282],[6.8361,12.2843],[6.8114,12.2933],[6.7957,12.3022],[6.7777,12.309],[6.762,12.3202],[6.7418,12.3225],[6.7126,12.3202],[6.6879,12.318],[6.6744,12.309],[6.6519,12.3135],[6.6429,12.3314],[6.634,12.3427],[6.6272,12.3606],[6.625,12.3674],[6.6205,12.3741],[6.6138,12.3809],[6.6025,12.3876],[6.5913,12.3966],[6.5823,12.4056],[6.5711,12.4258],[6.5599,12.4437],[6.5464,12.4527],[6.5239,12.4595],[6.5015,12.4662],[6.4857,12.4684],[6.4655,12.4639],[6.461,12.4617],[6.4565,12.4595],[6.4521,12.4505],[6.4431,12.428],[6.4363,12.4168],[6.4274,12.4033],[6.4161,12.3898],[6.4116,12.3853],[6.4139,12.3831],[6.4206,12.3674],[6.4274,12.3494],[6.4386,12.3337],[6.4431,12.3247],[6.4386,12.3157],[6.4318,12.2933],[6.4296,12.2865],[6.4274,12.2753],[6.4251,12.2686],[6.4229,12.2618],[6.4184,12.2394],[6.4139,12.2259],[6.3959,12.2169],[6.3757,12.2102],[6.3667,12.2034],[6.3555,12.1922],[6.3488,12.181],[6.342,12.1698],[6.3375,12.1563],[6.3375,12.1271],[6.3375,12.1136],[6.3465,12.0911],[6.3577,12.0664],[6.3667,12.0485],[6.3757,12.0283],[6.3824,12.0058],[6.3802,11.9878],[6.3847,11.9654],[6.3802,11.9272],[6.3802,11.9092],[6.3735,11.8958],[6.3645,11.88],[6.3577,11.8621],[6.351,11.8486],[6.3465,11.8261],[6.342,11.8127],[6.3308,11.8059],[6.3173,11.8059],[6.3106,11.8082],[6.2926,11.7925],[6.2836,11.7812],[6.2859,11.7767]]]}},{"type":"Feature","properties":{"id":"zamfara/gummi","name":"Gummi","state":"Zamfara"},"geometry":{"type":"Polygon","coordinates":[[[4.9429,11.7318],[4.9429,11.7341],[4.9586,11.7341],[4.9699,11.7363],[4.9766,11.7408],[4.9923,11.7408],[5.0035,11.7386],[5.0103,11.7341],[5.0215,11.7206],[5.0238,11.7184],[5.0327,11.7139],[5.0372,11.7139],[5.0462,11.7116],[5.0485,11.7094],[5.0552,11.7071],[5.0619,11.7094],[5.0664,11.7161],[5.0754,11.7228],[5.0866,11.7251],[5.1001,11.7273],[5.1181,11.7206],[5.1383,11.7228],[5.1495,11.7341],[5.1652,11.7386],[5.172,11.7408],[5.1765,11.7498],[5.1742,11.7588],[5.1697,11.7633],[5.163,11.7723],[5.1652,11.779],[5.172,11.7835],[5.1832,11.7812],[5.2057,11.77],[5.2102,11.761],[5.2214,11.7543],[5.2259,11.7565],[5.2304,11.761],[5.2349,11.77],[5.2596,11.77],[5.2798,11.77],[5.2888,11.7745],[5.291,11.7812],[5.2977,11.7857],[5.3045,11.7835],[5.3067,11.7925],[5.3157,11.8127],[5.3179,11.8284],[5.3157,11.8486],[5.3135,11.8688],[5.3135,11.8868],[5.3157,11.8958],[5.3157,11.9048],[5.3112,11.9182],[5.3135,11.9339],[5.309,11.9452],[5.309,11.9564],[5.3112,11.9699],[5.3112,11.9789],[5.3112,11.9968],[5.3135,12.0058],[5.3224,12.0058],[5.3337,12.0081],[5.3449,12.0081],[5.3584,12.017],[5.3741,12.0373],[5.3763,12.044],[5.3786,12.053],[5.3786,12.0664],[5.3876,12.0889],[5.3921,12.0956],[5.3921,12.1091],[5.3898,12.1159],[5.3921,12.1248],[5.3921,12.1338],[5.3921,12.1406],[5.3876,12.1518],[5.3853,12.1608],[5.3876,12.1698],[5.3943,12.181],[5.3966,12.1967],[5.3966,12.2079],[5.401,12.2169],[5.4033,12.2259],[5.4055,12.2304],[5.41,12.2596],[5.4078,12.2596],[5.3831,12.2618],[5.3494,12.2663],[5.3269,12.2731],[5.2932,12.2775],[5.273,12.282],[5.2708,12.282],[5.2483,12.282],[5.2191,12.2865],[5.1854,12.2843],[5.163,12.2843],[5.163,12.282],[5.1473,12.282],[5.1181,12.2775],[5.0687,12.2775],[5.0485,12.2843],[5.0238,12.291],[4.9968,12.3],[4.9811,12.3],[4.9721,12.2933],[4.9564,12.2708],[4.9519,12.2484],[4.9496,12.2461],[4.9496,12.2304],[4.9519,12.2192],[4.9541,12.1967],[4.9564,12.1608],[4.9564,12.1361],[4.9564,12.1069],[4.9564,12.0709],[4.9564,12.0305],[4.9519,11.9923],[4.9474,11.9362],[4.9474,11.8958],[4.9452,11.88],[4.9452,11.8621],[4.9407,11.8351],[4.9294,11.779],[4.9294,11.7408],[4.9429,11.7318]]]}},{"type":"Feature","properties":{"id":"zamfara/gusau","name":"Gusau","state":"Zamfara"},"geometry":{"type":"Polygon","coordinates":[[[6.3757,11.5477],[6.3937,11.5432],[6.4161,11.5387],[6.4543,11.5342],[6.488,11.5207],[6.5015,11.5117],[6.5396,11.4983],[6.5509,11.4938],[6.5733,11.4848],[6.5846,11.4758],[6.5935,11.4578],[6.6093,11.4399],[6.6182,11.4287],[6.6362,11.4219],[6.6519,11.4152],[6.6609,11.3995],[6.6654,11.386],[6.6654,11.3725],[6.6654,11.3568],[6.7058,11.2894],[6.7238,11.2602],[6.7418,11.2445],[6.7463,11.2423],[6.7485,11.249],[6.753,11.2535],[6.7552,11.2625],[6.762,11.2692],[6.7732,11.2759],[6.7844,11.2804],[6.7889,11.2872],[6.8001,11.2939],[6.8091,11.3006],[6.8159,11.3096],[6.8226,11.3096],[6.8293,11.3074],[6.8383,11.3186],[6.8518,11.3321],[6.8653,11.3411],[6.8698,11.3523],[6.8743,11.3635],[6.8832,11.3748],[6.8855,11.377],[6.8877,11.3815],[6.8877,11.3837],[6.8877,11.3972],[6.8855,11.4174],[6.8877,11.4309],[6.8922,11.4421],[6.8945,11.4466],[6.9012,11.4578],[6.9012,11.4623],[6.9079,11.4758],[6.9035,11.487],[6.8967,11.505],[6.9012,11.514],[6.9035,11.5207],[6.9057,11.523],[6.9079,11.5297],[6.9035,11.5522],[6.9035,11.5544],[6.8855,11.5679],[6.8765,11.5746],[6.8675,11.5769],[6.8563,11.5881],[6.854,11.5948],[6.8496,11.5881],[6.8406,11.5746],[6.8338,11.5634],[6.8293,11.5544],[6.8249,11.5454],[6.8114,11.5409],[6.7912,11.5409],[6.7754,11.5499],[6.7575,11.5679],[6.7418,11.5746],[6.7126,11.5948],[6.7013,11.6083],[6.6924,11.6308],[6.6856,11.6487],[6.6834,11.6824],[6.6901,11.7228],[6.6901,11.7431],[6.6924,11.761],[6.6968,11.7835],[6.6991,11.8172],[6.7058,11.8419],[6.7103,11.8621],[6.7148,11.88],[6.7193,11.8935],[6.7283,11.9339],[6.7418,11.9519],[6.753,11.9654],[6.7687,11.9811],[6.7867,11.9923],[6.8046,12.0013],[6.8249,12.0103],[6.8496,12.026],[6.8765,12.0395],[6.8967,12.0507],[6.9169,12.062],[6.9484,12.0575],[6.9618,12.0507],[7.0045,12.0507],[7.0315,12.0507],[7.0539,12.0395],[7.0831,12.0305],[7.0921,12.0305],[7.1033,12.0328],[7.1123,12.0395],[7.1056,12.0462],[7.0899,12.0642],[7.0966,12.0709],[7.1033,12.0799],[7.1078,12.0822],[7.1123,12.0867],[7.1146,12.0867],[7.1213,12.1024],[7.1235,12.1069],[7.1258,12.1136],[7.137,12.1293],[7.1393,12.1316],[7.1415,12.1383],[7.1505,12.1585],[7.1505,12.1653],[7.1505,12.1698],[7.1527,12.181],[7.1527,12.1855],[7.1505,12.1877],[7.1482,12.1967],[7.146,12.2057],[7.1415,12.2259],[7.137,12.2349],[7.1303,12.2506],[7.128,12.2528],[7.1168,12.2708],[7.1146,12.2753],[7.1123,12.282],[7.1078,12.2865],[7.1056,12.2888],[7.1056,12.2955],[7.0899,12.2955],[7.0764,12.2933],[7.0584,12.291],[7.0404,12.291],[7.0202,12.291],[6.9955,12.2933],[6.9753,12.2978],[6.9506,12.2933],[6.9169,12.291],[6.9012,12.2843],[6.8608,12.2798],[6.8585,12.282],[6.854,12.282],[6.8563,12.2753],[6.8563,12.2528],[6.8518,12.2416],[6.8518,12.2281],[6.8563,12.2169],[6.8585,12.1967],[6.8563,12.1832],[6.8563,12.1585],[6.8563,12.1495],[6.8585,12.1316],[6.8585,12.1159],[6.8585,12.0979],[6.8496,12.0732],[6.8406,12.0575],[6.8271,12.0462],[6.8069,12.044],[6.7889,12.0507],[6.7687,12.062],[6.7552,12.0687],[6.7395,12.0844],[6.7283,12.1001],[6.7238,12.1114],[6.7058,12.1338],[6.6968,12.1518],[6.6879,12.1698],[6.6789,12.1855],[6.6744,12.2034],[6.6632,12.2147],[6.6497,12.2192],[6.6227,12.2192],[6.6025,12.2079],[6.589,12.1742],[6.5823,12.145],[6.5801,12.1316],[6.5846,12.1114],[6.5756,12.0979],[6.5711,12.0844],[6.5711,12.0664],[6.5711,12.035],[6.5688,12.0103],[6.5621,12.0013],[6.5531,11.9878],[6.5441,11.9744],[6.5486,11.9542],[6.5554,11.9384],[6.5554,11.9182],[6.5554,11.898],[6.5486,11.889],[6.5396,11.8823],[6.5307,11.8733],[6.5239,11.8374],[6.5194,11.8172],[6.5082,11.8059],[6.5015,11.7947],[6.4947,11.7812],[6.4813,11.7655],[6.4745,11.7543],[6.47,11.7408],[6.4678,11.7273],[6.4588,11.6981],[6.4565,11.6847],[6.4476,11.6734],[6.4408,11.6622],[6.4363,11.651],[6.4229,11.6308],[6.4116,11.6195],[6.4049,11.6128],[6.4004,11.6083],[6.3869,11.5971],[6.3712,11.5836],[6.3667,11.5701],[6.3667,11.5567],[6.3757,11.5477]]]}},{"type":"Feature","properties":{"id":"zamfara/kaura-namoda","name":"Kaura-Namoda","state":"Zamfara"},"geometry":{"type":"Polygon","coordinates":[[[6.4431,12.5246],[6.4431,12.5044],[6.4543,12.4864],[6.461,12.4617],[6.4655,12.4639],[6.4857,12.4684],[6.5015,12.4662],[6.5239,12.4595],[6.5464,12.4527],[6.5599,12.4437],[6.5711,12.4258],[6.5823,12.4056],[6.5913,12.3966],[6.6025,12.3876],[6.6138,12.3809],[6.6205,12.3741],[6.625,12.3674],[6.6272,12.3606],[6.634,12.3427],[6.6429,12.3314],[6.6519,12.3135],[6.6744,12.309],[6.6879,12.318],[6.7126,12.3202],[6.7418,12.3225],[6.762,12.3202],[6.7777,12.309],[6.7957,12.3022],[6.8114,12.2933],[6.8361,12.2843],[6.854,12.282],[6.8585,12.282],[6.8451,12.291],[6.8316,12.2978],[6.8069,12.3135],[6.7957,12.3247],[6.7867,12.3337],[6.7799,12.3382],[6.762,12.3494],[6.7395,12.3629],[6.7103,12.3853],[6.7013,12.4011],[6.6924,12.4303],[6.6901,12.4437],[6.6856,12.4639],[6.6789,12.4797],[6.6721,12.5044],[6.6766,12.5201],[6.6879,12.5313],[6.7013,12.5493],[6.7215,12.565],[6.7418,12.574],[6.7463,12.5785],[6.7418,12.583],[6.7238,12.592],[6.7058,12.6032],[6.6946,12.6122],[6.6924,12.6211],[6.6901,12.6346],[6.6879,12.6436],[6.6676,12.6503],[6.6587,12.6526],[6.6474,12.6593],[6.625,12.6661],[6.6003,12.6706],[6.5868,12.6773],[6.5778,12.684],[6.5599,12.6795],[6.5441,12.6773],[6.5329,12.684],[6.5172,12.6863],[6.4902,12.693],[6.4723,12.693],[6.4678,12.6863],[6.4655,12.6773],[6.4565,12.6661],[6.4498,12.6526],[6.4431,12.6279],[6.4431,12.6189],[6.4408,12.6054],[6.4363,12.5942],[6.4408,12.5785],[6.4386,12.565],[6.4363,12.5515],[6.4363,12.5381],[6.4431,12.5246]]]}},{"type":"Feature","properties":{"id":"zamfara/maradun","name":"Maradun","state":"Zamfara"},"geometry":{"type":"Polygon","coordinates":[[[6.0096,12.8749],[6.0186,12.8367],[6.0254,12.812],[6.0321,12.7873],[6.0456,12.7536],[6.0478,12.7469],[6.0546,12.7424],[6.0703,12.7222],[6.0748,12.7087],[6.077,12.7042],[6.0793,12.693],[6.0838,12.6885],[6.0927,12.675],[6.0972,12.6683],[6.104,12.6481],[6.1107,12.6391],[6.1197,12.6301],[6.1242,12.6256],[6.1309,12.6144],[6.1332,12.6054],[6.1377,12.6009],[6.1444,12.592],[6.1511,12.583],[6.1601,12.5695],[6.1624,12.5605],[6.1579,12.547],[6.1511,12.5381],[6.1466,12.5313],[6.1444,12.5178],[6.1444,12.5044],[6.1466,12.4909],[6.1534,12.4819],[6.1601,12.4662],[6.1736,12.4505],[6.1893,12.437],[6.2028,12.4303],[6.214,12.4258],[6.2207,12.4303],[6.223,12.4392],[6.2275,12.4482],[6.2365,12.4505],[6.2454,12.446],[6.2522,12.4392],[6.2679,12.4325],[6.2881,12.4303],[6.3016,12.4258],[6.3196,12.419],[6.3353,12.4033],[6.3622,12.3898],[6.3712,12.3831],[6.3869,12.3809],[6.3959,12.3831],[6.4071,12.3809],[6.4116,12.3853],[6.4161,12.3898],[6.4274,12.4033],[6.4363,12.4168],[6.4431,12.428],[6.4521,12.4505],[6.4565,12.4595],[6.461,12.4617],[6.4543,12.4864],[6.4431,12.5044],[6.4431,12.5246],[6.4363,12.5381],[6.4363,12.5515],[6.4386,12.565],[6.4408,12.5785],[6.4363,12.5942],[6.4408,12.6054],[6.4431,12.6189],[6.4431,12.6279],[6.4498,12.6526],[6.4565,12.6661],[6.4655,12.6773],[6.4678,12.6863],[6.4723,12.693],[6.4723,12.6975],[6.4745,12.7087],[6.47,12.72],[6.4588,12.7289],[6.4431,12.7334],[6.4341,12.7312],[6.4206,12.7312],[6.4094,12.7357],[6.3959,12.7379],[6.3847,12.7424],[6.3802,12.7536],[6.3802,12.7649],[6.3802,12.7739],[6.3847,12.7851],[6.4004,12.7941],[6.4206,12.8008],[6.4341,12.8053],[6.4476,12.8098],[6.4565,12.8143],[6.4633,12.8255],[6.4588,12.839],[6.4543,12.8502],[6.4408,12.8592],[6.4251,12.8682],[6.4116,12.8637],[6.4004,12.8659],[6.3959,12.8749],[6.3982,12.8884],[6.4139,12.9041],[6.4229,12.9108],[6.4251,12.9176],[6.4251,12.9266],[6.4251,12.9333],[6.4229,12.9558],[6.4206,12.9625],[6.4206,12.9737],[6.4229,12.9827],[6.4318,12.9872],[6.4363,12.9939],[6.4363,12.9962],[6.4431,12.9962],[6.4521,13.0052],[6.4633,13.0142],[6.4655,13.0276],[6.4565,13.0411],[6.4431,13.0389],[6.4184,13.0321],[6.3959,13.0321],[6.3869,13.0344],[6.351,13.0389],[6.2993,13.0523],[6.2859,13.0568],[6.2589,13.0703],[6.2567,13.0456],[6.2544,13.0321],[6.2454,13.0276],[6.2207,13.0433],[6.2028,13.0591],[6.1893,13.0658],[6.1668,13.0681],[6.1511,13.0748],[6.1309,13.0725],[6.1017,13.0591],[6.0725,13.0389],[6.0411,13.0276],[6.0276,13.0209],[6.0209,13.0074],[6.0254,12.9939],[6.0254,12.967],[6.0164,12.9266],[6.0074,12.9064],[6.0074,12.8929],[6.0096,12.8749]]]}},{"type":"Feature","properties":{"id":"zamfara/maru","name":"Maru","state":"Zamfara"},"geometry":{"type":"Polygon","coordinates":[[[5.8322,11.6487],[5.8569,11.6398],[5.8771,11.6218],[5.8839,11.5993],[5.9063,11.5769],[5.9221,11.5544],[5.9355,11.5409],[5.9557,11.5207],[5.976,11.505],[6.0029,11.4915],[6.0186,11.4736],[6.0343,11.4466],[6.0433,11.4197],[6.0501,11.3927],[6.0523,11.368],[6.0478,11.3343],[6.0321,11.3231],[6.0119,11.3209],[5.9894,11.3209],[5.9804,11.3276],[5.9625,11.3298],[5.949,11.3298],[5.9378,11.3298],[5.931,11.3209],[5.9378,11.3096],[5.949,11.3051],[5.9557,11.2939],[5.9602,11.2872],[5.9625,11.2782],[5.9692,11.2602],[5.9647,11.2467],[5.9535,11.2333],[5.9445,11.2131],[5.949,11.2018],[5.9513,11.1524],[5.9557,11.13],[5.9602,11.1187],[5.9737,11.1367],[5.9849,11.1434],[5.9939,11.1457],[6.0052,11.1412],[6.0164,11.1389],[6.0209,11.1255],[6.0254,11.1142],[6.0254,11.1008],[6.0321,11.0761],[6.0388,11.0671],[6.0456,11.0536],[6.0523,11.0424],[6.0658,11.0312],[6.077,11.0244],[6.095,11.0132],[6.1062,11.0087],[6.1152,11.002],[6.1197,10.9952],[6.1309,10.9795],[6.1354,10.9728],[6.1399,10.9638],[6.1466,10.957],[6.1489,10.9503],[6.1489,10.9391],[6.1534,10.9301],[6.1601,10.9256],[6.1601,10.9166],[6.1601,10.9099],[6.1601,10.9031],[6.1646,10.8897],[6.1646,10.8807],[6.1646,10.8739],[6.1624,10.8695],[6.1624,10.8672],[6.1668,10.8672],[6.1736,10.8672],[6.1826,10.8717],[6.1893,10.8717],[6.196,10.8672],[6.2005,10.8627],[6.205,10.8627],[6.2073,10.8695],[6.2073,10.8739],[6.2118,10.8784],[6.2185,10.8874],[6.2207,10.8919],[6.2252,10.8964],[6.2252,10.9031],[6.223,10.9054],[6.223,10.9099],[6.2275,10.9189],[6.2297,10.9278],[6.2297,10.9346],[6.232,10.9413],[6.2365,10.9458],[6.2454,10.9481],[6.2499,10.9526],[6.2522,10.9548],[6.2567,10.9615],[6.2634,10.966],[6.2724,10.9638],[6.2769,10.966],[6.2836,10.9773],[6.2904,10.9862],[6.2971,10.9952],[6.3016,11.002],[6.3083,11.0087],[6.3151,11.0109],[6.3218,11.0177],[6.324,11.0199],[6.333,11.0222],[6.3398,11.0222],[6.351,11.0222],[6.3577,11.0199],[6.3645,11.0199],[6.369,11.0267],[6.3757,11.0312],[6.3824,11.0334],[6.3869,11.0334],[6.3914,11.0334],[6.4116,11.0312],[6.4184,11.0244],[6.4184,11.0177],[6.4206,11.0132],[6.4386,10.9975],[6.4431,10.9997],[6.4476,11.0042],[6.4521,11.002],[6.4588,10.9997],[6.4633,11.002],[6.4655,11.0087],[6.4678,11.0177],[6.4723,11.0222],[6.479,11.0222],[6.4857,11.0199],[6.4902,11.0177],[6.4925,11.0154],[6.4992,11.0154],[6.5082,11.0132],[6.5127,11.0177],[6.5172,11.0199],[6.5172,11.0267],[6.5284,11.0267],[6.5486,11.0289],[6.5576,11.0244],[6.5643,11.0244],[6.5756,11.0244],[6.5846,11.0312],[6.5913,11.0379],[6.5958,11.0401],[6.607,11.0469],[6.6182,11.0469],[6.6385,11.0491],[6.6452,11.0491],[6.6587,11.0536],[6.6699,11.0603],[6.6744,11.0581],[6.6766,11.0581],[6.6901,11.0693],[6.6924,11.0738],[6.6901,11.0761],[6.6879,11.0806],[6.6879,11.0895],[6.6879,11.094],[6.6968,11.0963],[6.7036,11.094],[6.7058,11.0963],[6.7171,11.1053],[6.7171,11.1098],[6.7148,11.1142],[6.7081,11.1142],[6.7058,11.1165],[6.7058,11.121],[6.7148,11.1322],[6.7171,11.1367],[6.7215,11.1412],[6.7305,11.1434],[6.7328,11.1479],[6.735,11.1547],[6.7305,11.1614],[6.7328,11.1659],[6.7395,11.1704],[6.7418,11.1749],[6.7395,11.1906],[6.735,11.1951],[6.7328,11.2018],[6.7373,11.2086],[6.744,11.2175],[6.744,11.222],[6.7463,11.2333],[6.7463,11.2378],[6.7463,11.2423],[6.7418,11.2445],[6.7238,11.2602],[6.7058,11.2894],[6.6654,11.3568],[6.6654,11.3725],[6.6654,11.386],[6.6609,11.3995],[6.6519,11.4152],[6.6362,11.4219],[6.6182,11.4287],[6.6093,11.4399],[6.5935,11.4578],[6.5846,11.4758],[6.5733,11.4848],[6.5509,11.4938],[6.5396,11.4983],[6.5015,11.5117],[6.488,11.5207],[6.4543,11.5342],[6.4161,11.5387],[6.3937,11.5432],[6.3757,11.5477],[6.3667,11.5567],[6.3667,11.5701],[6.3712,11.5836],[6.3869,11.5971],[6.4004,11.6083],[6.4049,11.6128],[6.4116,11.6195],[6.4229,11.6308],[6.4363,11.651],[6.4408,11.6622],[6.4341,11.6667],[6.4184,11.6734],[6.4139,11.6824],[6.3892,11.6981],[6.3667,11.7139],[6.3465,11.7228],[6.333,11.7341],[6.3196,11.7386],[6.2993,11.7543],[6.2926,11.7633],[6.2859,11.7767],[6.2836,11.7812],[6.2926,11.7925],[6.3106,11.8082],[6.3173,11.8059],[6.3308,11.8059],[6.342,11.8127],[6.3465,11.8261],[6.351,11.8486],[6.3577,11.8621],[6.3645,11.88],[6.3735,11.8958],[6.3802,11.9092],[6.3802,11.9272],[6.3847,11.9654],[6.3802,11.9878],[6.3824,12.0058],[6.3757,12.0283],[6.3667,12.0485],[6.3577,12.0664],[6.3465,12.0911],[6.3375,12.1136],[6.3375,12.1271],[6.3375,12.1563],[6.342,12.1698],[6.3488,12.181],[6.3555,12.1922],[6.3667,12.2034],[6.3757,12.2102],[6.3959,12.2169],[6.4139,12.2259],[6.4184,12.2394],[6.4229,12.2618],[6.4251,12.2686],[6.4274,12.2753],[6.4296,12.2865],[6.4318,12.2933],[6.4386,12.3157],[6.4431,12.3247],[6.4386,12.3337],[6.4274,12.3494],[6.4206,12.3674],[6.4139,12.3831],[6.4116,12.3853],[6.4071,12.3809],[6.3959,12.3831],[6.3869,12.3809],[6.3712,12.3831],[6.3622,12.3898],[6.3353,12.4033],[6.3196,12.419],[6.3016,12.4258],[6.2881,12.4303],[6.2679,12.4325],[6.2522,12.4392],[6.2454,12.446],[6.2365,12.4505],[6.2275,12.4482],[6.223,12.4392],[6.2207,12.4303],[6.2297,12.4235],[6.2342,12.4168],[6.2387,12.4078],[6.2342,12.3921],[6.2275,12.3876],[6.2163,12.3764],[6.2073,12.3651],[6.1915,12.3427],[6.1871,12.3314],[6.1826,12.3202],[6.1803,12.3067],[6.1781,12.3],[6.1713,12.2753],[6.1668,12.2596],[6.1668,12.2416],[6.1601,12.2214],[6.1579,12.2034],[6.1579,12.1832],[6.1511,12.1653],[6.1444,12.1518],[6.1421,12.145],[6.1332,12.1361],[6.1309,12.1338],[6.1332,12.1293],[6.1332,12.1203],[6.1332,12.1024],[6.1332,12.0799],[6.1309,12.0597],[6.1264,12.035],[6.1332,12.0013],[6.1466,11.9654],[6.1624,11.9339],[6.1803,11.925],[6.196,11.9048],[6.2095,11.8823],[6.2207,11.8509],[6.2342,11.8082],[6.2499,11.7902],[6.2679,11.7857],[6.2814,11.779],[6.2769,11.7723],[6.2724,11.7633],[6.2701,11.7543],[6.2657,11.7475],[6.2589,11.7363],[6.2499,11.7228],[6.2454,11.7139],[6.2365,11.7094],[6.2252,11.7026],[6.2118,11.6937],[6.2005,11.6847],[6.1915,11.6622],[6.1871,11.651],[6.1803,11.633],[6.1803,11.624],[6.1758,11.615],[6.1713,11.6061],[6.1713,11.5881],[6.1624,11.5746],[6.1511,11.5724],[6.1421,11.5701],[6.1287,11.5746],[6.1107,11.5746],[6.0995,11.5791],[6.0882,11.5814],[6.0725,11.5836],[6.0568,11.5881],[6.0501,11.5881],[6.0411,11.5948],[6.0343,11.5971],[6.0209,11.6038],[6.0096,11.6061],[6.0007,11.6106],[5.9917,11.6195],[5.9827,11.6263],[5.9692,11.633],[5.9647,11.6375],[5.9557,11.642],[5.94,11.6465],[5.9288,11.6532],[5.9198,11.6622],[5.9041,11.6667],[5.8929,11.6667],[5.8861,11.6645],[5.8749,11.6667],[5.8569,11.6689],[5.8435,11.6712],[5.8255,11.6712],[5.821,11.6689],[5.8188,11.6487],[5.8322,11.6487]]]}},{"type":"Feature","properties":{"id":"zamfara/shinkafi","name":"Shinkafi","state":"Zamfara"},"geometry":{"type":"Polygon","coordinates":[[[6.2612,13.086],[6.2589,13.0815],[6.2589,13.0703],[6.2859,13.0568],[6.2993,13.0523],[6.351,13.0389],[6.3869,13.0344],[6.3959,13.0321],[6.4184,13.0321],[6.4431,13.0389],[6.4565,13.0411],[6.4655,13.0276],[6.4633,13.0142],[6.4521,13.0052],[6.4431,12.9962],[6.4363,12.9962],[6.4363,12.9939],[6.4318,12.9872],[6.4363,12.9827],[6.4408,12.9715],[6.4476,12.9603],[6.4565,12.949],[6.4723,12.9423],[6.4857,12.9423],[6.4925,12.9423],[6.506,12.94],[6.5239,12.9445],[6.5351,12.9445],[6.5509,12.9378],[6.5554,12.9333],[6.5711,12.9221],[6.5756,12.9108],[6.5868,12.8996],[6.5958,12.8951],[6.607,12.8951],[6.6272,12.8951],[6.6362,12.8974],[6.6542,12.9041],[6.6654,12.9086],[6.6789,12.9176],[6.6856,12.9266],[6.6991,12.9445],[6.7013,12.949],[6.7036,12.958],[6.7013,12.9737],[6.6991,12.9872],[6.6968,12.9984],[6.6946,13.0052],[6.6924,13.0074],[6.6901,13.0119],[6.6811,13.0299],[6.6721,13.0389],[6.6654,13.0501],[6.6587,13.0658],[6.6587,13.0725],[6.6609,13.077],[6.6542,13.077],[6.6407,13.0703],[6.6227,13.0658],[6.607,13.0658],[6.5935,13.0703],[6.5846,13.0748],[6.5711,13.0748],[6.5531,13.0748],[6.5351,13.0748],[6.5194,13.0793],[6.5037,13.0815],[6.4925,13.086],[6.479,13.0905],[6.47,13.095],[6.4453,13.1107],[6.4318,13.1175],[6.4206,13.1242],[6.4071,13.1264],[6.4004,13.1309],[6.3937,13.1377],[6.3847,13.1444],[6.3712,13.1489],[6.3622,13.1534],[6.3555,13.1534],[6.3465,13.1534],[6.3285,13.1556],[6.3173,13.1579],[6.2993,13.1579],[6.2836,13.1556],[6.2701,13.1556],[6.2657,13.1489],[6.2612,13.1399],[6.2612,13.1309],[6.2612,13.122],[6.2567,13.1017],[6.2612,13.086]]]}},{"type":"Feature","properties":{"id":"zamfara/talata-mafara","name":"Talata Mafara","state":"Zamfara"},"geometry":{"type":"Polygon","coordinates":[[[5.8861,12.3629],[5.8861,12.3561],[5.8884,12.3561],[5.8951,12.3314],[5.9018,12.309],[5.9041,12.2888],[5.9108,12.2708],[5.9131,12.2618],[5.9221,12.2416],[5.931,12.2304],[5.9333,12.2102],[5.94,12.181],[5.9468,12.1653],[5.9692,12.145],[5.9917,12.1361],[6.0164,12.1316],[6.059,12.1248],[6.095,12.1248],[6.1129,12.1316],[6.1309,12.1338],[6.1332,12.1361],[6.1421,12.145],[6.1444,12.1518],[6.1511,12.1653],[6.1579,12.1832],[6.1579,12.2034],[6.1601,12.2214],[6.1668,12.2416],[6.1668,12.2596],[6.1713,12.2753],[6.1781,12.3],[6.1803,12.3067],[6.1826,12.3202],[6.1871,12.3314],[6.1915,12.3427],[6.2073,12.3651],[6.2163,12.3764],[6.2275,12.3876],[6.2342,12.3921],[6.2387,12.4078],[6.2342,12.4168],[6.2297,12.4235],[6.2207,12.4303],[6.214,12.4258],[6.2028,12.4303],[6.1893,12.437],[6.1736,12.4505],[6.1601,12.4662],[6.1534,12.4819],[6.1466,12.4909],[6.1444,12.5044],[6.1444,12.5178],[6.1466,12.5313],[6.1511,12.5381],[6.1579,12.547],[6.1624,12.5605],[6.1601,12.5695],[6.1511,12.583],[6.1444,12.592],[6.1377,12.6009],[6.1332,12.6054],[6.1309,12.6144],[6.1242,12.6256],[6.1197,12.6301],[6.1107,12.6391],[6.104,12.6481],[6.0972,12.6683],[6.0927,12.675],[6.0838,12.6885],[6.0815,12.6885],[6.0748,12.6795],[6.0703,12.6571],[6.0703,12.6414],[6.059,12.6256],[6.0388,12.5987],[6.0299,12.5942],[6.0052,12.5717],[5.9939,12.5493],[5.9827,12.5223],[5.9715,12.5134],[5.9602,12.5021],[5.9513,12.4999],[5.9378,12.4954],[5.9153,12.4842],[5.8951,12.4752],[5.8794,12.4505],[5.8749,12.428],[5.8749,12.3921],[5.8861,12.3629]]]}},{"type":"Feature","properties":{"id":"zamfara/tsafe","name":"Tsafe","state":"Zamfara"},"geometry":{"type":"Polygon","coordinates":[[[6.6856,11.6487],[6.6924,11.6308],[6.7013,11.6083],[6.7126,11.5948],[6.7418,11.5746],[6.7575,11.5679],[6.7754,11.5499],[6.7912,11.5409],[6.8114,11.5409],[6.8249,11.5454],[6.8293,11.5544],[6.8338,11.5634],[6.8406,11.5746],[6.8496,11.5881],[6.854,11.5948],[6.854,11.6061],[6.8518,11.6173],[6.8518,11.6218],[6.8563,11.642],[6.8653,11.6622],[6.8698,11.6779],[6.872,11.6847],[6.8765,11.6959],[6.881,11.7071],[6.89,11.7273],[6.89,11.7386],[6.89,11.7565],[6.89,11.7588],[6.89,11.7633],[6.89,11.77],[6.89,11.779],[6.8922,11.7835],[6.8967,11.7947],[6.9079,11.8014],[6.9192,11.8037],[6.9394,11.8082],[6.9529,11.8149],[6.9731,11.8172],[6.9888,11.8194],[7.0023,11.8217],[7.0157,11.8172],[7.0202,11.8127],[7.027,11.8082],[7.0472,11.8014],[7.0539,11.8014],[7.0719,11.8082],[7.0741,11.8172],[7.0831,11.8261],[7.0854,11.8284],[7.0921,11.8351],[7.1033,11.8441],[7.1056,11.8464],[7.1146,11.8509],[7.1303,11.8643],[7.1415,11.8778],[7.1437,11.8868],[7.1437,11.898],[7.1437,11.9115],[7.155,11.9182],[7.164,11.9115],[7.1707,11.9115],[7.1909,11.907],[7.1999,11.907],[7.2179,11.916],[7.2313,11.925],[7.2358,11.9272],[7.2426,11.9339],[7.2403,11.9407],[7.2358,11.9452],[7.2336,11.9452],[7.2246,11.9497],[7.2179,11.9586],[7.2134,11.9654],[7.2134,11.9789],[7.2089,11.9856],[7.2021,11.9878],[7.1909,11.9923],[7.1774,11.9991],[7.1729,12.0013],[7.1527,12.0103],[7.1505,12.0103],[7.1437,12.0148],[7.1258,12.0305],[7.1123,12.0395],[7.1033,12.0328],[7.0921,12.0305],[7.0831,12.0305],[7.0539,12.0395],[7.0315,12.0507],[7.0045,12.0507],[6.9618,12.0507],[6.9484,12.0575],[6.9169,12.062],[6.8967,12.0507],[6.8765,12.0395],[6.8496,12.026],[6.8249,12.0103],[6.8046,12.0013],[6.7867,11.9923],[6.7687,11.9811],[6.753,11.9654],[6.7418,11.9519],[6.7283,11.9339],[6.7193,11.8935],[6.7148,11.88],[6.7103,11.8621],[6.7058,11.8419],[6.6991,11.8172],[6.6968,11.7835],[6.6924,11.761],[6.6901,11.7431],[6.6901,11.7228],[6.6834,11.6824],[6.6856,11.6487]]]}},{"type":"Feature","properties":{"id":"zamfara/zurmi","name":"Zurmi","state":"Zamfara"},"geometry":{"type":"Polygon","coordinates":[[[6.3847,12.7424],[6.3959,12.7379],[6.4094,12.7357],[6.4206,12.7312],[6.4341,12.7312],[6.4431,12.7334],[6.4588,12.7289],[6.47,12.72],[6.4745,12.7087],[6.4723,12.6975],[6.4723,12.693],[6.4902,12.693],[6.5172,12.6863],[6.5329,12.684],[6.5441,12.6773],[6.5599,12.6795],[6.5778,12.684],[6.5868,12.6773],[6.6003,12.6706],[6.625,12.6661],[6.6474,12.6593],[6.6587,12.6526],[6.6676,12.6503],[6.6879,12.6436],[6.6901,12.6346],[6.6924,12.6211],[6.6946,12.6122],[6.7058,12.6032],[6.7238,12.592],[6.7418,12.583],[6.7463,12.5785],[6.7575,12.5717],[6.7665,12.565],[6.7844,12.5672],[6.7912,12.5785],[6.8046,12.5785],[6.8136,12.5785],[6.8204,12.5762],[6.8249,12.5628],[6.8181,12.5583],[6.8091,12.5515],[6.8046,12.5381],[6.8136,12.5246],[6.8226,12.5201],[6.8361,12.5246],[6.8473,12.5448],[6.8585,12.5583],[6.8675,12.5695],[6.8787,12.5717],[6.8922,12.574],[6.9079,12.574],[6.9304,12.5762],[6.9461,12.583],[6.9596,12.583],[6.9708,12.5785],[6.9955,12.5807],[7.0068,12.583],[7.0292,12.583],[7.0472,12.5875],[7.0517,12.5897],[7.0494,12.5964],[7.0494,12.6009],[7.0472,12.6099],[7.0449,12.6189],[7.0472,12.6369],[7.0472,12.6391],[7.0472,12.6459],[7.0449,12.6526],[7.0449,12.6571],[7.0427,12.675],[7.0427,12.6885],[7.0427,12.693],[7.0404,12.702],[7.036,12.7245],[7.0337,12.7379],[7.0315,12.7514],[7.0315,12.7536],[7.0292,12.7739],[7.0292,12.7873],[7.027,12.7986],[7.0292,12.8031],[7.0292,12.8098],[7.0292,12.8165],[7.0225,12.8322],[7.027,12.8682],[7.0315,12.8839],[7.0315,12.8884],[7.0337,12.8929],[7.0382,12.9288],[7.0404,12.9378],[7.0404,12.9423],[7.0404,12.949],[7.0382,12.958],[7.0382,12.9625],[7.0337,12.985],[7.0315,12.9962],[7.0247,12.9939],[7.018,12.9939],[7.009,12.9917],[7.0,12.9917],[6.991,12.9917],[6.9821,12.9917],[6.9731,12.9917],[6.9641,12.9917],[6.9551,12.9917],[6.9461,12.9917],[6.9394,12.9895],[6.9349,12.9895],[6.9282,12.9895],[6.9124,13.0052],[6.9102,13.0119],[6.9057,13.0186],[6.9012,13.0231],[6.8967,13.0276],[6.8922,13.0321],[6.89,13.0366],[6.8832,13.0433],[6.8765,13.0501],[6.872,13.0568],[6.8653,13.0636],[6.8585,13.0703],[6.854,13.077],[6.8473,13.0838],[6.8428,13.0905],[6.8361,13.0972],[6.8293,13.104],[6.8249,13.1107],[6.8181,13.1175],[6.8159,13.1242],[6.8114,13.1309],[6.8069,13.1354],[6.8024,13.1444],[6.7979,13.1511],[6.7912,13.1579],[6.7912,13.1601],[6.7844,13.1534],[6.7754,13.1467],[6.7687,13.1354],[6.7507,13.1264],[6.7418,13.1175],[6.726,13.113],[6.7103,13.1062],[6.6968,13.0995],[6.6834,13.0838],[6.6699,13.0815],[6.6654,13.0815],[6.6632,13.0793],[6.6609,13.077],[6.6587,13.0725],[6.6587,13.0658],[6.6654,13.0501],[6.6721,13.0389],[6.6811,13.0299],[6.6901,13.0119],[6.6924,13.0074],[6.6946,13.0052],[6.6968,12.9984],[6.6991,12.9872],[6.7013,12.9737],[6.7036,12.958],[6.7013,12.949],[6.6991,12.9445],[6.6856,12.9266],[6.6789,12.9176],[6.6654,12.9086],[6.6542,12.9041],[6.6362,12.8974],[6.6272,12.8951],[6.607,12.8951],[6.5958,12.8951],[6.5868,12.8996],[6.5756,12.9108],[6.5711,12.9221],[6.5554,12.9333],[6.5509,12.9378],[6.5351,12.9445],[6.5239,12.9445],[6.506,12.94],[6.4925,12.9423],[6.4857,12.9423],[6.4723,12.9423],[6.4565,12.949],[6.4476,12.9603],[6.4408,12.9715],[6.4363,12.9827],[6.4318,12.9872],[6.4229,12.9827],[6.4206,12.9737],[6.4206,12.9625],[6.4229,12.9558],[6.4251,12.9333],[6.4251,12.9266],[6.4251,12.9176],[6.4229,12.9108],[6.4139,12.9041],[6.3982,12.8884],[6.3959,12.8749],[6.4004,12.8659],[6.4116,12.8637],[6.4251,12.8682],[6.4408,12.8592],[6.4543,12.8502],[6.4588,12.839],[6.4633,12.8255],[6.4565,12.8143],[6.4476,12.8098],[6.4341,12.8053],[6.4206,12.8008],[6.4004,12.7941],[6.3847,12.7851],[6.3802,12.7739],[6.3802,12.7649],[6.3802,12.7536],[6.3847,12.7424]]]}}]}